{"type":"FeatureCollection","features":[{"type":"Feature","properties":{"potaRef":"JP-0202","nameEn":"Michinoku Lakewood National Government Park","boundarySource":"OpenStreetMap contributors / ODbL","source":"© OpenStreetMap contributors / ODbL","osmType":"area","osmId":"1560717684","osmName":"みちのく杜の湖畔公園 南地区","boundaryStatus":"OpenStreetMap公園・保護区域候補（POTA公式境界ではありません）"},"geometry":{"type":"MultiPolygon","coordinates":[[[[140.6651146,38.1835801],[140.6661711,38.1810286],[140.6668616,38.179419],[140.6671576,38.1786917],[140.6674736,38.177867],[140.668676,38.176756],[140.6692696,38.1767936],[140.6700669,38.1765062],[140.6703031,38.1765139],[140.6705239,38.1765814],[140.6707891,38.1767108],[140.6710185,38.1768758],[140.6712795,38.1769371],[140.6714199,38.1770194],[140.6715431,38.1770801],[140.6715912,38.1772068],[140.6717629,38.1775784],[140.6717033,38.1777809],[140.6716974,38.1778598],[140.6718656,38.1779336],[140.6722771,38.1782543],[140.6720278,38.1786339],[140.6720939,38.1788575],[140.6714387,38.1794264],[140.670995,38.1794544],[140.6707239,38.179415],[140.6706459,38.1794227],[140.6706739,38.1794769],[140.6710306,38.1797361],[140.6713944,38.1797081],[140.6717014,38.1795672],[140.6718656,38.1795219],[140.6721936,38.1792069],[140.6724027,38.1791316],[140.6726647,38.1791447],[140.6731471,38.1792726],[140.6738845,38.1796011],[140.6741039,38.1796884],[140.674224,38.1798149],[140.6741704,38.180186],[140.6741435,38.1803715],[140.6744421,38.1806876],[140.6745888,38.1808902],[140.6747474,38.1811486],[140.675034,38.1816155],[140.6751529,38.1818202],[140.6754256,38.1822902],[140.6755332,38.1824851],[140.6756885,38.1827666],[140.6760747,38.1830618],[140.6763,38.1834624],[140.676461,38.1839262],[140.6766487,38.1845081],[140.6767292,38.1848539],[140.6762893,38.1850352],[140.6751413,38.1857309],[140.674739,38.1864941],[140.6746263,38.1866501],[140.6737871,38.1866179],[140.6723172,38.1865336],[140.6714774,38.1865658],[140.670941,38.1863212],[140.6679369,38.184837],[140.6662225,38.1842555],[140.6654393,38.1839139],[140.6651898,38.1837516],[140.6651146,38.1835801]]]]}}]}
