{"type":"FeatureCollection","features":[{"type":"Feature","properties":{"potaRef":"JP-0204","nameEn":"Musashi-Kyuryo National Government Park","boundarySource":"OpenStreetMap contributors / ODbL","source":"© OpenStreetMap contributors / ODbL","osmType":"area","osmId":"16706365","osmName":"国営武蔵丘陵森林公園","boundaryStatus":"OpenStreetMap公園・保護区域候補（POTA公式境界ではありません）"},"geometry":{"type":"MultiPolygon","coordinates":[[[[139.3596411,36.0770857],[139.3599384,36.07645],[139.3600622,36.0760175],[139.3603201,36.0757405],[139.3603606,36.0753834],[139.3602739,36.0751324],[139.3603647,36.0748763],[139.3608046,36.07412],[139.3612028,36.0740618],[139.3611714,36.0735404],[139.361359,36.0735407],[139.3615441,36.0735743],[139.3618099,36.0734926],[139.3619714,36.0733073],[139.362017,36.0728992],[139.3622496,36.0725689],[139.3629644,36.0727654],[139.3633623,36.0724455],[139.363393,36.0720066],[139.3629195,36.0717033],[139.3626527,36.0713523],[139.3627954,36.0709381],[139.3631923,36.0708536],[139.3632298,36.0704655],[139.3630555,36.0699961],[139.3630525,36.0699407],[139.3630086,36.0698974],[139.3628088,36.0697766],[139.3625151,36.0696552],[139.3624015,36.0695847],[139.3623514,36.0695039],[139.3623635,36.0693836],[139.3624118,36.0691733],[139.3624882,36.0689955],[139.3628177,36.0687504],[139.362903,36.068687],[139.3627658,36.0681717],[139.3627743,36.0681249],[139.3629726,36.067918],[139.3630113,36.0679418],[139.3631655,36.0677977],[139.3632621,36.0677543],[139.363368,36.0677456],[139.3634444,36.0677272],[139.3636653,36.0675668],[139.3638368,36.0674753],[139.3642751,36.0673139],[139.3651966,36.0671547],[139.3655044,36.0671093],[139.3657096,36.0679657],[139.3657444,36.0680947],[139.3657136,36.0681576],[139.3652523,36.0680849],[139.3651892,36.0680871],[139.3650232,36.0681234],[139.3648596,36.0682312],[139.3647644,36.0683153],[139.3646005,36.0685001],[139.3646751,36.0687299],[139.3653435,36.0686551],[139.3653823,36.0687928],[139.365672,36.0688264],[139.3658482,36.0687506],[139.3661723,36.0688123],[139.3665051,36.068814],[139.3668623,36.0691359],[139.3682577,36.0702031],[139.3684602,36.0706042],[139.3688902,36.0709964],[139.3692233,36.0712015],[139.3694023,36.0715615],[139.3695304,36.0720969],[139.3695921,36.0721099],[139.3696117,36.072365],[139.369293,36.0724112],[139.3692474,36.0724903],[139.3692098,36.07253],[139.3692133,36.0729083],[139.3701817,36.0741471],[139.3691945,36.074672],[139.3691755,36.0748559],[139.3695438,36.0753634],[139.3701553,36.0752371],[139.3709707,36.0758398],[139.3714746,36.0763353],[139.3710619,36.0767221],[139.3706521,36.0768958],[139.3704955,36.0775871],[139.3711836,36.0780912],[139.3713043,36.0779357],[139.3720919,36.078426],[139.371779,36.079456],[139.3720114,36.0795055],[139.3724489,36.0795983],[139.3727898,36.0797764],[139.3728773,36.0802526],[139.3727307,36.0806463],[139.3725251,36.0807758],[139.3723542,36.0810505],[139.3723448,36.0811695],[139.3724081,36.0812333],[139.3724039,36.0812893],[139.3723054,36.081373],[139.3721831,36.0814359],[139.3721107,36.0814587],[139.3720718,36.0814565],[139.3720154,36.0814468],[139.3719484,36.0813882],[139.3718679,36.0813882],[139.3718143,36.0814316],[139.3717914,36.0816852],[139.3716548,36.0815156],[139.3712993,36.0813405],[139.3711562,36.0813011],[139.3706311,36.0812592],[139.3702868,36.0813432],[139.3704155,36.0817535],[139.3707266,36.0823407],[139.370774,36.0829972],[139.3711846,36.0834077],[139.372096,36.0841625],[139.3717543,36.0845437],[139.372094,36.0847266],[139.3721724,36.084876],[139.372222,36.084964],[139.3720302,36.0848857],[139.3712859,36.0844652],[139.3710968,36.0843861],[139.3708062,36.0842936],[139.3704431,36.0842311],[139.3702646,36.0842176],[139.3700266,36.0842051],[139.3691052,36.0841563],[139.3688303,36.0841292],[139.368597,36.0840848],[139.3683019,36.0839992],[139.3678379,36.0838041],[139.366643,36.0833099],[139.3660864,36.0830877],[139.3656425,36.082898],[139.3654521,36.0827994],[139.3651986,36.0826422],[139.3640317,36.0817998],[139.3642552,36.0816411],[139.3641165,36.0813329],[139.363769,36.081347],[139.3635115,36.0812993],[139.3628897,36.0810866],[139.3629348,36.0804442],[139.3627015,36.0803401],[139.3622267,36.0801537],[139.3619223,36.0798816],[139.3616795,36.0798795],[139.361601,36.0801375],[139.3614356,36.080383],[139.3612987,36.0803119],[139.3609983,36.080351],[139.3604809,36.0799736],[139.3599946,36.0795292],[139.3600386,36.0789043],[139.3603036,36.0788726],[139.3605854,36.0791723],[139.3617068,36.0791129],[139.36208,36.0788987],[139.3620957,36.0782612],[139.3619366,36.0782259],[139.3614245,36.078163],[139.3609432,36.0781771],[139.3602756,36.0780688],[139.3598602,36.0775849],[139.3596411,36.0770857]]],[[[139.3611259,36.0905041],[139.3616047,36.0903782],[139.36168,36.0903579],[139.3623398,36.0902621],[139.3624732,36.0902146],[139.3625169,36.0901805],[139.3625133,36.0900678],[139.3624867,36.0896475],[139.362324,36.0893766],[139.3624114,36.0889208],[139.362782,36.0889302],[139.3631275,36.0889904],[139.3632792,36.088845],[139.3639364,36.0890434],[139.3648645,36.0892637],[139.3653186,36.0893347],[139.365467,36.0886779],[139.3660602,36.0881274],[139.3666013,36.0880917],[139.367052,36.0873983],[139.3670919,36.087082],[139.3665777,36.0865599],[139.3664304,36.086366],[139.3667686,36.086133],[139.3670869,36.0856292],[139.3677843,36.0850358],[139.3676098,36.084684],[139.3669254,36.0849648],[139.3666165,36.0846532],[139.3663805,36.0842184],[139.3651932,36.0837196],[139.3646581,36.0836166],[139.3645442,36.0835548],[139.3640158,36.0833619],[139.3637754,36.0833225],[139.3638937,36.0830844],[139.3640815,36.0829901],[139.3641678,36.0828344],[139.3641941,36.0827409],[139.3643779,36.0825003],[139.3643041,36.0824612],[139.3641767,36.082342],[139.3639889,36.0820765],[139.3638065,36.0819323],[139.3638848,36.081877],[139.3641901,36.0821025],[139.3643175,36.0822195],[139.3646152,36.0824363],[139.3648526,36.082613],[139.3650149,36.0826932],[139.365263,36.0828579],[139.3654481,36.0829685],[139.3655916,36.0830346],[139.3657136,36.0830877],[139.3670721,36.0836491],[139.368208,36.0841162],[139.3684722,36.0841997],[139.3686989,36.0842506],[139.3688236,36.0842723],[139.3691334,36.0842951],[139.3702224,36.0843601],[139.3704624,36.0843883],[139.3705517,36.0844053],[139.3707213,36.084436],[139.371015,36.0845238],[139.3712296,36.0846191],[139.3717494,36.0849103],[139.3718622,36.0849843],[139.371939,36.0850223],[139.372116,36.0851101],[139.3723856,36.0852229],[139.3725499,36.0854906],[139.3727008,36.0856658],[139.3728805,36.085898],[139.3731353,36.0859197],[139.3734679,36.0865483],[139.3732908,36.0866372],[139.3734232,36.0868553],[139.3735911,36.0872225],[139.3743903,36.0874795],[139.3748921,36.0885206],[139.3755063,36.0893097],[139.3753715,36.0898572],[139.3750665,36.08996],[139.3751281,36.0901247],[139.3749651,36.090375],[139.3747331,36.0905112],[139.3748142,36.0906879],[139.3748433,36.0909142],[139.3747686,36.0911575],[139.3755112,36.0914582],[139.3765041,36.0921166],[139.3778387,36.0925346],[139.3784584,36.0929851],[139.3794906,36.0931094],[139.3797036,36.093165],[139.3798872,36.0932312],[139.3799921,36.0932476],[139.3803039,36.0933386],[139.3804502,36.0932028],[139.380742,36.0931223],[139.3807518,36.0925007],[139.3810317,36.0923181],[139.38178,36.0926671],[139.3823835,36.0932198],[139.382861,36.0931374],[139.3833384,36.0928708],[139.3836863,36.0931759],[139.3843399,36.0946846],[139.3844262,36.0950139],[139.3846216,36.0955801],[139.3851449,36.096137],[139.3861002,36.0970187],[139.3859789,36.097478],[139.3854919,36.0979752],[139.3857619,36.098517],[139.3857827,36.0986632],[139.3855195,36.0988897],[139.3858467,36.0998867],[139.3857734,36.0999855],[139.3850754,36.100232],[139.3847876,36.0996905],[139.3842574,36.0995023],[139.3838145,36.0991669],[139.3836509,36.0989891],[139.3832955,36.0986684],[139.383097,36.0988613],[139.3826134,36.0984788],[139.382054,36.0990294],[139.3823283,36.0993496],[139.3820903,36.0996968],[139.3818356,36.1000474],[139.3815924,36.1000357],[139.3810858,36.1002773],[139.3807493,36.1003718],[139.3799773,36.1003157],[139.3795323,36.1003751],[139.378797,36.100501],[139.3780235,36.1002882],[139.3776382,36.1004266],[139.3770775,36.1003547],[139.3767744,36.1007744],[139.3764089,36.1006406],[139.3757656,36.1003811],[139.3751265,36.0997067],[139.3749712,36.099545],[139.3743711,36.0990681],[139.3743689,36.0984494],[139.3747741,36.0973917],[139.3756301,36.096474],[139.3762788,36.0961825],[139.3761739,36.0960197],[139.3759361,36.0956631],[139.3754902,36.0957815],[139.3751389,36.0957534],[139.3748546,36.0958618],[139.3747097,36.0960937],[139.3744868,36.0962043],[139.3744281,36.096668],[139.3742269,36.0969411],[139.3736717,36.0969455],[139.3734089,36.0967287],[139.3728587,36.0960103],[139.3727446,36.0957467],[139.3730038,36.0954673],[139.3734142,36.095606],[139.3737199,36.0952766],[139.3730575,36.0946719],[139.373132,36.0943854],[139.3731567,36.0942905],[139.3731071,36.0941398],[139.371365,36.0942709],[139.3706757,36.0936121],[139.370217,36.093508],[139.370099,36.0933044],[139.3704236,36.0928383],[139.3707642,36.0925847],[139.3706595,36.0924157],[139.3703055,36.0925587],[139.3696994,36.0931201],[139.3695009,36.0930897],[139.3691978,36.0933043],[139.368833,36.0932209],[139.3685889,36.0932783],[139.3683583,36.0929944],[139.3676528,36.0933],[139.3676904,36.0941626],[139.3669823,36.0942168],[139.3668616,36.0943815],[139.3661749,36.0945636],[139.3658531,36.094505],[139.3651686,36.0948076],[139.3643612,36.0941992],[139.3630212,36.0947484],[139.3625052,36.0936842],[139.3624802,36.0935809],[139.362224,36.0930527],[139.3618231,36.0922249],[139.361726,36.0920626],[139.3616403,36.0918416],[139.3615901,36.0917199],[139.3615602,36.0917178],[139.3615307,36.091643],[139.361477,36.0915129],[139.3614849,36.0914327],[139.361382,36.0911639],[139.3612829,36.0910832],[139.3611483,36.0906093],[139.3611259,36.0905041]]]]}}]}
