{"type":"FeatureCollection","features":[{"type":"Feature","properties":{"potaRef":"JP-0206","nameEn":"The Tokyo Rinkai Disaster Prevention National Government Park","source":"© OpenStreetMap contributors / ODbL","osmType":"way","osmId":454867861,"osmName":"東京臨海広域防災公園","boundaryStatus":"OpenStreetMap公園・保護区域候補（POTA公式境界ではありません）","boundarySource":"OpenStreetMap contributors / ODbL"},"geometry":{"type":"Polygon","coordinates":[[[139.7953522,35.6325939],[139.7954493,35.6326444],[139.795674,35.6327677],[139.7966324,35.633288],[139.7970364,35.6335153],[139.7974449,35.6337282],[139.7984853,35.6343008],[139.7984949,35.6343283],[139.7985029,35.6343514],[139.7985128,35.634376],[139.7985165,35.6344158],[139.7981074,35.6355908],[139.7980868,35.6356495],[139.7980717,35.6356884],[139.7979479,35.6360535],[139.797792,35.636411],[139.7976398,35.6367413],[139.7974567,35.6370715],[139.797218,35.6374617],[139.7970537,35.6375288],[139.7960406,35.636987],[139.7956724,35.6368053],[139.7945939,35.6362222],[139.7931826,35.6354442],[139.7932537,35.6352982],[139.7934133,35.6350999],[139.7935098,35.6349799],[139.7933853,35.6349142],[139.7935528,35.6346727],[139.7935968,35.6346092],[139.7936582,35.6345391],[139.7938694,35.6342774],[139.7938975,35.6342448],[139.7939466,35.6341844],[139.7955886,35.6350688],[139.7962602,35.6342674],[139.7945749,35.6334018],[139.794761,35.6331848],[139.7947773,35.6331657],[139.7947965,35.6331421],[139.7952238,35.6326179],[139.7953522,35.6325939]]]}}]}
