{"type":"FeatureCollection","features":[{"type":"Feature","properties":{"potaRef":"JP-1068","nameEn":"Hokuo no Mori Prefectural Park","boundarySource":"OpenStreetMap contributors / ODbL","source":"© OpenStreetMap contributors / ODbL","osmType":"area","osmId":"25875255","osmName":"北欧の杜公園","boundaryStatus":"OpenStreetMap公園・保護区域候補（POTA公式境界ではありません）"},"geometry":{"type":"MultiPolygon","coordinates":[[[[140.3509498,40.1657425],[140.3510332,40.1657033],[140.3511766,40.165646],[140.3514496,40.1656315],[140.3524666,40.1656143],[140.3528821,40.1655928],[140.3532942,40.1655005],[140.3535876,40.165381],[140.3538669,40.1652583],[140.3545877,40.1648193],[140.355124,40.1643016],[140.3556844,40.1636247],[140.355964,40.1633558],[140.3561272,40.163261],[140.3562644,40.1631851],[140.3558466,40.1630346],[140.3555849,40.1628854],[140.3553559,40.1627124],[140.3551999,40.1625301],[140.3550639,40.1623241],[140.3550055,40.1620007],[140.3550717,40.1616896],[140.3551838,40.1614313],[140.355458,40.1611874],[140.3560336,40.1609682],[140.3566679,40.1608397],[140.3574139,40.1607145],[140.3580246,40.1605243],[140.358525,40.1603126],[140.3590565,40.1600058],[140.3595117,40.1596795],[140.3599437,40.1592915],[140.360227,40.159],[140.3604498,40.1588153],[140.3608275,40.1585324],[140.3612099,40.1583577],[140.361633,40.1582682],[140.3622182,40.1582476],[140.3628213,40.1583095],[140.3631994,40.1584746],[140.3637181,40.1588678],[140.3640979,40.1592147],[140.3643549,40.1594723],[140.3646716,40.1597555],[140.3648868,40.1598965],[140.3651188,40.1599539],[140.3653116,40.1599714],[140.3663507,40.1600138],[140.367446,40.1602242],[140.3678782,40.1604006],[140.3679789,40.1604034],[140.368087,40.1603992],[140.3681767,40.1603516],[140.3683983,40.1601346],[140.3685368,40.1600728],[140.368841,40.1600733],[140.3690877,40.1601042],[140.3691859,40.1601365],[140.3711027,40.1581201],[140.3714499,40.1577992],[140.3722859,40.1571716],[140.372685,40.1567667],[140.3728378,40.1565062],[140.3733247,40.1553949],[140.3804963,40.1572791],[140.3773389,40.1600289],[140.3764354,40.1596599],[140.3751148,40.1605142],[140.3734447,40.1626586],[140.3724407,40.1640129],[140.3686265,40.1691196],[140.3698974,40.1695491],[140.3687458,40.1713158],[140.3672854,40.1704703],[140.3664993,40.1713385],[140.3619703,40.1685449],[140.3568507,40.1729229],[140.3556468,40.1712695],[140.355331,40.170811],[140.3549554,40.1702921],[140.3543352,40.1696086],[140.3555689,40.1690594],[140.3558289,40.1693583],[140.3560551,40.1692809],[140.3562617,40.1695367],[140.3584799,40.1685451],[140.3582823,40.1682849],[140.3580628,40.1680591],[140.3578868,40.1679405],[140.3577005,40.1678543],[140.3574877,40.1677946],[140.3574141,40.1677517],[140.3573957,40.167578],[140.3572989,40.167497],[140.3578981,40.1671328],[140.3570755,40.1666593],[140.3566753,40.1664665],[140.3562421,40.1663345],[140.3555477,40.1664149],[140.354332,40.1664301],[140.3536792,40.1666287],[140.3536127,40.1667788],[140.3536665,40.1670355],[140.3532641,40.1671299],[140.3530233,40.1668757],[140.3528617,40.1667885],[140.352662,40.1667933],[140.3519744,40.1669798],[140.3509498,40.1657425]],[[140.3653346,40.1650249],[140.3656714,40.1651754],[140.365777,40.1652736],[140.3658512,40.1653804],[140.3659454,40.1654437],[140.3661195,40.1654742],[140.3662878,40.1654349],[140.3666731,40.1651383],[140.3671668,40.1649682],[140.3672781,40.1648854],[140.3672867,40.1648374],[140.3672639,40.1648047],[140.3664134,40.1643249],[140.3663364,40.1643227],[140.3662764,40.1643358],[140.3662193,40.1644295],[140.3661594,40.1644819],[140.3659425,40.1645299],[140.365737,40.1645713],[140.3656685,40.1646171],[140.3653346,40.1650249]],[[140.3662536,40.165616],[140.3662821,40.165653],[140.366362,40.1656552],[140.3665047,40.1656181],[140.3667131,40.1655614],[140.3669385,40.1655287],[140.3672639,40.1655571],[140.3677291,40.1656509],[140.368023,40.1657032],[140.3682856,40.1656399],[140.3685424,40.165629],[140.368571,40.1656094],[140.3684853,40.1655396],[140.3683712,40.1654328],[140.3683569,40.1653717],[140.3683569,40.1650446],[140.3683255,40.1649486],[140.3682313,40.1648025],[140.3682656,40.1646542],[140.3684283,40.164495],[140.3680573,40.1642725],[140.3673067,40.1650009],[140.3672039,40.165062],[140.3668472,40.1651711],[140.3667131,40.1652408],[140.3662536,40.165616]]]]}}]}
