{"type":"FeatureCollection","features":[{"type":"Feature","properties":{"potaRef":"JP-1362","nameEn":"Toyanogata Prefectural Park","source":"© OpenStreetMap contributors / ODbL","osmType":"way","osmId":166910506,"osmName":"鳥屋野潟公園","boundaryStatus":"OpenStreetMap公園・保護区域候補（POTA公式境界ではありません）","boundarySource":"OpenStreetMap contributors / ODbL"},"geometry":{"type":"Polygon","coordinates":[[[139.0401419,37.8769763],[139.0401436,37.8771227],[139.0401083,37.877298],[139.0401097,37.8774089],[139.0401116,37.877491],[139.0401105,37.8779169],[139.0401015,37.8783289],[139.0400844,37.8796556],[139.0400448,37.8796614],[139.0400253,37.879682],[139.0399908,37.8798798],[139.0399351,37.8800814],[139.0400021,37.8801051],[139.0402029,37.880077],[139.0406638,37.8801597],[139.0410292,37.8803356],[139.0411025,37.8804828],[139.0414231,37.8806208],[139.0414911,37.8805967],[139.0416755,37.8805143],[139.0418099,37.8805175],[139.0419899,37.8805684],[139.0421922,37.8805958],[139.0427198,37.8805958],[139.0437828,37.8807367],[139.0441025,37.8808381],[139.0444575,37.8810014],[139.0448197,37.8812267],[139.0449588,37.881294],[139.0451106,37.8813167],[139.0455295,37.8812997],[139.0458285,37.8813753],[139.0461472,37.8815308],[139.0463535,37.8815144],[139.0465275,37.8815067],[139.0466017,37.8816208],[139.0467225,37.8817053],[139.0467933,37.8817392],[139.0468714,37.8817561],[139.0469922,37.8817561],[139.0471628,37.8817108],[139.0474325,37.8818686],[139.0475461,37.8819136],[139.0479153,37.8819981],[139.0489872,37.8822967],[139.0492431,37.8823586],[139.0494308,37.8823847],[139.0496172,37.8823911],[139.0497542,37.882415],[139.0498822,37.8825106],[139.050095,37.8826467],[139.050507,37.8829106],[139.0506775,37.882995],[139.0508053,37.88304],[139.0509756,37.8830794],[139.0512311,37.8831075],[139.0515931,37.8831189],[139.0526158,37.8831019],[139.0527436,37.8831189],[139.05285,37.8831639],[139.0529778,37.8832483],[139.053205,37.8834961],[139.0534244,37.8837684],[139.0535925,37.8835644],[139.0538827,37.8832305],[139.0539808,37.8828494],[139.0538536,37.8827684],[139.0532436,37.8829702],[139.0525778,37.8828881],[139.0509055,37.8821135],[139.0508203,37.8818421],[139.0502649,37.8817076],[139.0500197,37.8816069],[139.0469976,37.8803659],[139.0466969,37.8802491],[139.0469572,37.8795452],[139.0468769,37.8795325],[139.0431957,37.8788956],[139.0430039,37.8788218],[139.0428261,37.8786714],[139.0427134,37.8785136],[139.0426554,37.8782901],[139.0424275,37.8773509],[139.0421141,37.877256],[139.0415045,37.8771417],[139.040237,37.8769115],[139.0401419,37.8769763]]]}}]}
