{"type":"FeatureCollection","features":[{"type":"Feature","properties":{"potaRef":"JP-1261","nameEn":"Oto Prefectural Park","boundarySource":"OpenStreetMap contributors / ODbL","source":"© OpenStreetMap contributors / ODbL","osmType":"area","osmId":"2237102788","osmName":"都立大戸緑地(牛田地区)","boundaryStatus":"OpenStreetMap公園・保護区域候補（POTA公式境界ではありません）"},"geometry":{"type":"MultiPolygon","coordinates":[[[[139.2827139,35.615506],[139.2827962,35.6153211],[139.2829871,35.6152054],[139.2829396,35.6151701],[139.2829436,35.6150779],[139.2829808,35.6150004],[139.2830019,35.6147656],[139.2829935,35.6146414],[139.2830079,35.6145414],[139.2830084,35.6144001],[139.2830846,35.6143035],[139.2833263,35.614254],[139.2838405,35.614195],[139.2840976,35.6141033],[139.2841789,35.61395],[139.2841739,35.6137716],[139.2840685,35.6134093],[139.2843183,35.6133568],[139.2844648,35.6133452],[139.2848173,35.6133635],[139.2857923,35.6136232],[139.2856962,35.6137146],[139.2856624,35.61376],[139.2856467,35.6138123],[139.2856534,35.6139237],[139.2855678,35.6140818],[139.2855222,35.6142074],[139.2857071,35.6142657],[139.2857097,35.6142871],[139.2859997,35.6143844],[139.2860126,35.614409],[139.2859651,35.6144862],[139.2858789,35.6147124],[139.2857602,35.6149071],[139.2856588,35.6149878],[139.2856243,35.6150526],[139.2856178,35.6151438],[139.2855617,35.6152701],[139.2855466,35.6153087],[139.2854732,35.6153952],[139.2853992,35.615512],[139.2854049,35.615593],[139.2854423,35.6157509],[139.2852644,35.6157686],[139.2851858,35.6157464],[139.285151,35.6157955],[139.2851603,35.6158535],[139.2852357,35.6161863],[139.2852463,35.6164931],[139.2852099,35.6165686],[139.2850757,35.6166656],[139.2849974,35.6167006],[139.2847912,35.616714],[139.2846365,35.6166725],[139.2845279,35.6166553],[139.2836742,35.6165778],[139.2836366,35.6163722],[139.2835578,35.6160022],[139.2835485,35.6158473],[139.2836115,35.615707],[139.2837628,35.6151608],[139.2835597,35.6151346],[139.2834761,35.6151904],[139.2834154,35.6152541],[139.2833009,35.615333],[139.2831915,35.6153339],[139.2830291,35.615363],[139.2828709,35.6154381],[139.2827317,35.6155096],[139.2827139,35.615506]]]]}}]}
