{"type":"FeatureCollection","features":[{"type":"Feature","properties":{"potaRef":"JP-1230","nameEn":"Kiba Prefectural Park","boundarySource":"OpenStreetMap contributors / ODbL","source":"© OpenStreetMap contributors / ODbL","osmType":"area","osmId":"28547217","osmName":"木場公園","boundaryStatus":"OpenStreetMap公園・保護区域候補（POTA公式境界ではありません）"},"geometry":{"type":"MultiPolygon","coordinates":[[[[139.8063967,35.6714772],[139.8064058,35.6714597],[139.806427,35.6714452],[139.8064468,35.6714375],[139.8065148,35.6714357],[139.8073856,35.6714131],[139.8089271,35.6713596],[139.8089797,35.6713679],[139.809023,35.6713872],[139.8090536,35.6714139],[139.8090687,35.6714324],[139.8090759,35.6714516],[139.8094831,35.6725426],[139.8095017,35.6725925],[139.8095825,35.6728214],[139.8096123,35.6729059],[139.8096678,35.6730628],[139.8096983,35.6731255],[139.8097495,35.6732176],[139.809814,35.6733015],[139.8098695,35.6733576],[139.8099216,35.6734012],[139.8099785,35.6734394],[139.8100175,35.6734635],[139.8100447,35.6734782],[139.8100527,35.6734938],[139.8102341,35.6740933],[139.8106276,35.675394],[139.8105836,35.6753968],[139.8105958,35.6754543],[139.8105739,35.6754536],[139.808947,35.675391],[139.8087127,35.675382],[139.8072123,35.6753243],[139.8071311,35.6753212],[139.8071152,35.6753158],[139.8070964,35.6752993],[139.8070842,35.6752781],[139.8070824,35.675268],[139.8069394,35.6745138],[139.8069825,35.6745096],[139.8069811,35.6745021],[139.8069177,35.6741524],[139.8069148,35.6741368],[139.8068187,35.6736177],[139.8066381,35.6725405],[139.8064547,35.67162],[139.8063967,35.6714772]]],[[[139.8069157,35.6801262],[139.8072129,35.6763484],[139.8072221,35.6763363],[139.8072378,35.6763254],[139.8072594,35.6763221],[139.8076585,35.6763376],[139.8097592,35.6764186],[139.8097713,35.676434],[139.809702,35.6769352],[139.8095483,35.678046],[139.8095276,35.6781856],[139.8093672,35.6793289],[139.809329,35.6794043],[139.8093116,35.6795377],[139.8092214,35.6802815],[139.8092011,35.680291],[139.8086902,35.6802656],[139.8075355,35.6802081],[139.8069729,35.6801801],[139.8069438,35.6801719],[139.806924,35.680152],[139.8069157,35.6801262]]],[[[139.8071257,35.6756039],[139.8071306,35.6755763],[139.8071449,35.6755574],[139.8071675,35.6755448],[139.8072066,35.6755392],[139.8084342,35.6756072],[139.8098976,35.6756381],[139.8100659,35.675643],[139.81063,35.6756636],[139.8106504,35.6756767],[139.8106514,35.6756883],[139.8107192,35.6759653],[139.8106032,35.6759962],[139.8101106,35.6759771],[139.8101146,35.6759204],[139.8098086,35.6759064],[139.8098068,35.6759762],[139.8097878,35.6761661],[139.8097839,35.6762271],[139.8097836,35.6762672],[139.8097747,35.6762685],[139.8072316,35.6761791],[139.8072055,35.6761566],[139.8071959,35.6761299],[139.8071912,35.6760941],[139.8071569,35.6758376],[139.8071257,35.6756039]]]]}}]}
