{"type":"FeatureCollection","features":[{"type":"Feature","properties":{"potaRef":"JP-1223","nameEn":"Ukima Prefectural Park","boundarySource":"OpenStreetMap contributors / ODbL","source":"© OpenStreetMap contributors / ODbL","osmType":"area","osmId":"302382850","osmName":"浮間公園","boundaryStatus":"OpenStreetMap公園・保護区域候補（POTA公式境界ではありません）"},"geometry":{"type":"MultiPolygon","coordinates":[[[[139.6910549,35.7928297],[139.693033,35.7913125],[139.6932289,35.7912119],[139.6933419,35.7911645],[139.6934377,35.7911371],[139.6934752,35.7911594],[139.6935604,35.7919565],[139.6935976,35.7921533],[139.6945716,35.7940236],[139.6943592,35.7941254],[139.694386,35.7941724],[139.6946381,35.7944648],[139.6947186,35.7946336],[139.695019,35.7946771],[139.6950565,35.7950992],[139.6953087,35.7950862],[139.6953838,35.7951384],[139.695416,35.7952515],[139.6953891,35.795382],[139.6954267,35.7955343],[139.6950619,35.7956701],[139.694225,35.7959616],[139.6924226,35.7964263],[139.6921705,35.7950479],[139.6921812,35.7949382],[139.6920686,35.7940558],[139.6919666,35.7939557],[139.6910549,35.7928297]]]]}}]}
