{"type":"FeatureCollection","features":[{"type":"Feature","properties":{"potaRef":"JP-1216","nameEn":"Hama-rikyu Gardens Prefectural Park","source":"© OpenStreetMap contributors / ODbL","osmType":"way","osmId":7836744,"osmName":"浜離宮恩賜庭園","boundaryStatus":"OpenStreetMap公園・保護区域候補（POTA公式境界ではありません）","boundarySource":"OpenStreetMap contributors / ODbL"},"geometry":{"type":"Polygon","coordinates":[[[139.7597,35.6590754],[139.7598705,35.6592873],[139.7630612,35.6632516],[139.7644269,35.6622697],[139.7671256,35.6602288],[139.7669984,35.6601232],[139.7671787,35.6599913],[139.7673104,35.6600891],[139.7677004,35.6597943],[139.7670173,35.6592801],[139.7668676,35.6591685],[139.7662824,35.6588593],[139.7662287,35.6588958],[139.7661774,35.6588655],[139.7662382,35.6588371],[139.7630365,35.6571547],[139.7612684,35.6581318],[139.7597,35.6590754]]]}}]}
