{"type":"FeatureCollection","features":[{"type":"Feature","properties":{"potaRef":"JP-1260","nameEn":"Inokashira Prefectural Park","boundarySource":"OpenStreetMap contributors / ODbL","source":"© OpenStreetMap contributors / ODbL","osmType":"area","osmId":"10823003","osmName":"井の頭恩賜公園","boundaryStatus":"OpenStreetMap公園・保護区域候補（POTA公式境界ではありません）"},"geometry":{"type":"MultiPolygon","coordinates":[[[[139.5704836,35.6992702],[139.5705128,35.6992392],[139.5709542,35.6989565],[139.5716651,35.6985298],[139.5720574,35.6980516],[139.5724123,35.6975128],[139.5725272,35.6975693],[139.5726165,35.6976098],[139.5727,35.698737],[139.572912,35.6990123],[139.5732107,35.6991068],[139.57323,35.699112],[139.5734298,35.6991341],[139.574173,35.6994802],[139.5743495,35.6994224],[139.574661,35.6992224],[139.5748405,35.6992188],[139.5750319,35.6992164],[139.5753211,35.6990212],[139.5761399,35.6990297],[139.5765286,35.6989273],[139.5767674,35.6990345],[139.5770893,35.6990152],[139.5773014,35.6988935],[139.5775354,35.6988629],[139.5782211,35.6987731],[139.5790651,35.6984261],[139.5793336,35.6982515],[139.5796377,35.6981226],[139.5798528,35.6980358],[139.5801079,35.6980129],[139.58121,35.6979587],[139.5812438,35.6980407],[139.581831,35.6978397],[139.5819509,35.6978055],[139.5823904,35.6975565],[139.5825632,35.697566],[139.5826851,35.6976432],[139.5827374,35.6975894],[139.5830335,35.697574],[139.5830851,35.69753],[139.5834198,35.697229],[139.5837757,35.697069],[139.5839816,35.6969504],[139.5841028,35.696856],[139.5841196,35.6968676],[139.5842133,35.6967788],[139.5843117,35.6966876],[139.5844106,35.6965334],[139.5845169,35.6963706],[139.5845299,35.6963532],[139.5846241,35.6962407],[139.5846909,35.6961357],[139.5847163,35.696034],[139.5847797,35.6959366],[139.5849046,35.6957747],[139.5850279,35.6956398],[139.5850573,35.6956343],[139.5851005,35.6956595],[139.5851955,35.6957418],[139.5849095,35.6961759],[139.5848902,35.6965276],[139.5851583,35.6966266],[139.5849414,35.6968627],[139.5848001,35.6972434],[139.5845612,35.697412],[139.5830749,35.6980179],[139.5827848,35.6979766],[139.5824937,35.6980731],[139.5810038,35.6986675],[139.5806373,35.6988026],[139.5802619,35.6988139],[139.5796283,35.6992622],[139.5791864,35.6996303],[139.5789531,35.699881],[139.5787623,35.7001747],[139.5785074,35.7002884],[139.5784093,35.7003546],[139.5775231,35.7009822],[139.5770978,35.7012854],[139.5769081,35.7014715],[139.5768075,35.7016456],[139.5767776,35.7019416],[139.5768557,35.7021913],[139.5768111,35.7021814],[139.5767134,35.7019761],[139.5763692,35.7014734],[139.5763081,35.7015094],[139.5761744,35.7015882],[139.5753559,35.7013541],[139.5749764,35.7011353],[139.5748634,35.7008225],[139.574546,35.7009296],[139.5743151,35.7010202],[139.5724448,35.7002],[139.572407,35.7001922],[139.5708633,35.6995661],[139.5705399,35.6993005],[139.5704836,35.6992702]]]]}}]}
