{"type":"FeatureCollection","features":[{"type":"Feature","properties":{"potaRef":"JP-1366","nameEn":"Niigata Prefectural Botanical Garden Prefectural Park","source":"© OpenStreetMap contributors / ODbL","osmType":"way","osmId":339681466,"osmName":"新潟県立植物園","boundaryStatus":"OpenStreetMap公園・保護区域候補（POTA公式境界ではありません）","boundarySource":"OpenStreetMap contributors / ODbL"},"geometry":{"type":"Polygon","coordinates":[[[139.1113808,37.762458],[139.1113209,37.762458],[139.1107423,37.7615613],[139.1106385,37.761401],[139.1104818,37.7610984],[139.1100299,37.7600596],[139.1099446,37.7597826],[139.1099031,37.7595894],[139.1099078,37.7592449],[139.11,37.7588968],[139.1101752,37.7585633],[139.1104057,37.7581751],[139.1107607,37.7577705],[139.1111687,37.7573786],[139.11148,37.7570961],[139.111775,37.7569467],[139.111994,37.7568519],[139.1121194,37.7568307],[139.1122485,37.7569583],[139.1126404,37.7572863],[139.1132546,37.7580471],[139.1137248,37.7580435],[139.1141029,37.7581309],[139.1143242,37.7586048],[139.1145086,37.759137],[139.1151264,37.7593703],[139.1154609,37.7600239],[139.1155718,37.7606553],[139.1155294,37.7609543],[139.1150078,37.7611786],[139.1146491,37.7612404],[139.1141634,37.7613487],[139.1132701,37.7617018],[139.112517,37.762011],[139.1117835,37.7623074],[139.1113808,37.762458]]]}}]}
