{"type":"FeatureCollection","features":[{"type":"Feature","properties":{"potaRef":"JP-1254","nameEn":"Yokoamicho Prefectural Park","boundarySource":"OpenStreetMap contributors / ODbL","source":"© OpenStreetMap contributors / ODbL","osmType":"area","osmId":"314101554","osmName":"都立横網町公園","boundaryStatus":"OpenStreetMap公園・保護区域候補（POTA公式境界ではありません）"},"geometry":{"type":"MultiPolygon","coordinates":[[[[139.794996,35.6988455],[139.7950028,35.6988254],[139.7950091,35.6988067],[139.7971055,35.6986719],[139.7971284,35.6986917],[139.7970844,35.6991955],[139.7970086,35.700063],[139.7970023,35.7000732],[139.7969918,35.7000796],[139.7969664,35.7000546],[139.7969072,35.7000966],[139.7969293,35.7001172],[139.7962726,35.7001477],[139.7962579,35.7001426],[139.7962464,35.7001256],[139.7962076,35.6997911],[139.7953398,35.6992217],[139.794996,35.6988455]]]]}}]}
