{"type":"FeatureCollection","features":[{"type":"Feature","properties":{"potaRef":"JP-1965","nameEn":"Shiohama Prefectural Park","boundarySource":"OpenStreetMap contributors / ODbL","source":"© OpenStreetMap contributors / ODbL","osmType":"area","osmId":"803905298","osmName":"潮浜公園","boundaryStatus":"OpenStreetMap公園・保護区域候補（POTA公式境界ではありません）"},"geometry":{"type":"MultiPolygon","coordinates":[[[[139.9056399,35.3784364],[139.9061513,35.3774591],[139.9064656,35.3775847],[139.907051,35.3778158],[139.9089088,35.3785937],[139.9101443,35.3791472],[139.9120423,35.3799612],[139.9109485,35.3806821],[139.9056399,35.3784364]]]]}}]}
