{"type":"FeatureCollection","features":[{"type":"Feature","properties":{"potaRef":"JP-1411","nameEn":"Wakasa Sogo Prefectural Park","source":"© OpenStreetMap contributors / ODbL","osmType":"way","osmId":778886757,"osmName":"若狭総合公園","boundaryStatus":"OpenStreetMap公園・保護区域候補（POTA公式境界ではありません）","boundarySource":"OpenStreetMap contributors / ODbL"},"geometry":{"type":"Polygon","coordinates":[[[135.7569211,35.5114973],[135.7569985,35.5115755],[135.7571442,35.5122903],[135.7574055,35.5124681],[135.7574911,35.512747],[135.7576025,35.5129876],[135.7580566,35.5132875],[135.7581379,35.5136082],[135.7584035,35.513678],[135.7586734,35.5137826],[135.7586819,35.5142881],[135.7584678,35.5145078],[135.7582536,35.5144869],[135.7588276,35.5153446],[135.7582236,35.5155084],[135.7576025,35.5155259],[135.7576453,35.5159512],[135.7586905,35.5163975],[135.7588961,35.516788],[135.7590075,35.5168996],[135.7590161,35.5171018],[135.7589218,35.5174086],[135.7587762,35.5176527],[135.7589047,35.5176945],[135.7589903,35.5180013],[135.7589861,35.5181408],[135.7586134,35.518329],[135.7581508,35.5184197],[135.7574911,35.5184197],[135.7573284,35.5182384],[135.7567801,35.5178688],[135.7562146,35.5177921],[135.7557006,35.517562],[135.7550721,35.5175219],[135.7543642,35.5174307],[135.7541436,35.5173031],[135.754032,35.5172043],[135.7540554,35.5169403],[135.7540558,35.5167191],[135.754029,35.5165283],[135.7541318,35.5163765],[135.7541265,35.5163278],[135.7540686,35.5163193],[135.7539626,35.5163273],[135.753968,35.5163836],[135.7535704,35.516438],[135.753546,35.5162554],[135.7533192,35.5162197],[135.753303,35.5160558],[135.7541208,35.5160933],[135.7547569,35.51611],[135.7548934,35.5160265],[135.7551128,35.5159903],[135.7553397,35.5159812],[135.7554264,35.5158942],[135.7554427,35.5158774],[135.7554676,35.5157988],[135.7553557,35.5157426],[135.7552732,35.5156744],[135.7551531,35.5155352],[135.7550242,35.5154009],[135.7550639,35.515353],[135.7553181,35.5150461],[135.7553194,35.514926],[135.7553329,35.5148682],[135.7553114,35.5148284],[135.7552433,35.5147745],[135.7551592,35.5147984],[135.755068,35.5148011],[135.7549704,35.5147739],[135.7549429,35.5147511],[135.7548467,35.5146715],[135.7547863,35.5145841],[135.7547673,35.5144966],[135.7547749,35.5144492],[135.7547857,35.5143814],[135.7547341,35.5142389],[135.7546782,35.5142278],[135.754649,35.5141888],[135.7545905,35.514085],[135.7545735,35.5140548],[135.7545648,35.5140012],[135.7545603,35.5138225],[135.7545973,35.5137042],[135.7546154,35.5135757],[135.7546148,35.5135243],[135.7546148,35.5133148],[135.7546581,35.5132277],[135.7548172,35.5131955],[135.7548509,35.5132432],[135.7548758,35.5132731],[135.7549233,35.5133175],[135.7549292,35.5133227],[135.7549708,35.5133554],[135.7550375,35.5133958],[135.755131,35.5132578],[135.7552058,35.5132106],[135.7553653,35.5130959],[135.7554971,35.5129531],[135.7555642,35.5129939],[135.7555893,35.5129022],[135.7555979,35.5128899],[135.7556612,35.5127998],[135.7557138,35.5126818],[135.755765,35.5126036],[135.755806,35.512528],[135.7558561,35.5123745],[135.7559067,35.5122173],[135.7558385,35.5121315],[135.7558277,35.5120442],[135.7558693,35.5118804],[135.7559743,35.511814],[135.75612,35.5118454],[135.756161,35.5117757],[135.7561952,35.5116529],[135.7563475,35.5115784],[135.7564661,35.5115262],[135.7567672,35.5114918],[135.7569211,35.5114973]]]}}]}
