{"type":"FeatureCollection","features":[{"type":"Feature","properties":{"potaRef":"JP-1248","nameEn":"Higashi Shirahige Prefectural Park","boundarySource":"OpenStreetMap contributors / ODbL","source":"© OpenStreetMap contributors / ODbL","osmType":"area","osmId":"68032920","osmName":"東白鬚公園","boundaryStatus":"OpenStreetMap公園・保護区域候補（POTA公式境界ではありません）"},"geometry":{"type":"MultiPolygon","coordinates":[[[[139.8111567,35.7289599],[139.811991,35.7288474],[139.8118241,35.7279972],[139.8118815,35.7279897],[139.8121665,35.7279526],[139.8122303,35.7279443],[139.8124273,35.7289316],[139.8127035,35.7293919],[139.8127283,35.7294333],[139.8128881,35.7296996],[139.8128869,35.7302442],[139.8130001,35.730397],[139.8132096,35.7303937],[139.8132546,35.7304705],[139.8138206,35.7314384],[139.8138197,35.7318579],[139.8139369,35.7320144],[139.8142637,35.7320155],[139.8143843,35.7320158],[139.8144239,35.732063],[139.8150286,35.7327825],[139.8150286,35.7330308],[139.8150287,35.7334078],[139.8151412,35.7335624],[139.8155504,35.7335671],[139.8155724,35.733619],[139.8158048,35.734174],[139.8159323,35.7342536],[139.8161548,35.7343873],[139.8163231,35.734805],[139.8165475,35.735362],[139.8167584,35.7358855],[139.8167658,35.7359039],[139.8168064,35.7360047],[139.8168123,35.7360195],[139.8168181,35.7360336],[139.8169105,35.7362631],[139.8169284,35.7363077],[139.8170893,35.7363088],[139.8170896,35.7363375],[139.81709,35.7363732],[139.8170941,35.7367465],[139.8170944,35.7367813],[139.8170948,35.7368182],[139.8170963,35.7372095],[139.8174238,35.737235],[139.8176862,35.7372357],[139.8176512,35.7373232],[139.8176217,35.7373887],[139.8175574,35.7375263],[139.8175233,35.737599],[139.8175202,35.7376057],[139.8173835,35.7378978],[139.8173537,35.7379614],[139.8159133,35.7374977],[139.8159131,35.7374642],[139.815913,35.7374454],[139.8159127,35.7374089],[139.8159124,35.7373618],[139.8162813,35.7374136],[139.8162809,35.7373624],[139.816276,35.7367113],[139.8162735,35.7363867],[139.8162735,35.736375],[139.8162714,35.7361006],[139.8160312,35.7355112],[139.8160258,35.7355044],[139.8159412,35.7352954],[139.8158882,35.7351647],[139.8158542,35.7350808],[139.8158495,35.7350686],[139.8158003,35.7349476],[139.8156346,35.7345382],[139.8147489,35.7339444],[139.8147075,35.7339188],[139.8146442,35.7338796],[139.8145336,35.7338112],[139.8144688,35.7337711],[139.8143818,35.7337164],[139.8139271,35.7339636],[139.8137475,35.7338095],[139.813334,35.7334413],[139.8133132,35.7334164],[139.8132989,35.7333528],[139.8132944,35.7333296],[139.8133996,35.7331446],[139.8134073,35.733119],[139.8134073,35.7330835],[139.8132878,35.7329077],[139.8132686,35.7328814],[139.8132477,35.73285],[139.8130405,35.7325531],[139.8129846,35.7324738],[139.8128883,35.7322512],[139.8127848,35.7320097],[139.8126394,35.7316659],[139.8126345,35.7316542],[139.8120285,35.7315183],[139.8119928,35.7314916],[139.81186,35.7312383],[139.8117313,35.730971],[139.8117696,35.7309608],[139.8123819,35.730787],[139.8123206,35.7305826],[139.8123073,35.7305153],[139.8122409,35.7301479],[139.812068,35.7293001],[139.8112178,35.7294154],[139.8112084,35.729363],[139.8112015,35.7293324],[139.8111567,35.7289599]]]]}}]}
