{"type":"FeatureCollection","features":[{"type":"Feature","properties":{"potaRef":"JP-1402","nameEn":"Kuratsuki Central Prefectural Park","source":"© OpenStreetMap contributors / ODbL","osmType":"way","osmId":485658282,"osmName":"","boundaryStatus":"OpenStreetMap公園・保護区域候補（POTA公式境界ではありません）","boundarySource":"OpenStreetMap contributors / ODbL"},"geometry":{"type":"Polygon","coordinates":[[[136.624173,36.5929286],[136.6260506,36.5931828],[136.6262115,36.5931569],[136.6263885,36.5930234],[136.6263885,36.5929373],[136.6246505,36.59177],[136.6245324,36.5917657],[136.6243071,36.5920586],[136.6241784,36.5923127],[136.6241301,36.5928727],[136.624173,36.5929286]]]}}]}
