{"type":"FeatureCollection","features":[{"type":"Feature","properties":{"potaRef":"JP-1084","nameEn":"Yuso no Oka Prefectural Park","source":"© OpenStreetMap contributors / ODbL","osmType":"way","osmId":961191371,"osmName":"出会いの広場と感動の丘","boundaryStatus":"OpenStreetMap公園・保護区域候補（POTA公式境界ではありません）","boundarySource":"OpenStreetMap contributors / ODbL"},"geometry":{"type":"Polygon","coordinates":[[[140.3467321,38.2160266],[140.3473124,38.2162064],[140.34766,38.2162991],[140.3478588,38.2163482],[140.3479726,38.2163334],[140.347986,38.216234],[140.3480234,38.216332],[140.348068,38.2163342],[140.3481715,38.2163049],[140.3483284,38.2161954],[140.3486458,38.2159506],[140.3491639,38.2155395],[140.3493288,38.2156542],[140.3494515,38.2154791],[140.3496476,38.2152445],[140.3494062,38.2150775],[140.3490359,38.2148423],[140.348909,38.214952],[140.348667,38.21498],[140.348335,38.215082],[140.3481256,38.2152128],[140.3480705,38.2153879],[140.3480781,38.215611],[140.348086,38.215843],[140.3480728,38.2159697],[140.3477871,38.2157602],[140.3476995,38.2157227],[140.3475879,38.2156676],[140.3474701,38.2155751],[140.3473121,38.2155196],[140.3469374,38.2153658],[140.3466814,38.2154925],[140.3462,38.2155797],[140.3458901,38.2157735],[140.3457553,38.2160752],[140.3458769,38.2161286],[140.346008,38.2161814],[140.346147,38.2162098],[140.3462898,38.2161988],[140.3464132,38.2161512],[140.3467321,38.2160266]]]}}]}
