{"type":"FeatureCollection","features":[{"type":"Feature","properties":{"potaRef":"JP-1140","nameEn":"Nasunogahara Prefectural Park","source":"© OpenStreetMap contributors / ODbL","osmType":"way","osmId":452365473,"osmName":"那須野が原公園","boundaryStatus":"OpenStreetMap公園・保護区域候補（POTA公式境界ではありません）","boundarySource":"OpenStreetMap contributors / ODbL"},"geometry":{"type":"Polygon","coordinates":[[[139.9576517,36.9246895],[139.9499592,36.9285576],[139.9482533,36.930573],[139.9474272,36.9305473],[139.9462255,36.9279315],[139.9433613,36.929927],[139.9436929,36.9305765],[139.9452688,36.9323207],[139.946281,36.9329544],[139.9477462,36.935591],[139.9488363,36.9369206],[139.9515371,36.9354209],[139.9514437,36.9345555],[139.9517717,36.9340033],[139.9521638,36.9335232],[139.9524938,36.9332316],[139.952428,36.9331437],[139.9528958,36.9327099],[139.9522536,36.9321764],[139.9517733,36.9324957],[139.9512337,36.9314009],[139.9511915,36.9308142],[139.9515657,36.931123],[139.9517387,36.9310286],[139.9522951,36.9306679],[139.9521826,36.9304122],[139.9527901,36.929963],[139.953057,36.9301496],[139.9531308,36.9301378],[139.9538335,36.9296972],[139.9541272,36.9294292],[139.9542157,36.9293141],[139.9542117,36.9290732],[139.953981,36.9288192],[139.9538442,36.9287345],[139.9532796,36.9287591],[139.9530396,36.9286208],[139.9524522,36.928713],[139.9555743,36.9271221],[139.9561697,36.9265067],[139.9569207,36.926318],[139.9583931,36.9254117],[139.9576517,36.9246895]]]}}]}
