{"type":"FeatureCollection","features":[{"type":"Feature","properties":{"potaRef":"JP-1973","nameEn":"Kencho Higashi Park SHIBA Prefectural Park","boundarySource":"OpenStreetMap contributors / ODbL","source":"© OpenStreetMap contributors / ODbL","osmType":"area","osmId":"1185515122","osmName":"東公園","boundaryStatus":"OpenStreetMap公園・保護区域候補（POTA公式境界ではありません）"},"geometry":{"type":"MultiPolygon","coordinates":[[[[140.4489216,36.3411328],[140.448994,36.3410885],[140.4494288,36.340995],[140.4494455,36.3409907],[140.449456,36.3409799],[140.4494683,36.3409615],[140.4495508,36.3409453],[140.4495334,36.340881],[140.4494529,36.3406142],[140.4495501,36.3405942],[140.4495327,36.3405375],[140.4495935,36.340463],[140.4496709,36.3404468],[140.4499391,36.3413002],[140.449011,36.3415119],[140.4489687,36.341324],[140.4489645,36.3413055],[140.4489216,36.3411328]]]]}}]}
