{"type":"FeatureCollection","features":[{"type":"Feature","properties":{"potaRef":"JP-1623","nameEn":"Sera Kenmin Prefectural Park","source":"© OpenStreetMap contributors / ODbL","boundarySource":"OpenStreetMap contributors / ODbL","osmType":"way","osmId":481523207,"osmName":"せら夢公園","boundaryStatus":"OpenStreetMap公園・保護区域候補（POTA公式境界ではありません）"},"geometry":{"type":"Polygon","coordinates":[[[132.9851527,34.6242064],[132.9851527,34.6240938],[132.9851018,34.6240276],[132.9850615,34.6239769],[132.985032,34.6238996],[132.9850025,34.6238378],[132.9849462,34.6237804],[132.9848872,34.6237517],[132.9848121,34.6237363],[132.9847477,34.6237296],[132.9846914,34.6236767],[132.9846297,34.6236105],[132.9845895,34.6235575],[132.9845224,34.6235133],[132.9844312,34.6235045],[132.9843025,34.6235376],[132.9841576,34.6235862],[132.984053,34.6236215],[132.9839967,34.6236193],[132.9839511,34.623584],[132.9839645,34.6234802],[132.9839967,34.6233456],[132.983994,34.623275],[132.9839913,34.6231955],[132.9839779,34.6231006],[132.9839538,34.6230498],[132.9838921,34.622977],[132.9838894,34.6229174],[132.9839243,34.622849],[132.983994,34.622721],[132.9840182,34.6226636],[132.9840021,34.6225841],[132.9839618,34.6225024],[132.9839457,34.6224164],[132.9839672,34.6223369],[132.9839833,34.6222619],[132.9839887,34.6221868],[132.9839404,34.6221228],[132.9838331,34.6221118],[132.983707,34.6221272],[132.983648,34.6222243],[132.9836346,34.6223259],[132.9836561,34.6224208],[132.9836722,34.622498],[132.9836373,34.6225598],[132.9835944,34.6226172],[132.9835407,34.6226856],[132.9835005,34.6227695],[132.9834361,34.6228424],[132.9833664,34.6228666],[132.9832484,34.6228644],[132.9831599,34.6228269],[132.9830982,34.6227474],[132.9830499,34.6226768],[132.982948,34.622615],[132.9828434,34.6225863],[132.9826824,34.6226084],[132.9825725,34.6226768],[132.9824947,34.6227496],[132.9824491,34.6228225],[132.9823659,34.6229019],[132.9822613,34.6229395],[132.9821433,34.6229946],[132.9820011,34.6230763],[132.9819207,34.6231072],[132.981808,34.6231094],[132.9816632,34.6230984],[132.9815344,34.6231072],[132.981395,34.6231293],[132.9812689,34.6231712],[132.9811911,34.6231999],[132.9810785,34.6232441],[132.9809685,34.6232286],[132.9808773,34.6231933],[132.9807807,34.6231712],[132.9807137,34.6231602],[132.9805983,34.6231227],[132.9804964,34.6230807],[132.9804106,34.6229814],[132.9803409,34.6227916],[132.9802765,34.6226525],[132.9802121,34.6225201],[132.9801451,34.6223656],[132.9800458,34.6222177],[132.9798259,34.6221956],[132.9796193,34.6222685],[132.9794986,34.6224186],[132.9793645,34.6226349],[132.9792009,34.6227232],[132.979048,34.6227805],[132.9788951,34.6228644],[132.9787396,34.6230322],[132.9786967,34.6231801],[132.9786537,34.6233566],[132.9785465,34.6235685],[132.9784821,34.6237142],[132.9784553,34.6238819],[132.9784848,34.6240629],[132.9785223,34.6242285],[132.9786001,34.6244713],[132.9787154,34.6247295],[132.9787584,34.6248686],[132.9787449,34.625182],[132.9787262,34.6254314],[132.9786725,34.6256675],[132.9786216,34.6259302],[132.9785813,34.6261884],[132.9786511,34.6263562],[132.9786135,34.6265085],[132.9784606,34.6267623],[132.9784284,34.6269918],[132.9783802,34.6272456],[132.978407,34.6274708],[132.9785706,34.6275855],[132.9787181,34.6276451],[132.9789059,34.6276098],[132.9792331,34.6276032],[132.9794557,34.6275921],[132.97974,34.6276584],[132.9800109,34.6277511],[132.980247,34.6278658],[132.9803972,34.62791],[132.9806466,34.6279828],[132.9809792,34.6278857],[132.9813869,34.6280049],[132.9815505,34.6282653],[132.9815908,34.6285787],[132.9815827,34.6288921],[132.9815237,34.629221],[132.9815049,34.6294637],[132.9814701,34.6299603],[132.981462,34.6302583],[132.9813896,34.6306445],[132.9813976,34.6308387],[132.9814513,34.6309954],[132.9816766,34.6310727],[132.9821809,34.6311146],[132.9825885,34.6311036],[132.9831169,34.6310991],[132.9835568,34.6310153],[132.9839431,34.6305695],[132.9841791,34.630543],[132.9846404,34.630554],[132.9848443,34.6303708],[132.9849972,34.6300861],[132.984737,34.6298478],[132.9846083,34.6297838],[132.9843722,34.6296447],[132.9842542,34.6295277],[132.9842059,34.6293247],[132.9841603,34.6290643],[132.9841415,34.6288237],[132.9840638,34.628603],[132.9840423,34.6284993],[132.9839216,34.6284088],[132.9837607,34.6283514],[132.9836212,34.6282763],[132.9834817,34.6282344],[132.9833047,34.6282631],[132.9831786,34.628241],[132.9831143,34.6281594],[132.9830526,34.6280115],[132.983015,34.6279188],[132.9829614,34.6278195],[132.9829962,34.6276826],[132.983074,34.6275281],[132.9831813,34.6273405],[132.9832511,34.6271905],[132.9832457,34.6271022],[132.9832564,34.6270249],[132.9833369,34.6269565],[132.9834066,34.6268638],[132.9834415,34.6267888],[132.9834388,34.626621],[132.9834066,34.6264731],[132.9834495,34.6263782],[132.9836185,34.6262657],[132.9837687,34.6261619],[132.9838706,34.6260781],[132.9839297,34.6259456],[132.983986,34.6257691],[132.9840423,34.6255991],[132.9840772,34.6254203],[132.9841362,34.6251643],[132.9841845,34.6249922],[132.9842676,34.6247979],[132.984399,34.6246037],[132.9846217,34.6244404],[132.9848926,34.6243388],[132.9851232,34.6242947],[132.9851527,34.6242064]]]}}]}
