{"type":"FeatureCollection","features":[{"type":"Feature","properties":{"potaRef":"JP-1967","nameEn":"Naikou Prefectural Park","boundarySource":"OpenStreetMap contributors / ODbL","source":"© OpenStreetMap contributors / ODbL","osmType":"area","osmId":"803903200","osmName":"内港公園","boundaryStatus":"OpenStreetMap公園・保護区域候補（POTA公式境界ではありません）"},"geometry":{"type":"MultiPolygon","coordinates":[[[[139.9156721,35.3865707],[139.9171426,35.3860194],[139.9170642,35.3862011],[139.9172949,35.3862449],[139.917024,35.3868528],[139.9172198,35.3869053],[139.9171205,35.3870846],[139.9168282,35.3874585],[139.9159001,35.387242],[139.9156721,35.3865707]]]]}}]}
