{"type":"FeatureCollection","features":[{"type":"Feature","properties":{"potaRef":"JP-1790","nameEn":"Isehara Tounoyama Prefectural Park","boundarySource":"OpenStreetMap contributors / ODbL","source":"© OpenStreetMap contributors / ODbL","osmType":"area","osmId":"1637567282","osmName":"県立いせはら塔の山緑地公園","boundaryStatus":"OpenStreetMap公園・保護区域候補（POTA公式境界ではありません）"},"geometry":{"type":"MultiPolygon","coordinates":[[[[139.2717662,35.3952289],[139.2718945,35.3947389],[139.2721614,35.3946082],[139.2730409,35.3945775],[139.2756394,35.3954756],[139.2764417,35.395876],[139.2770997,35.3963497],[139.2775517,35.3969182],[139.2780626,35.3972205],[139.2785745,35.3978036],[139.2788269,35.3984781],[139.2796263,35.3985752],[139.2797456,35.3991926],[139.2797245,35.3996327],[139.2795702,35.3999757],[139.2792895,35.3997853],[139.2788983,35.3997578],[139.2785167,35.3997853],[139.2781158,35.3996987],[139.2777487,35.399679],[139.2772657,35.3994743],[139.2770966,35.3992302],[139.2770773,35.399053],[139.2774782,35.3990491],[139.278111,35.3987813],[139.2782462,35.3985018],[139.2782462,35.3982852],[139.2778018,35.3982065],[139.2772126,35.3983994],[139.276546,35.3984978],[139.2761403,35.398364],[139.2760388,35.3981317],[139.2763431,35.3979072],[139.2763769,35.3976789],[139.2760871,35.3973954],[139.2753723,35.3973403],[139.2750969,35.3973442],[139.2747771,35.3975999],[139.2743608,35.3976202],[139.2742178,35.3977868],[139.2737153,35.3975384],[139.2736505,35.3975002],[139.2733533,35.3972921],[139.2727898,35.3970096],[139.272618,35.396905],[139.2724829,35.3966872],[139.2722455,35.3961657],[139.2717672,35.3954167],[139.2717662,35.3952289]]]]}}]}
