{"type":"FeatureCollection","features":[{"type":"Feature","properties":{"potaRef":"JP-1294","nameEn":"Hayama Sangaokayama Prefectural Park","boundarySource":"OpenStreetMap contributors / ODbL","source":"© OpenStreetMap contributors / ODbL","osmType":"area","osmId":"1664981186","osmName":"はやま三ヵ岡山緑地","boundaryStatus":"OpenStreetMap公園・保護区域候補（POTA公式境界ではありません）"},"geometry":{"type":"MultiPolygon","coordinates":[[[[139.5717341,35.2688353],[139.5722437,35.2683623],[139.5720774,35.2680732],[139.5728016,35.2676265],[139.5723081,35.2669914],[139.5726675,35.266987],[139.5730215,35.267517],[139.5746523,35.2674294],[139.5747435,35.267114],[139.5749742,35.2671403],[139.5751029,35.266952],[139.5756715,35.2668863],[139.5759559,35.2666366],[139.5765674,35.2668293],[139.5769268,35.2668337],[139.5778334,35.2666804],[139.5784235,35.2664351],[139.5785415,35.2666936],[139.5787856,35.2668556],[139.5793837,35.2667352],[139.5802474,35.2666213],[139.5807812,35.2668009],[139.5809099,35.2667746],[139.5806068,35.2662994],[139.5798022,35.2659533],[139.5799738,35.265603],[139.5806175,35.2655548],[139.5809582,35.2657059],[139.5809662,35.2659752],[139.5809475,35.266376],[139.5811003,35.2667198],[139.5824361,35.2660891],[139.5832729,35.2669169],[139.583466,35.2669476],[139.5842493,35.2680163],[139.5839274,35.2684017],[139.5834607,35.26859],[139.582774,35.2681302],[139.5826024,35.2685725],[139.5819157,35.26859],[139.5819694,35.2690017],[139.5816958,35.2690937],[139.5800006,35.268682],[139.5796841,35.2692908],[139.5784771,35.269212],[139.5781177,35.2700003],[139.5778602,35.2699872],[139.5772701,35.2704339],[139.5766747,35.2702719],[139.5761007,35.2703025],[139.5759237,35.2698821],[139.5750868,35.2697507],[139.5752853,35.2681126],[139.5745826,35.2684367],[139.5744538,35.2688879],[139.5741963,35.2688484],[139.5738959,35.2695448],[139.5733434,35.2693784],[139.573397,35.2683316],[139.572925,35.268174],[139.5722437,35.2695098],[139.5717341,35.2688353]]]]}}]}
