{"type":"FeatureCollection","features":[{"type":"Feature","properties":{"potaRef":"JP-1704","nameEn":"Central Prefectural Park","source":"© OpenStreetMap contributors / ODbL","boundarySource":"OpenStreetMap contributors / ODbL","osmType":"way","osmId":562256394,"osmName":"福岡県立中央公園","boundaryStatus":"OpenStreetMap公園・保護区域候補（POTA公式境界ではありません）"},"geometry":{"type":"Polygon","coordinates":[[[130.837453,33.8776456],[130.8411184,33.8778669],[130.8423513,33.8777611],[130.8423634,33.8778419],[130.8424648,33.8778949],[130.8427807,33.8778641],[130.843017,33.8777342],[130.8432022,33.8775619],[130.8434494,33.8772163],[130.844423,33.8773549],[130.8449698,33.8758184],[130.8447852,33.8755973],[130.844985,33.875219],[130.8454005,33.8743358],[130.845517,33.8740882],[130.8455232,33.8738817],[130.8454208,33.8737084],[130.8452446,33.8737279],[130.8451308,33.8738043],[130.8445056,33.8740038],[130.8440115,33.8738937],[130.8439586,33.8738921],[130.8437767,33.8738868],[130.8436051,33.8739086],[130.8432531,33.8740415],[130.8429699,33.8742447],[130.8428685,33.874331],[130.8428077,33.8743828],[130.842555,33.874314],[130.8423794,33.8741216],[130.8423349,33.873709],[130.8407732,33.8738026],[130.8407999,33.8742256],[130.8405227,33.8742419],[130.8403646,33.8743002],[130.8403132,33.8743482],[130.8402266,33.8744139],[130.8397962,33.8739592],[130.8392613,33.8734119],[130.8380641,33.8737941],[130.837609,33.874457],[130.8375031,33.8751067],[130.8371096,33.8756503],[130.8370453,33.8766657],[130.8374315,33.8769686],[130.837453,33.8776456]]]}}]}
