{"type":"FeatureCollection","features":[{"type":"Feature","properties":{"potaRef":"JP-1624","nameEn":"Miyoshi Prefectural Park","boundarySource":"OpenStreetMap contributors / ODbL","source":"© OpenStreetMap contributors / ODbL","osmType":"area","osmId":"442633212","osmName":"広島県立みよし公園","boundaryStatus":"OpenStreetMap公園・保護区域候補（POTA公式境界ではありません）"},"geometry":{"type":"MultiPolygon","coordinates":[[[[132.8983818,34.7988717],[132.8984194,34.7987351],[132.8984781,34.798543],[132.8985371,34.7983712],[132.898623,34.7981686],[132.8987142,34.797966],[132.8987924,34.7978973],[132.8989024,34.7979382],[132.8990092,34.7980174],[132.899179,34.7981828],[132.8993302,34.7982867],[132.8995876,34.7984059],[132.8999072,34.7984516],[132.9001253,34.7983783],[132.9002487,34.7981536],[132.9001411,34.7979924],[132.900069,34.7979422],[132.900195,34.7977175],[132.900522,34.7977501],[132.9007046,34.7977263],[132.9008385,34.7976929],[132.900994,34.7977281],[132.9010101,34.7976048],[132.9010133,34.7975566],[132.9009943,34.7974004],[132.9009085,34.7973783],[132.9008334,34.7973431],[132.9007848,34.7972215],[132.9006724,34.797092],[132.9005276,34.7969687],[132.9007312,34.7968603],[132.900769,34.7967352],[132.9007526,34.7966576],[132.9006832,34.7966251],[132.9006885,34.796559],[132.9006643,34.7964592],[132.90071,34.7963651],[132.9007795,34.796292],[132.900817,34.7962215],[132.9009621,34.7961537],[132.9010852,34.7960541],[132.9011657,34.7959881],[132.901166,34.7958189],[132.9012354,34.7957678],[132.9011928,34.7956339],[132.9011821,34.7954401],[132.9012247,34.7951775],[132.9012947,34.7951141],[132.9013695,34.7949484],[132.9014181,34.7948497],[132.9016378,34.794759],[132.9020886,34.7947705],[132.9023676,34.7947837],[132.9025983,34.7948013],[132.9027536,34.7947898],[132.903065,34.7948321],[132.9034619,34.7948762],[132.903805,34.7949352],[132.903993,34.7949202],[132.9042556,34.7948339],[132.9044487,34.7947898],[132.904685,34.7947705],[132.9049208,34.7947898],[132.9053714,34.7950145],[132.9055055,34.7951423],[132.9055272,34.7952594],[132.9056718,34.7954462],[132.9057686,34.7955854],[132.9058276,34.7956735],[132.9077264,34.79527],[132.9079034,34.7959616],[132.90778,34.7960453],[132.9077639,34.7962171],[132.90778,34.7963977],[132.90778,34.7966488],[132.9077961,34.7967458],[132.9075601,34.7970277],[132.9074045,34.7972215],[132.9073401,34.7973845],[132.9072919,34.7975783],[132.9073348,34.7977633],[132.907308,34.7978867],[132.9073509,34.7979968],[132.9076513,34.7976929],[132.9083433,34.7982171],[132.9083487,34.7984109],[132.908574,34.7985695],[132.9082682,34.7989087],[132.9081449,34.7992447],[132.9082829,34.7993587],[132.9085596,34.7997557],[132.9091154,34.8002228],[132.9092817,34.8006809],[132.9092702,34.8009193],[132.9091321,34.8010257],[132.908939,34.8011314],[132.9087459,34.8012283],[132.908531,34.8013887],[132.908365,34.8015367],[132.9081773,34.8017129],[132.9076362,34.8021448],[132.9070719,34.8019305],[132.9066216,34.8017789],[132.9060583,34.8015014],[132.9045667,34.8008204],[132.9034349,34.8003403],[132.9025712,34.8000187],[132.9020991,34.7998425],[132.9017829,34.799735],[132.9011231,34.7995368],[132.9008977,34.7994751],[132.8983818,34.7988717]]]]}}]}
