{"type":"FeatureCollection","features":[{"type":"Feature","properties":{"potaRef":"JP-1990","nameEn":"Wakayama Prefecture Kii-fudoki-no-oka Museum of Archaeology and Folklore Prefectural Park","boundarySource":"OpenStreetMap contributors / ODbL","source":"© OpenStreetMap contributors / ODbL","osmType":"area","osmId":"1428717356","osmName":"県立紀伊風土記の丘公園","boundaryStatus":"OpenStreetMap公園・保護区域候補（POTA公式境界ではありません）"},"geometry":{"type":"MultiPolygon","coordinates":[[[[135.2202685,34.2246975],[135.2203993,34.224072],[135.2210904,34.2238634],[135.2215948,34.2242187],[135.2221925,34.2244118],[135.223332,34.2242496],[135.2252187,34.2240488],[135.2259005,34.2236858],[135.2264516,34.2235082],[135.2271876,34.2233214],[135.2284205,34.2228734],[135.2294198,34.2225259],[135.2297899,34.222683],[135.2299598,34.2230751],[135.2301155,34.2231102],[135.2304004,34.222853],[135.2307542,34.2227376],[135.2310003,34.2229229],[135.2311702,34.2230224],[135.2315666,34.2228878],[135.2335542,34.223112],[135.2347719,34.2226172],[135.2358467,34.2232785],[135.2361257,34.2237544],[135.2373162,34.2231417],[135.2381408,34.223095],[135.2385774,34.2234456],[135.2376057,34.224114],[135.2357745,34.2244437],[135.2352696,34.2235839],[135.234655,34.2232464],[135.2340108,34.22362],[135.2329351,34.2234469],[135.2320166,34.2233549],[135.2318096,34.2241263],[135.2320232,34.2250749],[135.2323616,34.2252615],[135.2324468,34.2256717],[135.2320549,34.2257418],[135.23151,34.2256284],[135.2314545,34.2258577],[135.2316774,34.226413],[135.2316915,34.2265252],[135.2316278,34.2266352],[135.2314139,34.2266498],[135.2312697,34.2265557],[135.2308013,34.2262755],[135.2303946,34.2264895],[135.230266,34.2267031],[135.2301641,34.2269648],[135.23003,34.2273995],[135.2302016,34.2275547],[135.2302231,34.2279406],[135.231017,34.228047],[135.2308829,34.2282777],[135.2301534,34.2282422],[135.2299602,34.2284107],[135.2295096,34.2284107],[135.2292816,34.2281495],[135.2292629,34.2275703],[135.2292069,34.2272228],[135.2288373,34.2270776],[135.2285728,34.2265768],[135.228411,34.2265709],[135.2282532,34.2266318],[135.228173,34.2267615],[135.227067,34.2269261],[135.2271628,34.2272409],[135.2264236,34.2275317],[135.225611,34.2274235],[135.2251627,34.2270992],[135.2251657,34.2265933],[135.2245369,34.2262343],[135.2238551,34.2260412],[135.2232213,34.2256898],[135.2223061,34.2254536],[135.221558,34.2253102],[135.2207729,34.2250141],[135.2202685,34.2246975]]]]}}]}
