{"type":"FeatureCollection","features":[{"type":"Feature","properties":{"potaRef":"JP-1527","nameEn":"Izumisano Kyuryo Ryokuchi Prefectural Park","boundarySource":"OpenStreetMap contributors / ODbL","source":"© OpenStreetMap contributors / ODbL","osmType":"area","osmId":"957710336","osmName":"泉佐野丘陵緑地","boundaryStatus":"OpenStreetMap公園・保護区域候補（POTA公式境界ではありません）"},"geometry":{"type":"MultiPolygon","coordinates":[[[[135.3279202,34.3661849],[135.3279322,34.366165],[135.3279389,34.3661318],[135.327959,34.3660975],[135.3279899,34.3660333],[135.32801,34.3660034],[135.3280435,34.3659392],[135.3281267,34.3658218],[135.3281495,34.3657698],[135.3281844,34.3657034],[135.3282098,34.3656336],[135.3282581,34.3655716],[135.3283064,34.3655262],[135.3283708,34.3654665],[135.3284298,34.3654255],[135.3284821,34.3653901],[135.3285478,34.3653458],[135.3286216,34.3653071],[135.3286953,34.3652362],[135.3287355,34.3651875],[135.3287771,34.3651565],[135.3288375,34.3651056],[135.3288737,34.3650735],[135.3289488,34.3651012],[135.3290775,34.3651366],[135.3292291,34.3651809],[135.3294597,34.3652318],[135.3296649,34.3652672],[135.3298379,34.3652916],[135.3300565,34.3653115],[135.3302161,34.3653093],[135.3304186,34.365327],[135.3307137,34.3653425],[135.3308867,34.3653458],[135.3310087,34.3653536],[135.3313587,34.3653447],[135.3315358,34.3653403],[135.3318818,34.3653336],[135.3320967,34.3653131],[135.3323748,34.3653129],[135.3327242,34.365298],[135.3328726,34.3653023],[135.3330348,34.3653018],[135.3332403,34.3653724],[135.333471,34.3653901],[135.333589,34.3654],[135.3337017,34.3654133],[135.333876,34.365441],[135.3339766,34.3654565],[135.3341107,34.3655041],[135.334218,34.3655528],[135.3343159,34.365606],[135.3344151,34.3656558],[135.3344835,34.3657167],[135.3345452,34.3657997],[135.3345975,34.3658971],[135.3346176,34.3659569],[135.3346726,34.366062],[135.3346954,34.3661572],[135.3347155,34.3662447],[135.3347021,34.3663554],[135.3346874,34.3664805],[135.3346471,34.3666189],[135.3346163,34.366765],[135.3345868,34.3668657],[135.3345546,34.3669631],[135.334501,34.3670794],[135.3344554,34.3671624],[135.3343963,34.367272],[135.3343601,34.3673495],[135.3343306,34.3674026],[135.3342917,34.3674469],[135.3342689,34.36751],[135.334214,34.3676096],[135.3341657,34.3676982],[135.3341241,34.3678],[135.3340678,34.3678952],[135.3340329,34.3679949],[135.3339954,34.3681067],[135.3339605,34.3681842],[135.3339591,34.3682639],[135.3339699,34.3683668],[135.3340061,34.3684543],[135.3340021,34.3684941],[135.3340235,34.3685362],[135.3340403,34.3685647],[135.3340396,34.368654],[135.3340316,34.3687598],[135.3340195,34.3688561],[135.33399,34.3689568],[135.3339726,34.3691173],[135.3339484,34.3691959],[135.333927,34.3692867],[135.3339068,34.3693919],[135.3338948,34.3694915],[135.3338948,34.3695955],[135.3338948,34.3697096],[135.3339162,34.3698114],[135.3339323,34.3698867],[135.3339565,34.3699387],[135.3339726,34.3699952],[135.3340262,34.3700538],[135.3340839,34.3701059],[135.3341456,34.370149],[135.3342126,34.3701822],[135.3342569,34.37019],[135.3342636,34.3702166],[135.3342824,34.3703062],[135.3342703,34.370335],[135.3341871,34.3703184],[135.3341228,34.3702929],[135.334053,34.3702453],[135.3339846,34.3701988],[135.333935,34.37018],[135.33388,34.3701988],[135.333754,34.370242],[135.3335273,34.370304],[135.3333516,34.3703505],[135.3331719,34.3704036],[135.3330231,34.3704435],[135.3328688,34.3704734],[135.3327012,34.3705132],[135.3325564,34.3705398],[135.3323646,34.3705774],[135.332201,34.3706117],[135.3320266,34.3706472],[135.3318818,34.3706726],[135.3317222,34.370708],[135.3315639,34.3707357],[135.3314137,34.3707645],[135.3312608,34.3707933],[135.3311294,34.3708221],[135.3310027,34.3708399],[135.3308827,34.3708464],[135.3307539,34.3708486],[135.3306413,34.3708309],[135.3305635,34.3707844],[135.3304884,34.3707224],[135.3304294,34.3706494],[135.3303489,34.3705564],[135.3302926,34.3704922],[135.3302671,34.3704357],[135.3302188,34.3703649],[135.3301598,34.3702808],[135.3301182,34.3702088],[135.3300914,34.3701457],[135.3300498,34.370045],[135.3300203,34.369962],[135.3300109,34.3698811],[135.3299975,34.3697749],[135.3299935,34.3697118],[135.3299908,34.3696775],[135.3299761,34.3696188],[135.3299747,34.3695424],[135.3299506,34.3693863],[135.3299358,34.3692945],[135.3299104,34.369207],[135.3298889,34.3691262],[135.3298513,34.3690609],[135.3298165,34.3690244],[135.3297494,34.3689978],[135.3296663,34.3689557],[135.3295214,34.3688749],[135.3294463,34.3688317],[135.3293565,34.3687919],[135.3292908,34.3687487],[135.3291379,34.3686734],[135.3290762,34.3686314],[135.3290467,34.3685993],[135.3290105,34.3685495],[135.3289796,34.3684952],[135.3289756,34.3684543],[135.328985,34.3684133],[135.3290132,34.3683425],[135.3290681,34.3682694],[135.3291137,34.3682019],[135.329166,34.3681332],[135.3292358,34.3680768],[135.3292774,34.3680192],[135.3293337,34.3679229],[135.3293444,34.3678487],[135.3293417,34.3677701],[135.3293337,34.3676816],[135.3293149,34.367593],[135.32928,34.3674856],[135.3292505,34.3674203],[135.329217,34.3673384],[135.329162,34.3672488],[135.3291178,34.3671945],[135.3290789,34.367117],[135.3290413,34.3670285],[135.3290225,34.3669742],[135.3290038,34.3668956],[135.3290038,34.3668104],[135.3290051,34.3667262],[135.3289984,34.3666532],[135.328989,34.3665602],[135.3289792,34.3664954],[135.3289367,34.3663764],[135.3288925,34.36632],[135.3288294,34.3662801],[135.3287543,34.3662524],[135.328643,34.3662392],[135.3285035,34.3662414],[135.3284392,34.3662447],[135.328301,34.3662425],[135.3281736,34.3662392],[135.3280502,34.3662314],[135.3279644,34.3662259],[135.3279269,34.3662082],[135.3279202,34.3661849]]]]}}]}
