{"type":"FeatureCollection","features":[{"type":"Feature","properties":{"potaRef":"JP-1273","nameEn":"Nogawa Prefectural Park","source":"© OpenStreetMap contributors / ODbL","osmType":"way","osmId":28849446,"osmName":"東京都立野川公園","boundaryStatus":"OpenStreetMap公園・保護区域候補（POTA公式境界ではありません）","boundarySource":"OpenStreetMap contributors / ODbL"},"geometry":{"type":"Polygon","coordinates":[[[139.521253,35.6832572],[139.5215734,35.683902],[139.5225485,35.6862007],[139.5228045,35.6867862],[139.5231231,35.6886875],[139.5243434,35.6883599],[139.525296,35.6877131],[139.5261312,35.6868688],[139.5262666,35.686527],[139.5263102,35.6854794],[139.5265198,35.6849615],[139.5272278,35.6845148],[139.5280851,35.6841992],[139.5288074,35.6837587],[139.5295709,35.6833359],[139.5296155,35.6831755],[139.5293731,35.6826436],[139.5294765,35.6824297],[139.5294201,35.6819697],[139.5300357,35.6816699],[139.5303346,35.681588],[139.5303658,35.6815573],[139.5301822,35.6815934],[139.5302599,35.6813515],[139.5300892,35.681303],[139.5301473,35.6810429],[139.5306747,35.6810827],[139.5310909,35.6799878],[139.5308445,35.6800333],[139.5307581,35.6799696],[139.5307106,35.6798781],[139.5306874,35.6797546],[139.5307172,35.6796427],[139.530278,35.679556],[139.5302514,35.6797801],[139.5302044,35.679947],[139.530105,35.6801472],[139.529965,35.6803794],[139.529775,35.6806299],[139.5296679,35.6807481],[139.5295783,35.6808694],[139.5294854,35.6810224],[139.5294344,35.6811611],[139.529099,35.6811414],[139.526315,35.6808206],[139.5263026,35.6794205],[139.526259,35.679094],[139.5259623,35.6791909],[139.5251568,35.6794165],[139.5239948,35.6796949],[139.5231017,35.6799013],[139.5222849,35.6801099],[139.5226889,35.6814092],[139.523148,35.6828316],[139.5217926,35.683136],[139.521253,35.6832572]]]}}]}
