{"type":"FeatureCollection","features":[{"type":"Feature","properties":{"potaRef":"JP-1950","nameEn":"Ibaraki Prefectural Suigo Forest Prefectural Park","boundarySource":"OpenStreetMap contributors / ODbL","source":"© OpenStreetMap contributors / ODbL","osmType":"area","osmId":"21802929","osmName":"茨城県水郷県民の森","boundaryStatus":"OpenStreetMap公園・保護区域候補（POTA公式境界ではありません）"},"geometry":{"type":"MultiPolygon","coordinates":[[[[140.5356356,35.982068],[140.5362858,35.9816106],[140.536555,35.9816887],[140.5371449,35.9822467],[140.5374103,35.9826555],[140.5361074,35.9831742],[140.5356356,35.982068]]],[[[140.5366209,35.9814696],[140.5417603,35.9781259],[140.5423414,35.978603],[140.5427298,35.9791727],[140.5415917,35.9799644],[140.5422137,35.9806529],[140.5420015,35.9808048],[140.5435677,35.9824435],[140.5437304,35.9829139],[140.5427306,35.9835272],[140.5424987,35.9841659],[140.5422555,35.9848433],[140.5420732,35.9853231],[140.5404328,35.9850984],[140.5393102,35.9850781],[140.539297,35.9841632],[140.5393515,35.9839765],[140.5393958,35.9837699],[140.539524,35.9834355],[140.5395942,35.982637],[140.5395425,35.9824248],[140.5383003,35.9824203],[140.5380585,35.9824244],[140.5375504,35.9825162],[140.5372177,35.9821117],[140.5366209,35.9814696]]],[[[140.5423471,35.9900807],[140.5423662,35.9895887],[140.5425572,35.9895683],[140.5429721,35.9894896],[140.5432458,35.9892994],[140.5434417,35.9890892],[140.5435414,35.9887138],[140.5433965,35.9881932],[140.5433677,35.987762],[140.5433334,35.9864245],[140.5437341,35.9862844],[140.5440338,35.9860152],[140.5441691,35.9855242],[140.5443298,35.9845829],[140.5446176,35.9839428],[140.5449638,35.9834186],[140.5455025,35.9830647],[140.5456651,35.9833185],[140.5461489,35.9840887],[140.5469396,35.9854032],[140.5474799,35.9861125],[140.547983,35.98644],[140.5497098,35.9874273],[140.5494082,35.9879781],[140.5489263,35.9893369],[140.54788,35.9896846],[140.5465234,35.9880665],[140.5458267,35.98848],[140.546972,35.9897477],[140.5461616,35.9901372],[140.5457641,35.9898237],[140.5453169,35.9892922],[140.5449748,35.9889408],[140.5442108,35.9886136],[140.5441878,35.9889982],[140.5439635,35.989226],[140.5433146,35.9897698],[140.5430944,35.9899417],[140.5426734,35.9900714],[140.5423471,35.9900807]]]]}}]}
