{"type":"FeatureCollection","features":[{"type":"Feature","properties":{"potaRef":"JP-1961","nameEn":"Chiba Port Prefectural Park","boundarySource":"OpenStreetMap contributors / ODbL","source":"© OpenStreetMap contributors / ODbL","osmType":"area","osmId":"47983500","osmName":"千葉ポートパーク","boundaryStatus":"OpenStreetMap公園・保護区域候補（POTA公式境界ではありません）"},"geometry":{"type":"MultiPolygon","coordinates":[[[[140.0940877,35.5970554],[140.1000539,35.5967831],[140.1020054,35.5991859],[140.1015705,35.5995069],[140.1014687,35.5996202],[140.1014139,35.5997754],[140.1014309,35.5999294],[140.1015051,35.6000589],[140.1027376,35.6008906],[140.1025493,35.6010799],[140.1010593,35.6000627],[140.0997203,35.6013695],[140.0990407,35.6008889],[140.0987922,35.6011062],[140.0983747,35.6014714],[140.0979073,35.6011587],[140.0968033,35.6011372],[140.0967101,35.6011481],[140.0966455,35.6011807],[140.0961694,35.6016334],[140.0957075,35.6013218],[140.0966308,35.6004127],[140.0967214,35.6001718],[140.0967678,35.5999381],[140.0967743,35.599693],[140.0967713,35.5995048],[140.0967684,35.5993107],[140.0966826,35.5989492],[140.096686,35.5988619],[140.0967102,35.5987804],[140.0953209,35.5978444],[140.0945958,35.5978805],[140.0941643,35.5982688],[140.094125,35.5976465],[140.0941142,35.5974749],[140.0940877,35.5970554]]]]}}]}
