{"type":"FeatureCollection","features":[{"type":"Feature","properties":{"potaRef":"JP-1885","nameEn":"Oita Agricultural Prefectural Park","boundarySource":"OpenStreetMap contributors / ODbL","source":"© OpenStreetMap contributors / ODbL","osmType":"area","osmId":"1130161122","osmName":"大分農業文化公園","boundaryStatus":"OpenStreetMap公園・保護区域候補（POTA公式境界ではありません）"},"geometry":{"type":"MultiPolygon","coordinates":[[[[131.4292853,33.4315646],[131.4293651,33.4310895],[131.4296504,33.4307737],[131.4302077,33.4304428],[131.4305676,33.4301612],[131.4309186,33.4295733],[131.4311287,33.4286069],[131.4315991,33.4266376],[131.4316794,33.4265774],[131.4321555,33.4265964],[131.4341228,33.4262781],[131.4347089,33.4261227],[131.4349857,33.4260165],[131.4353495,33.4258209],[131.4360925,33.425219],[131.4371392,33.4261019],[131.4384137,33.4268652],[131.438703,33.4269807],[131.438972,33.4270463],[131.4394353,33.4270793],[131.4396648,33.4271247],[131.4400567,33.4273554],[131.4403424,33.4277164],[131.4403986,33.428116],[131.4403768,33.4282636],[131.4402779,33.4285807],[131.4400979,33.428995],[131.4396813,33.4294518],[131.4390428,33.4298358],[131.4385124,33.4303621],[131.4384377,33.4305457],[131.4384154,33.4307109],[131.4384766,33.4309091],[131.4385953,33.4310959],[131.4388321,33.4312924],[131.43965,33.4318307],[131.4398804,33.4321165],[131.439837,33.432264],[131.4398706,33.4326206],[131.4397851,33.4328257],[131.4396951,33.4330616],[131.4397726,33.4332975],[131.4397971,33.4335868],[131.4399006,33.433828],[131.4407414,33.4354326],[131.440948,33.436138],[131.4408693,33.4369196],[131.4407443,33.437321],[131.4405206,33.4377255],[131.4402066,33.4381703],[131.439736,33.438581],[131.4378904,33.43874],[131.4372426,33.4386437],[131.4362962,33.4380398],[131.4346842,33.4373878],[131.4338954,33.4374486],[131.4311669,33.4369515],[131.4305359,33.4363222],[131.4294248,33.4362147],[131.4295869,33.4346105],[131.4292853,33.4315646]]]]}}]}
