{"type":"FeatureCollection","features":[{"type":"Feature","properties":{"potaRef":"JP-1792","nameEn":"Odaiba Marine Prefectural Park","boundarySource":"OpenStreetMap contributors / ODbL","source":"© OpenStreetMap contributors / ODbL","osmType":"area","osmId":"27787877","osmName":"お台場海浜公園","boundaryStatus":"OpenStreetMap公園・保護区域候補（POTA公式境界ではありません）"},"geometry":{"type":"MultiPolygon","coordinates":[[[[139.7687897,35.6264653],[139.7692714,35.6259099],[139.7693208,35.62607],[139.7693582,35.6261659],[139.7694349,35.6262751],[139.7695414,35.6263451],[139.7697277,35.6264446],[139.7697776,35.6264712],[139.770938,35.6270912],[139.7709637,35.6271049],[139.7710419,35.6271467],[139.7710726,35.6271631],[139.7714836,35.6273827],[139.7716671,35.6274807],[139.7728671,35.6281218],[139.7736361,35.6285391],[139.7739138,35.6286898],[139.7739925,35.6287303],[139.774033,35.6287521],[139.7740846,35.62878],[139.7743835,35.6289421],[139.7756873,35.6296408],[139.7760181,35.6298318],[139.7766214,35.6301649],[139.7766371,35.6301734],[139.7766584,35.6301849],[139.7782047,35.6310163],[139.7785172,35.6311927],[139.7785279,35.6312179],[139.7785408,35.6312489],[139.7782313,35.6316358],[139.7770511,35.6331007],[139.7769255,35.6332589],[139.7768437,35.6333592],[139.7757641,35.6346801],[139.7755285,35.6349625],[139.7755562,35.6349773],[139.7754963,35.6350423],[139.7754782,35.6350619],[139.7754381,35.6351096],[139.7754721,35.6351302],[139.7755055,35.6352392],[139.776761,35.6359638],[139.7765381,35.6362487],[139.7731416,35.6344127],[139.7730381,35.6343928],[139.7725318,35.6345078],[139.7724511,35.6342681],[139.773253,35.634055],[139.7732132,35.6339555],[139.7747729,35.6348249],[139.7749212,35.634763],[139.7751977,35.6346153],[139.7756757,35.6342348],[139.776333,35.6334725],[139.7767085,35.6329384],[139.7770452,35.6323839],[139.7772249,35.6319344],[139.7772452,35.6317192],[139.7772025,35.6316315],[139.7771344,35.6315015],[139.7770233,35.6313879],[139.7767715,35.6312812],[139.7764814,35.6311275],[139.7762833,35.6310405],[139.7759521,35.6308158],[139.7754558,35.6305789],[139.7744522,35.6298911],[139.774224,35.6297539],[139.7740443,35.6297439],[139.7740362,35.6298493],[139.7739745,35.6299218],[139.7739181,35.629894],[139.7739622,35.6298371],[139.7739873,35.6298499],[139.7739962,35.6298393],[139.774044,35.6293639],[139.7736269,35.6291403],[139.7736053,35.6291287],[139.7735827,35.6291165],[139.7728552,35.628719],[139.7721162,35.6282974],[139.7716947,35.6282617],[139.7714887,35.6282773],[139.7713234,35.6282908],[139.7713054,35.6281766],[139.7712329,35.6280319],[139.7708464,35.6276809],[139.7705175,35.6274291],[139.7702173,35.6273061],[139.7697896,35.6270313],[139.7695911,35.6269819],[139.7694446,35.6269214],[139.7693019,35.6267958],[139.7691305,35.6267119],[139.7690253,35.6266607],[139.7690305,35.6265975],[139.7687897,35.6264653]]],[[[139.7711237,35.6284294],[139.7711463,35.6284045],[139.7711666,35.6283732],[139.7712107,35.6283867],[139.7712444,35.628417],[139.7712826,35.6284181],[139.7712829,35.6284512],[139.771247,35.6284702],[139.7712409,35.628488],[139.7712275,35.6284984],[139.7711714,35.6284783],[139.7711308,35.6284524],[139.7711237,35.6284294]]]]}}]}
