{"type":"FeatureCollection","features":[{"type":"Feature","properties":{"potaRef":"JP-1451","nameEn":"Ogasayama Sports Prefectural Park","boundarySource":"OpenStreetMap contributors / ODbL","source":"© OpenStreetMap contributors / ODbL","osmType":"area","osmId":"1518136474","osmName":"小笠山総合運動公園","boundaryStatus":"OpenStreetMap公園・保護区域候補（POTA公式境界ではありません）"},"geometry":{"type":"MultiPolygon","coordinates":[[[[137.9632401,34.7429327],[137.9632938,34.7425646],[137.9634252,34.7421591],[137.9636317,34.7417469],[137.9647073,34.7399418],[137.9648173,34.739631],[137.9648548,34.7393687],[137.9647905,34.7389345],[137.965048,34.738767],[137.9658714,34.7385113],[137.9660565,34.738562],[137.9667968,34.7375129],[137.9674003,34.7375261],[137.9675263,34.7374357],[137.9679823,34.737568],[137.9684329,34.7375217],[137.9688138,34.7375724],[137.9689532,34.7378876],[137.9692322,34.738108],[137.9698652,34.7381785],[137.9703829,34.7381785],[137.971386,34.7386127],[137.9716113,34.7388243],[137.9720753,34.7388552],[137.9738215,34.7391946],[137.9741862,34.7390381],[137.9743981,34.7392828],[137.9748246,34.7401181],[137.9766029,34.7395627],[137.9771179,34.739501],[137.977689,34.739859],[137.9777402,34.7398911],[137.9780835,34.7399352],[137.9783571,34.7397611],[137.9788935,34.7396817],[137.9791322,34.7395715],[137.9792047,34.7393445],[137.979143,34.7390624],[137.9791966,34.7388618],[137.9798081,34.7389125],[137.9799288,34.739091],[137.981219,34.7398184],[137.9813638,34.7402261],[137.9818708,34.7410483],[137.9828417,34.741996],[137.9835552,34.7425933],[137.9839288,34.7431736],[137.984215,34.7436182],[137.9845932,34.7437967],[137.9851377,34.7442353],[137.9855964,34.7439267],[137.9856929,34.7437306],[137.9860523,34.7434991],[137.9863071,34.7436182],[137.9866907,34.7436138],[137.9874873,34.7438959],[137.9884663,34.7443565],[137.9887828,34.7445571],[137.9890162,34.7448193],[137.9894426,34.7448634],[137.9896921,34.7450596],[137.989963,34.7454056],[137.9901526,34.7455237],[137.9902849,34.7456061],[137.9907328,34.7459808],[137.9907891,34.7461351],[137.9915723,34.7461042],[137.9917601,34.7463048],[137.991001,34.7466596],[137.9907677,34.7472128],[137.9904914,34.747528],[137.9902258,34.7477439],[137.9898316,34.7479423],[137.9895472,34.7480128],[137.9893219,34.7479996],[137.9889411,34.7478652],[137.9887989,34.7481252],[137.9894775,34.7485594],[137.9899979,34.7490112],[137.9902527,34.7492756],[137.9903626,34.7494982],[137.9904243,34.7497384],[137.9904619,34.7500095],[137.9903305,34.7504084],[137.9902688,34.7506045],[137.9901266,34.7508404],[137.9895741,34.751453],[137.9894024,34.7519158],[137.9892442,34.7522574],[137.9890484,34.7525791],[137.9884878,34.7528987],[137.9882088,34.753097],[137.9879647,34.7533108],[137.987891,34.7533075],[137.9870769,34.753313],[137.98657,34.7533615],[137.9858512,34.7534783],[137.9848748,34.7537625],[137.9839951,34.7539631],[137.9831985,34.754016],[137.9826781,34.7539917],[137.9821256,34.7538948],[137.9815945,34.7537449],[137.9810178,34.7534805],[137.9806799,34.7532887],[137.980181,34.7529361],[137.978923,34.7518827],[137.9784188,34.7515279],[137.977944,34.7513098],[137.9774907,34.7511665],[137.9766592,34.7510563],[137.975986,34.7511004],[137.9754576,34.7511797],[137.9748595,34.7514222],[137.9746476,34.7513693],[137.9736069,34.7500866],[137.9730678,34.7494035],[137.9727137,34.7488261],[137.972188,34.7476558],[137.9720552,34.747355],[137.9718487,34.7470387],[137.9716583,34.7468514],[137.9713806,34.746653],[137.9710682,34.7464921],[137.9709059,34.7464326],[137.9706269,34.7463731],[137.9702327,34.7463423],[137.97001,34.7463676],[137.9697928,34.7463963],[137.9685093,34.7466916],[137.9683739,34.746707],[137.9679608,34.7467456],[137.9677114,34.7467478],[137.9672903,34.7466596],[137.9668745,34.7465252],[137.9646161,34.7448414],[137.9641521,34.7444755],[137.9638115,34.7441736],[137.9635325,34.7438386],[137.963326,34.7433383],[137.9632401,34.7429327]]]]}}]}
