{"type":"FeatureCollection","features":[{"type":"Feature","properties":{"potaRef":"JP-1221","nameEn":"Ueno Prefectural Park","boundarySource":"OpenStreetMap contributors / ODbL","source":"© OpenStreetMap contributors / ODbL","osmType":"area","osmId":"10826839","osmName":"上野公園","boundaryStatus":"OpenStreetMap公園・保護区域候補（POTA公式境界ではありません）"},"geometry":{"type":"MultiPolygon","coordinates":[[[[139.7678948,35.7151376],[139.7679273,35.7149683],[139.7679595,35.7146434],[139.7681945,35.7139369],[139.768467,35.7131207],[139.7684904,35.7130504],[139.768516,35.7130067],[139.7685549,35.7129217],[139.7685847,35.7128466],[139.7686157,35.7127508],[139.7686364,35.7126366],[139.7686416,35.7125654],[139.768634,35.7125617],[139.7686273,35.7125553],[139.7686237,35.7125497],[139.7686736,35.7123062],[139.7687002,35.7122256],[139.7687251,35.7120541],[139.7687389,35.7120457],[139.768745,35.7119942],[139.7687405,35.7119551],[139.7687398,35.7118927],[139.7687633,35.7117557],[139.7687797,35.7116943],[139.7687869,35.7116349],[139.7687954,35.7116144],[139.7687932,35.7115923],[139.7688019,35.7113958],[139.7688214,35.7112414],[139.7688259,35.7111702],[139.7688266,35.7111323],[139.7688279,35.7110897],[139.7688227,35.7110639],[139.768833,35.7110436],[139.7688355,35.7110107],[139.7688342,35.7109381],[139.7688671,35.7108404],[139.7688679,35.7108317],[139.7688651,35.7108138],[139.7688583,35.7108021],[139.7688598,35.7107764],[139.7688748,35.7107383],[139.7688746,35.7107241],[139.7688772,35.7106577],[139.7688785,35.710604],[139.7688807,35.7105744],[139.7688951,35.7104598],[139.7689145,35.7103837],[139.7689173,35.7103603],[139.7689086,35.7103533],[139.7689008,35.7103392],[139.7689091,35.7102965],[139.7689885,35.7101168],[139.7690345,35.7100164],[139.7690631,35.7099884],[139.7690606,35.709971],[139.7691356,35.7098706],[139.7692487,35.7097641],[139.7693139,35.7097079],[139.7694449,35.7096182],[139.7695115,35.7095748],[139.7695749,35.7095438],[139.7696094,35.7095301],[139.7696505,35.7095219],[139.769738,35.7094992],[139.7698419,35.7094753],[139.7699163,35.7094663],[139.7699187,35.7094559],[139.7699644,35.7094463],[139.7700156,35.7094494],[139.7700712,35.709459],[139.7701438,35.709472],[139.7705927,35.7095486],[139.7707678,35.7095801],[139.770903,35.7096059],[139.7709469,35.7096164],[139.7710161,35.7096296],[139.7710879,35.709644],[139.7712439,35.7096763],[139.7712569,35.7096786],[139.7713661,35.7096968],[139.7713697,35.7096872],[139.7715577,35.7097283],[139.7716641,35.7097514],[139.771693,35.709757],[139.7717754,35.709769],[139.7719317,35.7097908],[139.7719727,35.7098012],[139.772122,35.7098394],[139.7722109,35.7098617],[139.7724257,35.7099065],[139.7724302,35.7099133],[139.7724703,35.709921],[139.7724806,35.7099163],[139.7725795,35.7099408],[139.772889,35.7100104],[139.7728338,35.7104741],[139.7728197,35.710843],[139.7727769,35.7115597],[139.7727499,35.7119879],[139.7728575,35.7120244],[139.7728264,35.7120963],[139.7726727,35.7123777],[139.7725735,35.7124856],[139.7724805,35.7126339],[139.7719818,35.7134672],[139.7719298,35.7135438],[139.7718319,35.7136878],[139.771647,35.7139598],[139.7715352,35.7141243],[139.7713966,35.7142664],[139.7713168,35.7143267],[139.7712963,35.7143366],[139.7712952,35.7143483],[139.7712666,35.7143687],[139.7711282,35.7144006],[139.7711244,35.714413],[139.7708731,35.7144799],[139.7708951,35.7145792],[139.7710002,35.7145488],[139.771316,35.7144645],[139.771406,35.7144244],[139.7715514,35.7143368],[139.7716827,35.7141283],[139.7717972,35.7139857],[139.7719561,35.7137494],[139.7720451,35.7136159],[139.772155,35.7134524],[139.772315,35.7132119],[139.7723968,35.7130918],[139.7724701,35.7129846],[139.7726323,35.712774],[139.7728014,35.7124957],[139.7728297,35.7124468],[139.7729344,35.712267],[139.7729891,35.7121651],[139.7730362,35.7120453],[139.7730759,35.7119437],[139.7730932,35.711866],[139.7731187,35.7117659],[139.7733503,35.710827],[139.7733576,35.7107936],[139.7733604,35.7107853],[139.7733686,35.7107767],[139.7733925,35.7107702],[139.7734305,35.7107698],[139.7735444,35.7107784],[139.7736725,35.7107412],[139.7737244,35.710728],[139.7737529,35.7107284],[139.7738517,35.710912],[139.7740625,35.7113053],[139.7740625,35.7113539],[139.7741425,35.7115302],[139.7741325,35.7115458],[139.77455,35.7117984],[139.7746211,35.7119253],[139.7747597,35.7121994],[139.7747707,35.7122212],[139.7748787,35.7124262],[139.7748877,35.7124433],[139.7748909,35.7124494],[139.7750037,35.7126703],[139.7750414,35.7127383],[139.7750995,35.7127168],[139.7753122,35.7129609],[139.7753889,35.7130669],[139.7754551,35.7131579],[139.775536,35.7133148],[139.7756194,35.7134906],[139.7756776,35.7136419],[139.7756849,35.7136796],[139.7758356,35.7136353],[139.776015,35.7139001],[139.7761083,35.7140524],[139.7762443,35.7142294],[139.7763693,35.714392],[139.7764615,35.714512],[139.776538,35.7144782],[139.7770125,35.7150577],[139.7772513,35.7153133],[139.7774738,35.7155418],[139.7776256,35.7157124],[139.7777502,35.715857],[139.7779265,35.7160506],[139.7779464,35.7160744],[139.7780104,35.7161525],[139.7778686,35.7162371],[139.7778577,35.7162411],[139.7778452,35.7162417],[139.7778276,35.7162407],[139.7778144,35.7162376],[139.7777451,35.7161533],[139.7776998,35.716099],[139.7776807,35.716108],[139.7775271,35.715921],[139.7773612,35.7157194],[139.7771053,35.7153987],[139.7769365,35.7151878],[139.7768838,35.7151174],[139.7768011,35.7151539],[139.7768301,35.7151909],[139.7769493,35.7153407],[139.7770196,35.7154288],[139.7772509,35.7157084],[139.7772287,35.7157212],[139.7777249,35.7162907],[139.7772299,35.7165283],[139.7770251,35.7166266],[139.7764674,35.7168892],[139.7763145,35.7169626],[139.7763147,35.7169929],[139.77631,35.7170046],[139.7763043,35.7170164],[139.7762877,35.7170335],[139.775665,35.7173472],[139.7755198,35.7174204],[139.7752573,35.7175473],[139.7749338,35.7177083],[139.7746504,35.7178454],[139.7744478,35.7179428],[139.7744216,35.7179559],[139.7743678,35.7179766],[139.7742342,35.718051],[139.773903,35.7182181],[139.7737712,35.7182709],[139.7737176,35.7182824],[139.7736681,35.7182874],[139.7736585,35.7182901],[139.7736179,35.7183131],[139.7736143,35.7183097],[139.7731699,35.7185741],[139.7726513,35.7180516],[139.7726045,35.7179914],[139.7724946,35.7178698],[139.7720517,35.7180085],[139.7719535,35.7180373],[139.7713214,35.7182426],[139.7703645,35.7181582],[139.7699861,35.7181123],[139.7703629,35.7177057],[139.7704319,35.7176141],[139.7704352,35.7174316],[139.7702413,35.7173453],[139.7701244,35.7172937],[139.769975,35.7172276],[139.7698978,35.7171927],[139.7698906,35.7171831],[139.7699034,35.7171615],[139.7699234,35.7171261],[139.7698857,35.7171112],[139.7698696,35.7171051],[139.7699133,35.7169804],[139.7699393,35.7166849],[139.7698911,35.7164916],[139.7698824,35.7164864],[139.7698759,35.7164812],[139.7698707,35.7164716],[139.7698675,35.7164652],[139.7698654,35.7164579],[139.7698605,35.716341],[139.7698562,35.7162324],[139.7698445,35.7161284],[139.7698319,35.7160756],[139.7698213,35.7160467],[139.7698105,35.716008],[139.7698015,35.7159603],[139.7697936,35.7159176],[139.769805,35.7158042],[139.7698164,35.7157354],[139.7698429,35.7156226],[139.7698678,35.715519],[139.7698764,35.7154781],[139.769894,35.7154235],[139.7699351,35.7152906],[139.7700647,35.7148946],[139.7700899,35.7148673],[139.7701345,35.7148311],[139.7702062,35.7147914],[139.7702415,35.7147755],[139.770568,35.7146709],[139.770833,35.7145966],[139.7708073,35.7144977],[139.77025,35.7146767],[139.7701264,35.7147224],[139.7700579,35.7147577],[139.7699694,35.7148344],[139.7697891,35.7154006],[139.7693625,35.7152998],[139.7692145,35.7154368],[139.7691751,35.7154237],[139.7690863,35.7154462],[139.7685727,35.7155062],[139.7684549,35.7155165],[139.7684892,35.7152287],[139.7678948,35.7151376]]],[[[139.7734254,35.7186408],[139.7734834,35.7186002],[139.7734799,35.7185779],[139.7742842,35.718182],[139.7751514,35.7177587],[139.7756452,35.7175194],[139.7760186,35.7173358],[139.7767843,35.7169594],[139.7771915,35.717547],[139.7772825,35.71771],[139.7773801,35.7180091],[139.7782071,35.7192305],[139.7781959,35.7192712],[139.7780613,35.7193497],[139.7779815,35.7195173],[139.7764228,35.7204338],[139.7762928,35.7207809],[139.7755798,35.7211723],[139.7755202,35.7211614],[139.7752651,35.7208451],[139.7750376,35.720563],[139.7744374,35.7197004],[139.7739148,35.7191113],[139.7737928,35.7189783],[139.7734801,35.7186922],[139.7734254,35.7186408]]],[[[139.777964,35.7163807],[139.7779752,35.7163497],[139.778103,35.7162725],[139.7782923,35.7165305],[139.7784591,35.7167687],[139.7786394,35.7170123],[139.7784056,35.7170996],[139.777964,35.7163807]]]]}}]}
