{"type":"FeatureCollection","features":[{"type":"Feature","properties":{"potaRef":"JP-1021","nameEn":"Tokachi Ecology Prefectural Park","source":"© OpenStreetMap contributors / ODbL","osmType":"way","osmId":474089215,"osmName":"十勝エコロジーパーク","boundaryStatus":"OpenStreetMap公園・保護区域候補（POTA公式境界ではありません）","boundarySource":"OpenStreetMap contributors / ODbL"},"geometry":{"type":"Polygon","coordinates":[[[143.3063248,42.9333202],[143.307153,42.9267655],[143.3071058,42.9262661],[143.3071902,42.9261451],[143.3077723,42.9260803],[143.3089306,42.9260848],[143.3103762,42.9261245],[143.31079,42.9261409],[143.3113112,42.9261859],[143.3116953,42.9262368],[143.3122136,42.9263495],[143.3133873,42.9266561],[143.3142065,42.9269151],[143.3144568,42.9269778],[143.3149345,42.927155],[143.3151804,42.9272526],[143.3154315,42.927358],[143.3156218,42.9274187],[143.3158934,42.9275314],[143.3162867,42.9276929],[143.3177431,42.9280725],[143.3191837,42.9290686],[143.3205138,42.9303389],[143.3210804,42.9309223],[143.3217774,42.9318268],[143.3223784,42.9333423],[143.3244723,42.9355502],[143.3255049,42.936231],[143.3268988,42.9370894],[143.3283448,42.9379572],[143.3299471,42.9388537],[143.3313019,42.9396739],[143.3308202,42.9401679],[143.3302433,42.9400473],[143.3274428,42.9394766],[143.3263224,42.9392792],[143.3247877,42.939042],[143.3213452,42.9385748],[143.3203701,42.9384225],[143.3187688,42.9380327],[143.3170206,42.9375394],[143.315379,42.9369543],[143.3114162,42.9353156],[143.3063248,42.9333202]]]}}]}
