{"type":"FeatureCollection","features":[{"type":"Feature","properties":{"potaRef":"JP-1317","nameEn":"Mitsuike Prefectural Park","source":"© OpenStreetMap contributors / ODbL","osmType":"way","osmId":575570390,"osmName":"丘の上の広場","boundaryStatus":"OpenStreetMap公園・保護区域候補（POTA公式境界ではありません）","boundarySource":"OpenStreetMap contributors / ODbL"},"geometry":{"type":"Polygon","coordinates":[[[139.6612607,35.5229055],[139.6612955,35.5229076],[139.6613357,35.5228652],[139.6613337,35.5228234],[139.6612576,35.5226265],[139.661224,35.5225856],[139.6611859,35.5225625],[139.6611347,35.5224363],[139.661099,35.5223169],[139.6610814,35.5222003],[139.6610549,35.5221721],[139.6609939,35.522007],[139.66099,35.5219368],[139.6610177,35.5217681],[139.6609863,35.5217839],[139.6609282,35.521875],[139.6608773,35.5219721],[139.6607976,35.5220848],[139.6608015,35.5221861],[139.6608241,35.522322],[139.6608478,35.5223845],[139.6608831,35.5224439],[139.6609329,35.5225311],[139.6610161,35.5226652],[139.6610928,35.522748],[139.6612078,35.5228886],[139.6612607,35.5229055]]]}}]}
