{"type":"FeatureCollection","features":[{"type":"Feature","properties":{"potaRef":"JP-1868","nameEn":"Rinkuu-kouen Prefectural Park","boundarySource":"OpenStreetMap contributors / ODbL","source":"© OpenStreetMap contributors / ODbL","osmType":"area","osmId":"963428632","osmName":"仙台空港臨空公園","boundaryStatus":"OpenStreetMap公園・保護区域候補（POTA公式境界ではありません）"},"geometry":{"type":"MultiPolygon","coordinates":[[[[140.8983276,38.1364725],[140.898606,38.136305],[140.8991736,38.1360141],[140.8997235,38.1358308],[140.9000695,38.1357203],[140.9001461,38.1356951],[140.9001881,38.1356815],[140.9009445,38.1354369],[140.9009763,38.1354983],[140.9009681,38.1355366],[140.9009563,38.1355615],[140.9009318,38.1355844],[140.9008956,38.1356029],[140.9008418,38.1356081],[140.9008281,38.1357135],[140.900826,38.1357296],[140.9007085,38.1357163],[140.9007528,38.1359657],[140.9007242,38.1361404],[140.9006705,38.1364675],[140.9005287,38.1364862],[140.9005143,38.1364997],[140.900231,38.1364682],[140.8998512,38.1364328],[140.8994977,38.1363999],[140.8989402,38.1363315],[140.8989294,38.1363301],[140.8988876,38.136325],[140.8983558,38.136483],[140.8983276,38.1364725]]]]}}]}
