{"type":"FeatureCollection","features":[{"type":"Feature","properties":{"potaRef":"JP-1919","nameEn":"Kainan Kodomonokuni Prefectural Park","boundarySource":"OpenStreetMap contributors / ODbL","source":"© OpenStreetMap contributors / ODbL","osmType":"area","osmId":"526956368","osmName":"海南こどもの国","boundaryStatus":"OpenStreetMap公園・保護区域候補（POTA公式境界ではありません）"},"geometry":{"type":"MultiPolygon","coordinates":[[[[136.7542143,35.0975342],[136.7547688,35.0970541],[136.7549201,35.096908],[136.7551403,35.0966953],[136.7553615,35.0963215],[136.7553217,35.0962948],[136.7552177,35.0962513],[136.7553829,35.0960952],[136.7565651,35.0947558],[136.7575317,35.0936212],[136.7576885,35.0933955],[136.7593892,35.0940335],[136.7575687,35.0972624],[136.7566751,35.0969161],[136.7563502,35.0973869],[136.7559415,35.0979621],[136.7558023,35.0979348],[136.7557587,35.0979753],[136.7556911,35.0979575],[136.7559464,35.0976048],[136.7561216,35.0973627],[136.7557693,35.0972232],[136.7555173,35.0971234],[136.7554037,35.0973192],[136.7551136,35.0972252],[136.7548307,35.0977361],[136.754592,35.0976693],[136.7545388,35.0976297],[136.7542143,35.0975342]]]]}}]}
