{"type":"FeatureCollection","features":[{"type":"Feature","properties":{"potaRef":"JP-1234","nameEn":"Shiokaze Prefectural Park","boundarySource":"OpenStreetMap contributors / ODbL","source":"© OpenStreetMap contributors / ODbL","osmType":"area","osmId":"35863621","osmName":"潮風公園","boundaryStatus":"OpenStreetMap公園・保護区域候補（POTA公式境界ではありません）"},"geometry":{"type":"MultiPolygon","coordinates":[[[[139.7675945,35.6257724],[139.7676608,35.6220733],[139.7679807,35.6217117],[139.7708208,35.6238669],[139.7702986,35.6245813],[139.7702721,35.6247232],[139.7702049,35.6248041],[139.7697025,35.6253992],[139.7693154,35.6258577],[139.7692714,35.6259099],[139.7687897,35.6264653],[139.767621,35.6258266],[139.7676026,35.6258031],[139.7675945,35.6257724]]],[[[139.7686291,35.6209791],[139.7705088,35.6188547],[139.771237,35.6192465],[139.7701022,35.6206805],[139.7723739,35.6219187],[139.7713394,35.6232145],[139.7686291,35.6209791]]]]}}]}
