{"type":"FeatureCollection","features":[{"type":"Feature","properties":{"potaRef":"JP-1276","nameEn":"Higashifushimi Prefectural Park","boundarySource":"OpenStreetMap contributors / ODbL","source":"© OpenStreetMap contributors / ODbL","osmType":"area","osmId":"28414741","osmName":"都立東伏見公園","boundaryStatus":"OpenStreetMap公園・保護区域候補（POTA公式境界ではありません）"},"geometry":{"type":"MultiPolygon","coordinates":[[[[139.5558222,35.7288256],[139.5558674,35.7287476],[139.555897,35.7286433],[139.5559788,35.728456],[139.5561062,35.7284593],[139.5561934,35.7288621],[139.5558222,35.7288256]]],[[[139.5559685,35.7277488],[139.5560673,35.7275383],[139.5563865,35.7275611],[139.5566896,35.7275045],[139.5567928,35.7274131],[139.5568934,35.7273826],[139.5574312,35.7273434],[139.5576686,35.7272835],[139.557804,35.7272138],[139.5578389,35.7269384],[139.5578003,35.7263703],[139.5580575,35.7263646],[139.5580615,35.7264697],[139.5580841,35.7269377],[139.5580857,35.7270749],[139.5585549,35.727108],[139.5586047,35.7272628],[139.5586653,35.7273665],[139.558781,35.727659],[139.558844,35.7277971],[139.5589681,35.7280336],[139.5590177,35.7281969],[139.5590217,35.7284299],[139.5589627,35.7290668],[139.5578395,35.7290226],[139.5576809,35.7290094],[139.5562304,35.7288668],[139.5562249,35.7288432],[139.5559685,35.7277488]]]]}}]}
