{"type":"FeatureCollection","features":[{"type":"Feature","properties":{"potaRef":"JP-1962","nameEn":"Sodegaura Kaihin Prefectural Park","boundarySource":"OpenStreetMap contributors / ODbL","source":"© OpenStreetMap contributors / ODbL","osmType":"area","osmId":"1169152076","osmName":"袖ヶ浦海浜公園","boundaryStatus":"OpenStreetMap公園・保護区域候補（POTA公式境界ではありません）"},"geometry":{"type":"MultiPolygon","coordinates":[[[[139.9510656,35.4541962],[139.9560733,35.4553911],[139.9556458,35.4567166],[139.9554473,35.4569712],[139.951248,35.456014],[139.9510656,35.4541962]]]]}}]}
