{"type":"FeatureCollection","features":[{"type":"Feature","properties":{"potaRef":"JP-1169","nameEn":"Hanyu Suigo Prefectural Park","source":"© OpenStreetMap contributors / ODbL","osmType":"way","osmId":64377273,"osmName":"羽生水郷公園","boundaryStatus":"OpenStreetMap公園・保護区域候補（POTA公式境界ではありません）","boundarySource":"OpenStreetMap contributors / ODbL"},"geometry":{"type":"Polygon","coordinates":[[[139.590535,36.1751097],[139.5902123,36.1708453],[139.59012,36.1696263],[139.5926503,36.1689412],[139.5927967,36.1693488],[139.5949139,36.1684879],[139.5947505,36.1679805],[139.5966835,36.1675569],[139.5967363,36.1677084],[139.5969899,36.1676516],[139.5975553,36.1692266],[139.5986866,36.1689591],[139.5989665,36.1697879],[139.5999757,36.169483],[139.6012315,36.1730883],[139.590535,36.1751097]]]}}]}
