{"type":"FeatureCollection","features":[{"type":"Feature","properties":{"potaRef":"JP-1825","nameEn":"Tokai Greenway Prefectural Park","boundarySource":"OpenStreetMap contributors / ODbL","source":"© OpenStreetMap contributors / ODbL","osmType":"area","osmId":"1401231356","osmName":"東海緑道公園","boundaryStatus":"OpenStreetMap公園・保護区域候補（POTA公式境界ではありません）"},"geometry":{"type":"MultiPolygon","coordinates":[[[[139.7578917,35.5781041],[139.7581871,35.5771531],[139.762468,35.5771443],[139.7636919,35.5782502],[139.7629341,35.5782538],[139.7633636,35.5781007],[139.7623958,35.577209],[139.7583182,35.5772138],[139.7579865,35.5782509],[139.7578917,35.5781041]]]]}}]}
