{"type":"FeatureCollection","features":[{"type":"Feature","properties":{"potaRef":"JP-1809","nameEn":"Yumenoshima Greenway Prefectural Park","boundarySource":"OpenStreetMap contributors / ODbL","source":"© OpenStreetMap contributors / ODbL","osmType":"area","osmId":"1553771938","osmName":"夢の島緑道公園","boundaryStatus":"OpenStreetMap公園・保護区域候補（POTA公式境界ではありません）"},"geometry":{"type":"MultiPolygon","coordinates":[[[[139.8255522,35.6476281],[139.8256349,35.6470592],[139.8257749,35.6469753],[139.8339916,35.6477557],[139.8372599,35.6480407],[139.8374222,35.6481959],[139.8354551,35.6480686],[139.8354178,35.648219],[139.8373342,35.6501602],[139.8405931,35.6480996],[139.8376601,35.648195],[139.8378088,35.6480293],[139.8392391,35.6479933],[139.841393,35.6478323],[139.8413992,35.6478877],[139.8373535,35.6504219],[139.8350287,35.6481051],[139.835062,35.6478716],[139.8349825,35.6478645],[139.834979,35.6478848],[139.8349342,35.6482508],[139.8349463,35.6483042],[139.8349731,35.6483532],[139.8351676,35.6485527],[139.8351504,35.6485665],[139.835125,35.6485831],[139.8351015,35.6485985],[139.8339793,35.6484896],[139.8339868,35.6484389],[139.8339018,35.6484306],[139.8338966,35.6484811],[139.8338448,35.6484774],[139.833866,35.6483293],[139.8339098,35.6480228],[139.8339219,35.6479378],[139.8339469,35.6477631],[139.8338874,35.6477575],[139.8338502,35.6480021],[139.8334907,35.6479688],[139.8335247,35.6477279],[139.8334502,35.6477225],[139.8334245,35.6479492],[139.8273122,35.6473877],[139.8270431,35.6473328],[139.8263639,35.6471645],[139.8256488,35.647085],[139.8256418,35.6471241],[139.8263232,35.6472096],[139.8270083,35.647378],[139.8266274,35.6473497],[139.8263446,35.6473572],[139.8260747,35.6473849],[139.8255903,35.6474858],[139.8255837,35.6475321],[139.8260834,35.6474377],[139.8263498,35.6474075],[139.8266234,35.6473989],[139.8330127,35.6480238],[139.8331475,35.648066],[139.8332254,35.6481192],[139.8332661,35.6481767],[139.8332891,35.6482328],[139.8332979,35.6482932],[139.8333008,35.6483545],[139.8255522,35.6476281]]]]}}]}
