{"type":"FeatureCollection","features":[{"type":"Feature","properties":{"potaRef":"JP-1822","nameEn":"Shibaura Minami Port Prefectural Park","boundarySource":"OpenStreetMap contributors / ODbL","source":"© OpenStreetMap contributors / ODbL","osmType":"area","osmId":"1080423816","osmName":"芝浦南ふ頭公園","boundaryStatus":"OpenStreetMap公園・保護区域候補（POTA公式境界ではありません）"},"geometry":{"type":"MultiPolygon","coordinates":[[[[139.7591376,35.6373277],[139.7591384,35.6373111],[139.759146,35.6370729],[139.7596102,35.6367979],[139.7596625,35.6367668],[139.7604396,35.6367712],[139.7604335,35.6377499],[139.7595182,35.6377586],[139.7595201,35.6376857],[139.7593949,35.6375082],[139.7592802,35.6373825],[139.7591376,35.6373277]]]]}}]}
