{"type":"FeatureCollection","features":[{"type":"Feature","properties":{"potaRef":"JP-1382","nameEn":"Taikoyama Land Prefectural Park","source":"© OpenStreetMap contributors / ODbL","osmType":"way","osmId":1105745920,"osmName":"","boundaryStatus":"OpenStreetMap公園・保護区域候補（POTA公式境界ではありません）","boundarySource":"OpenStreetMap contributors / ODbL"},"geometry":{"type":"Polygon","coordinates":[[[137.1095831,36.6976399],[137.1097834,36.6974102],[137.1098413,36.6973994],[137.1095357,36.6972303],[137.1093588,36.6970676],[137.1092805,36.6969198],[137.1093025,36.6960328],[137.1093247,36.6956675],[137.1093703,36.695526],[137.1095365,36.6953506],[137.1097886,36.6952503],[137.1100206,36.6952082],[137.1106657,36.6950471],[137.1101969,36.6943215],[137.1098822,36.6938992],[137.1096117,36.6935396],[137.1098295,36.6923226],[137.1099001,36.6919881],[137.1099318,36.6914691],[137.109828,36.6909781],[137.1083095,36.6894964],[137.1082783,36.6892581],[137.10805,36.6890848],[137.1079269,36.6887021],[137.1071865,36.688596],[137.10713,36.6885879],[137.1064165,36.6876179],[137.1071675,36.6874297],[137.1076787,36.6872038],[137.10765,36.687062],[137.10729,36.685876],[137.107114,36.685399],[137.106935,36.685132],[137.106647,36.684794],[137.106089,36.684153],[137.105719,36.683797],[137.105113,36.683459],[137.104981,36.683448],[137.10473,36.683518],[137.103981,36.683895],[137.10359,36.684065],[137.103283,36.684196],[137.1024173,36.6845354],[137.101965,36.684634],[137.101647,36.684673],[137.10131,36.684646],[137.101046,36.684572],[137.100723,36.684413],[137.100456,36.68422],[137.100364,36.684169],[137.100142,36.684126],[137.099815,36.684126],[137.099571,36.68417],[137.099363,36.684344],[137.099108,36.684606],[137.098904,36.685248],[137.098948,36.685477],[137.099043,36.685666],[137.099147,36.685875],[137.099186,36.686118],[137.0992031,36.686295],[137.099209,36.686362],[137.099214,36.686521],[137.0992211,36.686776],[137.09917,36.687008],[137.0990259,36.6872636],[137.0987464,36.6875295],[137.0985301,36.6877489],[137.0982476,36.6881043],[137.0979258,36.6884814],[137.0975818,36.6889926],[137.0973195,36.6894782],[137.097149,36.6897537],[137.096875,36.6901758],[137.0969905,36.6903539],[137.0972,36.6912923],[137.0975412,36.6912901],[137.0976909,36.6912917],[137.0980699,36.6917305],[137.0981407,36.6917638],[137.0983366,36.6921292],[137.0982423,36.692286],[137.0979027,36.6927199],[137.0981172,36.6928192],[137.0991293,36.6950984],[137.0992201,36.6953028],[137.0994831,36.6954556],[137.099944,36.6956336],[137.100064,36.6957287],[137.100064,36.6958031],[137.101124,36.6960932],[137.1022649,36.6963246],[137.1031176,36.6965025],[137.1038756,36.6966659],[137.1040395,36.6967319],[137.1063396,36.6972243],[137.1076317,36.6974627],[137.1080871,36.6975485],[137.1084461,36.6976031],[137.1087839,36.6976298],[137.1095831,36.6976399]]]}}]}
