{"type":"FeatureCollection","features":[{"type":"Feature","properties":{"potaRef":"JP-1864","nameEn":"Genryu-no-mori Prefectural Park","boundarySource":"OpenStreetMap contributors / ODbL","source":"© OpenStreetMap contributors / ODbL","osmType":"area","osmId":"1381801454","osmName":"源流の森","boundaryStatus":"OpenStreetMap公園・保護区域候補（POTA公式境界ではありません）"},"geometry":{"type":"MultiPolygon","coordinates":[[[[139.8962792,37.924902],[139.8968505,37.9240536],[139.8984196,37.9242609],[139.8996534,37.9250691],[139.9007424,37.9266094],[139.8995193,37.9282554],[139.8966251,37.9256087],[139.8962792,37.924902]]]]}}]}
