{"type":"FeatureCollection","features":[{"type":"Feature","properties":{"potaRef":"JP-1547","nameEn":"Mikiyama Forest Prefectural Park","boundarySource":"OpenStreetMap contributors / ODbL","source":"© OpenStreetMap contributors / ODbL","osmType":"area","osmId":"865416680","osmName":"兵庫県立三木山森林公園","boundaryStatus":"OpenStreetMap公園・保護区域候補（POTA公式境界ではありません）"},"geometry":{"type":"MultiPolygon","coordinates":[[[[134.982042,34.7910942],[134.9823524,34.7906233],[134.9823524,34.790087],[134.9822826,34.7895407],[134.9823685,34.7892609],[134.9828432,34.7887521],[134.9832134,34.7883071],[134.983436,34.7880207],[134.984069,34.7878643],[134.9843935,34.7877079],[134.9848683,34.7869568],[134.9849622,34.7865889],[134.9860243,34.7856857],[134.9861236,34.7856505],[134.9863247,34.7857386],[134.9867968,34.785265],[134.9870865,34.78532],[134.987352,34.7850249],[134.9875854,34.7844411],[134.9885375,34.7841239],[134.9890659,34.7840291],[134.9894415,34.7841679],[134.9899886,34.7838221],[134.9902193,34.7835621],[134.9903427,34.7832735],[134.9904178,34.7828021],[134.9904661,34.7826457],[134.9906806,34.7825862],[134.9912037,34.7826149],[134.9920834,34.782714],[134.9922739,34.7826699],[134.992577,34.7824518],[134.9930732,34.7822117],[134.993505,34.7819518],[134.9936418,34.781791],[134.9937652,34.7822866],[134.9937571,34.7827074],[134.993741,34.7829872],[134.9936257,34.7832846],[134.9929042,34.7846107],[134.9926038,34.785265],[134.992577,34.7855844],[134.9926279,34.7858509],[134.9927298,34.7860712],[134.9929337,34.7870185],[134.9929364,34.7871705],[134.9924965,34.7884283],[134.9922229,34.7887939],[134.9919761,34.7892653],[134.9919815,34.7897455],[134.9914008,34.791011],[134.9912198,34.7912478],[134.9909971,34.7912963],[134.9906055,34.7915342],[134.9901978,34.7919879],[134.9898545,34.7920408],[134.9894978,34.7923095],[134.9897982,34.7928161],[134.9899672,34.7932258],[134.9893234,34.793173],[134.9887092,34.7930342],[134.9879984,34.7927434],[134.9873171,34.7923448],[134.9867029,34.7919791],[134.9860243,34.7917831],[134.9856569,34.7917456],[134.9853028,34.7917632],[134.9849005,34.7918381],[134.9843345,34.7921399],[134.9837552,34.7926311],[134.9834843,34.7925496],[134.9833662,34.7923337],[134.9835916,34.7919395],[134.9840663,34.7915364],[134.9842675,34.7912588],[134.9848441,34.7909681],[134.9849595,34.7908117],[134.9848576,34.7906178],[134.9848656,34.790305],[134.9854208,34.7899592],[134.9854798,34.7898094],[134.9853886,34.7895473],[134.9858392,34.7886684],[134.9858044,34.7884855],[134.9851955,34.7882124],[134.9850185,34.7882741],[134.9846066,34.7888041],[134.9845568,34.7888681],[134.9844552,34.7889988],[134.9841414,34.7892257],[134.9839268,34.789642],[134.98384,34.7898307],[134.9837901,34.7899393],[134.9835152,34.7902621],[134.9833314,34.7903557],[134.9831463,34.7906288],[134.9829908,34.7908238],[134.9830081,34.7909879],[134.9826903,34.7911443],[134.9824248,34.7912831],[134.9822907,34.7912831],[134.9822752,34.79125],[134.982042,34.7910942]]]]}}]}
