{"type":"FeatureCollection","features":[{"type":"Feature","properties":{"potaRef":"JP-1915","nameEn":"Katsuragawa Wellness Prefectural Park","boundarySource":"OpenStreetMap contributors / ODbL","source":"© OpenStreetMap contributors / ODbL","osmType":"area","osmId":"1925544604","osmName":"ウェルネスパーク","boundaryStatus":"OpenStreetMap公園・保護区域候補（POTA公式境界ではありません）"},"geometry":{"type":"MultiPolygon","coordinates":[[[[138.9945319,35.6214883],[138.9945926,35.6213797],[138.9954302,35.6208568],[138.9963648,35.620689],[138.9971902,35.6203437],[138.9983419,35.6197252],[138.9985133,35.6196332],[138.9991445,35.6205016],[139.0001034,35.6198898],[138.9999468,35.6193749],[139.000342,35.619141],[139.0005523,35.619298],[139.0009895,35.619357],[139.0016313,35.6199923],[139.0010866,35.6203832],[139.001293,35.6206496],[139.0017011,35.6205842],[139.0015236,35.6213304],[139.0013415,35.6214981],[139.0007487,35.6207746],[139.0007559,35.6204622],[139.0007589,35.6203338],[139.0002612,35.6199391],[138.9992068,35.6206538],[138.9991346,35.6208416],[138.9990708,35.6210786],[138.9990541,35.6211407],[138.9990335,35.621217],[138.9992934,35.6214811],[138.998983,35.6215749],[138.9981169,35.6218155],[138.9981134,35.6218653],[138.9981025,35.6220208],[138.9982901,35.6223024],[138.9984056,35.6226192],[138.997886,35.6227542],[138.9977872,35.6224921],[138.9977633,35.6221616],[138.9970127,35.6224315],[138.9961393,35.6230886],[138.9960166,35.6230299],[138.9958434,35.6228539],[138.9954248,35.6229947],[138.9953452,35.6227118],[138.9949204,35.6220704],[138.9945319,35.6214883]]]]}}]}
