{"type":"FeatureCollection","features":[{"type":"Feature","properties":{"potaRef":"JP-1264","nameEn":"Koganei Prefectural Park","source":"© OpenStreetMap contributors / ODbL","osmType":"way","osmId":591077391,"osmName":"小金井公園","boundaryStatus":"OpenStreetMap公園・保護区域候補（POTA公式境界ではありません）","boundarySource":"OpenStreetMap contributors / ODbL"},"geometry":{"type":"Polygon","coordinates":[[[139.5182666,35.7177967],[139.5182402,35.7184217],[139.5181925,35.7198909],[139.5185819,35.7199098],[139.518966,35.7199014],[139.5192008,35.7198821],[139.5194171,35.7198399],[139.519533,35.7197831],[139.5199513,35.7195734],[139.5200299,35.7195309],[139.5202286,35.7194393],[139.5203199,35.7194162],[139.5205439,35.7194179],[139.5206462,35.7194319],[139.5207276,35.719446],[139.5207972,35.7194619],[139.5208749,35.7194832],[139.520942,35.719512],[139.5210987,35.7196376],[139.5212067,35.7198225],[139.5212313,35.7198744],[139.521279,35.7199173],[139.5213182,35.7199425],[139.5213637,35.7199541],[139.521978,35.7200544],[139.5222133,35.7201116],[139.522327,35.7201576],[139.5224643,35.7202485],[139.5230392,35.7197958],[139.5231315,35.7198769],[139.5233189,35.7197321],[139.5236247,35.7199858],[139.5238721,35.719835],[139.5235234,35.7194787],[139.5239331,35.7191624],[139.5241846,35.7190108],[139.5242193,35.7190342],[139.5242985,35.7191864],[139.5244693,35.7192239],[139.52432,35.7189737],[139.5250456,35.7187292],[139.5245101,35.7181193],[139.5249174,35.7179158],[139.5246096,35.7175854],[139.5245598,35.7174965],[139.5254834,35.7174625],[139.5258461,35.7184522],[139.5258975,35.7185316],[139.5262663,35.7184108],[139.5267214,35.7182576],[139.5279076,35.7178454],[139.5289295,35.7174764],[139.5289004,35.7172706],[139.5283991,35.7132281],[139.5283853,35.7131932],[139.5272462,35.713297],[139.5255886,35.7135237],[139.5257098,35.713929],[139.5254325,35.7141556],[139.5254812,35.7142981],[139.5258359,35.7142927],[139.5258452,35.71433],[139.5258968,35.7145425],[139.5259715,35.71475],[139.5261097,35.7152342],[139.5259228,35.7154299],[139.5256258,35.7143368],[139.5249981,35.7143663],[139.5250066,35.7143257],[139.5248014,35.7136563],[139.5246306,35.7136875],[139.524187,35.7136979],[139.5243738,35.7143552],[139.5243891,35.7143968],[139.5239686,35.7144155],[139.5239609,35.7143811],[139.5238124,35.7137286],[139.523584,35.7137419],[139.5237252,35.7143931],[139.523735,35.7144307],[139.5237752,35.7146826],[139.5239155,35.7154121],[139.5237279,35.7155532],[139.5235242,35.7144403],[139.5231137,35.7144622],[139.5231472,35.7146866],[139.522922,35.7147092],[139.522892,35.7144722],[139.5228868,35.7144346],[139.5231642,35.7144212],[139.5230932,35.7137611],[139.5226904,35.7137979],[139.5227175,35.7144494],[139.5227221,35.7144785],[139.522266,35.7145044],[139.5224579,35.7157729],[139.5221724,35.7157894],[139.5220687,35.7146981],[139.521875,35.7147116],[139.5218845,35.7153263],[139.5216667,35.7153529],[139.5216337,35.7149903],[139.5214494,35.7150055],[139.5215056,35.7156274],[139.5212229,35.7156216],[139.5212038,35.7145565],[139.5212039,35.7145235],[139.521792,35.7144901],[139.5217402,35.713823],[139.5187165,35.7139589],[139.5187166,35.7128076],[139.5175598,35.7128127],[139.5175726,35.714011],[139.5172218,35.7140213],[139.5172353,35.7143636],[139.5152676,35.7143756],[139.5152582,35.7139316],[139.5136218,35.7140267],[139.5126445,35.7139365],[139.5124717,35.7127509],[139.512183,35.7127532],[139.5123446,35.7139566],[139.5082051,35.7134198],[139.5082654,35.7140882],[139.5082726,35.7141514],[139.5083361,35.7149801],[139.5083418,35.7150434],[139.5084384,35.7161822],[139.5100174,35.716412],[139.5108042,35.7165312],[139.5108132,35.7165326],[139.5148849,35.7171507],[139.5148999,35.717153],[139.514918,35.7171557],[139.5149503,35.7171606],[139.5153601,35.7172228],[139.5182222,35.7177856],[139.5182666,35.7177967]]]}}]}
