{"type":"FeatureCollection","features":[{"type":"Feature","properties":{"potaRef":"JP-1244","nameEn":"Toneri Prefectural Park","boundarySource":"OpenStreetMap contributors / ODbL","source":"© OpenStreetMap contributors / ODbL","osmType":"area","osmId":"20236201","osmName":"Toneri Park","boundaryStatus":"OpenStreetMap公園・保護区域候補（POTA公式境界ではありません）"},"geometry":{"type":"MultiPolygon","coordinates":[[[[139.7653356,35.7958819],[139.7680695,35.7944677],[139.7680698,35.7944462],[139.7687257,35.794092],[139.7694309,35.7937139],[139.7699522,35.7935333],[139.7699644,35.7956868],[139.7698685,35.7957735],[139.7679519,35.795832],[139.7663197,35.7959288],[139.7653635,35.79597],[139.7653356,35.7958819]]],[[[139.7657395,35.7962538],[139.7658462,35.7961658],[139.7690968,35.7960064],[139.7693162,35.7960238],[139.7698088,35.7960018],[139.7699362,35.7960896],[139.7699241,35.8016477],[139.7680033,35.8018766],[139.7679608,35.7967599],[139.7657492,35.7968213],[139.7657395,35.7962538]]],[[[139.7702889,35.7930216],[139.7710848,35.793017],[139.772025,35.7924838],[139.7721798,35.7921717],[139.7725122,35.7919904],[139.7730488,35.7916689],[139.7731496,35.7916147],[139.7736213,35.7916163],[139.7736267,35.7918747],[139.7740094,35.7928484],[139.7741172,35.7928446],[139.7741341,35.7934753],[139.7745141,35.7944279],[139.7748922,35.7953056],[139.7750147,35.7953798],[139.7750852,35.7953917],[139.7751031,35.7954158],[139.7751092,35.7956892],[139.7750903,35.7957071],[139.7719979,35.7957708],[139.7704775,35.7957818],[139.7703865,35.7957192],[139.7703299,35.7945877],[139.7703299,35.7944534],[139.7703155,35.7937615],[139.7702889,35.7930216]]],[[[139.7703569,35.8015899],[139.7703578,35.8010396],[139.7703593,35.8005705],[139.7703748,35.8002005],[139.7703873,35.7983225],[139.7704631,35.7960127],[139.7705425,35.7959384],[139.7751526,35.7958546],[139.7753283,35.796117],[139.775627,35.7968671],[139.7756614,35.7970116],[139.7759259,35.7977727],[139.7761279,35.7982946],[139.7761317,35.7983645],[139.7763677,35.7989612],[139.7763685,35.799493],[139.7763767,35.7995876],[139.7765846,35.7995855],[139.7766368,35.7997288],[139.776784,35.7997246],[139.7767854,35.7998334],[139.7765782,35.7998339],[139.7765777,35.7999288],[139.7765776,35.7999473],[139.7768049,35.7999442],[139.7768054,35.7999779],[139.7769561,35.7999772],[139.7769544,35.8003139],[139.776842,35.8003181],[139.7769135,35.8006731],[139.7769628,35.8009547],[139.7766361,35.8010202],[139.7754337,35.8011381],[139.7744077,35.8012267],[139.7742842,35.8012267],[139.7741792,35.8012393],[139.7740243,35.8012715],[139.7736272,35.8013126],[139.7726576,35.8014234],[139.772182,35.8014826],[139.7714785,35.8015582],[139.7707699,35.8016093],[139.7704338,35.8016256],[139.7703569,35.8015899]]]]}}]}
