{"type":"FeatureCollection","features":[{"type":"Feature","properties":{"potaRef":"JP-1929","nameEn":"Takaido Prefectural Park","boundarySource":"OpenStreetMap contributors / ODbL","source":"© OpenStreetMap contributors / ODbL","osmType":"area","osmId":"25586355","osmName":"高井戸公園","boundaryStatus":"OpenStreetMap公園・保護区域候補（POTA公式境界ではありません）"},"geometry":{"type":"MultiPolygon","coordinates":[[[[139.6017921,35.6841101],[139.601808,35.6840742],[139.6018275,35.6840469],[139.6018558,35.6840225],[139.6019707,35.6839593],[139.602453,35.6837464],[139.6028169,35.6835922],[139.6031616,35.683462],[139.6033279,35.6834008],[139.6037192,35.6832077],[139.603991,35.6830702],[139.6043007,35.6829776],[139.6046951,35.6828595],[139.6050202,35.6834669],[139.6051263,35.6836812],[139.6052509,35.6839331],[139.6058394,35.684023],[139.6059233,35.6840088],[139.6059636,35.6840751],[139.6059478,35.6840813],[139.605789,35.6842311],[139.6057419,35.6842857],[139.6054507,35.6844343],[139.6049232,35.684591],[139.6041646,35.6846538],[139.6040732,35.6848331],[139.6037972,35.6849374],[139.6035993,35.6850107],[139.6035145,35.6850667],[139.6032245,35.6851471],[139.6022492,35.6856211],[139.601973,35.6852023],[139.6018356,35.6852058],[139.6018346,35.6851859],[139.6018611,35.6850624],[139.6018664,35.6846502],[139.6018911,35.6843457],[139.601808,35.6841546],[139.6017921,35.6841101]]],[[[139.6027197,35.6816882],[139.6028374,35.6816188],[139.6032043,35.6814329],[139.6033134,35.6813936],[139.6036585,35.6812692],[139.6039104,35.6811881],[139.6042611,35.6810819],[139.6043917,35.681003],[139.6051393,35.6807882],[139.6058743,35.6806447],[139.6058783,35.6807103],[139.6058259,35.6808116],[139.6057774,35.6809709],[139.6057144,35.681283],[139.6057237,35.6815777],[139.6056918,35.6816436],[139.6057029,35.6818808],[139.6057157,35.6821553],[139.6057208,35.682196],[139.6057581,35.682344],[139.6056741,35.6824244],[139.605404,35.6825818],[139.6053106,35.6826296],[139.6051274,35.6827073],[139.6046383,35.6828357],[139.6042296,35.682957],[139.6040218,35.683024],[139.603914,35.6827768],[139.603034,35.6829344],[139.6030366,35.6828584],[139.6030675,35.6827969],[139.6027974,35.6819695],[139.6027521,35.6818128],[139.6027197,35.6816882]],[[139.6042145,35.6815569],[139.6042875,35.6817036],[139.6042781,35.6816812],[139.6042145,35.6815569]]]]}}]}
