{"type":"FeatureCollection","features":[{"type":"Feature","properties":{"potaRef":"JP-1277","nameEn":"Higashimurayama Chuo Prefectural Park","boundarySource":"OpenStreetMap contributors / ODbL","source":"© OpenStreetMap contributors / ODbL","osmType":"area","osmId":"1810715","osmName":"東村山中央公園","boundaryStatus":"OpenStreetMap公園・保護区域候補（POTA公式境界ではありません）"},"geometry":{"type":"MultiPolygon","coordinates":[[[[139.4550786,35.7486398],[139.4555606,35.7484224],[139.4557073,35.7483551],[139.4561157,35.7481626],[139.4565651,35.7481079],[139.4566696,35.748064],[139.4570957,35.7478672],[139.4576711,35.7476035],[139.457848,35.747517],[139.4580643,35.7478251],[139.4594136,35.747169],[139.4591983,35.7468401],[139.4595307,35.7466209],[139.459648,35.7465698],[139.4604244,35.7462363],[139.4612164,35.7459074],[139.4630754,35.7451259],[139.4631504,35.7451587],[139.4631614,35.7452243],[139.4632129,35.745581],[139.4633325,35.7461754],[139.4623581,35.7466046],[139.4626251,35.7470134],[139.4559699,35.7499453],[139.4550786,35.7486398]],[[139.455629,35.7486708],[139.4556505,35.7486844],[139.4556765,35.7487043],[139.4556934,35.7487317],[139.4557041,35.7487553],[139.4557072,35.7487889],[139.4556964,35.7488125],[139.4556811,35.7488287],[139.4556627,35.7488399],[139.4557684,35.7489556],[139.4558619,35.7490302],[139.4559646,35.7492602],[139.4559891,35.749356],[139.4560688,35.7494145],[139.4561393,35.7494493],[139.4562036,35.749458],[139.456337,35.7494455],[139.4564442,35.7494256],[139.4565346,35.7493921],[139.4566235,35.7493386],[139.4567001,35.7492777],[139.4567951,35.7491682],[139.4568626,35.7490886],[139.4569131,35.7489817],[139.4569392,35.748907],[139.4569422,35.7488138],[139.456953,35.7487765],[139.4569622,35.7487454],[139.4569622,35.7487193],[139.4569407,35.748677],[139.456884,35.7486235],[139.4568334,35.7485601],[139.4567951,35.7485165],[139.4567614,35.7485029],[139.4566771,35.7484842],[139.4565668,35.7484432],[139.4564641,35.7484034],[139.4563906,35.7483822],[139.4563109,35.7483685],[139.4562772,35.7483797],[139.4562036,35.7484171],[139.4561209,35.7484506],[139.4560688,35.748483],[139.4559707,35.7485277],[139.4559339,35.748534],[139.4558895,35.7485364],[139.4558604,35.748529],[139.4558267,35.7485203],[139.455796,35.7485203],[139.4557639,35.748529],[139.4557317,35.7485377],[139.4556842,35.7485588],[139.4556597,35.7485812],[139.4556474,35.7486024],[139.455629,35.7486708]]]]}}]}
