{"type":"FeatureCollection","features":[{"type":"Feature","properties":{"potaRef":"JP-1286","nameEn":"Ryonan Prefectural Park","boundarySource":"OpenStreetMap contributors / ODbL","source":"© OpenStreetMap contributors / ODbL","osmType":"area","osmId":"439083812","osmName":"都立陵南公園","boundaryStatus":"OpenStreetMap公園・保護区域候補（POTA公式境界ではありません）"},"geometry":{"type":"MultiPolygon","coordinates":[[[[139.2865568,35.6481239],[139.2867468,35.6479323],[139.2868536,35.647977],[139.2870223,35.6480274],[139.2873368,35.6481096],[139.2885063,35.6483603],[139.2885249,35.6483431],[139.2886832,35.6483257],[139.2888066,35.6483605],[139.288938,35.6483562],[139.2890775,35.6483867],[139.289166,35.6484041],[139.2892063,35.6484344],[139.2894905,35.6485196],[139.2896327,35.6485741],[139.2897158,35.6486373],[139.2898339,35.6486657],[139.2899653,35.6486613],[139.2911917,35.6489447],[139.2911562,35.6489817],[139.2908023,35.6489248],[139.2907627,35.648932],[139.2907347,35.6489436],[139.2907217,35.6489624],[139.2907109,35.6489817],[139.2907068,35.6490023],[139.2907136,35.6490209],[139.2907442,35.6490564],[139.29065,35.6490653],[139.2905937,35.6490715],[139.2905586,35.649146],[139.2902718,35.6491766],[139.2903462,35.6494329],[139.2903354,35.649507],[139.2906519,35.6495484],[139.2905498,35.6496139],[139.2904375,35.6496702],[139.290298,35.6497247],[139.2900738,35.6496471],[139.2900153,35.6498148],[139.2898602,35.6498544],[139.2897596,35.6498759],[139.2894443,35.6499103],[139.2891996,35.6499239],[139.2888908,35.6499254],[139.2886079,35.6499044],[139.2882364,35.6498537],[139.28825,35.6498227],[139.2879725,35.6496837],[139.2878047,35.6495986],[139.2876367,35.6494825],[139.287452,35.6492372],[139.2874516,35.6491072],[139.287317,35.6489528],[139.286632,35.6483798],[139.2865872,35.6482644],[139.2865664,35.6481994],[139.2865568,35.6481239]]]]}}]}
