{"type":"FeatureCollection","features":[{"type":"Feature","properties":{"potaRef":"JP-1083","nameEn":"Kenko no Mori Prefectural Park","source":"© OpenStreetMap contributors / ODbL","osmType":"way","osmId":961848882,"osmName":"健康の森公園","boundaryStatus":"OpenStreetMap公園・保護区域候補（POTA公式境界ではありません）","boundarySource":"OpenStreetMap contributors / ODbL"},"geometry":{"type":"Polygon","coordinates":[[[140.3432436,38.295989],[140.3442786,38.2958485],[140.3445593,38.2974535],[140.3479197,38.2971982],[140.3481795,38.2988011],[140.347203,38.2988643],[140.347212,38.2993424],[140.3451961,38.2994618],[140.3454279,38.301733],[140.3466293,38.3017235],[140.3454365,38.3028936],[140.3450582,38.3029813],[140.3432436,38.295989]]]}}]}
