{"type":"FeatureCollection","features":[{"type":"Feature","properties":{"potaRef":"JP-1651","nameEn":"Toryo Prefectural Park","source":"© OpenStreetMap contributors / ODbL","boundarySource":"OpenStreetMap contributors / ODbL","osmType":"way","osmId":591281533,"osmName":"桃陵公園","boundaryStatus":"OpenStreetMap公園・保護区域候補（POTA公式境界ではありません）"},"geometry":{"type":"Polygon","coordinates":[[[133.7431412,34.2681612],[133.7435504,34.267902],[133.7439729,34.2677915],[133.7441746,34.2677021],[133.7442763,34.2674548],[133.7442798,34.2673566],[133.7442848,34.2672161],[133.7448462,34.2672396],[133.7450756,34.2672419],[133.7452256,34.2672443],[133.7453522,34.2672467],[133.7456062,34.2671351],[133.7456253,34.2670514],[133.745636,34.2669604],[133.745625,34.2668694],[133.7455741,34.2665819],[133.7455277,34.2663601],[133.7455425,34.2659688],[133.7455519,34.2656909],[133.7456598,34.2655311],[133.7457212,34.2654246],[133.7458548,34.2653525],[133.746029,34.265006],[133.7463358,34.2650112],[133.7466681,34.2650112],[133.7470092,34.2650112],[133.7475721,34.2650042],[133.7476806,34.2650203],[133.7477381,34.2655477],[133.7477508,34.2658986],[133.7476826,34.2661451],[133.7476314,34.2663423],[133.7476079,34.266564],[133.7476287,34.2666845],[133.7476496,34.2667913],[133.7475746,34.2668636],[133.7475287,34.266936],[133.7475079,34.2670152],[133.7474787,34.2671151],[133.7474495,34.2671702],[133.7473662,34.267277],[133.7473245,34.2673459],[133.7472495,34.2673907],[133.7471619,34.2674147],[133.7470577,34.2674354],[133.7469327,34.2674423],[133.7468493,34.2674802],[133.7467919,34.2675397],[133.7467253,34.2676283],[133.7466809,34.2677274],[133.746609,34.2678578],[133.7465329,34.2679769],[133.7464811,34.2681175],[133.7465033,34.2682062],[133.7465847,34.2682643],[133.7467483,34.2683623],[133.7468541,34.2684147],[133.7469123,34.2685065],[133.7469599,34.2686508],[133.7469546,34.268747],[133.7469441,34.2688852],[133.7470376,34.268942],[133.7471174,34.268979],[133.7472087,34.2690133],[133.7473341,34.2690529],[133.7475356,34.2691297],[133.7476768,34.2691647],[133.7477789,34.2691771],[133.7478407,34.2691941],[133.7478558,34.2691976],[133.7480322,34.2692389],[133.748118,34.269264],[133.7482157,34.2692937],[133.7484079,34.2693827],[133.7484721,34.2694792],[133.748643,34.2696086],[133.7487669,34.2696575],[133.7488978,34.2696899],[133.7489948,34.2697846],[133.7488848,34.2698638],[133.7489067,34.2699649],[133.7489071,34.2700687],[133.748752,34.2701854],[133.7486171,34.2701301],[133.748501,34.2702648],[133.7482861,34.2702081],[133.7481983,34.2702558],[133.747981,34.2704679],[133.747629,34.270449],[133.7474468,34.2705349],[133.7473827,34.270571],[133.7473604,34.2706063],[133.7473762,34.2706717],[133.7473986,34.2707457],[133.7473527,34.2708055],[133.7472308,34.2708442],[133.7471195,34.2708836],[133.7469825,34.2709062],[133.7468804,34.2709201],[133.7467561,34.2709314],[133.7465928,34.2708968],[133.7464584,34.2708282],[133.7463659,34.2707711],[133.7463514,34.270788],[133.7461384,34.270648],[133.7459886,34.2705605],[133.7459323,34.2706206],[133.7457218,34.2705109],[133.7456645,34.2704803],[133.745598,34.2705286],[133.7454559,34.2706701],[133.7453471,34.2706536],[133.7452315,34.2706442],[133.7446922,34.2706169],[133.7442748,34.2705974],[133.7438518,34.2705203],[133.7436138,34.2704658],[133.7434055,34.2704385],[133.7432452,34.270442],[133.7430774,34.2705583],[133.7429693,34.2706321],[133.7428178,34.2706095],[133.7427422,34.2705114],[133.7427131,34.2702],[133.7427383,34.2700177],[133.7426965,34.2698074],[133.7425825,34.2695379],[133.7425868,34.2694072],[133.7426355,34.2693501],[133.7425949,34.2691878],[133.7424994,34.2686109],[133.7428835,34.2683487],[133.7431412,34.2681612]]]}}]}
