{"type":"FeatureCollection","features":[{"type":"Feature","properties":{"potaRef":"JP-1797","nameEn":"Aomi Greenway Prefectural Park","boundarySource":"OpenStreetMap contributors / ODbL","source":"© OpenStreetMap contributors / ODbL","osmType":"area","osmId":"795725292","osmName":"青海中央ふ頭公園","boundaryStatus":"OpenStreetMap公園・保護区域候補（POTA公式境界ではありません）"},"geometry":{"type":"MultiPolygon","coordinates":[[[[139.7796538,35.621766],[139.7804662,35.6200152],[139.7805723,35.6198808],[139.7812808,35.6202823],[139.7799652,35.6219301],[139.7798333,35.6218606],[139.7796538,35.621766]]]]}}]}
