{"type":"FeatureCollection","features":[{"type":"Feature","properties":{"potaRef":"JP-1811","nameEn":"Wakasu Seaside Prefectural Park","boundarySource":"OpenStreetMap contributors / ODbL","source":"© OpenStreetMap contributors / ODbL","osmType":"area","osmId":"1235520992","osmName":"若洲海浜公園","boundaryStatus":"OpenStreetMap公園・保護区域候補（POTA公式境界ではありません）"},"geometry":{"type":"MultiPolygon","coordinates":[[[[139.8306335,35.6184881],[139.8355303,35.612502],[139.8385971,35.6141608],[139.8401035,35.6320609],[139.8393641,35.6319959],[139.83944,35.6313846],[139.8395682,35.6313988],[139.8396241,35.6309496],[139.8395403,35.6309411],[139.8395443,35.6308996],[139.8381669,35.6307995],[139.8381862,35.6306406],[139.8379083,35.6306175],[139.8371513,35.6306469],[139.8371456,35.6306859],[139.8368982,35.6306598],[139.8368838,35.6307306],[139.8367333,35.6307249],[139.8366881,35.6307147],[139.8366596,35.6307025],[139.8366375,35.6306902],[139.83662,35.6306767],[139.836599,35.6306552],[139.8365828,35.6306269],[139.8365636,35.6305677],[139.8365123,35.6305652],[139.8365173,35.6306139],[139.8365321,35.630872],[139.8365302,35.6309156],[139.8365176,35.6310378],[139.8364333,35.6310315],[139.8364567,35.6317169],[139.8363922,35.6317155],[139.836257,35.6303032],[139.8359003,35.6288923],[139.8358318,35.6283947],[139.8350223,35.6187888],[139.8348454,35.618812],[139.8347954,35.6186956],[139.8347408,35.6186667],[139.8343902,35.6177979],[139.8342198,35.6175439],[139.8333923,35.6165979],[139.8330762,35.6162378],[139.8329252,35.6160637],[139.8326645,35.6163679],[139.8314205,35.6178193],[139.8307793,35.6185675],[139.8306335,35.6184881]]]]}}]}
