{"type":"FeatureCollection","features":[{"type":"Feature","properties":{"potaRef":"JP-1378","nameEn":"Joganjigawa Prefectural Park","source":"© OpenStreetMap contributors / ODbL","osmType":"way","osmId":339204833,"osmName":"常願寺川公園","boundaryStatus":"OpenStreetMap公園・保護区域候補（POTA公式境界ではありません）","boundarySource":"OpenStreetMap contributors / ODbL"},"geometry":{"type":"Polygon","coordinates":[[[137.2805449,36.7017226],[137.2784597,36.7013613],[137.2791347,36.6993147],[137.2804175,36.6952454],[137.2814356,36.6920257],[137.2818551,36.6893697],[137.2820207,36.6884079],[137.2824036,36.6869031],[137.2832105,36.6841108],[137.2835903,36.6842963],[137.2838855,36.6846111],[137.284435,36.6850232],[137.2844163,36.6851042],[137.2840629,36.6863912],[137.2840161,36.6866238],[137.2839301,36.687367],[137.2838627,36.6876391],[137.2838651,36.6881807],[137.2838907,36.6884989],[137.2838646,36.6887238],[137.2837136,36.6895237],[137.283587,36.690232],[137.283387,36.6912061],[137.2832514,36.6919005],[137.2830994,36.6926358],[137.2830195,36.6930262],[137.2823586,36.6967811],[137.2822519,36.6973098],[137.2822403,36.6974225],[137.2822397,36.6978037],[137.2822188,36.6979494],[137.2821432,36.6981989],[137.281704,36.6995373],[137.2814869,36.7001196],[137.2812734,36.7006655],[137.2811638,36.7008667],[137.2809763,36.7011663],[137.2808248,36.7013883],[137.2805449,36.7017226]]]}}]}
