{"type":"FeatureCollection","features":[{"type":"Feature","properties":{"potaRef":"JP-1819","nameEn":"Minato-ga-oka Port Prefectural Park","boundarySource":"OpenStreetMap contributors / ODbL","source":"© OpenStreetMap contributors / ODbL","osmType":"area","osmId":"793328768","osmName":"みなとが丘ふ頭公園","boundaryStatus":"OpenStreetMap公園・保護区域候補（POTA公式境界ではありません）"},"geometry":{"type":"MultiPolygon","coordinates":[[[[139.76201,35.5991516],[139.7621867,35.5951444],[139.7637037,35.5950849],[139.7646515,35.595034],[139.764759,35.5951825],[139.7629661,35.5976171],[139.7628058,35.597834],[139.7627189,35.5979517],[139.7622356,35.5986059],[139.7621295,35.5988163],[139.76201,35.5991516]]]]}}]}
