{"type":"FeatureCollection","features":[{"type":"Feature","properties":{"potaRef":"JP-1914","nameEn":"Kanegawano mori Provincial Forest Prefectural Park","boundarySource":"OpenStreetMap contributors / ODbL","source":"© OpenStreetMap contributors / ODbL","osmType":"area","osmId":"157349604","osmName":"山梨県森林公園金川の森 どんぐりの森","boundaryStatus":"OpenStreetMap公園・保護区域候補（POTA公式境界ではありません）"},"geometry":{"type":"MultiPolygon","coordinates":[[[[138.6749278,35.640174],[138.6750563,35.6399397],[138.6753203,35.639615],[138.6763982,35.6387875],[138.6765822,35.6386519],[138.6768435,35.6384594],[138.6773024,35.6380732],[138.677433,35.6378578],[138.6773812,35.6376081],[138.6778293,35.6372141],[138.6785171,35.6367158],[138.6788734,35.6364154],[138.6788112,35.6365079],[138.6789395,35.6363737],[138.6790232,35.6362986],[138.6792033,35.6361348],[138.6792605,35.6360795],[138.6793355,35.6360112],[138.679611,35.6357629],[138.6798314,35.6355656],[138.6803047,35.6352173],[138.6804199,35.6349837],[138.6804934,35.6347786],[138.680715,35.6345533],[138.6809706,35.6343405],[138.6811767,35.6342833],[138.6810663,35.6344704],[138.6809988,35.6346278],[138.6809529,35.6348028],[138.6809564,35.6350228],[138.6808054,35.6352519],[138.6806991,35.6353189],[138.6806244,35.6356453],[138.6805096,35.6358491],[138.6805047,35.6360209],[138.6806748,35.6361569],[138.6807321,35.6362474],[138.6807145,35.6366958],[138.6807951,35.6368449],[138.6807615,35.6371548],[138.6806508,35.6372945],[138.6804173,35.6375514],[138.6804397,35.6376173],[138.6803881,35.6376882],[138.6801617,35.6377149],[138.6799285,35.6379624],[138.6796855,35.6382188],[138.6790501,35.6386623],[138.678729,35.6388203],[138.6784182,35.6388972],[138.6783129,35.6389685],[138.6780429,35.6392802],[138.6777757,35.6392811],[138.6774475,35.6392634],[138.6772663,35.6393136],[138.6770863,35.6395697],[138.6770589,35.6398001],[138.6769818,35.6399261],[138.6766346,35.6403014],[138.6763571,35.6400244],[138.6767988,35.6398959],[138.6767295,35.639764],[138.6768929,35.6396501],[138.6769457,35.6394675],[138.6767095,35.6392558],[138.676549,35.639158],[138.6762691,35.6392997],[138.6762085,35.6394182],[138.6760459,35.6394798],[138.6760946,35.6396523],[138.6762915,35.6399515],[138.6761374,35.640049],[138.6760094,35.6401508],[138.6758074,35.6403081],[138.6755329,35.6404889],[138.6751564,35.6403971],[138.675083,35.6402709],[138.6749278,35.640174]]]]}}]}
