{"type":"FeatureCollection","features":[{"type":"Feature","properties":{"potaRef":"JP-1843","nameEn":"Saitamaken Agricultual and Forestry Prefectural Park","boundarySource":"OpenStreetMap contributors / ODbL","source":"© OpenStreetMap contributors / ODbL","osmType":"area","osmId":"920651294","osmName":"農林公園","boundaryStatus":"OpenStreetMap公園・保護区域候補（POTA公式境界ではありません）"},"geometry":{"type":"MultiPolygon","coordinates":[[[[139.2835319,36.1146215],[139.2838048,36.1137864],[139.284001,36.1135072],[139.2843792,36.112964],[139.2846594,36.1125754],[139.2848883,36.1122811],[139.2849957,36.1120774],[139.2850657,36.1119529],[139.2851358,36.1117341],[139.2851825,36.1114624],[139.2851591,36.1113342],[139.2850704,36.1111757],[139.2849163,36.1106588],[139.2849443,36.110606],[139.2849723,36.1105268],[139.2850097,36.1104853],[139.2851171,36.110474],[139.2863967,36.1109569],[139.2866909,36.1110286],[139.2889885,36.1113983],[139.2896657,36.1115304],[139.2896924,36.1115591],[139.2895363,36.1120406],[139.2895444,36.1125156],[139.289448,36.1129495],[139.2893887,36.1129748],[139.28882,36.1129015],[139.2887729,36.1129412],[139.2885776,36.1133526],[139.2885822,36.1134771],[139.2887784,36.1138807],[139.2887737,36.1139864],[139.288755,36.1140656],[139.288741,36.1142203],[139.2887293,36.1145166],[139.2887171,36.1145877],[139.2886621,36.1146442],[139.2885799,36.1146719],[139.2884578,36.1146562],[139.2883335,36.1145915],[139.2881705,36.114584],[139.287845,36.114574],[139.287905,36.1150467],[139.2868964,36.1152412],[139.2869118,36.1150869],[139.286881,36.1149251],[139.2868934,36.114614],[139.2868749,36.1143999],[139.2868787,36.1142983],[139.2867815,36.114307],[139.2866473,36.1143209],[139.2865299,36.1143093],[139.286201,36.1141033],[139.2861053,36.1140531],[139.2860079,36.1140467],[139.2858733,36.1140904],[139.2855519,36.1142184],[139.2851702,36.1138664],[139.2849862,36.1140241],[139.284712,36.1137951],[139.2845548,36.1138922],[139.2847952,36.1141286],[139.2839232,36.1146638],[139.2835319,36.1146215]]]]}}]}
