{"type":"FeatureCollection","features":[{"type":"Feature","properties":{"potaRef":"JP-2128","nameEn":"21st Century Prefectural Forest","boundarySource":"OpenStreetMap contributors / ODbL","source":"© OpenStreetMap contributors / ODbL","osmType":"area","osmId":"1980924680","osmName":"県立２１世紀の森","boundaryStatus":"OpenStreetMap公園・保護区域候補（POTA公式境界ではありません）"},"geometry":{"type":"MultiPolygon","coordinates":[[[[139.0468204,35.3404482],[139.047786,35.3394002],[139.0493524,35.340527],[139.0522599,35.3384703],[139.0530538,35.3357396],[139.0583353,35.33442],[139.0611005,35.3353982],[139.0645069,35.3376082],[139.0605104,35.3387766],[139.0606069,35.3399581],[139.0598237,35.3409558],[139.057796,35.3388816],[139.0547812,35.3402557],[139.0549958,35.3411921],[139.0559399,35.3414109],[139.0561437,35.3428724],[139.0574849,35.3431962],[139.0588152,35.3455329],[139.0604997,35.3456291],[139.0589225,35.3485695],[139.0588689,35.3494271],[139.0570557,35.3504422],[139.0553927,35.3502409],[139.0538156,35.348972],[139.0511441,35.3494183],[139.0502858,35.3482632],[139.0501893,35.3471781],[139.0496421,35.3461586],[139.0501893,35.3453841],[139.0503824,35.3446227],[139.0501571,35.3428024],[139.0468204,35.3404482]]]]}}]}
