{"type":"FeatureCollection","features":[{"type":"Feature","properties":{"potaRef":"JP-2137","nameEn":"Uenohara Jomon no Mori Historical Prefectural Park","boundarySource":"OpenStreetMap contributors / ODbL","source":"© OpenStreetMap contributors / ODbL","osmType":"area","osmId":"1498669516","osmName":"","boundaryStatus":"OpenStreetMap公園・保護区域候補（POTA公式境界ではありません）"},"geometry":{"type":"MultiPolygon","coordinates":[[[[130.797525,31.7096241],[130.7975581,31.7095667],[130.7982861,31.7094314],[130.7983819,31.7094033],[130.8000408,31.7087833],[130.8001944,31.7087416],[130.8003198,31.7087382],[130.8004343,31.7087552],[130.8012459,31.7089002],[130.8015811,31.7089715],[130.8023861,31.709268],[130.8025019,31.7093365],[130.8026627,31.7094923],[130.8028721,31.7097221],[130.8037718,31.7102613],[130.803853,31.7103223],[130.8039201,31.7104009],[130.8040436,31.7106507],[130.8041004,31.7107958],[130.8041118,31.7108671],[130.8041266,31.7112855],[130.8041313,31.7118369],[130.8041085,31.7119766],[130.8040595,31.7121073],[130.803983,31.7122445],[130.8038657,31.7123737],[130.8037593,31.7124583],[130.8034842,31.7126429],[130.8031727,31.7128422],[130.8021297,31.7135208],[130.8020468,31.7135904],[130.8019634,31.7137296],[130.8019339,31.7138334],[130.8019351,31.7139348],[130.8019721,31.7141454],[130.8019801,31.7142709],[130.801966,31.7143548],[130.8018122,31.7146811],[130.8017139,31.7149206],[130.8015575,31.7151657],[130.8009746,31.7156578],[130.8005612,31.7153524],[130.8002976,31.7151267],[130.7991077,31.7127428],[130.7991035,31.7126189],[130.7991088,31.7125539],[130.7991249,31.7125185],[130.7991448,31.7124908],[130.7990682,31.7123029],[130.7989854,31.7122966],[130.7989083,31.712243],[130.7988204,31.7121587],[130.797525,31.7096241]]]]}}]}
