{"type":"FeatureCollection","features":[{"type":"Feature","properties":{"potaRef":"JP-2045","nameEn":"Kagawayosui Memorial Prefectural Park","boundarySource":"OpenStreetMap contributors / ODbL","source":"© OpenStreetMap contributors / ODbL","osmType":"area","osmId":"1250115310","osmName":"香川用水記念公園","boundaryStatus":"OpenStreetMap公園・保護区域候補（POTA公式境界ではありません）"},"geometry":{"type":"MultiPolygon","coordinates":[[[[133.7640034,34.099388],[133.7640522,34.099079],[133.7641575,34.0987725],[133.7640058,34.0986533],[133.7646253,34.0980666],[133.76513,34.0981817],[133.7653339,34.098195],[133.7653942,34.0975752],[133.7659508,34.0976975],[133.7657523,34.098386],[133.7663585,34.0985148],[133.7664532,34.0990668],[133.7667475,34.0990537],[133.7667608,34.0992345],[133.7667822,34.0992878],[133.7666375,34.0993721],[133.7662298,34.0993944],[133.7659454,34.0995498],[133.7655806,34.1001984],[133.7647412,34.1007369],[133.7643136,34.1003306],[133.7640548,34.1000629],[133.7640412,34.0995995],[133.7640034,34.099388]]]]}}]}
