{"type":"FeatureCollection","features":[{"type":"Feature","properties":{"potaRef":"JP-2118","nameEn":"Funato Ryokuchi Prefectural Park","boundarySource":"OpenStreetMap contributors / ODbL","source":"© OpenStreetMap contributors / ODbL","osmType":"area","osmId":"984081136","osmName":"船渡緑地","boundaryStatus":"OpenStreetMap公園・保護区域候補（POTA公式境界ではありません）"},"geometry":{"type":"MultiPolygon","coordinates":[[[[137.3416732,34.7206676],[137.3419964,34.7205814],[137.3420754,34.7205863],[137.3447829,34.7243762],[137.3448914,34.7244405],[137.3452763,34.7246559],[137.346749,34.7255435],[137.3476302,34.7259835],[137.3486562,34.7264183],[137.3486619,34.7265602],[137.3480056,34.7268784],[137.3477911,34.7267324],[137.3476477,34.7266258],[137.3476692,34.7265982],[137.34713,34.7262444],[137.3467787,34.7260171],[137.346379,34.7257705],[137.3463656,34.7257837],[137.3457021,34.7254206],[137.3453276,34.7252017],[137.3449802,34.7249923],[137.3445394,34.7247075],[137.3445886,34.7246594],[137.3441532,34.7243307],[137.3436893,34.7238791],[137.3432989,34.7234002],[137.3430421,34.7230512],[137.3428667,34.7227767],[137.3426549,34.7224264],[137.3423027,34.7217776],[137.3419303,34.7211285],[137.3416732,34.7206676]]]]}}]}
