{"type":"FeatureCollection","features":[{"type":"Feature","properties":{"potaRef":"JP-2088","nameEn":"Fukui Undou Prefectural Park","boundarySource":"OpenStreetMap contributors / ODbL","source":"© OpenStreetMap contributors / ODbL","osmType":"area","osmId":"1395327182","osmName":"福井運動公園","boundaryStatus":"OpenStreetMap公園・保護区域候補（POTA公式境界ではありません）"},"geometry":{"type":"MultiPolygon","coordinates":[[[[136.1804507,36.0547132],[136.1804528,36.0546079],[136.180463,36.0545296],[136.1804952,36.0544453],[136.1805374,36.0543559],[136.1806106,36.0542365],[136.1807346,36.0540459],[136.1807993,36.0539458],[136.1809476,36.053713],[136.1810105,36.0536063],[136.181041,36.053528],[136.1810908,36.0534166],[136.181159,36.0532209],[136.1812638,36.052936],[136.1814011,36.052541],[136.1814328,36.0524398],[136.1814619,36.0523297],[136.1814672,36.0522254],[136.1814664,36.052119],[136.1814501,36.0519509],[136.1814323,36.0518093],[136.1813868,36.0513695],[136.1812954,36.0506789],[136.1812872,36.0505698],[136.181239,36.0501712],[136.1811957,36.0498164],[136.1811988,36.0497184],[136.1812416,36.0496173],[136.1812823,36.0495755],[136.1813353,36.0495287],[136.1814149,36.0494876],[136.1814979,36.0494666],[136.1822745,36.0493929],[136.1823739,36.049381],[136.1834154,36.0492881],[136.1841722,36.0492192],[136.1843178,36.0492083],[136.184898,36.0491561],[136.1854094,36.0490487],[136.1858804,36.0543965],[136.1858461,36.0544385],[136.1857474,36.0544378],[136.1856109,36.0544366],[136.1854591,36.0544472],[136.1853338,36.0544592],[136.1852254,36.0544776],[136.1847917,36.0545882],[136.1840886,36.0547569],[136.1839198,36.0548012],[136.1830647,36.0550004],[136.1819457,36.0552702],[136.1816303,36.0553522],[136.1815629,36.0553687],[136.1814317,36.0553825],[136.181282,36.0553873],[136.1812189,36.0553854],[136.1811351,36.0553699],[136.1810394,36.0553476],[136.1809576,36.0553182],[136.1808707,36.0552817],[136.1807862,36.0552337],[136.1807282,36.0551944],[136.1806768,36.0551505],[136.1806096,36.0550845],[136.1805605,36.0550193],[136.1805214,36.0549579],[136.1804888,36.0548904],[136.180464,36.0548114],[136.1804507,36.0547132]]]]}}]}
