{"type":"FeatureCollection","features":[{"type":"Feature","properties":{"potaRef":"JP-2044","nameEn":"Setoohashi kinenkouen Prefectural Park","boundarySource":"OpenStreetMap contributors / ODbL","source":"© OpenStreetMap contributors / ODbL","osmType":"area","osmId":"444738482","osmName":"瀬戸大橋記念公園","boundaryStatus":"OpenStreetMap公園・保護区域候補（POTA公式境界ではありません）"},"geometry":{"type":"MultiPolygon","coordinates":[[[[133.8245228,34.3524637],[133.824654,34.3519542],[133.8246775,34.3519419],[133.8247411,34.3517046],[133.8247626,34.3516448],[133.8248109,34.3515873],[133.8248605,34.3515519],[133.8249423,34.3515209],[133.8256171,34.3514274],[133.8258569,34.3500638],[133.8258824,34.3500051],[133.8259079,34.3499508],[133.8259559,34.3499092],[133.8260244,34.349872],[133.8261037,34.349848],[133.8276874,34.349648],[133.8277586,34.3496563],[133.8278149,34.3496895],[133.8278456,34.3497377],[133.8280588,34.3509552],[133.8281092,34.3514561],[133.8281515,34.352039],[133.8281559,34.352286],[133.8282065,34.3523601],[133.8283188,34.3528576],[133.8283255,34.3530306],[133.8283053,34.3532679],[133.8282542,34.3537202],[133.8281905,34.3541219],[133.8281806,34.3541503],[133.8281631,34.354176],[133.8281328,34.3542019],[133.8280949,34.3542199],[133.8280602,34.3542276],[133.8280243,34.3542285],[133.8279908,34.3542231],[133.8279595,34.3542117],[133.8274018,34.3539352],[133.8271919,34.3538311],[133.827124,34.3537974],[133.8270962,34.3537836],[133.8270597,34.3537655],[133.826613,34.3535438],[133.826552,34.3535135],[133.8264587,34.3534672],[133.8264471,34.3534614],[133.8256966,34.353089],[133.8256619,34.3530718],[133.8253548,34.3529194],[133.824807,34.3526476],[133.8248,34.3526598],[133.8245882,34.3525495],[133.8245437,34.3525255],[133.824526,34.3525005],[133.8245228,34.3524637]]]]}}]}
