{"type":"FeatureCollection","features":[{"type":"Feature","properties":{"potaRef":"JP-2101","nameEn":"Yasu Kogen Kinen No Mori Prefectural Park","boundarySource":"OpenStreetMap contributors / ODbL","source":"© OpenStreetMap contributors / ODbL","osmType":"area","osmId":"2688156606","osmName":"夜須高原記念の森","boundaryStatus":"OpenStreetMap公園・保護区域候補（POTA公式境界ではありません）"},"geometry":{"type":"MultiPolygon","coordinates":[[[[130.65587,33.492425],[130.6562606,33.4921083],[130.6561412,33.4914543],[130.6562477,33.490552],[130.6567847,33.4904352],[130.6578043,33.4886408],[130.6590489,33.4878176],[130.6624982,33.4890032],[130.6630471,33.4907371],[130.6618437,33.492595],[130.6626668,33.4928828],[130.6625464,33.4936324],[130.659912,33.492719],[130.658938,33.492658],[130.658064,33.492342],[130.657856,33.492432],[130.657601,33.492432],[130.657291,33.492342],[130.656599,33.492505],[130.656498,33.49259],[130.656364,33.492674],[130.656174,33.4927562],[130.655877,33.4928807],[130.65587,33.492425]]]]}}]}
