{"type":"FeatureCollection","features":[{"type":"Feature","properties":{"potaRef":"JP-2114","nameEn":"Taketoyo Ryokuchi Prefectural Park","boundarySource":"OpenStreetMap contributors / ODbL","source":"© OpenStreetMap contributors / ODbL","osmType":"area","osmId":"334033544","osmName":"武豊緑地施設","boundaryStatus":"OpenStreetMap公園・保護区域候補（POTA公式境界ではありません）"},"geometry":{"type":"MultiPolygon","coordinates":[[[[136.9349363,34.8561152],[136.9349775,34.8560871],[136.9349553,34.854278],[136.9365872,34.854295],[136.9366204,34.8560954],[136.935343,34.8568766],[136.9353329,34.8568561],[136.9350588,34.8563009],[136.9349363,34.8561152]]]]}}]}
