{"type":"FeatureCollection","features":[{"type":"Feature","properties":{"potaRef":"JP-2126","nameEn":"Yaguinoiwa Prefectural Park","boundarySource":"OpenStreetMap contributors / ODbL","source":"© OpenStreetMap contributors / ODbL","osmType":"area","osmId":"1112285990","osmName":"矢喰の岩公園","boundaryStatus":"OpenStreetMap公園・保護区域候補（POTA公式境界ではありません）"},"geometry":{"type":"MultiPolygon","coordinates":[[[[133.8014235,34.6920033],[133.8015461,34.691779],[133.801467,34.6917172],[133.8018348,34.6910612],[133.802206,34.6911849],[133.8029164,34.6914553],[133.8025283,34.6921639],[133.802349,34.6920909],[133.8022708,34.6920771],[133.8018843,34.691895],[133.8018219,34.6919487],[133.8018184,34.6920168],[133.8018935,34.6921259],[133.8018874,34.6922124],[133.8018023,34.692195],[133.8014235,34.6920033]]]]}}]}
