{"type":"FeatureCollection","features":[{"type":"Feature","properties":{"potaRef":"JP-2015","nameEn":"Tottori Mukibanda Historic Site Prefectural Park","boundarySource":"OpenStreetMap contributors / ODbL","source":"© OpenStreetMap contributors / ODbL","osmType":"area","osmId":"1339528458","osmName":"鳥取県立むきばんだ史跡公園","boundaryStatus":"OpenStreetMap公園・保護区域候補（POTA公式境界ではありません）"},"geometry":{"type":"MultiPolygon","coordinates":[[[[133.4435131,35.4614515],[133.4436097,35.4601494],[133.4446719,35.4595202],[133.4459808,35.4589522],[133.4471288,35.4590308],[133.4477832,35.4592144],[133.4493604,35.4604465],[133.4514954,35.4613816],[133.4528472,35.461434],[133.4539845,35.4612505],[133.455508,35.4605689],[133.4557977,35.4598872],[133.4553685,35.4576675],[133.4553363,35.4570208],[133.4557118,35.4560158],[133.4561624,35.4554565],[133.4568062,35.4550807],[133.4574392,35.4539446],[133.4590163,35.4540932],[133.4608831,35.4543379],[133.4621491,35.4541369],[133.4629298,35.4541349],[133.4635389,35.4542359],[133.4637283,35.4544607],[133.464085,35.4547184],[133.4645544,35.4549134],[133.464606,35.4557799],[133.4645708,35.4562519],[133.4646134,35.4565726],[133.464639,35.4569294],[133.4644022,35.4572393],[133.4640589,35.4575102],[133.463104,35.4583754],[133.4629886,35.4585833],[133.4621628,35.4589944],[133.4619942,35.459193],[133.4616985,35.4593629],[133.4613123,35.4594503],[133.4610918,35.4595137],[133.4609475,35.4596426],[133.4612372,35.4601669],[133.4608188,35.4604116],[133.4609529,35.4607203],[133.4611943,35.4610582],[133.4614839,35.4610582],[133.4616127,35.461434],[133.4602394,35.4620108],[133.4597995,35.4621156],[133.4595957,35.4623166],[133.4580078,35.4642041],[133.4572139,35.464309],[133.4572461,35.4643964],[133.4576967,35.4645362],[133.4580078,35.4647896],[133.4567311,35.4655761],[133.4552322,35.4674906],[133.4547067,35.4676119],[133.4541807,35.4676156],[133.4531834,35.4677844],[133.4528598,35.4679023],[133.4526037,35.4679654],[133.4520858,35.4682234],[133.4516704,35.4682715],[133.4499827,35.4681363],[133.4499397,35.4675421],[133.4500041,35.4671926],[133.449929,35.466913],[133.4495642,35.4674722],[133.4492745,35.4675946],[133.4489097,35.4680402],[133.4485342,35.4679616],[133.4470322,35.4670615],[133.4461524,35.4666509],[133.4454229,35.4661353],[133.4454229,35.4659605],[133.4452941,35.4657421],[133.4450366,35.4655673],[133.4446075,35.4656547],[133.4438779,35.4651129],[133.4436741,35.4642391],[133.4436097,35.463374],[133.4446504,35.4624215],[133.4441891,35.4620195],[133.4435131,35.4614515]]]]}}]}
