{"type":"FeatureCollection","features":[{"type":"Feature","properties":{"potaRef":"JP-2025","nameEn":"The Shigaraki Ceramic Cultural Prefectural Park","boundarySource":"OpenStreetMap contributors / ODbL","source":"© OpenStreetMap contributors / ODbL","osmType":"area","osmId":"1631245284","osmName":"陶芸の森公園","boundaryStatus":"OpenStreetMap公園・保護区域候補（POTA公式境界ではありません）"},"geometry":{"type":"MultiPolygon","coordinates":[[[[136.0565098,34.8866102],[136.0565504,34.8864879],[136.056712,34.8862988],[136.0567476,34.8862562],[136.0567731,34.8856707],[136.0566662,34.8856152],[136.0566581,34.8854855],[136.0567331,34.8852434],[136.0568117,34.8851256],[136.0570359,34.8850823],[136.0571211,34.8849672],[136.0570672,34.8848552],[136.0570608,34.8847831],[136.0571157,34.884636],[136.0571533,34.8846444],[136.0573373,34.8845727],[136.0572919,34.8844986],[136.0572922,34.8841718],[136.0571239,34.8839932],[136.0571193,34.8839664],[136.0571198,34.883938],[136.0572546,34.8838809],[136.0572903,34.8838907],[136.0573696,34.8839461],[136.0575145,34.8839732],[136.0577645,34.8840089],[136.0579411,34.8840878],[136.0580809,34.8841852],[136.0583205,34.8841999],[136.0584252,34.8841229],[136.0584875,34.8841096],[136.0585915,34.8841494],[136.0589241,34.8843752],[136.0594437,34.8848321],[136.0597419,34.8851161],[136.0598602,34.8852139],[136.060014,34.8850893],[136.0600771,34.8848152],[136.0601467,34.8847655],[136.0602616,34.8847703],[136.0606444,34.8850751],[136.0607504,34.8851642],[136.0609007,34.8851574],[136.0608937,34.8853227],[136.0606864,34.8854905],[136.0605448,34.8854379],[136.0603327,34.8856413],[136.0602665,34.8857422],[136.0602701,34.8858071],[136.0602961,34.8858279],[136.0603295,34.8858465],[136.0603737,34.88585],[136.0606157,34.8857755],[136.0606996,34.8857742],[136.0607625,34.885796],[136.0608085,34.8858249],[136.0608575,34.885869],[136.0608906,34.8859284],[136.0610567,34.8864348],[136.061014,34.886459],[136.0609598,34.8865086],[136.0606554,34.886683],[136.0607147,34.8867552],[136.0603894,34.886927],[136.0599065,34.8870658],[136.0592976,34.887183],[136.0587203,34.8873469],[136.0583539,34.8875004],[136.0582327,34.8875884],[136.0580903,34.8876917],[136.0578593,34.8876676],[136.0575394,34.8875188],[136.0570705,34.8872343],[136.0565956,34.886801],[136.056526,34.8867235],[136.0565098,34.8866102]]]]}}]}
