{"type":"FeatureCollection","features":[{"type":"Feature","properties":{"potaRef":"JP-2119","nameEn":"Gamagori Ryokuchi Prefectural Park","boundarySource":"OpenStreetMap contributors / ODbL","source":"© OpenStreetMap contributors / ODbL","osmType":"area","osmId":"984506266","osmName":"蒲郡緑地","boundaryStatus":"OpenStreetMap公園・保護区域候補（POTA公式境界ではありません）"},"geometry":{"type":"MultiPolygon","coordinates":[[[[137.2118166,34.8178595],[137.2118247,34.8177847],[137.2132114,34.8161331],[137.2133401,34.8161221],[137.2157943,34.8183748],[137.215797,34.8184497],[137.2157755,34.8184849],[137.2140026,34.8197907],[137.2138739,34.8197929],[137.213501,34.819423],[137.2135252,34.8193173],[137.2135332,34.8192204],[137.2135198,34.8191147],[137.2134581,34.8190266],[137.21275,34.818344],[137.2126266,34.8182471],[137.2124523,34.8182097],[137.2123504,34.8182141],[137.2122323,34.8182361],[137.2118166,34.8178595]]]]}}]}
