{"type":"FeatureCollection","features":[{"type":"Feature","properties":{"potaRef":"JP-2120","nameEn":"Jinno West Ryokuchi Prefectural Park","boundarySource":"OpenStreetMap contributors / ODbL","source":"© OpenStreetMap contributors / ODbL","osmType":"area","osmId":"988286646","osmName":"神野緑地","boundaryStatus":"OpenStreetMap公園・保護区域候補（POTA公式境界ではありません）"},"geometry":{"type":"MultiPolygon","coordinates":[[[[137.3253357,34.7338373],[137.3268163,34.7335585],[137.326986,34.7335279],[137.3293993,34.7330945],[137.329465,34.7330912],[137.3295079,34.7331044],[137.3295374,34.7331353],[137.3298579,34.7343498],[137.3256777,34.7351389],[137.3254899,34.7344049],[137.3253357,34.7338373]]]]}}]}
