{"type":"FeatureCollection","features":[{"type":"Feature","properties":{"potaRef":"JP-1305","nameEn":"Sagamiko Prefectural Park","nameJa":"","boundaryStatus":"全国都市公園GIS候補・公開前検証待ち","boundarySource":"国土交通省「都市計画決定GISデータ」都市公園・緑地を、POTA代表地点で空間照合して加工","boundaryScaleNote":"都市計画データは近似・未収録の可能性がある。POTA運用可否は公式情報で最終確認すること。","candidateMethod":"POTA representative point inside one MLIT urban-park polygon","sourceParkName":"相模湖公園","sourceParkType":"公園","sourcePrefecture":"神奈川県","sourceCity":"相模原市"},"geometry":{"type":"Polygon","coordinates":[[[139.18829667036346,35.612552249045834],[139.18832479054325,35.612541853628834],[139.18840247059973,35.61251784248923],[139.18843410252978,35.612509989661426],[139.1884797444176,35.61249424285092],[139.18853982340661,35.61249316005022],[139.18862336847846,35.6124927345873],[139.18880278952534,35.612452358855144],[139.18904702328805,35.61245305304905],[139.18923640016803,35.61247190983661],[139.1892828992821,35.61248883001768],[139.18934007243493,35.61251591602513],[139.18951592576042,35.61260749512216],[139.18965656965028,35.61268549611643],[139.18969866429654,35.61271225893434],[139.18968515467046,35.612772758403345],[139.18967332305482,35.61283047260694],[139.18966487396577,35.612865670788466],[139.18965998398437,35.612897371763104],[139.18965897708264,35.612967943153926],[139.18966636974562,35.61302341650743],[139.18968438409192,35.61314465600582],[139.1896918527011,35.61317687458209],[139.18970857960886,35.61324153942292],[139.1897404135311,35.61323301852113],[139.18975888548317,35.613228249824715],[139.18979936577702,35.6132181904932],[139.18983729078624,35.613210190637226],[139.18988161115,35.61320303705138],[139.1899296670079,35.6131980657678],[139.18997407536745,35.61319370594347],[139.19001250604467,35.61319147745914],[139.19005202317004,35.61319141803558],[139.1900880035629,35.61319206080871],[139.19012739660207,35.613193713288815],[139.19016843736117,35.61319636605147],[139.19024498921647,35.61320299406678],[139.19032606077195,35.613210367244555],[139.19042446225075,35.61321774360373],[139.19051237904094,35.61322506304475],[139.1906081199786,35.6132338663402],[139.19070208481233,35.6132439219958],[139.19083004980047,35.61325379834248],[139.19084174256403,35.61325476205688],[139.19085343388636,35.6132559060352],[139.1913010470568,35.61329560935835],[139.1913294046228,35.613296932232934],[139.1913680337473,35.61329749860096],[139.19141438927377,35.61329810612024],[139.19145324419478,35.61329804270937],[139.19149465939185,35.61329528883352],[139.19154625990762,35.61328889360527],[139.1915916673856,35.61328381831683],[139.19163554614263,35.613276660831815],[139.1916751302618,35.61326821855079],[139.19171483554686,35.613258424856426],[139.1917603049028,35.613245597204816],[139.1918092232819,35.61322936271778],[139.1918608072422,35.61321106926563],[139.19190388567205,35.61319354173917],[139.19194410723276,35.61317437653481],[139.19198289171524,35.61315547407654],[139.19201727332498,35.61313501675401],[139.1920532059566,35.61311384568421],[139.1920859469913,35.613091485844926],[139.1921159433575,35.61306739879898],[139.19214859124222,35.613042875173655],[139.19239199040035,35.61285356419546],[139.19252861774027,35.612764482623106],[139.19259225420825,35.61271319002733],[139.19258489652614,35.61270096986992],[139.19257299799665,35.61268263144338],[139.19249213632597,35.61271637930868],[139.1923882322472,35.61273618754164],[139.19238250367945,35.61273685292118],[139.19234655856374,35.6127081515673],[139.19226078367745,35.61275324744835],[139.1922449481751,35.61276199115027],[139.19207663694783,35.61269752772102],[139.19182836894575,35.612600764356465],[139.19178108664238,35.612591859517096],[139.19164663236154,35.61253787293646],[139.1916381609926,35.61254819350397],[139.19131144323273,35.61242240647103],[139.19094280169656,35.61228047786354],[139.19092345952308,35.61227622395949],[139.19091636413592,35.61228383329946],[139.19088466054694,35.612271837467404],[139.1908494707607,35.61226265151732],[139.19080970407535,35.61226043393047],[139.19074370689583,35.61227280743072],[139.19058378262636,35.612282135331476],[139.19052854963996,35.61222911901376],[139.19031404185208,35.61221561133766],[139.19031918072784,35.61218546020255],[139.1902061189846,35.61218122067761],[139.19020285064437,35.61220011023834],[139.19010474163218,35.61219992904868],[139.18988052213996,35.61220593015123],[139.189459600022,35.612241731737264],[139.18930592578806,35.61225252811371],[139.18906386553135,35.61228465660838],[139.18891121828227,35.61231726285998],[139.1887667233731,35.61235402725393],[139.18860133757937,35.61240456249253],[139.18845236580108,35.61246396012876],[139.18835780843023,35.61249885506066],[139.18827471382542,35.61253734913779],[139.18819567084816,35.612609019706696],[139.18829667036346,35.612552249045834]]]}}]}
