{"type":"FeatureCollection","features":[{"type":"Feature","properties":{"potaRef":"JP-1622","nameEn":"Hiroshima Ryokka Shokubutsu Prefectural Park","nameJa":"","boundaryStatus":"全国都市公園GIS候補・公開前検証待ち","boundarySource":"国土交通省「都市計画決定GISデータ」都市公園・緑地を、POTA代表地点で空間照合して加工","boundaryScaleNote":"都市計画データは近似・未収録の可能性がある。POTA運用可否は公式情報で最終確認すること。","candidateMethod":"POTA representative point inside one MLIT urban-park polygon","sourceParkName":"5・7・001号広島緑化公園","sourceParkType":"公園","sourcePrefecture":"広島県","sourceCity":"広島市"},"geometry":{"type":"Polygon","coordinates":[[[132.57103208275254,34.44516041833864],[132.5710302764418,34.44497955039648],[132.57099731934403,34.44494162578844],[132.57091705111134,34.44478031490012],[132.57086692382177,34.44465468494924],[132.57058426169075,34.44461406578378],[132.57045697726167,34.444637449514246],[132.57043971034057,34.44453861665489],[132.57042848563185,34.44450273154717],[132.57040337984782,34.44443547873984],[132.57039989744098,34.44435674454066],[132.57007218656722,34.444150047324264],[132.56992703769967,34.444020645512786],[132.5699394940075,34.443905935646995],[132.56953337446714,34.443728938288665],[132.56944664181407,34.44346875688378],[132.56941250805272,34.44330940440044],[132.56947265728743,34.44307958738333],[132.569443922159,34.44292021711369],[132.56938021732333,34.44279026412727],[132.569313664082,34.44265130410067],[132.56933711928284,34.442552195402364],[132.56936541839295,34.44185056876782],[132.5694698434723,34.44144057299079],[132.56894223731092,34.440232522916205],[132.56948322189263,34.44005774745793],[132.56996421530164,34.43577131230189],[132.56916542430577,34.434034493933225],[132.56703439014166,34.4325679957068],[132.56703849888484,34.4327074438834],[132.56703602359605,34.432732103962465],[132.5670254535504,34.43276143983393],[132.56702040745972,34.43279963157419],[132.5669915053227,34.43286156889178],[132.56699195294027,34.43288424771205],[132.5669944464604,34.4329079052287],[132.56699997274916,34.4329259190333],[132.56700250289668,34.432930559140786],[132.56701095009416,34.43294616796539],[132.5670219274488,34.432966417797914],[132.56703416884866,34.432984549357094],[132.56705207379937,34.43301365136148],[132.56707400704937,34.43304964243791],[132.56717685498222,34.43325272139497],[132.56719082917363,34.433295359495],[132.5671913100008,34.43334254953486],[132.5671861802733,34.433371867599334],[132.5671674921261,34.43340123006763],[132.56714073964204,34.43344188831197],[132.56707908534887,34.433516469843845],[132.5670225506727,34.433559620989904],[132.5669982094586,34.43357111068712],[132.56696581340535,34.43358699475365],[132.5669307725045,34.43360978973193],[132.5668957416543,34.433634696997935],[132.5668608612109,34.433673128808444],[132.56683409841986,34.43371167378629],[132.56682617193943,34.43373409782105],[132.56682369832373,34.43375889942985],[132.56682398623613,34.43378369200231],[132.5668242536126,34.43381285084638],[132.56683004568083,34.43385100800945],[132.56683037765507,34.43388481593281],[132.56682803011486,34.433918491080696],[132.56682845756745,34.43396342741875],[132.56683142323692,34.43398821122809],[132.56684265570243,34.434026350586976],[132.566859351133,34.43406897891325],[132.56687611949394,34.4341182288794],[132.56690653183028,34.434176449683605],[132.56692606354358,34.434225831239424],[132.56694012428184,34.43427748457282],[132.56695969835425,34.43433574083671],[132.56699300188063,34.43441198314232],[132.56702902676167,34.4344882165283],[132.56711144166687,34.43458655545669],[132.5671280619883,34.434622281725034],[132.56713650044662,34.4346538092227],[132.56714220727284,34.43468295024845],[132.5671398084152,34.43471451323532],[132.56712927883973,34.434743708332846],[132.56711605230308,34.43477756064959],[132.56710277256994,34.43480915926545],[132.5670895567627,34.4348452654174],[132.5670628462231,34.43488592349962],[132.5670388767044,34.43493093970705],[132.56703367215061,34.4349534963827],[132.56703940046037,34.43498714508843],[132.5670483621255,34.43506586247901],[132.56696405458106,34.43508755117764],[132.5669204987455,34.43508093212442],[132.56677086280013,34.43507578801283],[132.56659849381535,34.435045221347934],[132.56640922431004,34.43506260449729],[132.56630930232083,34.435081104518304],[132.56627201296817,34.43510489294826],[132.566183426052,34.43511180337231],[132.56619756780887,34.435171627262136],[132.56613083261774,34.43516170284491],[132.56566875497356,34.4352460475426],[132.5655349454031,34.435172668803524],[132.56546992846015,34.43519344789851],[132.56544556448281,34.4352002898732],[132.5654184798478,34.43520728045459],[132.56539402057058,34.43520299400384],[132.56537490508603,34.43519643535037],[132.56535302589302,34.43518072956836],[132.5653256120537,34.43515391219774],[132.5652766928205,34.43515435384887],[132.56521411894863,34.43514357061484],[132.5651786924675,34.435130303467446],[132.565118615265,34.43509922628439],[132.5649939258784,34.435120341085565],[132.5649888166681,34.43515416673295],[132.56487508116484,34.43519088310828],[132.56489341967733,34.43512334602199],[132.5648369362429,34.4351777653556],[132.56472412254763,34.43503233224331],[132.56474574427148,34.43502085094984],[132.56466276672364,34.43487517910543],[132.56468704658647,34.434859322966915],[132.5645881322178,34.43474976581829],[132.56456071767514,34.434722948275194],[132.56452243407148,34.43469842086295],[132.5643119631335,34.434564856587144],[132.56427361546815,34.43453596219812],[132.56423816913136,34.434518187092216],[132.56420003462014,34.43450718233623],[132.56413739758315,34.43449189010375],[132.5640720083556,34.43446984516111],[132.56402837037575,34.43445449203127],[132.5639875901508,34.43445025742737],[132.5639359291094,34.43444605815763],[132.5639032988476,34.434439544077016],[132.56385429492533,34.434430969035354],[132.5638106987704,34.434415474148395],[132.56373133680003,34.434368681785415],[132.56364143973067,34.43434093995536],[132.5635655714937,34.43434977978439],[132.56354928206127,34.434347578777555],[132.56353008186053,34.43433200461235],[132.56347317348988,34.43434148696308],[132.5634654374575,34.43438645070659],[132.56344396450191,34.43441145453631],[132.5634171035456,34.43443858907513],[132.56338471669918,34.43445686668029],[132.56334685806397,34.434477275258516],[132.56331173077115,34.43449105398573],[132.56329554939865,34.43450251738198],[132.56328755883567,34.434520575191414],[132.56329854532703,34.4345339221607],[132.5633052270903,34.43455390407135],[132.5633028077075,34.43461758566094],[132.5632099410968,34.43463591872422],[132.56319549342402,34.43462765418668],[132.5631120273583,34.434620741253326],[132.56298078210273,34.43480176507317],[132.56295112587745,34.43482228758778],[132.5629625808522,34.434880712349496],[132.5629654491155,34.43489408565601],[132.56298732670706,34.43490979277462],[132.5630118505857,34.43491858724608],[132.56304720119243,34.43492509364764],[132.56309347446037,34.4349314239895],[132.56311255858188,34.434940377618005],[132.563134489712,34.43495819686702],[132.56315661108496,34.43499855513503],[132.5631705516037,34.435034432176614],[132.56317110456598,34.43508838451627],[132.56318246297693,34.435135539296844],[132.56318574639934,34.43519187729754],[132.56318568074795,34.4352318846709],[132.56316210413257,34.43527070159875],[132.56313520104098,34.43529797685155],[132.56307821454146,34.435345213460586],[132.56294632016943,34.43537099882251],[132.56280984755952,34.4353542556545],[132.5627553921063,34.43534344396125],[132.56265281793893,34.43532264653767],[132.56251319482183,34.43529563016594],[132.56247242446057,34.43529378954214],[132.56243170759123,34.43529406286521],[132.56238017347255,34.43529887892638],[132.56233678948064,34.43531043021736],[132.56228519233045,34.43531087933661],[132.5622226923383,34.43530671441023],[132.56205721328956,34.43529485415506],[132.56197616120738,34.43528610159709],[132.56187210518968,34.4352844662354],[132.56188658429025,34.435335696874574],[132.5619121615735,34.435369704501724],[132.56192769514982,34.435410085184785],[132.56193352821023,34.435448383086886],[132.56193378220348,34.43547528901104],[132.5619287236982,34.435511368243105],[132.56191823640975,34.43554971979676],[132.5619130399646,34.43557453010496],[132.56191062741823,34.435603839162546],[132.56191371835547,34.43563749753796],[132.56192765845327,34.435673374720416],[132.56195516797342,34.43571146191303],[132.56198813813523,34.43574502369921],[132.56205678861994,34.435818758559016],[132.56208331114988,34.435845720186336],[132.56211165176694,34.435925080292776],[132.56214117209075,34.435975134416886],[132.56218084937535,34.43601557762202],[132.56226123743525,34.436036587851426],[132.56236208771784,34.43607908606118],[132.5624275630097,34.436119444803765],[132.5624924941488,34.4361793860232],[132.56253849939137,34.43624572817152],[132.56261045653903,34.43638960606948],[132.56263862066896,34.43641318144727],[132.56265255057622,34.436446804700594],[132.56265279483785,34.436471597417885],[132.5626422429738,34.436505440587766],[132.56259994193692,34.4366205287001],[132.56254174421562,34.43677159049095],[132.5625129806365,34.4368821260958],[132.56249992180446,34.4369340092537],[132.5624895619851,34.436981375025645],[132.5624871500296,34.43701054344369],[132.5624901145352,34.437035327354145],[132.56250883363296,34.4370840072185],[132.56263002293807,34.43721194679194],[132.56266293229126,34.43726818795382],[132.56268046498465,34.43732645149328],[132.56269743398047,34.43739162001738],[132.56270586085358,34.43742075243303],[132.56270882543942,34.43744553633595],[132.56270367155327,34.43747034653182],[132.56264970369588,34.43750897958765],[132.56266931867424,34.437567377025054],[132.5626722630734,34.43758765234629],[132.56266543277928,34.43761739854127],[132.5626236251601,34.437684024975006],[132.56259330704697,34.43773540055242],[132.56252094642704,34.437830864551465],[132.56249951689978,34.43787432187422],[132.56248281086224,34.43792790723303],[132.56247365144282,34.43799541422594],[132.56241038217988,34.438125783757386],[132.5623512942113,34.4382865679073],[132.56231306957358,34.43837403185961],[132.56224714061642,34.43865246589532],[132.5622326291231,34.43884691385262],[132.56225105331842,34.43899504997293],[132.56234708449944,34.439141666511226],[132.56244275583543,34.43935590120476],[132.56249325463605,34.43951844298557],[132.56250444545194,34.439583770857595],[132.56253615219313,34.43966424594916],[132.56255637437923,34.43975208329784],[132.5626007512145,34.43991408137404],[132.56263334084665,34.44015444145385],[132.56263704968904,34.440219792632504],[132.56265069543045,34.44034596887825],[132.5626787410986,34.44038912444619],[132.5627246415892,34.44045095816391],[132.56278013367753,34.44051839637398],[132.56284532534602,34.440614539096025],[132.56286867965196,34.44067236088551],[132.56290012006968,34.44069648903334],[132.56295355631602,34.44076956760038],[132.5629988334142,34.440843095414934],[132.56305079425843,34.440900965085405],[132.56309125023782,34.44096168937146],[132.56314607958268,34.44102391680185],[132.56323975569455,34.44111207839036],[132.5633232156955,34.44120590862564],[132.5633473487976,34.44126654512937],[132.5633604971952,34.44131439814505],[132.56337170383011,34.44138310667108],[132.56340515484035,34.441526544508704],[132.56344101825513,34.44161376746167],[132.5635236106183,34.44179367120264],[132.5636060123322,34.441942161944574],[132.56364840760133,34.441999498930464],[132.5637896999161,34.44221471126113],[132.56388705024,34.4421986161539],[132.5639684586495,34.4421913069699],[132.56401460909592,34.44218876159535],[132.5640444261369,34.44218401631544],[132.56407966382505,34.44217474476697],[132.56410666525937,34.44215887900739],[132.56413637579809,34.4421406099231],[132.56416882812272,34.44212683875921],[132.56422029185225,34.44211526055005],[132.56429616341364,34.44209669979423],[132.5644045520958,34.44206887619802],[132.56451554380484,34.442034423064804],[132.5645778778736,34.44202041392227],[132.564648436001,34.44201088662482],[132.56474606059317,34.44199901549946],[132.5648518989735,34.44198923168013],[132.56494696180164,34.44198399060988],[132.5650230142353,34.44198571365421],[132.5651100448313,34.44199853049445],[132.56518897752207,34.442016021147396],[132.56517028678354,34.442045384188795],[132.56516501637077,34.4420634323333],[132.56517068199742,34.44208369960981],[132.56518984075615,34.44209927272355],[132.56555147739354,34.44240039714379],[132.5657800641696,34.44244162733675],[132.56582085841166,34.442447973604615],[132.5658507618452,34.442452243085675],[132.56588079195512,34.44246552762911],[132.5661952583898,34.442670307789136],[132.56628299377599,34.442750738508764],[132.56639706896942,34.44274768714131],[132.56666334781036,34.44233194999061],[132.5667474678321,34.442260253226074],[132.5667720016161,34.44224411276921],[132.56678427952758,34.4422337895336],[132.56680495731678,34.442220057101615],[132.56702962486963,34.44192123735943],[132.5671436858638,34.44165729347452],[132.56749291087777,34.441299603049956],[132.56847059942598,34.44110367119918],[132.568301819202,34.44186943470236],[132.56848904638227,34.44234538161218],[132.56860036188786,34.44231655838979],[132.56869996180913,34.442291154392265],[132.56870150806225,34.442303404955055],[132.56870978820456,34.44232817120839],[132.5687399821069,34.442384419593516],[132.56874826226448,34.442409184942264],[132.56876596059413,34.44246547531006],[132.56877053349336,34.44251504632507],[132.5687816421304,34.44256234197594],[132.56880632071798,34.44260283048465],[132.56883367660242,34.44263429560219],[132.56886076858808,34.44265519543676],[132.56889922601192,34.44268817288297],[132.56892380638206,34.44270837685619],[132.56896312328706,34.44275219888184],[132.56899229247801,34.442807323635755],[132.56906637207067,34.44293780615168],[132.56910907371727,34.44302275102344],[132.56910044094124,34.44303954282154],[132.56900019166736,34.4430538205718],[132.56901052506862,34.443276220122904],[132.56884978199534,34.44348425284855],[132.56907384125364,34.4439097856067],[132.56921436047108,34.444394477576246],[132.56936459715797,34.44449456226358],[132.56954535938954,34.444931788188526],[132.5702385484074,34.44504810263256],[132.5703440523996,34.445162700798306],[132.57046023321132,34.44526979789417],[132.57052034515408,34.445341440997694],[132.57054437993975,34.44578664322275],[132.57050024061724,34.44582778238429],[132.57044174268395,34.44589714231072],[132.57043366678042,34.44590618445584],[132.5704310221166,34.44592197027271],[132.57043380775815,34.445935484288384],[132.57047843874605,34.44616452743086],[132.5705090254438,34.44630163113493],[132.57050944710917,34.44638924934727],[132.5705181814655,34.44649937879091],[132.57051873303766,34.446605168163316],[132.57051134829544,34.446749018233426],[132.5705065230575,34.446868207931566],[132.5705093955191,34.44689975260627],[132.57051218053047,34.44691312597852],[132.57051497706667,34.44692889382271],[132.57052318227818,34.44693788219591],[132.57064087168237,34.447110477829604],[132.57070653377906,34.44720464116269],[132.5708340590668,34.447186186934616],[132.57085853364762,34.44719286763564],[132.57087490008868,34.447201687462304],[132.5708858476962,34.447215174481535],[132.57089678543787,34.44723542313803],[132.57091050619422,34.44726002968802],[132.57092421885736,34.44729153851007],[132.57092981143458,34.44732293353712],[132.57093267253654,34.44735208372655],[132.57093568534506,34.447403912740484],[132.57093321279729,34.44744660377544],[132.57092257936165,34.4474983372665],[132.57091733256482,34.44752990877216],[132.570911999213,34.44755232444849],[132.5709094306943,34.44757487162485],[132.57090687225582,34.44760854746847],[132.5709097557583,34.44764234686275],[132.5709291560531,34.4477163781924],[132.57092931893035,34.447750185679396],[132.57091323342857,34.44779066875346],[132.57090252362275,34.44781775058228],[132.57088898490892,34.44783117791119],[132.57086469470454,34.44786281236982],[132.5708268752139,34.447901254052326],[132.57077553984232,34.4479486143256],[132.57075937783998,34.44797346119471],[132.57075675420694,34.447993614039014],[132.57075957253522,34.44801388953907],[132.57076240171904,34.44803641887139],[132.57076794001685,34.44805654474016],[132.57077070407829,34.44806555107778],[132.57075172371813,34.448070121544504],[132.57074095955747,34.448085934196634],[132.5707302727479,34.448126398501515],[132.57071459675066,34.44824337017069],[132.5707146618726,34.448256894066226],[132.5707120823094,34.448286202877206],[132.57072581512398,34.44831306237003],[132.57074223701647,34.448342167743874],[132.57076142160585,34.44837140462597],[132.57078328483252,34.44840049201008],[132.57080129965306,34.44843381766243],[132.57081504296997,34.44846307252072],[132.570831518899,34.44849457221249],[132.57085342530215,34.448523800081894],[132.57086984697165,34.448544030607074],[132.57089171973942,34.44856649697631],[132.57090104199563,34.44858660942531],[132.57090656909975,34.44860462299761],[132.57091215158212,34.44863390482515],[132.57095089038887,34.44876858599321],[132.57099768332267,34.448889858846314],[132.57105868502205,34.44912786298754],[132.57108362703894,34.4492311771267],[132.57108924112893,34.4492672204416],[132.57108937088927,34.44928511031329],[132.57108681315583,34.44931892679023],[132.57108702974543,34.44936386278766],[132.57109800917533,34.449384111279954],[132.57112260433777,34.44941544342811],[132.57113633747616,34.449442303769175],[132.57114192009738,34.44947158558125],[132.57115041830798,34.449541286724504],[132.57115050455127,34.449559176739264],[132.5711641829846,34.449574908560436],[132.5711805298961,34.44958837768371],[132.57119414423,34.44959058650756],[132.57121317747203,34.44959714359251],[132.57125397803966,34.44960377018897],[132.57127490614405,34.44960651826846],[132.57129946847056,34.449622213154434],[132.57132950372247,34.449644652426066],[132.57139587803815,34.449735855006615],[132.57141227833333,34.44975157778918],[132.57142316040887,34.449760416593584],[132.57143137686984,34.44977165873061],[132.57143416280647,34.44978517271295],[132.57149474472652,34.44994457480676],[132.57149753067938,34.44995808878717],[132.57149213208805,34.449966981491016],[132.57144371118017,34.45005490199669],[132.5714356142971,34.45006845290889],[132.57143029252072,34.450084247599285],[132.57142763704817,34.45009777959508],[132.57144444816092,34.45019886669158],[132.57151803932402,34.45025257430661],[132.57151868875135,34.45037836680431],[132.5715324554829,34.45041212922765],[132.57153798325183,34.450430001220006],[132.5715353386622,34.45044578704862],[132.5715143535352,34.45058982366305],[132.5715063636241,34.45061675588535],[132.57149019045426,34.45063934810956],[132.57146593161943,34.45067760353187],[132.57140422020493,34.45082177495614],[132.57138274615684,34.45087354434542],[132.57136929473322,34.450896128444974],[132.57135040073658,34.45091872965619],[132.57134774522612,34.45093226164868],[132.57132706267768,34.451139123313986],[132.5713221086476,34.45123140852027],[132.57132225911758,34.45125380605134],[132.5713278201894,34.45127858018286],[132.57133603714547,34.45129869624657],[132.57133882312436,34.451312211129],[132.57133896340656,34.45133249546776],[132.5713336190655,34.45135265731844],[132.57133369516126,34.45136843413553],[132.57133457158727,34.451532541598965],[132.57132936923145,34.45158214389015],[132.57132401400213,34.4516000519088],[132.5713186910222,34.45161584659483],[132.57130797109014,34.45164067461023],[132.57124622713673,34.45178709991034],[132.571110716688,34.45184375518936],[132.57136374078252,34.45192152016828],[132.5713800657639,34.45193034095564],[132.57138827047376,34.451939329262935],[132.57151651751317,34.4520601906374],[132.5715274549889,34.45207142375256],[132.57153291828965,34.452075913394424],[132.57154112411857,34.452084901687414],[132.5715466200514,34.452096152820694],[132.5716132417509,34.452379075527034],[132.57181151437422,34.452378276210226],[132.57201310422832,34.452492132385935],[132.57202128836997,34.452496612984646],[132.572024041827,34.45250336545502],[132.57202408538632,34.452512380776604],[132.5719302333302,34.4527442784927],[132.5718176181349,34.453025824270924],[132.5718095319106,34.45304162813163],[132.57180687641062,34.45305516012936],[132.57180971626448,34.45307980260693],[132.57184297415634,34.45320562762189],[132.57189277299435,34.45337633268087],[132.571898344589,34.45340321996676],[132.57190386242738,34.45341897783926],[132.57190668122834,34.453439253291656],[132.5719094884642,34.45345713427483],[132.57190969463642,34.45349981550564],[132.57190747283636,34.45359434370486],[132.5719137398571,34.453756177563164],[132.57192515530056,34.453866296074125],[132.57193086848235,34.45392248314487],[132.57194771365096,34.45402131432203],[132.57196446265468,34.45410901802713],[132.57192998137882,34.45427549468096],[132.57189096919362,34.45460398158926],[132.57179924022816,34.45473021989074],[132.57184352198155,34.45488516614716],[132.57175690855308,34.45494391303276],[132.57167030656348,34.45500505432584],[132.57163782846334,34.455032066757944],[132.5716189238278,34.45505241416828],[132.57158924233062,34.45508632046367],[132.57153789213743,34.45514044266232],[132.57148657412594,34.45519245150826],[132.57147850979226,34.455212621458394],[132.57147047661903,34.45523067898198],[132.57145971274707,34.45525550714312],[132.57144901238692,34.455284702182794],[132.57143824853495,34.455300514879674],[132.5714219885117,34.45531409190651],[132.57138678896544,34.4553322393619],[132.5713736943011,34.45542891674346],[132.57133694432588,34.455671890592434],[132.57130374072423,34.455935982220424],[132.5713032643903,34.45599585186876],[132.57142374356454,34.456179704729614],[132.57143470331738,34.456195444598684],[132.57143475701625,34.45620657310573],[132.57145201469757,34.456390909183575],[132.57141685929722,34.45641807196046],[132.57162893250188,34.456464416837875],[132.57158039926216,34.45652979903953],[132.57148862315393,34.45664702177396],[132.57141853983927,34.45674853620654],[132.57146483943345,34.45677528864944],[132.5714244367215,34.456834022010064],[132.57140830516963,34.456865488886024],[132.57138675526082,34.45690162206847],[132.5713760764152,34.45693532385194],[132.57137075416668,34.45696013398504],[132.57136280711927,34.45699608149023],[132.57136304566234,34.457045524185894],[132.571365930796,34.45707932260857],[132.57137427778434,34.45711746913709],[132.5713907865086,34.45715558864517],[132.57140182251416,34.457187106217276],[132.57142374266445,34.457227461669746],[132.5714675500208,34.45729253716007],[132.571546794697,34.45738876719891],[132.57163427817397,34.457491872128195],[132.57172181737388,34.45761526158964],[132.57173549656372,34.45763085267724],[132.5717437573813,34.45765110918585],[132.57174927548272,34.45766686795415],[132.5717466191551,34.457680259302535],[132.57173853356608,34.457696063146194],[132.5717278010278,34.457718637353395],[132.5716955602482,34.4577862185693],[132.5718095503234,34.45776992226339],[132.57188523923259,34.45770219610947],[132.57191589803045,34.457826478958665],[132.57196712975207,34.45777390676973],[132.57201315956428,34.45774445391903],[132.5720510689561,34.45772404343676],[132.57209439845457,34.45769910723879],[132.57214319162827,34.457678660633206],[132.57220557865128,34.457655914148646],[132.5722435544312,34.45764902657407],[132.57227965116235,34.45764947028202],[132.57229870874363,34.457651660914934],[132.57232594008565,34.45765607738578],[132.5723531594457,34.457658240927266],[132.572418516874,34.457669293347195],[132.57243481133338,34.45767177441188],[132.57247837864475,34.45767824984998],[132.5724920360929,34.457680317737044],[132.57253288205374,34.4576869437321],[132.57257100814903,34.457693577842555],[132.57261187702616,34.45770471146413],[132.57261572530766,34.45765652278177],[132.57262081894405,34.45759353920268],[132.57260622551547,34.45739806670942],[132.5725977143259,34.45732611194262],[132.57257827576706,34.45724517980094],[132.5725562575849,34.45718468074183],[132.57252332346306,34.45712633114104],[132.57249318548256,34.45707473384303],[132.5724411383284,34.456993909016184],[132.57237554174242,34.456915524539184],[132.57231539803095,34.4568393748958],[132.5723044804704,34.45682363406673],[132.57229926756477,34.45680055014951],[132.57228199988518,34.456676222947756],[132.5722781334209,34.45665045697021],[132.5723046560273,34.45663149330258],[132.57234082939067,34.45660376342792],[132.5723805532235,34.4565717953123],[132.57241569515185,34.45652434842128],[132.57242628446278,34.4564634589209],[132.57242321468203,34.45639134633031],[132.5724201060655,34.4563112037972],[132.57241669435285,34.456265152429125],[132.57240126658982,34.45620463145783],[132.57238891731234,34.45616537134498],[132.57238172274313,34.45613693972321],[132.5723751785008,34.4561113241757],[132.5723638326879,34.45608600674558],[132.5723053718192,34.4559535057718],[132.57220520178348,34.455758739910856],[132.57217765509722,34.45568896145996],[132.57217478167814,34.455657417777864],[132.57217460735566,34.4556213565107],[132.57217169035573,34.45558079660974],[132.57216865351876,34.45551544548829],[132.5721711347141,34.45546585221991],[132.5721735832261,34.455409498364766],[132.57217604153752,34.455355397440464],[132.57217858809983,34.45531932804813],[132.5721891011723,34.45524266175078],[132.57219978856088,34.455202057623],[132.57221322840846,34.45516820505861],[132.5722320892867,34.45512982677823],[132.57225911276268,34.45509142141507],[132.57229155507028,34.45504849033604],[132.57232126557716,34.45500331444701],[132.57234557900827,34.454967172823466],[132.57236714974778,34.45492653166373],[132.57239681656802,34.45487234043836],[132.57243731229156,34.45480684393659],[132.57246964646438,34.454741375413185],[132.5724993240574,34.454689437991696],[132.57256140107734,34.45458555408969],[132.572593767783,34.45452684611934],[132.57261798280086,34.45447041997506],[132.57263405595924,34.454418527691686],[132.57267697870236,34.45429216957377],[132.57268219132052,34.454244821081225],[132.5726874464781,34.454206487910106],[132.57268454019922,34.45416818274455],[132.57267892398664,34.45413213954257],[132.57267065238696,34.4541096283535],[132.57265965995285,34.45408712619914],[132.57264046138647,34.45405563673165],[132.57262673722386,34.454030889779254],[132.57262915267768,34.45396777441519],[132.57262623552384,34.45392721451527],[132.57263151359038,34.45389338900034],[132.57263331513462,34.453835206230465],[132.57263622341893,34.45374236614479],[132.5726441786693,34.45369951627449],[132.57264670316886,34.45365893830329],[132.57265731379061,34.4536025573193],[132.57266796802435,34.453555190751764],[132.57267868769327,34.453521347162074],[132.5726921270848,34.45348749453901],[132.57270281401026,34.45344688945738],[132.572718898928,34.45339725188373],[132.57272962946598,34.45336566211886],[132.5727673052089,34.45327989006623],[132.5727888425859,34.45323248733565],[132.5728076809515,34.45318960129942],[132.57282924010204,34.4531467053197],[132.57288321864945,34.45305637043374],[132.57290756401432,34.45302698837946],[132.57292375787037,34.45299988817504],[132.57294809228992,34.452968252282666],[132.5729778235477,34.452927583886414],[132.5730129756273,34.45288238883196],[132.57304538503618,34.45283269515105],[132.5730696855237,34.45279429864942],[132.57309127719608,34.452758164112424],[132.57309830573092,34.452743349975236],[132.57310743818445,34.45272430239324],[132.5731182012502,34.45269947408252],[132.57312075824905,34.45266565668531],[132.57311513103727,34.452627359665094],[132.57310676120278,34.45258456402921],[132.5731011667596,34.452553028498],[132.57307902922503,34.45247646972984],[132.57307339112788,34.45243591887615],[132.57307056116352,34.45241338961897],[132.57307854882706,34.452377301204024],[132.57285971505382,34.45232900865184],[132.5728053206148,34.45231580770144],[132.57268314307456,34.45232537051237],[132.57256643910634,34.45234153688919],[132.5724433483345,34.452171074451044],[132.5723714984598,34.452170045321196],[132.57235639187147,34.45216699683354],[132.5723564687955,34.452156571994514],[132.57231819266696,34.452118383265336],[132.5722935869127,34.45209367236992],[132.57224714961043,34.45205551069407],[132.57220615280593,34.45201733095419],[132.5722712103024,34.451976263357146],[132.57220805648197,34.451848283735984],[132.5721642852043,34.45178996902378],[132.5721315473182,34.45175415637246],[132.5721096413851,34.45172506939201],[132.57208499071882,34.45168246920978],[132.57202997901356,34.45155897022286],[132.57199411943085,34.4514489309171],[132.57198316085675,34.45142431535232],[132.57197759958166,34.45139954125263],[132.5719638114093,34.45136141186465],[132.57194726983826,34.45131653000112],[132.57193352456196,34.45128727529347],[132.57191708098628,34.45125366243526],[132.57190051769004,34.45120427290247],[132.57188384555843,34.45113234505751],[132.57188603536684,34.451031195065525],[132.57188586187786,34.45099527440876],[132.5718911302844,34.45096821054246],[132.57189912989,34.45093451666352],[132.57191524748131,34.45090065433366],[132.57200684258214,34.45075638358626],[132.57197106068546,34.45066212107072],[132.57198681047453,34.45056092611739],[132.5720054109041,34.45047761110499],[132.57201341085113,34.45045279204281],[132.57201300932851,34.45036968156746],[132.5720014865112,34.450246038349455],[132.5719875243164,34.450171847655504],[132.57197648972075,34.450140470734226],[132.57196005615626,34.45010911170894],[132.57187222373648,34.44994078560145],[132.57202682819374,34.449895193965204],[132.5720186007525,34.449881698037714],[132.57201039465951,34.44986383494521],[132.57200210189507,34.44983681602817],[132.572002025678,34.44982103920843],[132.57200463860653,34.44980750734097],[132.57201534898243,34.44978056606423],[132.57203960662662,34.449742168990284],[132.57200958161314,34.44971310980065],[132.57198226533666,34.44968178685471],[132.5719576919586,34.449654821903934],[132.57193576378023,34.44962122721869],[132.57191654541506,34.449576354209626],[132.57190554290358,34.44955159813364],[132.5719027358078,34.449533717138024],[132.57189719645788,34.44951345068905],[132.5718835381665,34.44949335269108],[132.57185344840235,34.44945964439781],[132.5716921239335,34.44924901946571],[132.57146787645712,34.44894858948281],[132.5714996906378,34.44880226311579],[132.57155300054674,34.44860881651284],[132.57155834290012,34.44858851400961],[132.57156097655033,34.44857047344263],[132.5715608140922,34.448536806601936],[132.5715579422337,34.448514277432125],[132.57155506999527,34.44848287343268],[132.5715350834463,34.448296290491506],[132.5715180438555,34.4481480135419],[132.57151523621368,34.44812999189325],[132.57151246119602,34.44811873174096],[132.57151510572115,34.44810294590733],[132.57151504115348,34.44808956355343],[132.57151766498404,34.44807828552455],[132.57152575079482,34.44806248167332],[132.5715392659261,34.44804440597496],[132.5716810022772,34.448151839137296],[132.57169191750162,34.44815856458419],[132.5717055418166,34.44816288654612],[132.57184932690984,34.448139869655584],[132.5715897349998,34.44782617528881],[132.5716269800149,34.44768659248347],[132.57163232338218,34.44766628997088],[132.57163495767267,34.447648390940586],[132.5716348271439,34.44762134495292],[132.57162046570934,34.447473059131006],[132.57162303405164,34.447441495565464],[132.5716201835879,34.44741460012825],[132.57161738682717,34.447398832312174],[132.571609170577,34.447387590181826],[132.571595492012,34.44737199904563],[132.57139067404165,34.44715024921899],[132.57137429709258,34.447139034084756],[132.57136340273289,34.44712780170319],[132.57135520828285,34.447121067219996],[132.57134430373256,34.44710772074171],[132.571226504576,34.44692146230042],[132.57125034144065,34.44680446354037],[132.57125562032212,34.44677077868386],[132.57125557685035,34.4467617624514],[132.57125280191462,34.44675050229014],[132.57116184132337,34.44649682018161],[132.5711563240883,34.44648106135206],[132.571153550946,34.44646994272495],[132.5711534738098,34.44645416589845],[132.571185850305,34.44640672664132],[132.57114697101838,34.44624274476081],[132.5711135450017,34.446080999595274],[132.5711048740796,34.44597537771757],[132.57110140804966,34.445838325096176],[132.57111680133576,34.44566289341368],[132.57112698965113,34.44552790884714],[132.57115367957567,34.445429634803425],[132.57113766630022,34.44540574086644],[132.5711805639108,34.445389539686204],[132.5711280744941,34.44530322154584],[132.57103208275254,34.44516041833864]]]}}]}
