{"type":"FeatureCollection","features":[{"type":"Feature","properties":{"potaRef":"JP-1298","nameEn":"Jogashima Prefectural Park","nameJa":"","boundaryStatus":"全国都市公園GIS候補・公開前検証待ち","boundarySource":"国土交通省「都市計画決定GISデータ」都市公園・緑地を、POTA代表地点で空間照合して加工","boundaryScaleNote":"都市計画データは近似・未収録の可能性がある。POTA運用可否は公式情報で最終確認すること。","candidateMethod":"POTA representative point inside one MLIT urban-park polygon","sourceParkName":"城ヶ島公園","sourceParkType":"公園","sourcePrefecture":"神奈川県","sourceCity":"三浦市"},"geometry":{"type":"Polygon","coordinates":[[[139.61759508915756,35.13092392250298],[139.61762439227294,35.13097043603443],[139.61764915866917,35.13102065841471],[139.61768986274097,35.13103559848288],[139.6177509385404,35.1310505747757],[139.6177599680894,35.13105988310247],[139.61780734043714,35.131121296409816],[139.61782539957653,35.131139913036165],[139.61787289439272,35.13115486516266],[139.61787748995138,35.131128854933046],[139.61785498203534,35.13108049508477],[139.61786863164525,35.13105450098821],[139.61790259911265,35.13104898598974],[139.61795238672332,35.13105279139862],[139.61799535930814,35.13106587693527],[139.61801565275138,35.13109564827432],[139.618020062376,35.13114025902099],[139.61798603615392,35.131168075426544],[139.61794755140377,35.13116986549978],[139.61792936001305,35.1312014269046],[139.61794288735223,35.131221893928135],[139.61798136723405,35.13122196230809],[139.61801758356316,35.13122202665448],[139.61802207146698,35.13123690230984],[139.61799032834116,35.13125728888586],[139.61795408751777,35.13126651678919],[139.6179472137397,35.131298098308136],[139.61795621397724,35.131318557320505],[139.61793808625416,35.131325958909684],[139.61790186490765,35.1313277529908],[139.61786334090482,35.13134441060429],[139.61785420850066,35.13137412964173],[139.61786545759392,35.13140016803952],[139.6178902388864,35.13144481501332],[139.61792864057756,35.131474618544566],[139.61796031529533,35.13148025021697],[139.61796706675213,35.1314951298511],[139.6179534562479,35.1315062563897],[139.61791494197118,35.13151919711586],[139.61785379235386,35.13153209762381],[139.61780625332685,35.13153387151746],[139.61775869951586,35.131541220782786],[139.61774277642994,35.131570927731865],[139.6177382094213,35.1316072370023],[139.6177518328882,35.131631610514155],[139.61778370656404,35.131656016483994],[139.61781336810859,35.13165419624225],[139.61783156402677,35.13167483181172],[139.61781500010986,35.13169738707984],[139.61882543811086,35.13232020459132],[139.61932301051985,35.132271823343416],[139.6193633743195,35.13239001899503],[139.61947642649207,35.13237318128632],[139.6194924610095,35.13244627469629],[139.61974972578105,35.132412810054774],[139.61996682274776,35.13252862611741],[139.62039125166032,35.132694401649424],[139.62047091274957,35.132694541589395],[139.62052019413593,35.13270708304333],[139.62066420550508,35.132760269667365],[139.62091810340254,35.132860355241995],[139.6210056442885,35.13288030052765],[139.62109657281204,35.13292405248692],[139.62124827652354,35.13293677297305],[139.62140003631023,35.13292769731952],[139.62166190190987,35.13288144848468],[139.6220164695416,35.13285176570751],[139.62206052781394,35.13309423164862],[139.62197109233452,35.13311959044089],[139.62196077742493,35.13335130066759],[139.62183061579555,35.13334788429394],[139.6217954013461,35.13344190811901],[139.620658262024,35.133424125585705],[139.62055891250827,35.133508658818435],[139.6204955339618,35.13379279836847],[139.62038430628724,35.13387796932669],[139.6203396706682,35.133858754731115],[139.62010631369122,35.13394126715857],[139.6202535310235,35.13435162463885],[139.62032474675135,35.13437124781894],[139.62039397985464,35.13439195091915],[139.620465852767,35.13441265861652],[139.62050277608537,35.13442409730328],[139.62063434876168,35.13447005972751],[139.62065230063746,35.13448008762642],[139.6206921949353,35.13450237252295],[139.62076499075118,35.1345347115039],[139.6208322161824,35.134553235864225],[139.62090878934845,35.134570242689456],[139.62097620009462,35.13461211256191],[139.62101720404854,35.134653598814424],[139.62108069222148,35.13467211649848],[139.62110866728773,35.134693639740426],[139.62113474956325,35.13472436279592],[139.62115521402427,35.13475967768561],[139.62117757085605,35.134785792543],[139.62120365318674,35.134816515583395],[139.6213440588462,35.13489190728213],[139.6211684855267,35.13448099238278],[139.62107542857373,35.13424958924243],[139.6210605015763,35.13419408106477],[139.6210545219255,35.134137447193254],[139.62105759193796,35.13408065666146],[139.62106965905656,35.13402468116841],[139.6210905167951,35.13397047845756],[139.62111980824957,35.133918975961905],[139.6211570322201,35.13387105488628],[139.6212015518103,35.133827535168784],[139.62125260525087,35.13378916144666],[139.6213093190133,35.133756590279255],[139.62137072270752,35.13373037897873],[139.6214357657307,35.13371097601232],[139.62150333517246,35.133698713362755],[139.62157227492207,35.133693800855966],[139.62164140542816,35.133696322536],[139.6217095438696,35.13370623525797],[139.62177552437583,35.13372336940854],[139.62183821804405,35.133747431834294],[139.6218965521612,35.133778010823775],[139.62194952861958,35.1338145831616],[139.62199624100066,35.13385652309999],[139.62203589001922,35.13390311304024],[139.62229923550586,35.13448296665078],[139.62230280622367,35.13449082883807],[139.6223185970282,35.13454343780121],[139.62232909253405,35.134599461841205],[139.6223333429745,35.13465603780124],[139.62233382716875,35.13466739709517],[139.62240784017007,35.1346682386193],[139.6228509644347,35.13468154792592],[139.62325558072726,35.13469243780116],[139.6232977826836,35.134692510947914],[139.6233424829795,35.134686475810526],[139.62339217943543,35.13466822386239],[139.62344686679728,35.13463979248573],[139.6235189473005,35.13460527882425],[139.623662248623,35.13448533242244],[139.62368321685761,35.13446778149484],[139.62333368279394,35.13426268097743],[139.62338749814967,35.134251737446455],[139.6233450640217,35.13401989071271],[139.62328872426622,35.13396681628494],[139.62339633657822,35.133951551232805],[139.6232817929056,35.13355745182129],[139.62338977298313,35.1333987087462],[139.62335525451144,35.13322647473485],[139.62351666299045,35.13320688800556],[139.6238494501282,35.13305912530211],[139.62430613396418,35.13276913449919],[139.62451797927014,35.13266273607087],[139.62491803164124,35.1322776690629],[139.6252240979872,35.13218558969115],[139.62543628773304,35.13190789429014],[139.62562384737197,35.131865640466515],[139.6259530663367,35.1316953998448],[139.62607509752283,35.131692181036954],[139.6260951913404,35.131675952888166],[139.62615426820867,35.13162464678786],[139.62616150990252,35.1316149203662],[139.6261694602359,35.1316114565419],[139.62618058393326,35.13160930216356],[139.6261986295374,35.13160882396533],[139.62637223707668,35.13160270856695],[139.6264612920705,35.13156342632863],[139.626555587852,35.13157506251439],[139.62670183086354,35.13157702977928],[139.62685075796875,35.1315146667471],[139.6268717038026,35.13150531695372],[139.62687987806177,35.13149937630998],[139.62688646583175,35.13149343296328],[139.62688987862566,35.13148822853702],[139.62689534490582,35.131477631255095],[139.62690059106959,35.13146442848267],[139.62690656548125,35.13145088402001],[139.62694453347444,35.131364877742676],[139.62695650298014,35.131350110921865],[139.6270207225092,35.13131323160747],[139.62710503849107,35.13128563224468],[139.6271639588308,35.131286922135146],[139.62731080411575,35.131201277317174],[139.62732688219006,35.13119232383147],[139.6273344167124,35.13118945259539],[139.6273434504781,35.13118905595007],[139.62735900897056,35.131188258366294],[139.62738158770046,35.13118953276269],[139.62739464016707,35.13118749492581],[139.6274107191409,35.131179282153674],[139.6274268146509,35.1311644773046],[139.62743286034691,35.13115501150219],[139.62743841355248,35.131141836784636],[139.62744045404094,35.131128656108366],[139.62744047581947,35.131120004026066],[139.62743848303683,35.13111423259117],[139.62742997287106,35.13110597804989],[139.62741745122725,35.131096480657426],[139.62740340652945,35.131093984751395],[139.62738835410394,35.13109313518414],[139.62737932442175,35.13109188382304],[139.62737180754598,35.131087751016395],[139.62735927145295,35.13108402164288],[139.62735073743534,35.131085243165145],[139.62734320078226,35.13108893838901],[139.62729238589992,35.13111574383397],[139.62720161393025,35.131164133030815],[139.62718551682536,35.13115693615095],[139.62717590547456,35.131156351139346],[139.627199722832,35.13112089208811],[139.62737104610846,35.13092580736398],[139.62747696607218,35.13086954178247],[139.6275617558392,35.130812894446265],[139.62756872085555,35.130805688533236],[139.62757494385224,35.13079418992497],[139.62758020429047,35.13077653360236],[139.6275844786171,35.13076208749751],[139.6275857947357,35.13075727193869],[139.6275887375238,35.13075379741917],[139.62759200022265,35.130752732312146],[139.6276001482506,35.13075354913022],[139.6276089333979,35.13076025541391],[139.62762031920894,35.130769910317056],[139.62762943039547,35.13077661716166],[139.62764718819486,35.13078678320098],[139.62766392903185,35.13079683577692],[139.62769574554764,35.130817304095174],[139.62770953108767,35.13082694774582],[139.62771747354645,35.130830397051525],[139.62772500359117,35.13083144055564],[139.62774378273414,35.1308316367201],[139.62792984711842,35.130839609225646],[139.62804461919075,35.13082110090497],[139.6283282587378,35.130667024663275],[139.62824584908967,35.13073916337915],[139.62821340441855,35.13083272868019],[139.62820923026953,35.13084346083162],[139.62820883795783,35.130849647185414],[139.62820919536017,35.130857381600826],[139.62821444091236,35.130869145811495],[139.62822534597476,35.13087782610454],[139.6282358836276,35.130882793558776],[139.62824605533285,35.130883429474146],[139.62827130467977,35.13088161609871],[139.62829469025885,35.130871756421136],[139.62833363105022,35.130858082134466],[139.62839843332748,35.13083465839848],[139.62842646613694,35.13083795265569],[139.62845916103367,35.130834513060954],[139.62861116362313,35.13072234683612],[139.62873627768556,35.13061712039195],[139.62875491034453,35.13057443217762],[139.6287760835719,35.13052659679116],[139.6287772310109,35.13051827407792],[139.62877388358575,35.13050531899484],[139.62875872092846,35.13048679420529],[139.62875755312558,35.13048615215797],[139.6287440927032,35.13047983228818],[139.62873283604702,35.1304761134374],[139.62872833669198,35.13047333096448],[139.6287300369353,35.13046917152334],[139.6287435722137,35.13046271963768],[139.62875822473646,35.130459969493785],[139.62878162312023,35.13044828758339],[139.6288617149949,35.130411607133496],[139.62894588885845,35.130363911033875],[139.6289671175428,35.130352224644156],[139.628974288674,35.13034689424313],[139.62897723216332,35.130340755331396],[139.6289788795759,35.13033247727857],[139.62897958504922,35.13031057426899],[139.62898058577971,35.13030069235263],[139.62898126983177,35.13028733726478],[139.6289819225738,35.13028653701035],[139.62898875497652,35.13028654853019],[139.62900110101882,35.130293514575285],[139.62904789103,35.13031790176011],[139.62905893965876,35.130323262875415],[139.62907195039497,35.13032462041337],[139.6290800828817,35.13032516838285],[139.6290895214633,35.130323848679424],[139.62910424544947,35.130321854067034],[139.62916852664492,35.1303131605709],[139.62919317420216,35.130308734662236],[139.62921359867084,35.13030128333063],[139.6292292525964,35.13029168522127],[139.62924100798762,35.130278515878196],[139.6292458238185,35.13026248314038],[139.62924804975577,35.13024038616356],[139.629252102599,35.13021009961217],[139.629257442127,35.130168753479],[139.6292743286451,35.13012396929395],[139.6294414258158,35.13006970309583],[139.62945529083436,35.13006514050679],[139.62946445336564,35.13006417495903],[139.6294760013007,35.130064848359865],[139.62949670286977,35.13006815305225],[139.62951541958176,35.13006883850582],[139.629530956701,35.13006690270348],[139.62954171710882,35.130063977906964],[139.62954968971607,35.13006104843115],[139.6295540795973,35.13005745894537],[139.62956006897272,35.13005125628736],[139.62956565441203,35.13004734182747],[139.6295740244468,35.13004474000202],[139.62958597802054,35.13004247118411],[139.6296012468209,35.13004097825591],[139.6297966728545,35.13001887676652],[139.6299871392789,35.12992882893829],[139.63000212494345,35.12991891308909],[139.63003171922733,35.1298972620635],[139.63004262003068,35.12989025952186],[139.63004652197532,35.12988420266379],[139.63004809577708,35.12987654623087],[139.63004347112846,35.12986058210038],[139.63003458046083,35.129840781273096],[139.63003070944978,35.12983439225381],[139.63002217413893,35.129827995374086],[139.63000820513304,35.12981839811976],[139.62999967061884,35.12981168212565],[139.62998648538098,35.12979953316247],[139.62997911061487,35.12979537213394],[139.62996668288704,35.12979120262645],[139.6299553201552,35.12978737663637],[139.62992017215848,35.12977547265758],[139.6298826070718,35.12977548564248],[139.6294980017177,35.129844882696446],[139.6294863893416,35.129845290878066],[139.62948151214434,35.12984491858735],[139.62947841055532,35.12984382104472],[139.62947664214045,35.129841633454625],[139.62947709104682,35.12983944959403],[139.6294810886444,35.12983690760562],[139.62948740270826,35.12983486860228],[139.6295805684781,35.12979870251143],[139.62968498231115,35.12976876136078],[139.62990057539858,35.12972339829033],[139.62993104663778,35.129717477526754],[139.62994152948653,35.129710906881506],[139.6299471293962,35.12970375516834],[139.6299495843746,35.129698603287],[139.6299496057404,35.12969000998475],[139.62994648430208,35.12968255718155],[139.62993952595602,35.12967481149382],[139.62993326029084,35.12966907207771],[139.62992594589306,35.1296641902377],[139.62991723031354,35.12966159760961],[139.62989845288814,35.129658786798096],[139.62987764474104,35.129654890624565],[139.62978443700553,35.12965488627868],[139.62983854957238,35.12963804151521],[139.62991563861874,35.12962815151479],[139.6299686174816,35.129631230511755],[139.6300308909632,35.12963567318992],[139.63004210954696,35.12963420684683],[139.6300544297318,35.12962620774006],[139.63006494254415,35.12961761157075],[139.63006930301984,35.129609896132216],[139.6300714957441,35.12960098895279],[139.63007187378358,35.129594454949434],[139.6300700855489,35.129586135168715],[139.63006467669354,35.12957899742097],[139.63005890313966,35.129573047139495],[139.63004878608902,35.12956798070339],[139.63003020602372,35.12956377520966],[139.6299689080124,35.12954852516786],[139.62983165290973,35.1295433339403],[139.62979580360752,35.12953540668575],[139.62979680910283,35.12952769385294],[139.63006444709737,35.129452496725776],[139.63008916160183,35.12944167478792],[139.63011021831386,35.12942640657191],[139.63014160869795,35.12940203869379],[139.6301451973143,35.129394230145245],[139.63014362718505,35.129387715357595],[139.6301309835598,35.12936880896631],[139.63012070165078,35.12935706987109],[139.63010051661774,35.12934075570485],[139.6300767672448,35.12932248186696],[139.63006965310157,35.12931270173449],[139.63006769122828,35.129304232679104],[139.6300659729997,35.129292197318584],[139.63006364373138,35.129274909062325],[139.63006954119274,35.12923555144341],[139.6300873050427,35.129212277101516],[139.63013829325894,35.129213605328474],[139.63019999788278,35.12923161361776],[139.63021594316862,35.129226900774725],[139.63022323633663,35.12922093704338],[139.63023417598245,35.12921199144985],[139.63023783983655,35.129202037648696],[139.63023302719836,35.12918609371668],[139.6302209239597,35.12917511750563],[139.63021245241785,35.12916713537918],[139.63020277771474,35.12915516723948],[139.63018947130067,35.12914020506665],[139.63018221522867,35.12913122894243],[139.63016892862228,35.12910829886221],[139.63015443884194,35.12908138277628],[139.63014355610562,35.12906742064002],[139.63011566842158,35.12906239390879],[139.63010597641326,35.12905739768275],[139.63008903331212,35.12904143341293],[139.63006840910433,35.129042394813695],[139.63005745453654,35.12905731631223],[139.63003679806945,35.1290712255578],[139.6300040334385,35.129076150570356],[139.62995308549662,35.12907606508796],[139.62992276927972,35.129072030269995],[139.6299058063969,35.129064033825664],[139.62988765282233,35.12904707149925],[139.62986467680068,35.129018149121755],[139.6298453225572,35.12899620480725],[139.62979509569277,35.12898183829794],[139.62976357381356,35.12897481340698],[139.62974056067344,35.12896083085948],[139.6297164038823,35.12891895856564],[139.62970920003298,35.12888906671168],[139.62967894581047,35.12886013207041],[139.62965717553732,35.12883419966941],[139.62962323510982,35.128824182723115],[139.6295516954221,35.12881211054376],[139.62953476240543,35.12879216222569],[139.6295129574538,35.1287801736329],[139.62947052331114,35.12877113834769],[139.62943776126062,35.12877506722406],[139.62936011667,35.12877892052044],[139.6293225297554,35.128771885316525],[139.62929466200964,35.128758890500364],[139.6292801478113,35.12874193420919],[139.62927533539764,35.12872599020263],[139.62926932483296,35.12870406826058],[139.62922395997097,35.12868499039816],[139.6291960724638,35.12867996346465],[139.62917063089932,35.128666972706206],[139.6291573620422,35.128637070592944],[139.629145281316,35.1286171303852],[139.62912466466378,35.128615103683835],[139.62909188772855,35.12862500835982],[139.6290809081709,35.128649889679245],[139.62908572304008,35.12866483767391],[139.6291002422344,35.12867980202126],[139.62911717503388,35.12869975039981],[139.62911350112063,35.128713688102074],[139.62908678937993,35.12872360304103],[139.6290309695857,35.128731476890884],[139.62899093918554,35.128731409407074],[139.6289557660038,35.12872935812508],[139.6289266604606,35.12872632104228],[139.62889513136489,35.12872228392181],[139.628840546956,35.128721195850375],[139.62879928116553,35.12873009013624],[139.6287701681561,35.12873004100277],[139.6287386166478,35.12873496772111],[139.62869975695187,35.12875183396417],[139.628668205431,35.12875676066412],[139.62864639812446,35.12874576790843],[139.6286294478855,35.1287327913767],[139.62861009163674,35.128711842840005],[139.62860770789086,35.128694906966636],[139.62860169501488,35.12867398096659],[139.6285932535966,35.128654046860596],[139.62857872203523,35.12864406236183],[139.6285289774627,35.12864796230153],[139.628514391048,35.12865988956963],[139.62849372443367,35.12867778248694],[139.62845973692018,35.12868668899397],[139.6284366891484,35.128686650032705],[139.62841848349316,35.128690603205],[139.6283947957381,35.12869560756469],[139.62837042759773,35.12873839405924],[139.62835338265518,35.12876326505455],[139.62833274344604,35.12877020209757],[139.62831333227163,35.128771165242526],[139.62829510420067,35.12878408232053],[139.62826956044782,35.12881192688023],[139.62824888376457,35.12883380372536],[139.62822336738483,35.12885069243776],[139.62818935478225,35.128869558730884],[139.6281760088178,35.1288705321286],[139.6281614173159,35.12888445132055],[139.62815170046693,35.12888941484614],[139.62813715393887,35.12888540623221],[139.62813597834077,35.12887046436215],[139.6281093388935,35.12885149539075],[139.62810449671693,35.12884750321346],[139.62810936637905,35.12884053950862],[139.6281154640939,35.1288276019292],[139.62809850393828,35.128818609293894],[139.62807666670338,35.12881956830175],[139.62806814793458,35.1288305098034],[139.62806201271215,35.12885838719667],[139.62805955409695,35.12887133093681],[139.62804739369918,35.128883262256906],[139.62803529579872,35.12887029386112],[139.62803533329262,35.12885535400885],[139.6280268669203,35.12884537976282],[139.6280220247482,35.12884138757323],[139.62800625023928,35.12884335286218],[139.62798314491891,35.12886622152609],[139.62795640040858,35.12888908406392],[139.627951495711,35.128909991585985],[139.6279538343273,35.12894485528284],[139.62794043583204,35.12896674439861],[139.6279234456555,35.12896970360431],[139.62789798926283,35.128962688508004],[139.6278798286241,35.128948713832635],[139.6278762820671,35.12891185608419],[139.6278508531509,35.12889388509599],[139.6278169454517,35.12887091979571],[139.6278000054277,35.128853959178606],[139.62779760681977,35.12884299921846],[139.6277903611351,35.12883003902664],[139.62776855142505,35.12882004209701],[139.6277515687821,35.12882001329212],[139.62772606488713,35.128831921945945],[139.6277084685649,35.12887125867575],[139.62770357383053,35.12888818226259],[139.62769863902406,35.12892104163944],[139.62768765651023,35.128946918822386],[139.6276682103067,35.12896182569608],[139.6276414957191,35.12897273629858],[139.62762323994673,35.12899660911104],[139.62761711458978,35.12902050254653],[139.6276097461727,35.12905634575152],[139.62759389638646,35.129088190617],[139.62756838237476,35.12910408317065],[139.62754167774995,35.12911100977173],[139.62752106602616,35.129106990830515],[139.62750534901707,35.129086048298824],[139.6274920280718,35.129077061723216],[139.62746896766987,35.129082002531],[139.6274604462749,35.129093939972535],[139.6274531303574,35.12910886742434],[139.62743246348566,35.12912676018537],[139.62742031792442,35.12913271551369],[139.6274081975108,35.12912871093421],[139.62739852071618,35.12911773860056],[139.62738274857023,35.12911870778838],[139.6273669664698,35.1291236608991],[139.62731230906178,35.12915145582997],[139.6272734489526,35.129168321612994],[139.6272394484696,35.12918220769298],[139.6272175609368,35.129203086304486],[139.62719739932234,35.12923240598257],[139.6271937074888,35.12925331554424],[139.62719364223204,35.12927921123941],[139.62721419877096,35.129305142006714],[139.62723234431786,35.12932509270842],[139.62723473281525,35.129340036648344],[139.62722613859498,35.129380857717734],[139.62722122867265,35.129403757174614],[139.62721630367878,35.12943263260368],[139.62720171191341,35.12944655167789],[139.62718109753544,35.129443528617045],[139.62716902479215,35.129420600275196],[139.62716665637524,35.12939768843995],[139.62715090182235,35.129391685677646],[139.62713149801948,35.129389660655434],[139.6271133223526,35.12938166180277],[139.62709880088806,35.12936769320334],[139.62710370834242,35.12934578973481],[139.62711112721453,35.1292900267597],[139.62710514237602,35.12925814484414],[139.62709550075104,35.12923322861954],[139.6270712799524,35.12921725150002],[139.62703730955621,35.129219185694936],[139.62701663243004,35.12924106231784],[139.62699713830145,35.12927489287546],[139.62696915275197,35.129308708962895],[139.62695816491862,35.12933657803485],[139.62694106908612,35.129381368594],[139.6269422293841,35.12940228640097],[139.62694703133016,35.129422214430484],[139.62692755967063,35.1294470810891],[139.62687779189977,35.12945994422601],[139.62684013449245,35.1294807959132],[139.62679762233057,35.12950263529435],[139.62679637908212,35.12951458509055],[139.62678178974576,35.12952750813036],[139.62673565350758,35.12954336539647],[139.6266131678408,35.1295302086426],[139.62652340954529,35.12952706751731],[139.62648092750914,35.129536954968856],[139.62644207199665,35.1295518285162],[139.62641171287424,35.1295647245998],[139.6264061496636,35.1295820965718],[139.62638302604924,35.12961193688093],[139.6263502332647,35.12962781674724],[139.62631990947514,35.129626768969274],[139.62620220536428,35.12964150774642],[139.6261815859195,35.12964047651826],[139.62613426417943,35.12964537559281],[139.62606513270427,35.12964027742301],[139.62604329774095,35.12964024008022],[139.6259874719967,35.129650104526654],[139.62596437599535,35.12966898887583],[139.62592668289443,35.12970378409723],[139.6258866065613,35.12972164338443],[139.62586231511338,35.1297335536825],[139.62583196602648,35.12974246567805],[139.62580767709127,35.12975337998182],[139.62578942060964,35.1297772525576],[139.62576631694483,35.129799124809075],[139.62574196732157,35.129833942823446],[139.6257419142418,35.129854858606606],[139.6257364188504,35.129929979226965],[139.6257217837714,35.12996082988944],[139.62569018862823,35.12998268762467],[139.6256562254695,35.12998163344533],[139.62561865603115,35.12996762512977],[139.62559319439276,35.129962601561495],[139.6255519402776,35.12996651479344],[139.62553492205387,35.129980429505174],[139.62551787843307,35.13000430410939],[139.6255056846111,35.130029183014976],[139.62548861069095,35.130065009440216],[139.62547881508448,35.13010084839031],[139.62547997241012,35.130122762190595],[139.6254847310181,35.13015962204253],[139.62547376796067,35.13017753111532],[139.6254518366044,35.130215341223746],[139.6254420713392,35.13023922826389],[139.6254420105881,35.13026313198567],[139.62543824738066,35.13031192913374],[139.6254199602871,35.130347753511565],[139.62541185063435,35.13036364027836],[139.625364867667,35.130361461042135],[139.6253127980893,35.13034482139062],[139.62527664729612,35.13034820729283],[139.62522445142562,35.13038121831791],[139.62521321732348,35.130394191612524],[139.62519161907537,35.13039942332108],[139.62515410340484,35.13041243828216],[139.62506222652777,35.130429976101254],[139.62502377770937,35.13044145064851],[139.62495250047184,35.13046517876819],[139.62490938397102,35.13046972088409],[139.62487279936312,35.13048504547312],[139.62481370576145,35.13050802510369],[139.6247733592002,35.130528728807754],[139.62471998137832,35.13053527515502],[139.62471969182945,35.13053474922722],[139.62470318626742,35.13052114041216],[139.6246973161636,35.13050657990507],[139.6246819870481,35.13049491316348],[139.62466662329354,35.130496826791],[139.62464773503612,35.13049097407094],[139.62463357500744,35.13048415949131],[139.62461347806618,35.130488975038446],[139.62460872756273,35.13049866714051],[139.62459688838013,35.13050834702492],[139.62458150480586,35.13051802081236],[139.62455786851473,35.13052089017575],[139.62454602932274,35.13053057010021],[139.62454479586427,35.13055093854003],[139.62453886140943,35.13056159863425],[139.62452821101388,35.130568370483005],[139.6245022241613,35.13056638566685],[139.6244809433396,35.13057216915958],[139.62445845125026,35.13058959091323],[139.62443949610133,35.13060992884465],[139.62442312569496,35.13064997141884],[139.62437474873042,35.13064182567702],[139.62435755854685,35.13064150800608],[139.62428724003888,35.13065845998973],[139.62420256712159,35.13066263772881],[139.62420119424968,35.13065904199146],[139.62420121618788,35.13065046131396],[139.62420124648352,35.1306386117962],[139.62420426376698,35.13062635883134],[139.6242087698972,35.130615742885226],[139.62421179032356,35.13060226408588],[139.62420932810295,35.13059204470816],[139.6242043755455,35.13058263824471],[139.62419592576245,35.130578537607086],[139.62418796211577,35.130578932466086],[139.6241834810592,35.130579741935705],[139.6241784908932,35.130585045193904],[139.62416948699666,35.13060300832462],[139.62416198863914,35.13061607075743],[139.6241505111151,35.13062830908348],[139.62413655569983,35.13063645711039],[139.62412758007048,35.130643387919],[139.62412012469022,35.13066670536056],[139.62409199718374,35.13066809313205],[139.6239889068921,35.13071181131914],[139.62387240801993,35.130748930332615],[139.62376973471783,35.13077059648799],[139.62371420373202,35.13078672714397],[139.62366095795292,35.13080098942988],[139.6236358624931,35.1308053147554],[139.623605457263,35.13080526214422],[139.62355606013153,35.13080080791119],[139.6235188410059,35.130790133708665],[139.62348998811095,35.13077760169144],[139.62345810597301,35.13076069567845],[139.62343080703246,35.13074723576005],[139.62343183338209,35.13073262375524],[139.62343582620096,35.13071801687891],[139.62344674907214,35.13070017454971],[139.62346064265,35.130680713542006],[139.62344980095136,35.13066689288683],[139.62343694622106,35.1306668706251],[139.6234091987172,35.13069036696378],[139.62338933050034,35.13072605513012],[139.62337836169073,35.13076175870097],[139.62336843173702,35.130777979021396],[139.62334070918692,35.130791732871664],[139.6233238991151,35.130791703744656],[139.6233011644264,35.13078841684011],[139.62327846309765,35.13077213998357],[139.6232587532698,35.130746125792484],[139.62324200367948,35.13072255232693],[139.62323113497968,35.13071928598687],[139.62322221045778,35.130729013021984],[139.62321623372227,35.13074605208513],[139.62320028318746,35.130796360748924],[139.62319523689249,35.130836133953856],[139.62315356788457,35.13086911698179],[139.62315352407578,35.13088616633008],[139.6231534865255,35.13090078001079],[139.623173219302,35.13091786365373],[139.62318502890318,35.130939804786],[139.623199765438,35.13097717664831],[139.6232056128964,35.131010473723634],[139.62321440388905,35.13105270655098],[139.6232133482986,35.131078684748836],[139.6232122615007,35.13111684107665],[139.62320629925708,35.13112819697702],[139.62320229601437,35.13114686319128],[139.62318841481033,35.13116145291364],[139.6231606774204,35.13118088987303],[139.62314282423756,35.131201967663785],[139.62313585025032,35.1312222524909],[139.62310998810614,35.1312666005308],[139.62309807406615,35.13128525301916],[139.62308317899863,35.13130958346687],[139.6230831247402,35.13133069216927],[139.62309194700475,35.131360746900874],[139.62309677019132,35.13140784409039],[139.62310364605415,35.13142571729693],[139.6231055778735,35.13144358193622],[139.62309564778235,35.13145980223199],[139.62308569055813,35.131486576886815],[139.62308563003953,35.131510121165746],[139.6230895269653,35.13153286048914],[139.62309146286987,35.13154910135904],[139.62308448257923,35.13157182181309],[139.6230705678896,35.13159940146644],[139.62306156819332,35.13163835589083],[139.6230404231877,35.13167132672243],[139.62302849036234,35.13169728604189],[139.62300764749628,35.131727289307115],[139.62298880738058,35.1317475535307],[139.62296902015473,35.13175157856027],[139.62295020509342,35.13176210031644],[139.62293730842455,35.13177831543956],[139.62291843269782,35.13181238146806],[139.62289759191657,35.13184157281562],[139.62289160040942,35.13186429496515],[139.62286979364475,35.131884553982346],[139.62285194232172,35.1319048199101],[139.6228420121349,35.131921040174475],[139.6228295907832,35.13194569278142],[139.62281973957406,35.13195205032373],[139.62279142250404,35.13196445421476],[139.6225294755381,35.13209061663681],[139.62234843899518,35.13216311108649],[139.62223939822294,35.1322902260268],[139.62215704152229,35.13240139179587],[139.621898873042,35.132343236942596],[139.62181492810126,35.13234294790986],[139.62170028248644,35.132356743907735],[139.62130707903813,35.13238689006399],[139.62109398505194,35.13238023001048],[139.62093403400755,35.13231311467248],[139.62081013419026,35.132279011807114],[139.62032446480535,35.13221453181514],[139.62016010558955,35.13217454714964],[139.62001395613933,35.13211614776136],[139.61986314699178,35.13202339080763],[139.6196316687159,35.13182128510329],[139.6195546372732,35.131643443972656],[139.61951734229348,35.13160586593006],[139.61943920047563,35.13159435175081],[139.6194071426957,35.13159431759746],[139.6191745119932,35.13140907336502],[139.61915757686256,35.1313952683163],[139.6191452883211,35.13138611612691],[139.6191246591654,35.13137694919499],[139.61908399058183,35.131358835361844],[139.61907168673375,35.13135555272567],[139.61906018833113,35.1313480323535],[139.61904591309946,35.13133920272376],[139.61901973970427,35.13132383028311],[139.61900387497042,35.13131532391084],[139.61897531684266,35.13130059942571],[139.61895904978226,35.13129404888328],[139.6189499216283,35.13129142402529],[139.61893840357672,35.13129140365067],[139.6189264590341,35.13129200071814],[139.61891038805229,35.131299503060646],[139.6189023327414,35.13131078492083],[139.6189023031283,35.131322080980354],[139.61890685222528,35.131336209200306],[139.6188999558628,35.131342786404915],[139.61888389219575,35.13134746468825],[139.61885868113438,35.13134271337069],[139.61883697375762,35.13131349327959],[139.6188118292904,35.131283325777716],[139.6187706286705,35.13125501253771],[139.61875115760907,35.131247447299955],[139.61874321842882,35.131214486230185],[139.6187352718459,35.131184349161146],[139.6187146863901,35.131164544454876],[139.6186757443352,35.131149413994315],[139.6186299107708,35.13113897801888],[139.61860239191589,35.13113987063378],[139.61857828783752,35.131150182705085],[139.61855188088558,35.1311642560462],[139.61851401863433,35.13117454373112],[139.61848077207287,35.131173543474674],[139.61843953452717,35.13115935019209],[139.61841244235373,35.13113879104691],[139.61838201431507,35.131063448486245],[139.61834290387046,35.1310132702232],[139.61831551854524,35.13100327443498],[139.6182987858533,35.13099800475224],[139.61824674666647,35.13101428657305],[139.61824224897072,35.131003127873846],[139.61825138120292,35.1309734087957],[139.6182832024064,35.130923286967324],[139.61830368149302,35.13088243726438],[139.61833552209112,35.13082488165014],[139.61832883412612,35.130785842206855],[139.61830170619768,35.130772784900955],[139.61826774872085,35.13077458310862],[139.61824506473317,35.1307931274131],[139.61821779997803,35.13083210655744],[139.61820412600056,35.13086739295337],[139.61815204079062,35.1308765927465],[139.61812040533349,35.13085609359162],[139.61812953767,35.130826374531175],[139.6181545487023,35.13078367443948],[139.61818635026106,35.13074098643284],[139.61820677078526,35.130722438121566],[139.61820682454993,35.13070199519701],[139.61819555099186,35.130685249086774],[139.61814802713084,35.13068144779723],[139.61812541648513,35.13067211539298],[139.61810278140536,35.13067207519839],[139.6180891465284,35.130692494004066],[139.618068755418,35.13069989158508],[139.61805294510717,35.130686854324566],[139.61804172538857,35.13064966527559],[139.61801911965583,35.13063847439074],[139.61799418687812,35.13065143928115],[139.61797378589566,35.13066255374963],[139.61796020979537,35.13066067120079],[139.6179511900435,35.13064764595777],[139.617919500889,35.13064758963855],[139.61789687077692,35.13064569095388],[139.61787427486667,35.13063078314758],[139.6178539766937,35.13060287023494],[139.61781097499468,35.13060093531367],[139.61778831543816,35.13061018731925],[139.61774072796308,35.130630545661916],[139.61770675575988,35.13063791905871],[139.61769535983072,35.13066763406958],[139.61772018007719,35.13069741350477],[139.61774940481382,35.13077366219907],[139.6177719174815,35.130820163617166],[139.6177672827256,35.13086104137641],[139.61774004220104,35.1308907282437],[139.61771065568848,35.130875808282646],[139.61770395829626,35.130840485745836],[139.61770858328458,35.13080332485632],[139.6176836993158,35.13079770520111],[139.61766104467827,35.13080509873081],[139.61764516082863,35.13081993810255],[139.61764053091005,35.13085895740503],[139.61761783695505,35.13088121849459],[139.61758382549849,35.130903459433505],[139.61759508915756,35.13092392250298]]]}}]}
