{"type":"FeatureCollection","features":[{"type":"Feature","properties":{"potaRef":"JP-1844","nameEn":"Fuetsu Prefectural Park","nameJa":"","boundaryStatus":"全国都市公園GIS候補・公開前検証待ち","boundarySource":"国土交通省「都市計画決定GISデータ」都市公園・緑地を、POTA代表地点で空間照合して加工","boundaryScaleNote":"都市計画データは近似・未収録の可能性がある。POTA運用可否は公式情報で最終確認すること。","candidateMethod":"POTA representative point inside one MLIT urban-park polygon","sourceParkName":"3･3･2 風越公園(県)","sourceParkType":"公園","sourcePrefecture":"長野県","sourceCity":"飯田市"},"geometry":{"type":"Polygon","coordinates":[[[137.832390458105,35.52070004738297],[137.832362897816,35.520670347739205],[137.83227606374433,35.520575529083565],[137.83222573721392,35.52051506561305],[137.83214425444518,35.520415814676866],[137.8321180552591,35.52036291208447],[137.83210784840324,35.52031068393299],[137.83210173872675,35.52027361256812],[137.83208420837502,35.52012455411911],[137.83206955040143,35.52000674424539],[137.83205863457476,35.51991899794981],[137.83205177734598,35.51980847832931],[137.83208231050867,35.51973746574571],[137.8321033372428,35.51970402394817],[137.8321253862758,35.519678934548566],[137.83219428932244,35.51960503364641],[137.83203260255237,35.51958246028978],[137.8321448042688,35.51937518821683],[137.83159515701323,35.51952587337391],[137.83157110605853,35.519533095325215],[137.83160686672528,35.519620195143844],[137.83039862388156,35.51992148505365],[137.83039943390227,35.51992351764591],[137.83042006466604,35.519997581043405],[137.8304752024206,35.520195414599826],[137.8304814186251,35.52021160175782],[137.83048870296525,35.52023193215905],[137.83052832614342,35.52034239034066],[137.83059230406474,35.520502045554196],[137.83064748552945,35.52063361913216],[137.83068161619488,35.520639433111604],[137.83078772964467,35.52065749956089],[137.83093544657146,35.520680357654435],[137.83100950770444,35.5206879614175],[137.83114414947298,35.520702733506596],[137.83128688902156,35.520726203546936],[137.83131544439038,35.52073292386884],[137.83144299267806,35.520769478607725],[137.83156671410535,35.52080484021659],[137.8316004670802,35.52081367145238],[137.83161545887688,35.52080869780836],[137.83170885286106,35.52063348306692],[137.831731561079,35.5206393145874],[137.83187035184537,35.52067496668878],[137.83196438630134,35.52069913060731],[137.8320728663937,35.520750974572664],[137.83216359912404,35.52079307545927],[137.83230240730975,35.52073615586529],[137.832390458105,35.52070004738297]]]}}]}
