{"type":"FeatureCollection","features":[{"type":"Feature","properties":{"potaRef":"JP-1775","nameEn":"Hokusatsu Koiki Prefectural Park","nameJa":"","boundaryStatus":"全国都市公園GIS候補・公開前検証待ち","boundarySource":"国土交通省「都市計画決定GISデータ」都市公園・緑地を、POTA代表地点で空間照合して加工","boundaryScaleNote":"都市計画データは近似・未収録の可能性がある。POTA運用可否は公式情報で最終確認すること。","candidateMethod":"POTA representative point inside one MLIT urban-park polygon","sourceParkName":"北薩広域公園","sourceParkType":"公園","sourcePrefecture":"鹿児島県","sourceCity":"さつま町"},"geometry":{"type":"MultiPolygon","coordinates":[[[[130.4415617329117,31.908861825505074],[130.44153217108052,31.908863522407813],[130.44150669797517,31.908875102545878],[130.44148229055753,31.90889126752196],[130.44145999180603,31.908903778152283],[130.44144830191186,31.908907318242438],[130.4414219129613,31.90890360411448],[130.44140715025833,31.9088999078914],[130.44137435784924,31.90889975800208],[130.44133512787852,31.908918462256494],[130.44129051812337,31.90895528564243],[130.44124270778053,31.908992059148535],[130.44121829114658,31.90900639204187],[130.4411928405424,31.909014378702132],[130.44116955099173,31.90901694973282],[130.44112307855795,31.909014975696387],[130.44108081537783,31.909010272909644],[130.44106068723335,31.909009264861428],[130.44102365381298,31.909013604996634],[130.44098765433782,31.909024291350846],[130.44094739942585,31.909038481284746],[130.44090391133793,31.9090545236346],[130.44086365595732,31.909068784000727],[130.4408287266572,31.909076762452617],[130.44080123552274,31.909077552664233],[130.44077379937434,31.909072882385082],[130.44074102232057,31.909063713379457],[130.44070205771115,31.909050041768765],[130.44065351600395,31.909029033589963],[130.44059765273718,31.90899995931433],[130.4405386588433,31.908966290711145],[130.44048809361092,31.90893540865056],[130.44045438793253,31.90891630030294],[130.4404406801612,31.908909050511234],[130.44024128901614,31.908670859670536],[130.4402288515826,31.908635677841286],[130.44021738873127,31.908603142766268],[130.44020701238682,31.90857515740851],[130.440196592781,31.90855076536867],[130.44018616566925,31.908530847574525],[130.44017146159166,31.908514574167384],[130.4401493390553,31.908499077080666],[130.44012617759347,31.90848459691725],[130.4401051375478,31.9084710072317],[130.44008933394156,31.90845553908104],[130.44008099229396,31.908435666062445],[130.44008010370592,31.90840952091673],[130.44008353755112,31.908372509329677],[130.44009125163586,31.90832477202966],[130.44009581239933,31.908266204501455],[130.44009523212588,31.908197643172947],[130.44009035308872,31.908126349397786],[130.44008944545146,31.908106510434116],[130.44008877740814,31.908087976098702],[130.44008676862214,31.908033112912555],[130.4400858367387,31.908007284642004],[130.44008610908114,31.907964022759995],[130.44008846910927,31.9079270062509],[130.44008765218007,31.90789275840222],[130.44008465592353,31.907860262097895],[130.4400731907997,31.907831390975],[130.44005224184238,31.90780335716703],[130.44002494784093,31.907776175049857],[130.439997577023,31.90774807658021],[130.43997245925422,31.907716359680062],[130.43994937248868,31.907680213030236],[130.4399274707491,31.90763952706362],[130.439904494091,31.90759245943545],[130.43988157851805,31.907545533005056],[130.43986170628963,31.907503940332543],[130.43984287748944,31.907470455468346],[130.4398271681852,31.907443326399715],[130.4398114944209,31.90741711348661],[130.43979479592718,31.907386386362685],[130.43977915256613,31.907352070555053],[130.43976562170639,31.907316777972312],[130.43975530244322,31.907279773811066],[130.43975021911504,31.907240961659266],[130.43975157494822,31.907199466268427],[130.43975819466073,31.907151723964162],[130.4397680150733,31.907103996329543],[130.43977781328672,31.90705979164862],[130.43978334368688,31.907021063373993],[130.4397888252535,31.90698680915696],[130.43979860772038,31.90695165865692],[130.43981362207754,31.906912057852367],[130.43983400154866,31.90686980411083],[130.43985548896626,31.90682540637847],[130.43995187307203,31.90645987290259],[130.44008281545987,31.90621061760592],[130.44020546181906,31.905816033279685],[130.4409634431813,31.90505031333354],[130.44113252235988,31.90467595134668],[130.44159671043718,31.903820490108785],[130.44209915154806,31.90350849260124],[130.44257956007928,31.9032914447212],[130.44262275600764,31.90324245982493],[130.4426947266237,31.90290186157263],[130.44275546173884,31.90282191845093],[130.44280565349374,31.902737312020605],[130.44282171477775,31.902704973097485],[130.44283567605746,31.90267163814136],[130.4428464780699,31.90263828878065],[130.44285303173206,31.902604074516674],[130.4428553317521,31.90256984086049],[130.4428534671293,31.90253456653066],[130.44284630385982,31.90250127618868],[130.44283375216716,31.902467820357877],[130.4428181127937,31.902436111978552],[130.44279717544939,31.90240628189454],[130.44278248907943,31.902387260871517],[130.44276566420402,31.902370097317906],[130.44274778095527,31.90235377447061],[130.44272995965883,31.90233745190331],[130.44270996429887,31.902322070645948],[130.44268155255904,31.902302035796698],[130.44258463999228,31.902240327805092],[130.44252573410182,31.902203066993675],[130.44247409635665,31.90216587454193],[130.4424204523135,31.902125924929308],[130.4423636305302,31.902082332043225],[130.44230681432262,31.90203785839222],[130.44225213965896,31.901994345715234],[130.44220371393828,31.90195537105158],[130.44216164635364,31.901919983680628],[130.44212805176417,31.901890095714474],[130.44212487377283,31.901886487687097],[130.4421017763881,31.901862002680016],[130.44208290789365,31.90183489467814],[130.4420682783292,31.901806854797993],[130.4420589047734,31.901777042149636],[130.44205383186448,31.901746333137922],[130.44205093832426,31.901713837314343],[130.44204796386197,31.901677782830383],[130.4420461218787,31.901638950298572],[130.44204321336926,31.901595673841832],[130.4420392488189,31.90154957411553],[130.44203111087458,31.9014972547502],[130.44202090445947,31.901442213184275],[130.44200753157781,31.901381731647927],[130.44198993705322,31.901319434074814],[130.44196813791268,31.901252607784443],[130.44194218121152,31.90118033699365],[130.44191309022835,31.901100794380948],[130.4418975296405,31.901056614611072],[130.44188194952397,31.901012258596875],[130.44184662826305,31.900912077613523],[130.4418113153877,31.900807281448262],[130.44177603217037,31.900704352629596],[130.44174384675546,31.900611232057773],[130.4417146994764,31.900530843603235],[130.44168768820282,31.900462161460066],[130.44166272816764,31.90039894942507],[130.44163666297533,31.900337458635885],[130.44160851978384,31.90027148406047],[130.4415793552795,31.90020374328191],[130.4415522818118,31.9001351312848],[130.4415283977902,31.90006829538498],[130.44150768255835,31.900003235489777],[130.44148904728686,31.899939065860224],[130.44147148168315,31.899872258819638],[130.44145291776198,31.899800021700152],[130.44143015698992,31.89971874636205],[130.4414042918167,31.899632031317704],[130.4413763167547,31.89954262909804],[130.44134623011664,31.899454097985654],[130.44131398441706,31.899367424219193],[130.44128277884218,31.899286110251335],[130.44125260209978,31.899211952792626],[130.4412266007051,31.89914697437303],[130.4412025875091,31.89909091838222],[130.44118179305286,31.899038541085773],[130.44116096905242,31.89898429642806],[130.44113813096337,31.898921974747356],[130.44111113017652,31.89884518947711],[130.4410831181568,31.898758464543224],[130.44105516069976,31.89866634956771],[130.44103140460777,31.89857598009787],[130.44101082550807,31.898489359596667],[130.44099439854588,31.89840902912959],[130.4409801264074,31.898334098798692],[130.44096890269378,31.898263656695583],[130.44095662358765,31.898196873748265],[130.44094750720305,31.898132818021654],[130.44094049136277,31.898069652666383],[130.44093880285882,31.898006476444813],[130.4409413428652,31.897940712496382],[130.4409481009684,31.897874016612143],[130.44095698576945,31.89780733045318],[130.44096585395525,31.897743286513286],[130.44097153066207,31.897681095199328],[130.44097508426017,31.897621606932695],[130.44097651159308,31.897562038480096],[130.44097368507823,31.897502521034088],[130.4409666635059,31.897440271644207],[130.44095648884272,31.897377056606217],[130.44095549055385,31.897371626524812],[130.440944181519,31.89731478303993],[130.4409298413955,31.897250703412915],[130.44091224236433,31.897189356867],[130.4408946682689,31.89713061749837],[130.44087489189414,31.89707732880026],[130.44085509102518,31.89703122703401],[130.44083419558868,31.89699502006291],[130.4408143131143,31.896965194465047],[130.44079544066264,31.896938931777555],[130.44077865721246,31.896915391402096],[130.4407640206626,31.896891931307547],[130.4407536023985,31.896867504052413],[130.44042179964205,31.896363385529632],[130.44036858911693,31.896281442121264],[130.44052736525867,31.896226610196134],[130.4398842136049,31.89475222255984],[130.43983627009098,31.894637397636874],[130.43980917868453,31.89457864972436],[130.43980712173143,31.894574130777603],[130.4397478373355,31.89447167265087],[130.4396732289498,31.89434356682073],[130.43958954163602,31.894199794541553],[130.43950277108118,31.894050582552268],[130.4394190785222,31.893907726130422],[130.43934274558498,31.893776564743565],[130.4392705881717,31.89365451196513],[130.43925699106092,31.893630070000633],[130.43923279997782,31.893609208199297],[130.43920354312297,31.893556721274297],[130.4391804900788,31.893522371348514],[130.4391469205645,31.89348258288806],[130.43910488683127,31.89344261466504],[130.43905125681874,31.893398189393547],[130.439006008494,31.893363772829858],[130.43895867310778,31.893332904967462],[130.43892291142123,31.893300258208015],[130.438906129097,31.893276717584854],[130.43888940941616,31.893243242206587],[130.43886662575173,31.893172746823424],[130.43885019128803,31.893100589505888],[130.43883692978113,31.89302295076892],[130.43882767762244,31.892974184327073],[130.4388173491389,31.892938941510177],[130.43880079524106,31.892885737721002],[130.43878620226062,31.892852272089524],[130.4387579533244,31.892807011967186],[130.43871711635174,31.892741048894983],[130.43869204171205,31.89269664886526],[130.4386471091767,31.892608964892013],[130.4385343559978,31.892383041512055],[130.43847070063785,31.892255496098727],[130.4383966367497,31.89210546092385],[130.438305776301,31.891930968937103],[130.43830263633905,31.89192468345759],[130.43825454212651,31.891834272055927],[130.43820441717617,31.891738496246717],[130.4380694778553,31.89151144881004],[130.438040859393,31.891464337216917],[130.43803267556606,31.891477000252518],[130.43802635351528,31.891484193478824],[130.4380040129407,31.891503925652582],[130.43798804682794,31.89151470330687],[130.43792873834016,31.891536027076437],[130.43785141245772,31.891562728735725],[130.43776975806446,31.89159480073358],[130.4377189423831,31.89161827729334],[130.43754046711305,31.89176591838906],[130.43739762663625,31.891959487793546],[130.4373820556337,31.892093926742014],[130.43750025075008,31.89229461579746],[130.4377090181341,31.89218262657014],[130.437742972317,31.89215480957725],[130.43777803332466,31.89213154241711],[130.43780669233504,31.89211176887633],[130.43782901040458,31.89209563016252],[130.43784912259716,31.89208222929344],[130.43787461191505,31.892070685134808],[130.43790632370258,31.892064454172644],[130.43792325371857,31.892064531999456],[130.43794120822412,31.892069124055705],[130.4379601932282,31.892077279141237],[130.43799700310646,31.892107288691818],[130.43803051321203,31.89214978994417],[130.4380576950224,31.892200470843715],[130.4380627005995,31.89221539641052],[130.43807431213128,31.892250116727126],[130.43808567576482,31.892297941702385],[130.43809485248275,31.89234223356196],[130.43810419934718,31.892379198228987],[130.43811662413168,31.892412653975295],[130.43813122280648,31.89244516848259],[130.43814582660625,31.892476872706943],[130.43816149891714,31.89250939214419],[130.43817609784486,31.892541871416594],[130.43818750169348,31.892573525701565],[130.43819791496335,31.892605104972702],[130.43820606576512,31.892638576302012],[130.43866457093944,31.893415192571034],[130.4386663738827,31.89341086748014],[130.43867762506653,31.893437306883467],[130.43882037913903,31.893678164684523],[130.43930011202735,31.894572405433138],[130.4393184196993,31.894616069688773],[130.43933118798225,31.894641001071893],[130.4395690566605,31.89510512791974],[130.43958484746304,31.89511242258598],[130.4395974999167,31.895119702864267],[130.43962583910573,31.895144247594054],[130.4396352906552,31.89516144823439],[130.43967613306512,31.89522025920539],[130.4397094760685,31.89529615787927],[130.43972747258553,31.895300749878324],[130.43978272428552,31.89541906092379],[130.4400243214819,31.895911494172708],[130.44003299026892,31.896017014379996],[130.4399975771619,31.896046868656207],[130.43994562690423,31.896076435778088],[130.43988512551508,31.896103180479944],[130.4398184203505,31.896128135193926],[130.43974637304999,31.8961521846248],[130.43967434680354,31.896176163649717],[130.43960335221922,31.89620025305446],[130.439538702309,31.896223420279636],[130.43948151780324,31.89624475447729],[130.43943271563305,31.896266197546325],[130.4393902994513,31.89628671865373],[130.43935424240135,31.896307304140297],[130.43932451829076,31.896328834656902],[130.4392989800232,31.896351265129976],[130.43927874233486,31.896374635905474],[130.43926275820877,31.896397990956817],[130.43925096526223,31.896421400460696],[130.43924447912084,31.89644476384365],[130.43924222124136,31.896465574785196],[130.43924423447547,31.896483586867763],[130.4392494178558,31.896499851960005],[130.43925884526834,31.896514339756507],[130.4392704222273,31.89652520865739],[130.43928512826218,31.896534295147106],[130.43930410497165,31.896540653233505],[130.43932527207636,31.89654346306985],[130.4393517266788,31.89654273885832],[130.43938765553014,31.896539239638045],[130.43943846690385,31.896533201583352],[130.43950402291867,31.8965235671255],[130.43958446765046,31.896510407363284],[130.43965156529396,31.89649859559747],[130.43967442722558,31.896494578403136],[130.4397697268544,31.896473418796184],[130.43986922071167,31.896448543888923],[130.4399751073777,31.896418378365087],[130.44008850222764,31.896382856855794],[130.4401605551641,31.89635792649263],[130.44016695026036,31.896355560096993],[130.4402118316021,31.896442045428344],[130.44021704396297,31.896453730633766],[130.4401110852569,31.89649206953432],[130.44007199091237,31.896490023252447],[130.4398685902375,31.896548701664663],[130.4397860614969,31.896568193568825],[130.43969922605464,31.89658301523814],[130.43960928880543,31.896595286024468],[130.4395109276239,31.89660748289503],[130.43940298647587,31.896619565298515],[130.4392856030084,31.89663262599104],[130.43916176686682,31.896647348043313],[130.43903378033997,31.896662086161204],[130.43895138639465,31.896653605026636],[130.43823425490174,31.896713480476905],[130.43817178688076,31.89672126124508],[130.4381188608026,31.896731904284355],[130.4380648803195,31.896746030286465],[130.43800979144908,31.89676564714712],[130.4379536119803,31.89678793649712],[130.4378974155735,31.89681290327107],[130.43784120756465,31.896839701958577],[130.43777862670967,31.896871861600573],[130.43770650747746,31.89691038931712],[130.43761947749675,31.896955894531782],[130.437520847608,31.897010506281873],[130.43747095170752,31.897038249837493],[130.43742752050483,31.897062429595906],[130.4373447169663,31.897108905292573],[130.43729063323835,31.897139307031185],[130.43716328674964,31.897212669943706],[130.43690658918496,31.897353044637313],[130.4365331152165,31.897557000433444],[130.4363506413487,31.89765899756501],[130.4363421416943,31.897664348667035],[130.43629228103177,31.897692937449264],[130.43623812865238,31.897724289642362],[130.43617663885658,31.897760047035455],[130.43610978364308,31.897798562873195],[130.43604394635918,31.897836096912982],[130.43598557420998,31.897871868590876],[130.43593675988214,31.89790148374506],[130.4358985403486,31.89792748377417],[130.4358688035315,31.8979508101702],[130.43584331666707,31.89797144341063],[130.43582202729917,31.897991144786204],[130.4358007734111,31.89801176231752],[130.43577950790012,31.89803421178301],[130.43575498304727,31.89805942942266],[130.43574188342893,31.898073813522934],[130.435723849154,31.89810769260509],[130.4355560858437,31.89844890178867],[130.43530441704064,31.898889249718806],[130.43528783484248,31.898882972555477],[130.43527375969043,31.898907886048292],[130.43526289483216,31.899136271070105],[130.43512943788875,31.899316070533985],[130.43495611384674,31.899537222508606],[130.43479821656723,31.899709122707506],[130.43448284953863,31.90006335272272],[130.4342756801259,31.900359071276135],[130.43419901105185,31.900518240666052],[130.4341341658758,31.90066886845483],[130.43404784596726,31.900851914651376],[130.4339692200181,31.901003711636257],[130.4338621703745,31.901173379809748],[130.43378187772248,31.901288458684856],[130.43368462947234,31.901416917068346],[130.43353172977808,31.901584611078633],[130.4333351615643,31.90181639836119],[130.432781573174,31.902387597118825],[130.43262827027831,31.902553244750923],[130.43258440972093,31.9026214942597],[130.43255269833284,31.902753356073983],[130.43254992004216,31.902881441536127],[130.4325676896569,31.90298009911954],[130.4326145796415,31.903100699528437],[130.432690936263,31.903234295772204],[130.4327705085328,31.903349375605334],[130.43291036380617,31.90352494398591],[130.4330361202082,31.903722536411983],[130.43309115676828,31.903870795170707],[130.4331201512468,31.903993602409475],[130.4331398966895,31.904171220755753],[130.4331342141039,31.904752146393903],[130.43311190910913,31.90529727113675],[130.4330991264289,31.905699298225354],[130.43310606771493,31.905890103861257],[130.43312307714208,31.906014264725965],[130.43319319508223,31.90627191371679],[130.43329420945756,31.90661982560228],[130.4333423655398,31.90681261725878],[130.43561875019526,31.906820223293305],[130.43563679526915,31.906436575358967],[130.43573909869784,31.9063873372274],[130.43593057331535,31.90651987736632],[130.43623583536038,31.9069222443582],[130.43640729851165,31.906977043351706],[130.43664331905197,31.90690397084602],[130.43711913502594,31.90657552373633],[130.43715187748137,31.906465931287673],[130.4370914181186,31.906279212778703],[130.43727670441044,31.906081224489636],[130.4377606335929,31.906046177167195],[130.43806747618407,31.905908392059764],[130.4384611511373,31.905862217055752],[130.43905646668523,31.906183857471717],[130.43907557928483,31.90638838816639],[130.43897504624385,31.906618863157227],[130.4387478046083,31.906613380932132],[130.43844269241657,31.906476835199012],[130.43820225548473,31.906713360590114],[130.43833294302857,31.907244427715515],[130.43850317302574,31.90751451218071],[130.43837970198302,31.907599907524368],[130.43839228752773,31.907618038624378],[130.438415146464,31.907680360811824],[130.43843789381776,31.907757091780617],[130.43846177705035,31.90782399863698],[130.438487927994,31.907871891404092],[130.43851199589486,31.907906281293652],[130.43853193811782,31.90793342996393],[130.43855399092755,31.90795336606088],[130.43857930493434,31.90796701086255],[130.43860672373927,31.907974359056112],[130.4386236451082,31.907976268758734],[130.43864587597835,31.90797453886446],[130.43888817802787,31.907946832781708],[130.4389834418404,31.907946354058094],[130.43899911817746,31.90795903854739],[130.4390758203627,31.908033374730863],[130.4391106697719,31.908074049792834],[130.43914090629406,31.90810941909529],[130.4391975369525,31.90818366310525],[130.43924782705722,31.908251501270513],[130.4392940212149,31.908313930351017],[130.43933488240958,31.908367351160194],[130.43937266191605,31.90841170356814],[130.43940629679773,31.908445256405233],[130.43943997410952,31.908468803949784],[130.43947794108678,31.908483422595822],[130.43952332564794,31.908490852980044],[130.4395751587991,31.90849739692127],[130.43958376165082,31.90849873989668],[130.4396289632637,31.90850571140715],[130.43968284169304,31.90851867664298],[130.43973453902402,31.908536951672392],[130.4397798477576,31.90855970691025],[130.4398208930911,31.90859051038986],[130.43985656260588,31.90863221069222],[130.43987439572803,31.90865660150321],[130.4399099876806,31.908717185013703],[130.43995493493753,31.908794087898983],[130.4400083018146,31.908881774664398],[130.44006699229115,31.908966878734738],[130.4401257331661,31.909037432788836],[130.4401898389346,31.909105404327573],[130.44026436746856,31.90918416888727],[130.44034736170596,31.90927297764638],[130.44042720478234,31.90935719195149],[130.44046710280594,31.909396480533193],[130.4405266632198,31.909527247170708],[130.44052870771483,31.909537085854385],[130.44053066980678,31.909563306368508],[130.4405302782018,31.909625556964652],[130.440588282057,31.90964925079278],[130.44071793147592,31.909711145324984],[130.4408539334468,31.90977761353094],[130.44087711926645,31.90978828877343],[130.44092347115748,31.90980949823314],[130.4410616590275,31.909863363679047],[130.4411893103195,31.90990812654477],[130.4412937601094,31.909944715417826],[130.441377136436,31.909972963929846],[130.44141828619982,31.909984038261634],[130.44146052727365,31.909992334354044],[130.4415545854634,31.910000021695595],[130.44164870457843,31.91000129728503],[130.44172905520225,31.910001664373958],[130.44197454379872,31.909970373484537],[130.4420020898869,31.909964157766247],[130.44213550724916,31.909926013284228],[130.44220015533477,31.90990457113734],[130.44230935322193,31.909859164114753],[130.44239844419965,31.909812608334484],[130.44243668522859,31.909790270495805],[130.44253756398766,31.909721256073183],[130.44262361910424,31.9096549219395],[130.4426310514404,31.909648649569615],[130.44263946052263,31.909641395198676],[130.44253846883845,31.909576920601484],[130.44251638054303,31.909562445767452],[130.44243842146497,31.90951336622741],[130.44238252905726,31.909488802111525],[130.44235547702436,31.90946894955455],[130.44230920317975,31.90943526935314],[130.44210886258705,31.909288218547854],[130.44202680963335,31.909230136273965],[130.44194890172406,31.909172988870157],[130.44187521614327,31.909117622230394],[130.44180794710422,31.90906320085085],[130.44175006630866,31.909013331833627],[130.44170276591217,31.90896890140179],[130.4416649514337,31.908929904566794],[130.44163340460966,31.90889910984732],[130.44160607575398,31.908877353416123],[130.44159134092007,31.908869218291084],[130.4415617329117,31.908861825505074]]],[[[130.4438645004576,31.90339943245352],[130.44387786454777,31.903296443776497],[130.44353072585838,31.90327999620659],[130.44351254317246,31.903311480022836],[130.44349854139887,31.903344709174828],[130.44349212305147,31.90336722752776],[130.4434822744875,31.90341322906641],[130.44347250872949,31.90345919575045],[130.44345421289344,31.90350875233704],[130.44344032394164,31.903533843727605],[130.44342321859696,31.903558145394552],[130.44340300671632,31.903580600919017],[130.44335623635277,31.903620057537744],[130.4433159272664,31.903643337498952],[130.44327136080378,31.903663885296307],[130.44322684113305,31.90368355252619],[130.4431494277739,31.90372283422273],[130.4431462361402,31.903724686901004],[130.4430868210865,31.90375866028896],[130.44307513027388,31.90376575882214],[130.44300086230976,31.903810550733343],[130.4429234196223,31.903854482594458],[130.4428438417223,31.903896431759915],[130.44276327193506,31.903938482043856],[130.4426773131177,31.903980437238904],[130.44259035688663,31.904023374282207],[130.44257338558714,31.90402953268841],[130.44255959931746,31.904034895316663],[130.44252989573167,31.904052868349314],[130.44249910016717,31.9040770369772],[130.44246507891722,31.904108483613687],[130.442429976714,31.904144364363294],[130.44239483274364,31.90418031537345],[130.4423618440954,31.904211731462055],[130.44232996529757,31.90423409834503],[130.4422992031978,31.904252912026404],[130.44226524411337,31.904274423865605],[130.44222908669224,31.90430402869763],[130.44218548415958,31.90434529609274],[130.4421386390893,31.904396518927435],[130.4420907132379,31.90445214063357],[130.44204277561542,31.90450962948808],[130.44199698712026,31.9045635698469],[130.44195437491547,31.904614811936636],[130.441914937554,31.904666878812574],[130.4418796742501,31.904721783183987],[130.44184652649776,31.904778493966287],[130.4418166097993,31.904836945794656],[130.44181097445826,31.904849779219727],[130.4417919077258,31.904893659903532],[130.44177253547446,31.904946734370633],[130.44175849407677,31.904992716606277],[130.44176404927754,31.905285472883197],[130.4419303784264,31.90575374230408],[130.44214177735893,31.90612501606305],[130.44236539559867,31.90639206271283],[130.44216317049532,31.906977764088836],[130.44150434332428,31.907277033366096],[130.44063758595644,31.908025629562495],[130.44107031899256,31.908278450932997],[130.44175042602618,31.908288218044078],[130.4418382302152,31.90827868408221],[130.44192186498873,31.908265537501862],[130.44200123305697,31.908247826641645],[130.4420860000545,31.908222072580102],[130.4421866791241,31.908184659315424],[130.4423085623438,31.90813469496535],[130.44247295309322,31.908066851154256],[130.44254813800268,31.908041088295807],[130.44259795757296,31.9080196487479],[130.4426372169489,31.908002740989662],[130.44267756367958,31.907980377440154],[130.44271780736204,31.907957978177073],[130.44275712133714,31.907935645122773],[130.44279319026612,31.907910478813978],[130.44280493075448,31.907898835798097],[130.442828329564,31.907875478927238],[130.44284857974202,31.907850381398426],[130.44287524179487,31.907807169355312],[130.44290191829276,31.907764943827992],[130.44293077835619,31.90772357378238],[130.44296485133424,31.907684059482005],[130.4430021139778,31.907646321239405],[130.44303614717967,31.9076131482406],[130.44307121717193,31.907582587019824],[130.44311690071598,31.907552144618418],[130.44316994130511,31.907520819729793],[130.44322404991425,31.90749041567982],[130.4432527178841,31.90746979548984],[130.44330801107947,31.907424987496178],[130.44335375711665,31.90737464001854],[130.44337408252161,31.907344082006105],[130.44339117163022,31.907312593253973],[130.4434201160159,31.90724779514407],[130.44344920536605,31.90716312764269],[130.44348045995181,31.90706244008249],[130.4436235710579,31.9065039472752],[130.44388792042932,31.90616943840949],[130.44393590317284,31.906104691577248],[130.44398387417414,31.906041811893246],[130.44404352919324,31.905966337570828],[130.4441032047639,31.905890863312393],[130.44416184247902,31.905816229837384],[130.44422255032703,31.905740760215437],[130.44425553877713,31.905702755530367],[130.44426718678002,31.905689315191754],[130.44428648858613,31.90566713724471],[130.44431944334545,31.905631210993615],[130.44438860606346,31.905567476291814],[130.44446084184466,31.905510942562284],[130.44453730270075,31.9054590079735],[130.44461905363534,31.90540977490688],[130.44470285797885,31.905362383109114],[130.44479091487466,31.905318498406345],[130.44490303206254,31.90525094230103],[130.44499363859893,31.90519223696021],[130.44512516856472,31.90505483610893],[130.44541454429122,31.904960674984498],[130.44552156813677,31.904895138579736],[130.4455962188982,31.904861761649546],[130.44574254318297,31.90486182658641],[130.44579920423666,31.904848907364038],[130.44586623609152,31.904792173062216],[130.4459464455774,31.904734934791716],[130.44594976129034,31.90468002533013],[130.4459137870008,31.90466052059689],[130.44581573145098,31.904672124745396],[130.4457185947254,31.904662207093057],[130.4453743901252,31.904541953276325],[130.44493200099933,31.904229175350007],[130.44446655342097,31.903839699745543],[130.44399731746896,31.903472189094586],[130.4438645004576,31.90339943245352]]]]}}]}
