{"type":"FeatureCollection","features":[{"type":"Feature","properties":{"potaRef":"JP-1910","nameEn":"Maizuru Castle Prefectural Park","nameJa":"","boundaryStatus":"全国都市公園GIS候補・公開前検証待ち","boundarySource":"国土交通省「都市計画決定GISデータ」都市公園・緑地を、POTA代表地点で空間照合して加工","boundaryScaleNote":"都市計画データは近似・未収録の可能性がある。POTA運用可否は公式情報で最終確認すること。","candidateMethod":"POTA representative point inside one MLIT urban-park polygon","sourceParkName":"舞鶴城公園","sourceParkType":"公園","sourcePrefecture":"山梨県","sourceCity":"甲府市"},"geometry":{"type":"Polygon","coordinates":[[[138.5722575107166,35.666045298986276],[138.57228294112429,35.666036693631035],[138.5724649134379,35.66597006287038],[138.57250886460204,35.665958408690685],[138.57271214800878,35.66588446359313],[138.57277541487997,35.66585729402013],[138.57280543796756,35.665834110562685],[138.57281878607176,35.66581526377709],[138.57282407201038,35.66579768378931],[138.57282825076499,35.66577722007434],[138.5728326278348,35.66573187831909],[138.57284322713403,35.6655688494187],[138.57284505042657,35.66554537653822],[138.57284169253703,35.6654967043761],[138.57285359946871,35.66522898910263],[138.57285091873166,35.665196180710936],[138.57284702953822,35.66517058404207],[138.57283694404154,35.6651330929841],[138.57282708625905,35.66510308319164],[138.57281169058146,35.665056401327455],[138.5726958850255,35.66475928827072],[138.57268658656022,35.66473693980679],[138.57267264720372,35.664712611119896],[138.5725179013384,35.66459192028047],[138.57247877271936,35.66456129711819],[138.5722645605061,35.66439349986002],[138.57221626218515,35.66436044840352],[138.57218731641024,35.66431614519259],[138.572138412673,35.66423620458433],[138.57209523836175,35.66415266404218],[138.57208177844328,35.66409614692583],[138.57185142500882,35.664106569268874],[138.57180502881306,35.66410039548857],[138.5717490441538,35.66409302857602],[138.57170746539114,35.66408867266355],[138.5716184823959,35.66407485346863],[138.5715434348635,35.66405671736102],[138.57142400860087,35.66402798033476],[138.57134414581228,35.66401034271445],[138.57101724414375,35.66395764330606],[138.57046876062174,35.66389109256476],[138.57034725990903,35.663876597396],[138.57032519785625,35.66388410971544],[138.5703167188295,35.66386326588122],[138.57024289356303,35.663701548347476],[138.57008058594565,35.663351837586944],[138.56995277878195,35.663058208089616],[138.56922534921435,35.663211465480536],[138.5692084092731,35.66324113043232],[138.5692885354324,35.6634116243744],[138.56930401742457,35.663407550267394],[138.56947581399618,35.66377494156153],[138.5695399479205,35.66397133201319],[138.56963956639208,35.66421323933185],[138.56962589538747,35.66421694287106],[138.56964249549569,35.6642792182266],[138.56965803597993,35.664494908070154],[138.56967357454747,35.66458116058396],[138.56971286367704,35.66479764790328],[138.5697513279325,35.66495446471751],[138.56979464437032,35.665102084687966],[138.56984392399445,35.66524789843258],[138.56991975473835,35.66544137942373],[138.5699404569759,35.66549526956542],[138.56996338204286,35.665564842318574],[138.56997146978537,35.66559287034953],[138.56998386059786,35.66561548763537],[138.57000896267385,35.665648192918766],[138.57004843091138,35.665688731794084],[138.57005031118464,35.66569161509693],[138.57008811277453,35.66572088775422],[138.57013098670507,35.665740242332234],[138.57018711547835,35.66575967930741],[138.5702117527338,35.665765974562476],[138.57026600252502,35.665783970398024],[138.5704305148329,35.66583281889521],[138.57052343465548,35.665862419714664],[138.5705760321788,35.66588546407172],[138.57062189998902,35.66591770636647],[138.570662250335,35.66595599108647],[138.57068890681322,35.6659973485033],[138.5707080546561,35.66604141444478],[138.5707156017113,35.666082242249956],[138.57071713327306,35.666190676627345],[138.57071626933194,35.666213031206475],[138.57071462092713,35.66624766295813],[138.5708099734048,35.66625452947698],[138.57083571113026,35.666255956537846],[138.5710045084699,35.66627758023539],[138.571150981443,35.66628551600643],[138.57127038416635,35.666284093335946],[138.5714247946608,35.666274717697945],[138.57158681529813,35.66625262796685],[138.57178671697346,35.66622429596168],[138.57189969418573,35.666201784349404],[138.57199179330613,35.66617739222964],[138.57207626267325,35.66614390073035],[138.5721830204443,35.666083985559005],[138.57220370239895,35.66612574282484],[138.57210435369257,35.66618282326405],[138.57201248636065,35.666219293740895],[138.5719147551922,35.66624513143811],[138.57179802311526,35.66626845653968],[138.57159602289366,35.66629706022335],[138.57143146198024,35.66631951202316],[138.57127285427563,35.666329160566136],[138.57114947511403,35.66633067572602],[138.57099847300373,35.66632238207416],[138.570829565194,35.66630084857073],[138.57075345654687,35.66629656671877],[138.57071159146227,35.66629442801254],[138.57065305381695,35.66629960020332],[138.5705069176264,35.66629779297161],[138.57045544746717,35.666300977905564],[138.57040176745275,35.66630335287302],[138.5703624435161,35.6663019336588],[138.57037926184606,35.66633482397586],[138.57045240182552,35.66660609472762],[138.5711581792224,35.66643036252877],[138.57115274962814,35.66641098619984],[138.57171114448633,35.66632547513522],[138.5719378815915,35.66629072714125],[138.57232928416647,35.66622757678831],[138.57228721745273,35.66612430460427],[138.57227481470102,35.66608924860554],[138.5722575107166,35.666045298986276]]]}}]}
