{"type":"FeatureCollection","features":[{"type":"Feature","properties":{"potaRef":"JP-1691","nameEn":"Kagamikawa Ryokuchi Prefectural Park","nameJa":"","boundaryStatus":"全国都市公園GIS候補・公開前検証待ち","boundarySource":"国土交通省「都市計画決定GISデータ」都市公園・緑地を、POTA代表地点で空間照合して加工","boundaryScaleNote":"都市計画データは近似・未収録の可能性がある。POTA運用可否は公式情報で最終確認すること。","candidateMethod":"POTA representative point inside one MLIT urban-park polygon","sourceParkName":"","sourceParkType":"緑地","sourcePrefecture":"高知県","sourceCity":"高知市"},"geometry":{"type":"Polygon","coordinates":[[[133.53842737524664,33.5559803406564],[133.53880186364498,33.55460309167968],[133.53858636847488,33.55456969203141],[133.5378750854922,33.554421043217964],[133.5377446085458,33.55435797131587],[133.5375384011829,33.554300339593055],[133.53710053599653,33.55420555463695],[133.53670828184073,33.554119482040385],[133.53586791908305,33.55391570732041],[133.535311281611,33.553788224564755],[133.53512975649713,33.55387466500017],[133.53503574570607,33.553935114563814],[133.53494910841158,33.55396834095616],[133.53488266654892,33.55400327119728],[133.53474749637127,33.55403292600659],[133.5346312000091,33.55405570904662],[133.53458608462964,33.554066258767904],[133.5344257707391,33.554103744181994],[133.5342598666338,33.55411207489824],[133.53406741231373,33.554116899729515],[133.53392342329315,33.554109782579275],[133.53358520473165,33.55407575045802],[133.53345412789992,33.55406743632715],[133.53300960190415,33.55404016330508],[133.53277343815466,33.55401452256565],[133.53154482458484,33.553814812426936],[133.53112878856365,33.553750980928214],[133.5308084979491,33.553704300472546],[133.530587340871,33.55358125252906],[133.52944295931758,33.553398307216185],[133.52875907239527,33.55330017598889],[133.52857442122306,33.55326681936298],[133.52852847177158,33.55332263445163],[133.52831114419135,33.553288827802994],[133.52830415802225,33.553334740585406],[133.5281721195703,33.5533183609028],[133.52798224372643,33.55328296857374],[133.5277866576976,33.5532394629556],[133.5277619913328,33.55322504240219],[133.52775197447988,33.55322071655134],[133.5276102284423,33.55315907466961],[133.52758545245916,33.55313843246638],[133.52748851881807,33.55311077314268],[133.52745135541082,33.55308138730014],[133.52741473257808,33.55306201005013],[133.52723341173376,33.55300626991681],[133.52672029331816,33.552697557583606],[133.52642060376417,33.55302133739184],[133.52637366272825,33.55300774094589],[133.52637084831795,33.55311987080845],[133.52627697060032,33.55311798370063],[133.5259640112092,33.553110656796065],[133.5258381154244,33.55310563458893],[133.52503084552822,33.55310408992705],[133.5249842144301,33.55310410024738],[133.5248402267665,33.55310079297831],[133.52465682663149,33.55310488813053],[133.52388660446405,33.55310801739577],[133.52385160212225,33.553104327227864],[133.52339670634754,33.55310748156456],[133.52310873293604,33.55310356912824],[133.52288990214237,33.553109381476006],[133.5224026027656,33.55315933479042],[133.52220832776578,33.55317695268334],[133.52196667019686,33.553204497241964],[133.5218020130776,33.553227519359595],[133.52156574223147,33.55326443972945],[133.52119992403203,33.55333375155223],[133.5210333293531,33.55336687187089],[133.5210264383737,33.55337264383675],[133.52042531868076,33.55347851051939],[133.52021780399085,33.55352471004031],[133.51978253415663,33.55364145681555],[133.51976595034742,33.55364596699626],[133.5196319875043,33.55367736700918],[133.51928965100547,33.553771734545705],[133.51908439658223,33.55381793181283],[133.5189030516778,33.55386683015135],[133.5187344132441,33.55391004567562],[133.518359982459,33.55400667060908],[133.51810292876357,33.554060718592325],[133.51791708742272,33.554082492505366],[133.51788403802158,33.55410253727016],[133.51783958974426,33.55411494908799],[133.5174300781957,33.55417081821551],[133.51718195899926,33.55418756836515],[133.5170786666106,33.554190419363074],[133.51682676500414,33.55418465600987],[133.51674514230402,33.55418452911821],[133.51640633243528,33.554173123959735],[133.51618807472687,33.55415621089861],[133.51600001025028,33.554139058214204],[133.51586551356473,33.554119035536004],[133.51574925354896,33.554097101522416],[133.51540959073898,33.55402843573817],[133.51521967115193,33.55399303105844],[133.51493129831482,33.553923402758855],[133.51444469722895,33.55377862615532],[133.5141000521888,33.55366749241848],[133.51392794307915,33.553597543712556],[133.51365444331145,33.55348245672998],[133.51342360407583,33.55334142930575],[133.513388837491,33.55332091518722],[133.5131682777138,33.5532035617619],[133.51296538420848,33.55309145481168],[133.5127938348078,33.55298363812469],[133.51265192080538,33.552876295165596],[133.5124540224427,33.55275669835116],[133.51234933448086,33.55267385643588],[133.51226597269329,33.55261895199044],[133.51202613505131,33.55243213697276],[133.5118074607921,33.552204217871505],[133.51176397339094,33.552281384774254],[133.51171367788865,33.552248863891],[133.5115810287742,33.55216402492131],[133.51127726554733,33.55199084971255],[133.51085219443576,33.5517743854347],[133.51075322098146,33.55172507178952],[133.51041064309635,33.55161897250363],[133.51019923603585,33.55153179605881],[133.51017662044487,33.55152792066535],[133.51011318850468,33.55151187583299],[133.50960015198524,33.55138152370714],[133.5095845373781,33.551377016481446],[133.50933158036284,33.551320402641835],[133.5090972536752,33.551279476273],[133.508945955025,33.55126325242096],[133.50877871999435,33.5512541528431],[133.5087371538331,33.55125740095516],[133.50870517037583,33.55125370538918],[133.5084922773617,33.55125182031961],[133.50772115024694,33.55130306409444],[133.50754502343108,33.551320989671886],[133.50740825758015,33.551339129054796],[133.50725781504616,33.55135870096812],[133.50688541588585,33.55141706319566],[133.50675985635877,33.55143888733515],[133.50636228792322,33.55151040046609],[133.50632072219219,33.551522484300065],[133.50552633625728,33.55165360506169],[133.50506264827663,33.55173620589787],[133.50497685091236,33.55185515542087],[133.50497855228642,33.55187127931976],[133.50498393798216,33.551890755542665],[133.50499654852666,33.552112841444114],[133.5049915951891,33.55212131750155],[133.50482500886503,33.55219985563109],[133.50453178672427,33.55233204590422],[133.50440353550493,33.552382451225725],[133.50431620347476,33.55242311767701],[133.50429875833845,33.55242167468314],[133.50401538521703,33.55236648472632],[133.503994223709,33.55243673403709],[133.50415672309444,33.552467481622735],[133.50420378191322,33.55247821101005],[133.50421250522595,33.552483079822984],[133.5031616750312,33.55301829204217],[133.50266087976215,33.553288373451224],[133.50265754298687,33.55334445844242],[133.50260757749336,33.55337782011313],[133.50258582464227,33.55338259860771],[133.50255061106782,33.5533833197859],[133.50225878611502,33.553486647939955],[133.50192506985732,33.553593490837926],[133.50188921015527,33.553599982633344],[133.50171422179545,33.553649030628],[133.50149346444178,33.55369798786513],[133.5014315450111,33.55371042916867],[133.50142831529985,33.55371205224212],[133.50138653235763,33.55371899480341],[133.5013786718973,33.553726117314824],[133.50136154971432,33.5537300840243],[133.50135408762083,33.553730962349036],[133.5013571032986,33.5537469393035],[133.5010078935604,33.55379664541542],[133.501007893372,33.5537804222676],[133.50084946596454,33.55378424029591],[133.5007024367911,33.55377851550657],[133.50049727979567,33.55376324823895],[133.50029440164244,33.55373843717341],[133.5003001007193,33.5537145803317],[133.49993802547786,33.55364529416785],[133.49967935924798,33.553602908178426],[133.49939280172404,33.553556191614774],[133.49910861377663,33.553508573619524],[133.498716974821,33.55346836757349],[133.49868848047828,33.55344928217237],[133.49867252488568,33.55343114998264],[133.4986622674049,33.5534101558986],[133.49865998825635,33.55336339529826],[133.4984708883819,33.553299810662004],[133.49812252267677,33.55321999756923],[133.4981036776369,33.55321097951211],[133.4980532012356,33.55318942480681],[133.49791587175218,33.5531982572988],[133.49712501442409,33.55324601102475],[133.49687820846566,33.55426243413595],[133.49704251688064,33.55429492323552],[133.4970567321736,33.554306375896594],[133.49731206482602,33.55435417380137],[133.49746692203829,33.554395386851716],[133.49769317619825,33.55445535884624],[133.49801828834234,33.554503071815354],[133.49815203722883,33.554528143477434],[133.49878062243337,33.554642431928436],[133.4991333583585,33.55471217675264],[133.49935646882034,33.55475869973192],[133.49964198234488,33.55482383151281],[133.4998804808567,33.55487751027689],[133.49998733503168,33.554901845051354],[133.50003948002816,33.55491258052611],[133.50044467105872,33.5549719837469],[133.50093363681123,33.55503281691589],[133.50097466885012,33.55503854230931],[133.50108066823174,33.555047129993916],[133.50114221628854,33.55505357109013],[133.50125590953428,33.55506645238484],[133.50137644130965,33.555068598920855],[133.50165939185095,33.5550664476344],[133.5019211724919,33.555056171835744],[133.5021346128632,33.55504544367983],[133.50214408904478,33.55504769863416],[133.50225942439164,33.55504535490307],[133.50233394544318,33.55504842105832],[133.5024157948341,33.55511649772461],[133.50244960963033,33.55513561281492],[133.50248956011137,33.55508836634803],[133.50260844193107,33.554978994731016],[133.50266842153377,33.55493499475496],[133.50269297339088,33.55491795324879],[133.5028279077907,33.55490848613796],[133.50284138161282,33.55491034961561],[133.5029409791114,33.554840599127665],[133.5030962697594,33.55473622060973],[133.50333561609744,33.55457935338267],[133.50348449636087,33.554488691904794],[133.50368181269778,33.55433838585016],[133.50363593413627,33.554271269257434],[133.5038670173428,33.554170783702375],[133.50386359847028,33.554156132302154],[133.50397419002152,33.55411322023715],[133.50408639725077,33.554078234747486],[133.50424243354152,33.55403810985106],[133.50434376598045,33.55401060849956],[133.50472323254743,33.55388418624227],[133.50477084188344,33.553863724243335],[133.50497780806722,33.55376661345063],[133.50549995548357,33.5534947562416],[133.50559191691354,33.553457335727465],[133.5057703435725,33.55336076499976],[133.50586521260286,33.55330945726779],[133.50594479129015,33.55327474033351],[133.50612742173976,33.55316599340921],[133.50615423416482,33.55315165616043],[133.50625330416622,33.55311973418749],[133.5063913575714,33.553097910824825],[133.506517673266,33.55308807945991],[133.50670278628505,33.5530805909861],[133.50685505465026,33.55306805371036],[133.50709810228417,33.55304920197339],[133.5071931892141,33.553041805358426],[133.50726060038505,33.55303774563616],[133.50747166476023,33.55301393485786],[133.50773581788383,33.552984261252824],[133.50803292379882,33.55297811897746],[133.50838893752845,33.5529925331771],[133.50872793720367,33.5530200211112],[133.50895117468662,33.553047873608364],[133.5091002144327,33.55306995857956],[133.50918582722463,33.55309087409706],[133.50944245042228,33.55315325873387],[133.50955207752023,33.55317092699314],[133.50971627119182,33.55320310533786],[133.51041460640732,33.55343424647161],[133.5105078628238,33.55346356144618],[133.51083356404624,33.55357947947399],[133.51086646219653,33.553587193226285],[133.51097882099768,33.55358588308156],[133.5110683431315,33.55362506872924],[133.51107653066884,33.55363868256536],[133.51122494447853,33.55370521187748],[133.51170670479485,33.55394130909782],[133.51193062561356,33.55406652749701],[133.511970691956,33.55408825337713],[133.51214991601205,33.55419796758108],[133.51246140570876,33.55439089035268],[133.51249921361395,33.55442505866186],[133.5129373699133,33.55470192161239],[133.51354975921035,33.554865225484725],[133.51381922811404,33.55494138551008],[133.51408887735383,33.555010984256064],[133.51414297370462,33.55500347244937],[133.51465077956357,33.55510124278263],[133.51512864521138,33.55519396524902],[133.51529536444147,33.55522378968656],[133.51534975397024,33.55523577538588],[133.51583644076254,33.55527782104584],[133.51628047811712,33.55531301759057],[133.5163315265102,33.55531607660132],[133.51665106537044,33.555338394961595],[133.51692827974045,33.555359816604906],[133.51715520083266,33.55538413000326],[133.51729423864907,33.5553907822378],[133.51823230388632,33.55522372654102],[133.51843254820795,33.55524040063286],[133.5185486350463,33.555202603532045],[133.51868109326594,33.555172919031655],[133.5188177503308,33.5551377334635],[133.5189789582031,33.55508577261379],[133.51909698287722,33.55504689357871],[133.51930165073819,33.55498451562574],[133.5193448809927,33.55498076237096],[133.51971672663956,33.55487322537952],[133.52022339608507,33.5547291479154],[133.52045775960138,33.5546589663102],[133.52052410793593,33.554639041580764],[133.5208865579869,33.55463192797288],[133.5223397992943,33.55464023849915],[133.52265642489462,33.55464513933709],[133.52281732119718,33.55464510888734],[133.5230974579921,33.55466353159867],[133.5235956211769,33.55466152969075],[133.5244743892301,33.554667084803775],[133.52508245962406,33.554669348969476],[133.52514172769523,33.55467029093246],[133.52589265221775,33.55467936131971],[133.52670303346127,33.55468586888171],[133.52717376134171,33.5546871974361],[133.52738924658124,33.55467820341895],[133.52764142276638,33.55468053323733],[133.52767561546045,33.55467903511083],[133.52816995728398,33.5546793708567],[133.52816879375104,33.554671420049274],[133.52837178478228,33.55457564704468],[133.52856295131178,33.55460675545902],[133.5290226174634,33.55467256004388],[133.52904189601685,33.55467598193212],[133.52948325877364,33.55475369045873],[133.52977340693963,33.5548047448474],[133.53026991569993,33.55489596349337],[133.53089340486088,33.55500536079058],[133.53142351113846,33.55508349196424],[133.531592711333,33.55511239213864],[133.53243182106007,33.55525004033114],[133.5332674841976,33.55538272448327],[133.5333523976953,33.555507763743094],[133.5337170668979,33.555534444152244],[133.5341748947115,33.555561548650225],[133.53460062626965,33.555583611886966],[133.53463863998232,33.55557602709139],[133.53568403578362,33.55559999998686],[133.53635669277543,33.555609464950855],[133.53656477546707,33.55565214721281],[133.53681938509126,33.55570446334084],[133.53692451265576,33.55574708360101],[133.53721563309801,33.555804799940184],[133.537259467207,33.555811188729244],[133.5374019585354,33.55583946142131],[133.53744277647496,33.555844228922815],[133.53799053621174,33.555911608277704],[133.53836555225536,33.55596875602837],[133.53842737524664,33.5559803406564]]]}}]}
