{"type":"FeatureCollection","features":[{"type":"Feature","properties":{"potaRef":"JP-1193","nameEn":"Makuhari Seaside Prefectural Park","nameJa":"","boundaryStatus":"全国都市公園GIS候補・公開前検証待ち","boundarySource":"国土交通省「都市計画決定GISデータ」都市公園・緑地を、POTA代表地点で空間照合して加工","boundaryScaleNote":"都市計画データは近似・未収録の可能性がある。POTA運用可否は公式情報で最終確認すること。","candidateMethod":"POTA representative point inside one MLIT urban-park polygon","sourceParkName":"幕張海浜公園","sourceParkType":"公園","sourcePrefecture":"千葉県","sourceCity":"千葉市"},"geometry":{"type":"Polygon","coordinates":[[[140.04565974070292,35.64807513204193],[140.04562723474282,35.64801028404547],[140.04559680319278,35.64794477257729],[140.0455684571726,35.6478786282661],[140.0455422188736,35.64781189253748],[140.04551991773215,35.64773940089753],[140.0455011371371,35.64767399506842],[140.04548182049552,35.647606734248924],[140.04546890262588,35.6475617531566],[140.0454557605763,35.647477913284455],[140.04544183122027,35.64738907396814],[140.04543349267755,35.64732643498361],[140.04542601037883,35.64727021227955],[140.0454170870376,35.64720315037421],[140.0454153779482,35.64714186980283],[140.04541377880165,35.64708458212828],[140.04541219105784,35.64702742963931],[140.04541225895755,35.64690311458791],[140.045418211246,35.64681206703616],[140.04543453322682,35.64667602711639],[140.0454465246128,35.64657610840859],[140.04538454329767,35.6466127016011],[140.04534375055985,35.64657089642932],[140.04516413602587,35.64669025074428],[140.04499286036025,35.646804061102046],[140.04491584714822,35.64671508738049],[140.04478840748288,35.646567857042406],[140.0446947845309,35.64647785682388],[140.0448784165286,35.64637770354966],[140.04492989423053,35.646349627233135],[140.04469668208728,35.64604573427605],[140.04536799482838,35.64569635135151],[140.04535781185217,35.64565817530726],[140.0453508633544,35.64563212968374],[140.04534410449105,35.64560680392469],[140.04531139097637,35.64551724858437],[140.0452952831742,35.64546888390029],[140.04526102488146,35.64537974589509],[140.04521020885565,35.645267924153124],[140.04518066080843,35.64520191613847],[140.04513197215175,35.64511364265216],[140.04507034017428,35.64500393916715],[140.04501857867365,35.64492240430679],[140.04498287593245,35.64487155917459],[140.04494460472628,35.64482198046918],[140.04487890423096,35.64473163745721],[140.04478581679044,35.64461904246399],[140.04467365119632,35.64449932575478],[140.04458527638715,35.644410707029635],[140.04445351297971,35.6442918627597],[140.04434452544947,35.6442041200635],[140.0442386499888,35.64412478886155],[140.04413847381713,35.644057644101586],[140.04399183736916,35.643963658240274],[140.04382405701676,35.64386592247164],[140.0437192646107,35.64380678062644],[140.04353862474858,35.64371958687047],[140.04343387018645,35.643674747735304],[140.04327701845742,35.643613596994335],[140.0431877588911,35.64358219808691],[140.0431791242139,35.643579470244646],[140.04297316310826,35.64351441516533],[140.04286019882127,35.643484732926254],[140.04280655131708,35.64347052230701],[140.04276012124095,35.64345462255662],[140.04265592705823,35.64342535032583],[140.04256044455045,35.64339698317691],[140.04235291750712,35.64333533064355],[140.04214539188058,35.643273675946254],[140.04193786547177,35.64321202269436],[140.04166291533065,35.643127937806256],[140.04154486417843,35.64318314657111],[140.04151220401033,35.643263692258934],[140.0414668703551,35.643385996230485],[140.04138881155498,35.643563506475815],[140.0413198178062,35.643715661544306],[140.04129441162507,35.64377681867246],[140.04122725443264,35.64393344223609],[140.041161914595,35.64408708087282],[140.0410929304445,35.644243708408034],[140.04105844019708,35.64432276714311],[140.0410420980744,35.64435856821265],[140.04100758844305,35.64443017439317],[140.04094694770635,35.644525819319426],[140.04098626895023,35.64460708714681],[140.0410402391091,35.64464424793613],[140.04117526815807,35.644737220831985],[140.0413281757683,35.644867293057914],[140.04133462236993,35.64487277670974],[140.04147206834313,35.64501388034028],[140.0414915687565,35.64503389953845],[140.04160184835447,35.645190086704886],[140.04162296134436,35.645219990278434],[140.04171839442623,35.64538256130674],[140.04176371582122,35.64545976680406],[140.04184791737686,35.64562642055714],[140.04190408524727,35.64573759086919],[140.04197402050463,35.64586153953742],[140.0420877763522,35.64601605717517],[140.04212408115066,35.646065371579404],[140.04225864211568,35.64620831718368],[140.04228807670444,35.646239588007994],[140.04244245798682,35.64636849885696],[140.04249903259665,35.646415739041686],[140.04266902194186,35.64653082243698],[140.0427264064386,35.64656967110641],[140.04291276281023,35.64666641065896],[140.04292975669364,35.64667523168968],[140.04312003781368,35.64676674152221],[140.04331031826237,35.64685825105321],[140.04338880470542,35.64689599628784],[140.0434193354643,35.646912085764015],[140.04358727088726,35.64702039399381],[140.04363252169452,35.647056560183835],[140.04366522013257,35.647082693439245],[140.04384053883544,35.64697306118583],[140.0440158581654,35.6468634295763],[140.04406203595008,35.6468345534676],[140.04419428858546,35.64697892689705],[140.0443265439059,35.64712330017233],[140.04438951209212,35.64719203777076],[140.04437463950416,35.64720092705099],[140.04419644824344,35.647307430124265],[140.0440182576134,35.64741393293172],[140.0440385386026,35.647446039582626],[140.04413813483708,35.64759686814091],[140.04418539595235,35.64767585942823],[140.0442396486113,35.64778007875253],[140.04427815882528,35.647860970098634],[140.04429774647508,35.64793926346335],[140.04431723376797,35.647984413446885],[140.04432611102834,35.64802544560475],[140.04436930354439,35.64820241436917],[140.04438047111512,35.648249707063336],[140.04439718909282,35.648320542051614],[140.04440813037564,35.648360722390365],[140.04447010841866,35.64851778287211],[140.0444953856836,35.64858004879234],[140.0445547585731,35.64868284201936],[140.04458938784433,35.64874066666846],[140.04464720291057,35.64881332151035],[140.0447025295488,35.648880762632366],[140.04479093335078,35.64897426569572],[140.04486006103883,35.64904087037374],[140.04500124909572,35.64917085744796],[140.04508370398767,35.64924909244531],[140.04514297740124,35.64931330851269],[140.04522045965484,35.64940237766796],[140.04525840828373,35.649445999626884],[140.0453070098253,35.649513199009306],[140.04536436107827,35.649597519000324],[140.04540343027125,35.64965975052126],[140.04544896210112,35.64974328004319],[140.04548462208996,35.6498187857734],[140.04550987436326,35.649867387572705],[140.04552275864484,35.64989951600253],[140.04555752948744,35.650010402225114],[140.04557295420236,35.650071071801506],[140.0455960044594,35.6502181598346],[140.04562033680503,35.65039733272763],[140.04564466815935,35.65057650651333],[140.04565488855056,35.650646474812],[140.04576155287012,35.650705880196526],[140.04586899455617,35.65068680955743],[140.04595406038487,35.650671710121166],[140.04606438077752,35.650652129456155],[140.0462802857515,35.650614145278986],[140.04639012551328,35.65059079201218],[140.0464985677732,35.65056395009557],[140.04664312819764,35.65052066073727],[140.04673034575197,35.65049090419942],[140.04685300515504,35.65044206577134],[140.04692083132556,35.65041232544379],[140.04698747008564,35.650380856545475],[140.04705286741557,35.65034769522919],[140.04717970730624,35.6502764228536],[140.04728681136208,35.65020810946335],[140.0473609458181,35.650163697726995],[140.0474828708657,35.65007217086668],[140.04748567669105,35.64996530072286],[140.04742831163747,35.649909439069994],[140.047373527651,35.649856528409295],[140.04734716494332,35.64983090591322],[140.04721455875875,35.64970984259927],[140.04717314687775,35.64967203586701],[140.04709918833024,35.649604515390195],[140.0469784406206,35.64949358204326],[140.0466828826631,35.64922444171775],[140.04639280787137,35.64895960943809],[140.04635758985344,35.64892596753129],[140.0463059160776,35.64887893775097],[140.04624809055971,35.648827482256834],[140.04614717980166,35.64873229966604],[140.04604172388187,35.64862170249453],[140.0459916785224,35.64856477080333],[140.04590282010733,35.64845508793962],[140.04586409573244,35.648403304695506],[140.0458173774128,35.64833741099896],[140.04581010773893,35.64832701024116],[140.04576952723727,35.64826525833066],[140.0457309202224,35.64820267456219],[140.04569432098899,35.6481392832143],[140.04565974070292,35.64807513204193]],[[140.04476607284775,35.646654522898785],[140.04489665720047,35.646799905324094],[140.04491451202304,35.64681978443322],[140.04493471154152,35.646842274309314],[140.0447839197103,35.646938366106944],[140.0446098371047,35.64704930185323],[140.04443575180866,35.647160237351365],[140.04437525372285,35.64709267895407],[140.04424492562669,35.646947142287274],[140.04411459910818,35.646801605472376],[140.0442965608945,35.64669943963513],[140.0444785222168,35.64659727352283],[140.04463549117503,35.646509139421504],[140.04476607284775,35.646654522898785]]]}}]}
