{"type":"FeatureCollection","features":[{"type":"Feature","properties":{"potaRef":"JP-1120","nameEn":"Kashimanada Sea Side Prefectural Park","nameJa":"","boundaryStatus":"全国都市公園GIS候補・公開前検証待ち","boundarySource":"国土交通省「都市計画決定GISデータ」都市公園・緑地を、POTA代表地点で空間照合して加工","boundaryScaleNote":"都市計画データは近似・未収録の可能性がある。POTA運用可否は公式情報で最終確認すること。","candidateMethod":"POTA representative point inside one MLIT urban-park polygon","sourceParkName":"鹿島灘海浜公園","sourceParkType":"公園","sourcePrefecture":"茨城県","sourceCity":"鉾田市"},"geometry":{"type":"Polygon","coordinates":[[[140.57270166241017,36.17403149376383],[140.57280216089063,36.17406189304229],[140.57313346764886,36.17409051151946],[140.57347001225898,36.17413696863936],[140.5738176210522,36.17418495148451],[140.5744995703571,36.17428594447484],[140.57452552233087,36.17428531285187],[140.5746924921456,36.17378505840906],[140.57594608366654,36.168959740771136],[140.57750789122525,36.16399308207053],[140.57746572402996,36.16389456431212],[140.57753873717104,36.16374053306122],[140.57758002206884,36.16371044425271],[140.57771942817232,36.163301840363026],[140.57774849713365,36.163202339078794],[140.57778809900887,36.16306482847524],[140.57791518205565,36.16265943237967],[140.5779310556586,36.16260879514352],[140.57808063130332,36.16218291321962],[140.57859558189392,36.16050513797093],[140.57887685727957,36.15959832517904],[140.5788980056537,36.15958990178609],[140.57902313759482,36.15918940644228],[140.57901788414514,36.159092371669814],[140.57904986082022,36.158995105041136],[140.5791014940254,36.15893142375955],[140.57979749751948,36.156721184114296],[140.58148998022529,36.15186660964307],[140.58255758066167,36.14886847733999],[140.58256513711493,36.1488436174884],[140.5823040780955,36.14888876264993],[140.58179733222923,36.14898220216573],[140.58123915833198,36.14908506701537],[140.58121230364367,36.14909002466749],[140.58027921152944,36.14926521483529],[140.58015692256672,36.1492879900686],[140.57971103344116,36.149368021519514],[140.57918169908288,36.14946566165415],[140.57897730866955,36.14950359502012],[140.57851237869085,36.14958925555708],[140.578227600745,36.14963465752284],[140.5782313358165,36.149648829822624],[140.57820083979178,36.14965441007837],[140.5781998870297,36.14964067105909],[140.57811446536158,36.14965377767954],[140.5780731796965,36.149473277824136],[140.57806740612133,36.14944805016388],[140.57806017899236,36.149447644627564],[140.57804363443185,36.14938582795033],[140.57796631650712,36.149097044316086],[140.57794911415246,36.149099395952575],[140.57794808480392,36.149092804791536],[140.57794646470492,36.149082512935486],[140.5779098229646,36.149084517220736],[140.5779069220971,36.14908337251128],[140.577875444523,36.14894915872574],[140.577581022508,36.14904621009848],[140.57733931799996,36.149116479502005],[140.5773120564028,36.14912448999017],[140.57725531325107,36.14914079511523],[140.5771820360187,36.14915963637159],[140.57709389417124,36.14918127373692],[140.5770054517068,36.14919462117799],[140.5769818085379,36.1491974718316],[140.5769295151486,36.14927314340419],[140.5767859374588,36.14949674066982],[140.57664836093892,36.149708674022804],[140.5765877917283,36.14980242237311],[140.57658275496507,36.14981038488101],[140.5765353382467,36.14988476422149],[140.5764319758694,36.15006007334413],[140.57633982108575,36.15023369053731],[140.57628327130504,36.150341293472245],[140.57620689422055,36.150502915802214],[140.5761393454663,36.15065799411877],[140.5761194799601,36.15070795801205],[140.57610102503426,36.15075430804069],[140.57606111159689,36.15085847294757],[140.57601893009542,36.150981398487275],[140.57598881890672,36.151076219411905],[140.57597481810984,36.151123533201805],[140.57598489523915,36.151155105562275],[140.5760290200046,36.15117950061062],[140.57598093590218,36.15133628697277],[140.57589170282648,36.15140750051328],[140.5758814249063,36.151448932899086],[140.5758287239163,36.15167025300471],[140.57579053819595,36.151881188174094],[140.57581043000226,36.15188356905796],[140.57592819502875,36.15189528300411],[140.57594955963847,36.15170445992627],[140.57595090053675,36.15169701577387],[140.57599595368563,36.15170649644444],[140.57646976773015,36.15175145404862],[140.57648776442576,36.151944839995366],[140.5764880191837,36.15196276176438],[140.57653262999602,36.15197185049485],[140.5765337062047,36.15204378555741],[140.57653040468873,36.152188551250646],[140.57651508802522,36.15231333552986],[140.57652066970707,36.152312870973994],[140.57652625138883,36.15231240641791],[140.57656527681,36.15230902886159],[140.57661815946432,36.152304451974366],[140.57688498409857,36.15229602559178],[140.5769197517944,36.15229198173929],[140.57696870633978,36.152397634434394],[140.5771460355654,36.15278295594246],[140.57718975328578,36.152774580525104],[140.5772174012287,36.15279315531585],[140.57762887376646,36.152663774092645],[140.57836692993112,36.152683276066185],[140.57841899487445,36.15268441094801],[140.5784927141269,36.152686158607516],[140.57855149386444,36.15268754891187],[140.57887662768445,36.15269524211952],[140.57940820924472,36.15314918788605],[140.5793987373311,36.15317921563727],[140.57938906033417,36.153209875491264],[140.57929909608762,36.153477178706545],[140.57926029787282,36.15348751596543],[140.57926900772512,36.15350122437991],[140.57924247137828,36.15365218729154],[140.5790953554518,36.15448918277304],[140.57909129440716,36.154502718698815],[140.5790866949488,36.15451806961028],[140.57908111370963,36.154550551412356],[140.57907897723132,36.154559231338794],[140.5790187278438,36.15454542458248],[140.57895553444618,36.15453815722699],[140.57887132416482,36.15452957864659],[140.57881558832923,36.154523526574444],[140.57874531431844,36.15451963791357],[140.57866436432454,36.15451500451223],[140.57852028666701,36.15451004289611],[140.57843423076238,36.1545060720072],[140.57838299040583,36.154505309296844],[140.5783249950969,36.154507112166314],[140.57829846799044,36.154510000019265],[140.5782272133253,36.154775311284034],[140.57822889110392,36.15477527376306],[140.57823611315305,36.15509098230492],[140.57828046666526,36.155644276718405],[140.57815418155295,36.1559483544238],[140.577899544099,36.15656147975403],[140.5778068565876,36.15681325207728],[140.57777486615112,36.15690988238621],[140.57775883538864,36.156918752203275],[140.57744508058988,36.157265207995714],[140.57745958383066,36.157652804338724],[140.57746160987324,36.15770702314644],[140.57749799587063,36.15850321509938],[140.5769640318403,36.159450854816996],[140.57684536083386,36.159658886627696],[140.5768367905222,36.15966343763249],[140.57609746999424,36.15984571540099],[140.57583227139133,36.159973299291934],[140.5753890637256,36.1600676971598],[140.57522564232067,36.1600069301465],[140.57513046452058,36.15996209527669],[140.57508567568738,36.159938669163026],[140.57505496047568,36.15992263645107],[140.57503273235758,36.1599108772881],[140.57488507054626,36.15984500725199],[140.57481252331084,36.15981265004567],[140.57468637130808,36.159753045626445],[140.57460464917446,36.15971416577746],[140.57451652497448,36.15967108199291],[140.5743833797601,36.16008181423537],[140.5749315799085,36.16029321433656],[140.57528601751008,36.16041702467452],[140.57532110008083,36.1604350825209],[140.57531867122876,36.160473755558485],[140.57530282363592,36.160561187458754],[140.57528633517646,36.16061599711604],[140.57526617237892,36.16067010851672],[140.57524029655497,36.16071947854644],[140.57514783923074,36.16086254320074],[140.57513031197982,36.16088969008148],[140.57503912516367,36.161037884055],[140.5749501054603,36.16115659279396],[140.57494757207456,36.161159973206175],[140.57544159908747,36.16133674220396],[140.57585757865755,36.16149647409393],[140.57590576560773,36.16151353273463],[140.5759875943687,36.161535113072446],[140.57636358616296,36.161664199365916],[140.57632856331293,36.16213496970594],[140.57635299078973,36.162261247130886],[140.57630246741635,36.16242089738819],[140.57615129430044,36.16243918065328],[140.5761158076951,36.16244526019485],[140.5759124397826,36.162526740997386],[140.57585536479698,36.162540615805774],[140.57560952847385,36.162528385705976],[140.5756076365909,36.16253516600538],[140.5754199696736,36.16250725149274],[140.57536886241147,36.16250463176358],[140.5753278920043,36.162487979246734],[140.5753211835457,36.1624826134419],[140.57527336319242,36.16241281989092],[140.57523019083555,36.162365529022146],[140.57518301013818,36.162337424017636],[140.57513228834947,36.162315649912465],[140.5751083148444,36.16230243378107],[140.57510569236604,36.16232280036064],[140.57509321201982,36.162481311533284],[140.5750747700155,36.162594796549364],[140.57507184053338,36.16261758976687],[140.57469023159194,36.16247185155453],[140.5745754549571,36.16239822956678],[140.57456693940355,36.16240860203821],[140.57445511371688,36.16251049183502],[140.57438493393332,36.162550142469286],[140.5742778052401,36.16255530620137],[140.5742428777505,36.16253005373903],[140.57419992211138,36.162509132206566],[140.5741468817568,36.162477232902305],[140.57415742226075,36.16244358625867],[140.57417350804084,36.16241102268951],[140.57400978320396,36.16232796202994],[140.57399218699652,36.16219148496778],[140.57397620138565,36.16217355009335],[140.57393205506813,36.16217359929558],[140.5737767477814,36.162163731740954],[140.57349092630145,36.16248115616311],[140.5732932523599,36.16305810960413],[140.57334431160083,36.1630623627856],[140.5734014232519,36.163067952393476],[140.57345442706864,36.16307087516467],[140.57355049990883,36.16307532846719],[140.57372917789098,36.163094051791724],[140.57375109544412,36.163096349711125],[140.57377121273063,36.16309631538999],[140.57381794066183,36.16309607990006],[140.5737943511565,36.16313763535237],[140.57371425475984,36.163288761200086],[140.5736328268443,36.163406070827214],[140.5726606718084,36.165123934976215],[140.5727472354513,36.165314627627446],[140.57276043347292,36.16535869140698],[140.57281403125253,36.16553763592371],[140.572829528269,36.1657320319204],[140.57284403064105,36.165822329437326],[140.57284599059153,36.165852130994146],[140.5729035424078,36.16598841423562],[140.57300254454591,36.1661390498243],[140.5730065254061,36.166145108645345],[140.57305639294202,36.16622096491245],[140.57310281810942,36.16630891942828],[140.57302499630458,36.166318531109646],[140.5729976161111,36.16632162994267],[140.57297549442558,36.166344101295145],[140.5727622864933,36.166377120768516],[140.5723715203968,36.16647892489709],[140.5723661428456,36.166480328135385],[140.57212821960798,36.16647504278434],[140.57189980600828,36.16648455082604],[140.57171702392606,36.16649215365144],[140.5716925566418,36.16649299555166],[140.57168655407318,36.16640425431601],[140.57167868551184,36.166311922057645],[140.57167705592406,36.16628038744933],[140.57166098464188,36.1661904490884],[140.57165063040566,36.16616491670078],[140.5716352209886,36.16614554416059],[140.57161538269017,36.16612800147941],[140.57159209875866,36.16611197212492],[140.5715862618891,36.166151794469116],[140.5716000589517,36.16669851349354],[140.5716014810215,36.166719774835514],[140.57162836189192,36.16710896024557],[140.57163963339244,36.16730338605789],[140.57164733509276,36.167389770912344],[140.57164882438326,36.16740634520274],[140.57165691740738,36.16749498623892],[140.57175084901897,36.16806842405202],[140.57175792670074,36.168107879607504],[140.5718019537449,36.16810118567379],[140.57181270009244,36.16809953490599],[140.57210195206676,36.1680639199426],[140.5721441156414,36.16805698521284],[140.57219568758458,36.16804477012861],[140.57231174906556,36.16802287386512],[140.57292250210406,36.167927433545145],[140.57342221739893,36.167865264281836],[140.57397678787765,36.1678737620406],[140.5743307611544,36.16832710961127],[140.5744057185647,36.16841589618326],[140.57443888861627,36.16846188892208],[140.57452473015405,36.16856614563618],[140.5746123584182,36.16871937487016],[140.57408402099088,36.17071355033646],[140.5731700581448,36.173089471168325],[140.57316307399103,36.173104403255024],[140.57307396831,36.173294877790454],[140.5730583984419,36.173335242536915],[140.57301266799874,36.173437629539556],[140.57300313084303,36.17346471739982],[140.57297067619854,36.17355688298367],[140.57286481292002,36.173804483787606],[140.57285449198224,36.17382862935997],[140.57283691701016,36.17386974550738],[140.57280549179328,36.17394501502856],[140.5727897280055,36.17395900103437],[140.5727593175405,36.17398402801542],[140.57274567312405,36.17399526106422],[140.57270166241017,36.17403149376383]]]}}]}
