{"type":"FeatureCollection","features":[{"type":"Feature","properties":{"potaRef":"JP-1835","nameEn":"Niiza Greenway Prefectural Park","nameJa":"","boundaryStatus":"全国都市公園GIS候補・公開前検証待ち","boundarySource":"国土交通省「都市計画決定GISデータ」都市公園・緑地を、POTA代表地点で空間照合して加工","boundaryScaleNote":"都市計画データは近似・未収録の可能性がある。POTA運用可否は公式情報で最終確認すること。","candidateMethod":"POTA representative point inside one MLIT urban-park polygon","sourceParkName":"新座緑道","sourceParkType":"公園","sourcePrefecture":"埼玉県","sourceCity":"新座市"},"geometry":{"type":"Polygon","coordinates":[[[139.58885964404905,35.778900969419766],[139.5889778031253,35.77886429143258],[139.58984940590068,35.778606767867146],[139.58992480423763,35.77858231604202],[139.5900229076351,35.77854781574374],[139.59056379682366,35.77839641776492],[139.59085807331925,35.77830346101796],[139.59113894731445,35.77821651543345],[139.59160630741434,35.77809101644837],[139.59184772963752,35.77802823686924],[139.5921170805036,35.77794667622047],[139.59272295819548,35.77777053000918],[139.593949768632,35.77743165114298],[139.5939247661421,35.777343966632394],[139.59252177078616,35.77773082435962],[139.592456567541,35.77774952925866],[139.5918566544957,35.777928299984424],[139.59178215518799,35.777948607863564],[139.59113424323854,35.778124933089224],[139.59082483298297,35.778212538088724],[139.59062777520296,35.77827090173711],[139.59024726023,35.778388558136236],[139.58998311370124,35.77846643287778],[139.58980963260024,35.77851862488169],[139.58903699094924,35.77875111428523],[139.588968129251,35.77877188358924],[139.58892163225232,35.778785488200235],[139.58888797727633,35.77879533362098],[139.58887800994793,35.77879945926133],[139.58886350165938,35.7788055584988],[139.5888443313825,35.778817056196324],[139.5888382254598,35.778824434640796],[139.58883475219562,35.7788390292795],[139.58884615893137,35.77887078016788],[139.58885964404905,35.778900969419766]]]}}]}
