{"type":"FeatureCollection","features":[{"type":"Feature","properties":{"potaRef":"JP-1525","nameEn":"Nagano Prefectural Park","nameJa":"","boundaryStatus":"全国都市公園GIS候補・公開前検証待ち","boundarySource":"国土交通省「都市計画決定GISデータ」都市公園・緑地を、POTA代表地点で空間照合して加工","boundaryScaleNote":"都市計画データは近似・未収録の可能性がある。POTA運用可否は公式情報で最終確認すること。","candidateMethod":"POTA representative point inside one MLIT urban-park polygon","sourceParkName":"９・５・２１６-１　長野公園","sourceParkType":"公園","sourcePrefecture":"大阪府","sourceCity":"河内長野市"},"geometry":{"type":"Polygon","coordinates":[[[135.57427381740172,34.449110216131984],[135.57429377603484,34.449181831676434],[135.57432155740796,34.44921349256915],[135.57442559524628,34.449234896313335],[135.57451411567814,34.44931095809141],[135.57449596225803,34.44938454580874],[135.57449556830235,34.44946240368722],[135.57450530286653,34.44954660958257],[135.5744351862654,34.44984938627812],[135.5746616725166,34.44976810337461],[135.5746277481912,34.44959161884022],[135.57462301038373,34.44937656888699],[135.57464606296463,34.44933877129153],[135.57467927595786,34.449301008893016],[135.5746262636465,34.449235591792515],[135.57466468453308,34.44917259579341],[135.5748021587188,34.44911204719872],[135.57469578303366,34.44905065389848],[135.57459189438327,34.44899979064631],[135.57459465802177,34.448955609837085],[135.57461772113928,34.448915707975],[135.5746611688539,34.44886325090985],[135.57469688981257,34.44883181010195],[135.57484722343267,34.44873974142765],[135.57497715093132,34.448664436352],[135.57506582012402,34.44871103798965],[135.57510934186297,34.44864385088211],[135.5751451475979,34.448595575795395],[135.5752039309753,34.44852423285531],[135.5752549558447,34.44848021900172],[135.57535683542022,34.448425859512156],[135.57546631385642,34.448375734820935],[135.5755425905973,34.448361268425046],[135.5755833274421,34.44834247051598],[135.5756088237978,34.44832361991105],[135.5756293036934,34.44829212613218],[135.5756116611895,34.44826470918596],[135.57558135017598,34.4482309355289],[135.57555137431586,34.44817546142177],[135.57549808159416,34.448115819510875],[135.57545257266028,34.44800474393757],[135.57544815061578,34.447739956133056],[135.57540555736497,34.44762173460825],[135.57537731246816,34.44751310404523],[135.5753853717195,34.447342580243905],[135.57545788337967,34.447237876116255],[135.57564111428246,34.447159793387115],[135.57556039728655,34.44689354915625],[135.57558264170987,34.44676481777536],[135.5756638023879,34.44665775806062],[135.5756627779416,34.44657546034026],[135.57567749307682,34.44651229972198],[135.5757433529563,34.446299039494384],[135.57572818485053,34.44624022513811],[135.57571507195107,34.44619756487761],[135.5756780931528,34.44610798689053],[135.5753751470513,34.44594592925172],[135.57515813899147,34.44587123310752],[135.5750775327884,34.44586856884874],[135.57476647343907,34.44598820936113],[135.57459684169862,34.44604360865459],[135.57463715459136,34.446093427918484],[135.5746596649396,34.446099251460495],[135.57466058213268,34.44614892636179],[135.5746597693696,34.44630963665938],[135.57463584734285,34.44652698916882],[135.574620770079,34.4465347956819],[135.5744757318393,34.44659733720391],[135.57438899631833,34.446654839081056],[135.57433247063327,34.44672978126991],[135.5742214076113,34.44692026999708],[135.5741491914576,34.44702312266299],[135.57364737786455,34.447694705301174],[135.57352971432215,34.44790182095919],[135.57351825062096,34.44796290980458],[135.57344261865515,34.44813835514154],[135.57348572485813,34.44824140961593],[135.57353097621072,34.44829068120976],[135.57354117559007,34.44834718087817],[135.5735776994581,34.448382054968945],[135.5737246318891,34.4483565048162],[135.57379899779096,34.448571971141014],[135.57374577332553,34.448548639011705],[135.57377569973073,34.4486581667148],[135.5738995776166,34.44877433344821],[135.57400124524997,34.44876206045478],[135.57406436383917,34.44883803440149],[135.5742041979248,34.44902712798201],[135.57427381740172,34.449110216131984]]]}}]}
