{"type":"FeatureCollection","features":[{"type":"Feature","properties":{"potaRef":"JP-1195","nameEn":"Kashiwa no Ha Prefectural Park","nameJa":"","boundaryStatus":"全国都市公園GIS候補・公開前検証待ち","boundarySource":"国土交通省「都市計画決定GISデータ」都市公園・緑地を、POTA代表地点で空間照合して加工","boundaryScaleNote":"都市計画データは近似・未収録の可能性がある。POTA運用可否は公式情報で最終確認すること。","candidateMethod":"POTA representative point inside one MLIT urban-park polygon","sourceParkName":"柏の葉公園","sourceParkType":"公園","sourcePrefecture":"千葉県","sourceCity":"柏市"},"geometry":{"type":"Polygon","coordinates":[[[139.93416858812347,35.89861856566488],[139.93454862894401,35.89876885967523],[139.93459739623094,35.89878810721344],[139.9350476076657,35.89896547975919],[139.93554469452286,35.89916209937177],[139.9360422263715,35.89935826586862],[139.93644057502527,35.899517019805195],[139.93654265495468,35.89955668115299],[139.93704030474137,35.89975455594006],[139.93747854732726,35.89992858570472],[139.9378327859675,35.90006835500554],[139.9381991116485,35.90022460719725],[139.93837059405564,35.90030341458579],[139.93855261317873,35.900391406148984],[139.93856447702265,35.90039914726451],[139.93872964304094,35.90048435917469],[139.938862012446,35.900556980942014],[139.93896944920138,35.900540941811315],[139.93908103852323,35.90039870253698],[139.93960250619793,35.89975075673269],[139.9396532692361,35.899687077303696],[139.93984811913865,35.89942958150583],[139.9399411071804,35.89929692110712],[139.93998688542547,35.89923387689459],[139.94007533081194,35.899101040154385],[139.94013828907367,35.899003783824156],[139.94014220114025,35.89899669582342],[139.9406927483411,35.89800111799712],[139.9408689807846,35.89765401699995],[139.94171062961047,35.89599234515818],[139.94229935099634,35.89482525427515],[139.94226865256817,35.89481491672208],[139.94289657302306,35.89357741956858],[139.9429232977899,35.893517915798206],[139.94316136980953,35.89305380595473],[139.94315624385004,35.89303172782449],[139.94315059142315,35.89302947964417],[139.94318075268714,35.89297212687058],[139.9432201812954,35.892887734438425],[139.94319219598276,35.892836293553245],[139.94321639870074,35.892795711134234],[139.9426271739016,35.892600649071476],[139.9423204186898,35.89249654368656],[139.94201156138635,35.892393710306614],[139.94189874878623,35.89235811027129],[139.9418317077564,35.89233969339021],[139.94174660684033,35.89231804795214],[139.94170139761542,35.892307002274514],[139.9416488782058,35.89229641384245],[139.94159591474906,35.89228510471598],[139.9414555479386,35.892261336646584],[139.94136957586636,35.89225059793464],[139.941288369977,35.89224210822629],[139.9411771449935,35.892233275871895],[139.94110458687933,35.89223045671367],[139.94100145741157,35.89222847612674],[139.94093377779976,35.892229068569115],[139.94086167008928,35.89223165689843],[139.9407758299655,35.8922365108189],[139.94066141680838,35.892245527363585],[139.9406131274993,35.892250257471986],[139.94051644137397,35.8922621513435],[139.9404419097821,35.89227446703851],[139.94038321644862,35.89228542557564],[139.94007845220227,35.89234112019861],[139.93991589117863,35.89236973788527],[139.93973050805553,35.89240414414491],[139.93925796483634,35.892488999320065],[139.93911322145888,35.89251408498038],[139.93883370376312,35.89256425603458],[139.93879759959523,35.89256951551274],[139.93842473569583,35.89263679385098],[139.93837777906813,35.89264440618124],[139.9381870783669,35.892679355512456],[139.93796104871717,35.89271965322588],[139.9376136455454,35.892783851321916],[139.9372589416594,35.89284777531503],[139.93711607928253,35.89287223501609],[139.93678461975585,35.89293181109042],[139.93670953334495,35.892944314228075],[139.93642469254166,35.89358168892334],[139.9363869213381,35.893668691583336],[139.93636768967312,35.89370160697343],[139.9361165449959,35.89427387524742],[139.9359136729079,35.89472676440153],[139.93581205140958,35.89496039717684],[139.9357977817268,35.894993209087716],[139.93538136241048,35.895926503782206],[139.93520452465935,35.89632701070988],[139.93493181174668,35.89693824141906],[139.93461789260675,35.89765071755123],[139.93416858812347,35.89861856566488]]]}}]}
