{"type":"FeatureCollection","features":[{"type":"Feature","properties":{"potaRef":"JP-1683","nameEn":"Haruno Athletic Recreation Prefectural Park","nameJa":"","boundaryStatus":"全国都市公園GIS候補・公開前検証待ち","boundarySource":"国土交通省「都市計画決定GISデータ」都市公園・緑地を、POTA代表地点で空間照合して加工","boundaryScaleNote":"都市計画データは近似・未収録の可能性がある。POTA運用可否は公式情報で最終確認すること。","candidateMethod":"POTA representative point inside one MLIT urban-park polygon","sourceParkName":"","sourceParkType":"公園","sourcePrefecture":"高知県","sourceCity":"高知市"},"geometry":{"type":"Polygon","coordinates":[[[133.4962914649857,33.51313425838598],[133.49632999412606,33.513305851645825],[133.4964007069197,33.51352676841422],[133.49642740387426,33.51349665265371],[133.49642223759778,33.51348123356087],[133.4964211620083,33.51346058476881],[133.49642428446137,33.51344164931391],[133.496436556751,33.513420099213775],[133.49644990501284,33.51340982030106],[133.49665109283862,33.51337285650524],[133.49694065673415,33.51331614752763],[133.49704593186425,33.51332985581087],[133.4971622943912,33.513341941212346],[133.4972242971886,33.513342754140446],[133.49725680561363,33.51334275486457],[133.497313211306,33.51333157511202],[133.49737273888468,33.51331273101254],[133.4974268835143,33.5133187734897],[133.497530436183,33.51334095723623],[133.49763732538747,33.51338063379689],[133.49780793912745,33.5134497967579],[133.49809868114986,33.51364258344114],[133.4981796283424,33.51370074382913],[133.4982504567245,33.51377648702649],[133.49828199560926,33.513822203281286],[133.49835163849494,33.513982074317916],[133.49838231633026,33.514028872565255],[133.4984889898296,33.51416349660686],[133.49854614771,33.51425393704986],[133.49857639530342,33.51429234950178],[133.49860965722917,33.514315433207514],[133.49868866769597,33.514379093559036],[133.49872634290938,33.51441750605198],[133.4987628335356,33.51449270757431],[133.49878726847246,33.514530488730365],[133.4988145024029,33.51455402316728],[133.49892537618044,33.51462462669807],[133.4989718786237,33.514655104297546],[133.49903646515014,33.514720387349584],[133.4990760781738,33.51476925938131],[133.49908791883797,33.51480235158118],[133.49909426938055,33.51485492029598],[133.49909609898455,33.514890717498254],[133.4990954525905,33.51494067125303],[133.4991055707733,33.51499116610102],[133.49912247072305,33.51503534914926],[133.49915820860323,33.51509260686389],[133.49920406520366,33.51515572563354],[133.49921536799764,33.51516014399828],[133.49918016936877,33.51498765001681],[133.49917360490295,33.514784679010845],[133.49918243211764,33.51475519372693],[133.49926714945394,33.51472011842132],[133.49953959967857,33.514820027254814],[133.49972388841476,33.514998562899926],[133.49976468608665,33.51503634389548],[133.4997979486064,33.51506213235655],[133.4998267976933,33.515072141185755],[133.49985446269994,33.515071059190475],[133.49988514179677,33.51506637042232],[133.4999203420253,33.51505473861813],[133.49996802918378,33.51500153878842],[133.49999397183473,33.5149710615893],[133.5001747090612,33.514928591754],[133.50013391121902,33.514863128935666],[133.50023197616258,33.51476349177794],[133.50074512234607,33.51474500505936],[133.5007682664606,33.51478188413844],[133.50088839971448,33.51485951905281],[133.50111424032897,33.51485942705811],[133.50143556221565,33.51483291399413],[133.50147862216693,33.51493264066866],[133.50183588911216,33.514490716424746],[133.5020821866735,33.51471252887379],[133.50217767145168,33.51484146924949],[133.50235830584148,33.51502550136264],[133.50247639312025,33.51501684281134],[133.5026119091872,33.51468150061764],[133.50276379615084,33.51465742213383],[133.50277305527646,33.51470818721145],[133.5031723164811,33.514820799015254],[133.50322775681914,33.514897351269354],[133.5033058019253,33.514948926017],[133.5036558615929,33.514844049353385],[133.50385081209257,33.51493944250396],[133.50386728181897,33.51493772877532],[133.50393982291075,33.51466956316229],[133.50394853735762,33.514563163175445],[133.50390730180948,33.51439860560676],[133.50385594567737,33.514186258632265],[133.50386617097826,33.514164707862406],[133.504175218524,33.51415009041315],[133.50408995705266,33.51400564211397],[133.50406733857085,33.513725396810464],[133.50417207561432,33.513708170999074],[133.5041786203054,33.51325867700871],[133.5042489116332,33.51325867461781],[133.50457119775734,33.513276246151534],[133.50471598075214,33.513316907062794],[133.50472351714802,33.51334143281546],[133.50476539504098,33.51342276388703],[133.50480221211578,33.51347460979109],[133.50494452663546,33.51363654818476],[133.50507671460053,33.513652683135625],[133.50514366799152,33.513630949582264],[133.50517133203869,33.5136225626894],[133.50536379287985,33.513511105299884],[133.50547595434887,33.51345429375794],[133.50557810550993,33.513408663553676],[133.50570781310833,33.513358884212145],[133.50579306513785,33.51333083761387],[133.50594548570317,33.5132866474531],[133.50609618465586,33.513254449701456],[133.5063413942986,33.51321791883978],[133.50670382734165,33.51317795477244],[133.50674483993305,33.51318291185592],[133.50720512352527,33.513177926630966],[133.50728047368855,33.513173774439394],[133.50709509299756,33.512947821010385],[133.5070799053116,33.512825281841],[133.50712457108497,33.5127504387848],[133.5072168193361,33.51272816163495],[133.5072937834971,33.51272094358573],[133.50746806131252,33.512764755468716],[133.50759809990842,33.512830661298864],[133.50788778058643,33.51297329097844],[133.5080483817846,33.51294460682111],[133.50812059995005,33.512832341366895],[133.50796934813548,33.51268862136952],[133.50793920163628,33.51261784042537],[133.5079552343375,33.512551294472225],[133.50796470246007,33.512502782793675],[133.5080150714107,33.512417569578936],[133.50810063766727,33.51231404968253],[133.50772614765233,33.51229495771678],[133.50756274898345,33.51232526467711],[133.5074032076941,33.512148452356335],[133.50705031745875,33.51167084624194],[133.50667292962154,33.51172343583889],[133.5061475136774,33.51149172795282],[133.50550974713383,33.511639094577916],[133.50545086404136,33.51158977458167],[133.50512579155776,33.51167815436094],[133.50504689492817,33.51176012148245],[133.5048540138818,33.5119950201777],[133.50472280812323,33.51217888041521],[133.50463164018848,33.51227527481759],[133.50468482599186,33.51246868591888],[133.50468386175498,33.51255308439758],[133.5047304829236,33.512770480745004],[133.5045108923124,33.512795105146665],[133.5042847350338,33.51281341753729],[133.50415577799663,33.51280169992506],[133.50412100056096,33.512618026277664],[133.50411399286972,33.5123876440103],[133.50406533200524,33.5122506784823],[133.50394347031315,33.51202029990732],[133.50401310819308,33.511877469525004],[133.50408263491204,33.51166457756733],[133.50411050584444,33.511489648224014],[133.5041389139395,33.51129515211484],[133.50415925279603,33.51118352184713],[133.50422533877554,33.51106693071091],[133.5043576187158,33.51085115099729],[133.50443070155308,33.51074907675655],[133.5045515727041,33.510572971726255],[133.5045831085397,33.51052004118186],[133.5046156113851,33.51043482998144],[133.5046531731012,33.51034682333289],[133.50468137256905,33.51030534438897],[133.50476855643836,33.51022229513059],[133.50487392991164,33.51011498955094],[133.50493086492415,33.51000146413461],[133.50493086213692,33.50995232185923],[133.50495432657135,33.509934828076325],[133.5050496838298,33.5097385256278],[133.5051099584406,33.50968045411641],[133.50540961159336,33.50944681268942],[133.50547257646141,33.50938441275395],[133.50554684219833,33.50930451943186],[133.50558817217888,33.509252940721794],[133.5056295011587,33.50918666439772],[133.5056680289392,33.50908152520801],[133.50573216838515,33.50888269889034],[133.50583409076486,33.50871786459758],[133.50595603526565,33.50858026039431],[133.50599865614518,33.50852624690721],[133.50604138227243,33.50843860023793],[133.50610584301162,33.50823562590101],[133.50616535279656,33.5080419392125],[133.50618515476216,33.50799577152275],[133.50635864367067,33.50769207239007],[133.50653241800555,33.50690560626332],[133.50654953129276,33.50689487520627],[133.50711557564418,33.50674381031411],[133.50712224716918,33.50672081674398],[133.50684690710943,33.50661650631569],[133.50633142610377,33.50641365266354],[133.50587665560778,33.506240189208896],[133.5058149784749,33.50620610809811],[133.5059692302542,33.506364708678184],[133.50629409471347,33.506662702345935],[133.50609799204747,33.506794629926965],[133.50605967441024,33.50680418975906],[133.50604955587067,33.50679291908365],[133.5057206177752,33.50674045614118],[133.50566798341205,33.50673207280981],[133.50563515667932,33.50676489595421],[133.5055498011567,33.506757776427655],[133.50550566971145,33.50674461367011],[133.50532268721693,33.50671297222099],[133.50526639370347,33.5067112614088],[133.50516318825186,33.506998725667124],[133.50488526678222,33.50690117369331],[133.5049491933002,33.506740309019975],[133.50496178374465,33.50668909231968],[133.50497598894913,33.50664211351284],[133.50498351893748,33.50656366586524],[133.50500783819632,33.506453568091956],[133.50502203811382,33.506316149404626],[133.5050195600393,33.50627340922534],[133.50502784619056,33.506243202151396],[133.50517238126636,33.50592832476322],[133.5048768104536,33.50581833011543],[133.50474958476516,33.50578650526904],[133.50464485567875,33.50577190180098],[133.5046787649599,33.505854405501886],[133.50469007150167,33.50594556630976],[133.5045673673146,33.50593213565757],[133.50456070021139,33.506051159472804],[133.50453810104773,33.506130419178426],[133.50455661595922,33.506163149979706],[133.5045694266639,33.506204086401034],[133.50457814814308,33.50626197481295],[133.5045744902221,33.50629371456517],[133.50454435942143,33.506427977859325],[133.5045381191806,33.506477841746474],[133.50453478734923,33.50657107698999],[133.50453823810645,33.50669415804222],[133.50454082378974,33.506740685337434],[133.5045313537962,33.50677792562973],[133.5045091824068,33.50680795283528],[133.5044519230767,33.50686385990838],[133.50438615906342,33.50689244594054],[133.5043323425897,33.5069211216898],[133.50425118733503,33.50696548782475],[133.50407736063684,33.50707793485418],[133.50393419506972,33.50686486929319],[133.5038626174864,33.5068694701827],[133.50366005079982,33.50696081789161],[133.50331314321,33.50703647974412],[133.50315018109293,33.507002309808904],[133.50305868953743,33.506973728415424],[133.50298270039133,33.50702629900286],[133.5029430895727,33.507003216594974],[133.5027449316009,33.506996819119415],[133.50269864763135,33.506980138805275],[133.5026590383486,33.507004124710505],[133.50257863334153,33.506971845780456],[133.50254009885302,33.50694326289034],[133.5024948949657,33.50705399177846],[133.50214357282542,33.5071262240084],[133.50205100639027,33.50715192384134],[133.5020459450841,33.507049581707264],[133.50209641973476,33.50677447415337],[133.50209953985595,33.50672010197645],[133.5020643326452,33.50628323200142],[133.50202676471255,33.50614166671422],[133.50202503817812,33.50595375377491],[133.50201997928494,33.50595095860697],[133.50184076940798,33.50603590094665],[133.50166930864424,33.50610803887136],[133.50166349672375,33.5061268843477],[133.501126186667,33.50637025751918],[133.50104330783813,33.50639054635204],[133.5009311525317,33.506442394630504],[133.50060727908902,33.50658829067133],[133.50046423203847,33.50666962405422],[133.5004424897042,33.50667800988436],[133.5002532667417,33.50678666449478],[133.50002906166955,33.5068988354324],[133.49991227677458,33.50693616551878],[133.49978149915736,33.50695528126087],[133.4997059387379,33.50696402753219],[133.4995690260109,33.506937787848685],[133.49925397644958,33.506867273914416],[133.4988037374146,33.50676492816274],[133.4985954469327,33.507724688567464],[133.49826133819946,33.50792449959625],[133.4982948088386,33.50815362035742],[133.49828382791566,33.50825046207569],[133.49861858064463,33.508241268987994],[133.4987033977096,33.50832611925139],[133.49878821657265,33.50829383948731],[133.49885871837432,33.50835380276595],[133.49914062197897,33.50828374346715],[133.49911091604991,33.50808537071156],[133.49935094729935,33.50807058442971],[133.49936526259725,33.50813334236471],[133.49945664566837,33.50829844285822],[133.49952714778917,33.508385186049374],[133.49949033517365,33.50847697828692],[133.4994051927636,33.50861385495616],[133.49935040482694,33.5086442417461],[133.49924987064495,33.50868066958836],[133.499198096544,33.5087038427823],[133.49914320072824,33.50874559081517],[133.49903502346447,33.50883332477816],[133.4989025192391,33.50895938039677],[133.49886495317574,33.508980389511635],[133.4987100615751,33.508977502577274],[133.49865538115623,33.5089851663887],[133.49855850606306,33.50901753608787],[133.4984697036803,33.509055766817305],[133.49835689754082,33.50910914561356],[133.4981461409609,33.509123209053904],[133.49798317371068,33.50922924563387],[133.49769728142587,33.50937657732331],[133.49769566524617,33.50943681039985],[133.49769845674314,33.50970560519121],[133.4979865961099,33.5101808926601],[133.49818712961905,33.51016078800066],[133.4982935885419,33.51000236203258],[133.4983730225155,33.510221023680344],[133.4984765689896,33.51039992090415],[133.49860745915782,33.5104156119039],[133.49880250178057,33.5105143493326],[133.49871434132726,33.51072101649294],[133.49865384502723,33.510870426382134],[133.49863726660493,33.510982055793185],[133.4985844118434,33.511172132078414],[133.49850615420897,33.51132063998743],[133.49845663784154,33.51139809480296],[133.49841928592892,33.511417480729804],[133.4982881787477,33.51141477390881],[133.4982265007124,33.51139078800951],[133.49819345132138,33.51155868275201],[133.49822100605707,33.51163244162945],[133.49817805416808,33.51176895730695],[133.49814715844155,33.511887078613334],[133.49804694037272,33.51203738927034],[133.49800517476388,33.51205677500066],[133.4978344526951,33.51211862826158],[133.49770452666587,33.512186884068186],[133.4976747083259,33.51223945220252],[133.49765930760955,33.51253096918768],[133.49769235066321,33.51265459188333],[133.49778126196597,33.51272375334032],[133.49776662154156,33.512761624171745],[133.4977590857804,33.512790568372004],[133.4977892244471,33.51284575250769],[133.49782495924487,33.51295512846512],[133.49784196436977,33.5130565691899],[133.4978293682751,33.513129155230175],[133.49778663170554,33.51321120850639],[133.49777662047214,33.51322590591743],[133.49772075384735,33.51320958426508],[133.4976661791774,33.513185417885694],[133.49763786915406,33.513176490591775],[133.4974884608289,33.51314285451644],[133.497339913508,33.513117694190335],[133.49717360456506,33.51310894408869],[133.4970143993239,33.5131235477754],[133.49665626678689,33.51318972286835],[133.49641708100114,33.51323101370527],[133.49638834046794,33.51322325831387],[133.49636993405258,33.51320774866221],[133.49634937527534,33.51318024643195],[133.496336996916,33.51316473695276],[133.4962914649857,33.51313425838598]]]}}]}
