{"type":"FeatureCollection","features":[{"type":"Feature","properties":{"potaRef":"JP-1975","nameEn":"Sakuragawa Ryokuchi Prefectural Park","nameJa":"","boundaryStatus":"全国都市公園GIS候補・公開前検証待ち","boundarySource":"国土交通省「都市計画決定GISデータ」都市公園・緑地を、POTA代表地点で空間照合して加工","boundaryScaleNote":"都市計画データは近似・未収録の可能性がある。POTA運用可否は公式情報で最終確認すること。","candidateMethod":"POTA representative point inside one MLIT urban-park polygon","sourceParkName":"桜川緑地","sourceParkType":"緑地","sourcePrefecture":"茨城県","sourceCity":"水戸市"},"geometry":{"type":"Polygon","coordinates":[[[140.44780634938718,36.36663011875081],[140.4476484628045,36.36647690685719],[140.44767438964254,36.366460731145814],[140.4472540176891,36.36571127448518],[140.44722002137794,36.36573007818097],[140.4472155017598,36.36572217037229],[140.44710184166922,36.36552429854429],[140.44709288348182,36.36546206794932],[140.44699795439325,36.36530790065167],[140.44645361585276,36.36562343181463],[140.44633757245404,36.365448192931204],[140.44636559362067,36.365343918220404],[140.4464698384511,36.365149018611355],[140.44658400958218,36.36506028971257],[140.4465971865725,36.364961624868094],[140.44677982673386,36.36473432782304],[140.44674893521375,36.364535471609614],[140.44678665879638,36.36450605015537],[140.44667343717188,36.364326750470184],[140.44657868618904,36.364131115201765],[140.4466010404272,36.3640602249138],[140.44655751182466,36.36382998877114],[140.4465838338919,36.3637492724619],[140.44658077826776,36.36370355853003],[140.44654486440552,36.363591581876996],[140.44652005073038,36.363520933799805],[140.44648588711118,36.36346013037548],[140.44640555809255,36.363263204199974],[140.44648396481054,36.3632294552351],[140.44656356176577,36.36319119383254],[140.4466575654147,36.36312861464941],[140.44675106089977,36.363058106976865],[140.44697449457954,36.36284678654018],[140.44710016376044,36.36268742983124],[140.4471555025478,36.36259688478464],[140.4468090075329,36.36244258611813],[140.44684419404558,36.36228464979998],[140.44686153543938,36.362158727580564],[140.44603587528158,36.36239047935421],[140.44429417972412,36.36288817117393],[140.44219465351898,36.36349636288417],[140.4424377145837,36.36351386943412],[140.44259410447148,36.36353443135913],[140.44266230290478,36.363546015995524],[140.44274347593614,36.363588068868125],[140.44281525029945,36.36363235069122],[140.44289625456346,36.36368845488758],[140.4429288207468,36.36371768755421],[140.44295468216757,36.363750226015505],[140.44296976569504,36.36378390097475],[140.44297810783038,36.363817619365],[140.44298244694647,36.36385957764072],[140.44299018331134,36.3641611608634],[140.44299176960138,36.36419164218708],[140.44299872363462,36.36421883356868],[140.4430153085912,36.3642721031497],[140.44304561798668,36.36437050053333],[140.44318908541769,36.36479661987316],[140.4432123934103,36.36486029159434],[140.44323575421643,36.364917879587495],[140.44326575462242,36.36496237447668],[140.4433011116528,36.365003570464076],[140.4433377915552,36.36504149712487],[140.44343011198922,36.36512944751849],[140.4434996697057,36.365605792374986],[140.4436347288496,36.365994885481115],[140.44370860401241,36.36629335465035],[140.4432605240496,36.36663412801381],[140.4429635996019,36.366501546681654],[140.4428233788453,36.36643743527177],[140.4427247297469,36.36656822398275],[140.44248457701815,36.36652763111117],[140.44242814724018,36.36660078533612],[140.44247268975317,36.36665947308789],[140.44254237900648,36.366783256295754],[140.44247375329743,36.366968714912815],[140.44266029990874,36.36705857352304],[140.44276477224437,36.3671641089478],[140.44292344539957,36.36743484683702],[140.44303512486627,36.367575575230774],[140.44308997627618,36.36760854240748],[140.4431308261103,36.36771652933398],[140.44273043285662,36.36782039698126],[140.4428008369842,36.36799561091216],[140.4429690501213,36.368304747460606],[140.44330298619886,36.368393942591084],[140.4444289802031,36.3684938575504],[140.44443526347104,36.36845515259236],[140.44443629746488,36.36840215359127],[140.44443448703353,36.36835592854247],[140.44443853680713,36.36833229498198],[140.4444443399759,36.36829062736343],[140.44449121561843,36.36812879268658],[140.4445468937176,36.367952583008694],[140.4446300106613,36.367765327664046],[140.4447465710424,36.36759385319177],[140.44485252692363,36.36740594000382],[140.44495824765633,36.36718948520261],[140.4450808197996,36.36719386830191],[140.44539767085791,36.367667106215556],[140.44795179130665,36.366748227602734],[140.44780634938718,36.36663011875081]]]}}]}
