{"type":"FeatureCollection","features":[{"type":"Feature","properties":{"potaRef":"JP-1323","nameEn":"Kanayama General Prefectural Park","nameJa":"","boundaryStatus":"全国都市公園GIS候補・公開前検証待ち","boundarySource":"国土交通省「都市計画決定GISデータ」都市公園・緑地を、POTA代表地点で空間照合して加工","boundaryScaleNote":"都市計画データは近似・未収録の可能性がある。POTA運用可否は公式情報で最終確認すること。","candidateMethod":"POTA representative point inside one MLIT urban-park polygon","sourceParkName":"","sourceParkType":"公園","sourcePrefecture":"群馬県","sourceCity":"太田市"},"geometry":{"type":"Polygon","coordinates":[[[139.37219165303318,36.324694140806706],[139.37231568548881,36.32453937536228],[139.37264162786695,36.324132827212],[139.37308478525804,36.32375684985791],[139.37329264868634,36.32346569919135],[139.37373376110727,36.322948371534544],[139.37395855581636,36.32269899155224],[139.3741806209801,36.32242643019396],[139.37422628634968,36.32196087782525],[139.37431592776755,36.32082818300773],[139.374354960934,36.3200266326004],[139.37436510367206,36.31976021087973],[139.37439781228449,36.31955180295131],[139.37427788224318,36.31900452345919],[139.37404930608287,36.31892255170994],[139.3739894644119,36.318873664684695],[139.37336758245513,36.31799080667111],[139.37329660065052,36.31788858472391],[139.37305849257146,36.317968766982915],[139.37285480855698,36.318037495825095],[139.3726674841985,36.31775641479235],[139.3726218647929,36.317723800974925],[139.37206841280008,36.317872279989786],[139.3714414991769,36.31687585897401],[139.3714417164032,36.316838787234616],[139.37146177269668,36.31634765278271],[139.37139882712495,36.31634045938896],[139.37032441647298,36.31598181229666],[139.37040806940755,36.31587555138094],[139.37021694296087,36.315756645129255],[139.3696378559779,36.316370740325],[139.36957515595887,36.31632184029152],[139.3695322653131,36.316312406386906],[139.36925674771248,36.31642487590466],[139.36890928517968,36.316599626279285],[139.36883747748567,36.316638737929026],[139.36874558756895,36.316684722887295],[139.3686451357835,36.316726040548],[139.36845310798455,36.31676005227637],[139.3682927237294,36.31676869895541],[139.3681610381047,36.31676587150422],[139.36793200954065,36.31676266640381],[139.3677945568281,36.316766767283156],[139.36756822698865,36.31679137636062],[139.36747647310187,36.316814190515224],[139.36736749987912,36.316843888833496],[139.3671728274983,36.316840815682795],[139.3670378126445,36.31691675319323],[139.3670033739801,36.31693052155916],[139.36698331903204,36.316932760651156],[139.36686093547388,36.31680948218547],[139.36678688079687,36.31674431734653],[139.36672988092127,36.316700072082035],[139.36668710018736,36.316672101321345],[139.36662736089855,36.31660699205737],[139.36657052590095,36.316534942962384],[139.36653638926938,36.31649773764076],[139.3664965266387,36.31646051003337],[139.36643951341375,36.316418581616965],[139.36639384247155,36.31639523357599],[139.36635088353768,36.31639738343678],[139.36629067785913,36.31641105132224],[139.36611282754993,36.316468284797466],[139.36570804230476,36.316652070641915],[139.36560385949278,36.316839344226764],[139.36567489895515,36.31692998538622],[139.3658223470513,36.317171531349864],[139.36599274170624,36.317406215418835],[139.36612053494406,36.31758280756597],[139.36619723314473,36.31768505562629],[139.36628542500975,36.317780397281915],[139.36586557558445,36.31808924459324],[139.3649267029899,36.319012395538145],[139.36528828103405,36.31935672731937],[139.3655727777166,36.31966368503448],[139.36588459939372,36.32019086885821],[139.36596529141025,36.32058508100918],[139.36597088013272,36.320608273238804],[139.3664704502141,36.32086045955374],[139.36695903766713,36.32103382161834],[139.36701091164613,36.32146035986008],[139.36702390947187,36.32168284685045],[139.36725162122664,36.32191080251548],[139.36736824477111,36.322041010282],[139.36752436406573,36.3222710043652],[139.3678448524306,36.32278895020268],[139.3679733012677,36.32285664308386],[139.36825335218722,36.32295041140099],[139.36839343266521,36.32298802734637],[139.3687988934964,36.32317959660484],[139.3691386377612,36.32334773970519],[139.3695187698509,36.32346506304831],[139.36980145602814,36.32359822792015],[139.37026093044722,36.323857195695325],[139.37057202057105,36.32402985838477],[139.3713623175593,36.324028271756106],[139.37147667259742,36.32405883395038],[139.3716791510015,36.32419863676354],[139.37216318278493,36.32466622669773],[139.37219165303318,36.324694140806706]]]}}]}
