{"type":"FeatureCollection","features":[{"type":"Feature","properties":{"potaRef":"JP-1873","nameEn":"Haragamaobama Bosai Ryokuchi Prefectural Park","nameJa":"","boundaryStatus":"全国都市公園GIS候補・公開前検証待ち","boundarySource":"国土交通省「都市計画決定GISデータ」都市公園・緑地を、POTA代表地点で空間照合して加工","boundaryScaleNote":"都市計画データは近似・未収録の可能性がある。POTA運用可否は公式情報で最終確認すること。","candidateMethod":"POTA representative point inside one MLIT urban-park polygon","sourceParkName":"原釜尾浜防災緑地","sourceParkType":"緑地","sourcePrefecture":"福島県","sourceCity":"相馬市"},"geometry":{"type":"MultiPolygon","coordinates":[[[[140.96594400626623,37.82768638028],[140.9660944895924,37.827622051783116],[140.96612496870085,37.82760735227345],[140.96622992803623,37.82755594974965],[140.96633252789456,37.82749735287065],[140.96644618866776,37.82741702544552],[140.96652705786875,37.82734989210591],[140.96657523784296,37.82738253746756],[140.96685523957248,37.827252072355975],[140.96690264274116,37.82722911773155],[140.9672921154558,37.8270453938996],[140.96719309053853,37.82703093225646],[140.96691872098864,37.826988253378204],[140.96699817402168,37.826813551235425],[140.96681241946024,37.82677009205382],[140.9668375474074,37.82669595018559],[140.96688236515345,37.82664957743928],[140.96697939236603,37.82642963900427],[140.9669912891664,37.826385357494914],[140.9670407488942,37.826346156043584],[140.9671157793552,37.82635001096765],[140.96710156219052,37.82622120629415],[140.96705444434065,37.826206124506506],[140.96704919869924,37.82617756812939],[140.96706675204177,37.826167418856635],[140.96716373880074,37.82602953445363],[140.96718273120808,37.82600502449572],[140.96718379230404,37.82591485149406],[140.96688356481127,37.82597698240668],[140.96683601621388,37.82598720334534],[140.96667499319983,37.82611680436394],[140.9663262518856,37.826384773508124],[140.9660234792991,37.82663227469959],[140.96591960063841,37.826718140806236],[140.96585999298722,37.826763389623466],[140.96553213038274,37.827013225673255],[140.96529102030976,37.82720096542629],[140.9650285490124,37.827411364543906],[140.9647303940129,37.8276468985194],[140.96435018490936,37.82794138710711],[140.96411241479075,37.828129188590985],[140.96407210257817,37.828153217312696],[140.9639970197952,37.828198104907514],[140.9639348036626,37.82823530133074],[140.96382019789905,37.828303849492],[140.96376574366462,37.828339033196244],[140.96373509295336,37.828355266344644],[140.96364659139496,37.8284066887402],[140.96351609461814,37.82847975010929],[140.96342531175216,37.82853206822279],[140.96326076182703,37.82861506915389],[140.96324147123127,37.828626796200794],[140.96301660474722,37.828724242421956],[140.9628816769292,37.82876755958018],[140.96271252917933,37.82881360084687],[140.96257970503083,37.828840696637535],[140.96259511817004,37.828899374790424],[140.96260480260523,37.828936240730926],[140.96265145536995,37.82902104524753],[140.96280695960434,37.82896229584532],[140.96282584975822,37.8289913158004],[140.96274689878675,37.829068683745646],[140.96277314753561,37.829174136723],[140.9627913359093,37.82919215323603],[140.96282198654436,37.82918853429005],[140.96303317805643,37.82916861449221],[140.96304800845277,37.82922629806818],[140.96306849482966,37.829266853434994],[140.96324103764815,37.82921991408891],[140.9632330433877,37.829178445897796],[140.96329438869415,37.829200959166414],[140.9633750602681,37.8292459909879],[140.96339439562456,37.829267618396564],[140.96341492330336,37.82934062721425],[140.96316517142643,37.829401119613046],[140.96298484645303,37.82959319318591],[140.96297807560086,37.82962294605036],[140.9629576716231,37.82965709063522],[140.96302129934978,37.82969143023549],[140.96315540472852,37.82978241349751],[140.96327652013406,37.82977702550371],[140.96349175861042,37.82974230857434],[140.9636038252279,37.82971859079603],[140.96366714807525,37.829701701390746],[140.96372584488853,37.829679442311104],[140.96377206154588,37.82965822214081],[140.96381698315574,37.829628003527496],[140.96392280421344,37.829591894587246],[140.96406809350478,37.82954406176146],[140.96410452799924,37.829515287938094],[140.9642230554481,37.82945781849311],[140.96434454430445,37.82938322750751],[140.96439714496432,37.82932578114792],[140.96446631198438,37.829248234982245],[140.9646160223671,37.8291003411204],[140.9648042993939,37.828914576667245],[140.96500165032862,37.82871978674226],[140.96527498522997,37.828449250230385],[140.9655415128864,37.82818683261153],[140.9657943852466,37.82790368776085],[140.96590431732747,37.82773327092542],[140.96594400626623,37.82768638028]]],[[[140.95841860110994,37.8297354435639],[140.9578443542408,37.829882055520564],[140.9574158484049,37.83002679689321],[140.9571305361893,37.83014037152439],[140.95684194773224,37.830279735615015],[140.95718785086086,37.83046858645655],[140.95739433879848,37.83057870041123],[140.95744942679912,37.830608177962915],[140.95766632392616,37.8307229673845],[140.95773322594042,37.83075821933922],[140.95782275263215,37.8308055373234],[140.95793038267894,37.83086136279824],[140.95797055087863,37.8308808012532],[140.9580281458142,37.8308486173098],[140.95825112519543,37.83072795690549],[140.95840980317732,37.83065324940734],[140.95853350987122,37.830595512530316],[140.95861864243088,37.83055671313808],[140.95868219641136,37.8305287518614],[140.95877523485623,37.8304899127729],[140.95888536402785,37.830443946296],[140.95904994813753,37.83037537523471],[140.9591963730313,37.830321230599424],[140.9593246300132,37.83027070237706],[140.9594221741372,37.83023461274766],[140.95957434909363,37.83018226956169],[140.95973553550803,37.8301263260126],[140.95978208084978,37.830114590868305],[140.95990581709833,37.83007758421752],[140.96008630824844,37.8300234285145],[140.96016235707202,37.82999545489472],[140.9602599768557,37.82996296783823],[140.96040526055978,37.82990792353166],[140.9605099247946,37.82986426849834],[140.96051989235684,37.82986010950277],[140.9605800447438,37.829835639626125],[140.96070400767258,37.82979194366879],[140.96076393870052,37.8297707734693],[140.9607957097335,37.82975723335428],[140.9608796952832,37.829719344324516],[140.9609841414149,37.82969496328999],[140.96110446842155,37.829657961032446],[140.96120777130983,37.82963087875814],[140.9612270700901,37.82962635994691],[140.96135658090273,37.82960227768856],[140.9614598080722,37.82958300065147],[140.96155290398642,37.829566737814226],[140.96166189422715,37.82955588161955],[140.96185615091034,37.82953747790623],[140.96189147855057,37.82953391527916],[140.96201048039887,37.82952598825335],[140.9622103162201,37.829511485809434],[140.96222961196415,37.82950967886451],[140.96245899602613,37.82951319261613],[140.96247367660027,37.82943746708005],[140.96219773876126,37.82944208646308],[140.9622101809529,37.82939610632767],[140.96220332458498,37.82936366414286],[140.962128336331,37.82932402799089],[140.962012439693,37.829261880009845],[140.96181707074464,37.82921689238102],[140.96174696683207,37.829102377795785],[140.9617374120335,37.829043645766816],[140.9612091668273,37.82915473097152],[140.9602779429039,37.82934577623476],[140.95957683518347,37.82949027304077],[140.9590039756271,37.82960922405018],[140.95841860110994,37.8297354435639]]],[[[140.9563106995736,37.83218170825824],[140.95641704917054,37.832066826847495],[140.95649348073906,37.832012191427005],[140.956580165317,37.8319512952448],[140.95670337544823,37.83186352577797],[140.95674328440404,37.83183666438613],[140.95675927102064,37.83182411490848],[140.9569555725909,37.83168840648092],[140.95706953710268,37.831604717784785],[140.95717552058466,37.83152570788317],[140.95741027005323,37.83135244148519],[140.95753904921744,37.83125457181917],[140.95775441215508,37.83109747277794],[140.95784215688363,37.831034637404336],[140.95789922409818,37.83099302347788],[140.9578619557131,37.83098057843429],[140.95762074143187,37.830855759780896],[140.95759459987613,37.83084735972648],[140.95738993641078,37.83073842740808],[140.957091965074,37.83058032474535],[140.9570018165269,37.83053108921233],[140.956937784679,37.83049611056899],[140.95675153269502,37.83039445239078],[140.95672833202096,37.83039269150443],[140.95667600347426,37.8303641409699],[140.95631410892886,37.830577644193184],[140.95604511270125,37.83075661805585],[140.95585375933445,37.83090243012255],[140.95553922265066,37.83117051823752],[140.95525508249204,37.83146120144022],[140.95501777854133,37.83174857717305],[140.9547552389113,37.83211629199382],[140.95433714466552,37.83277155582061],[140.95396640689756,37.83337868938192],[140.95351798045485,37.83409622044611],[140.95306954545563,37.83481374985411],[140.95264770188044,37.83550300786898],[140.95272588697944,37.83550015001623],[140.95293490425482,37.83524340212663],[140.9530944861151,37.83504670860715],[140.95318377747955,37.83493536220684],[140.9533063745787,37.834768288257635],[140.9534862383219,37.83452307506325],[140.95357441983427,37.834538120875315],[140.9536560122457,37.83443460501195],[140.95403047874814,37.83412626351143],[140.95412978547898,37.83404559813979],[140.95434784757342,37.833865432987956],[140.95455676046353,37.833693327554414],[140.95472100902384,37.833553813095314],[140.95480796740645,37.833479959265844],[140.95503397448542,37.83329802323512],[140.95517781190856,37.833180605089495],[140.95532392119674,37.8330632011416],[140.95534103312096,37.833050659143574],[140.95549751154994,37.832909865313844],[140.9556288501694,37.8327923946497],[140.9563106995736,37.83218170825824]]]]}}]}
