{"type":"FeatureCollection","features":[{"type":"Feature","properties":{"potaRef":"JP-1580","nameEn":"Waka Prefectural Park","nameJa":"","boundaryStatus":"全国都市公園GIS候補・公開前検証待ち","boundarySource":"国土交通省「都市計画決定GISデータ」都市公園・緑地を、POTA代表地点で空間照合して加工","boundaryScaleNote":"都市計画データは近似・未収録の可能性がある。POTA運用可否は公式情報で最終確認すること。","candidateMethod":"POTA representative point inside one MLIT urban-park polygon","sourceParkName":"和歌公園","sourceParkType":"公園","sourcePrefecture":"和歌山県","sourceCity":"和歌山市"},"geometry":{"type":"Polygon","coordinates":[[[135.18027665909327,34.169359616748245],[135.17981529393376,34.170013226665695],[135.17966376201505,34.17026067623153],[135.1793873999228,34.17073105050656],[135.17916392413426,34.171127311545305],[135.1789995464041,34.171502601404015],[135.17890162683682,34.17174653187127],[135.1788198115265,34.171940354826106],[135.17873530157868,34.172121177196324],[135.1786310827675,34.17230980133101],[135.17851937777147,34.172509644775346],[135.1783938552398,34.17272517202456],[135.17825105436913,34.17298854470308],[135.1781034663432,34.17324223932953],[135.17800572588456,34.17342470352324],[135.1771572537693,34.17491608315732],[135.17661356213105,34.175860812691845],[135.17588502894435,34.1770132918423],[135.1757807888025,34.176998220853356],[135.17510901401923,34.1779594387396],[135.1733814212158,34.1804043564359],[135.17268854176316,34.18126402220723],[135.17213007763584,34.181950539301],[135.1716518932496,34.18252395501283],[135.17096829119856,34.1833505309063],[135.17029703833666,34.18416538306901],[135.1702177329355,34.18426566633417],[135.17006451435878,34.18441605232948],[135.16967797560653,34.18479190175508],[135.16958611096123,34.184911635482614],[135.169279556289,34.18519742092257],[135.1689644978148,34.18547620506491],[135.16891824964668,34.18552394400126],[135.1686739262707,34.18579121663658],[135.16812849403493,34.186385417391996],[135.16768262836507,34.186715782792334],[135.16745290978596,34.1868779454828],[135.16736833301428,34.18686699461452],[135.16726072471573,34.186935485077186],[135.16731851094968,34.18699010601337],[135.16689567977804,34.187255248283236],[135.16678555788394,34.18732220753346],[135.16674290410438,34.18733517077235],[135.1667031158448,34.1873434644525],[135.166656932509,34.18735117465048],[135.16659579671676,34.18735707030507],[135.16604838285636,34.18738887032878],[135.16576411363266,34.18740325511344],[135.16559847515666,34.18742304491906],[135.1654998031824,34.18743986407109],[135.1654544815332,34.18744830002082],[135.16538565937444,34.187463428839656],[135.16528102453668,34.187490845640745],[135.16513771893565,34.18753422637132],[135.1650514875451,34.18756564490018],[135.16429827544317,34.187850004471024],[135.1642961058416,34.18794788087942],[135.16427869515016,34.187950998881114],[135.16421608216368,34.187966800422096],[135.16386430591734,34.18810241322012],[135.16372562434591,34.188178460197655],[135.16383069778485,34.18833968072395],[135.1640615953692,34.188263648903586],[135.16430334376318,34.188160986401535],[135.16440792192589,34.188128431179095],[135.16447531852353,34.188114916012836],[135.16480026376576,34.18807953436422],[135.16490798770153,34.18805799913688],[135.16494616790052,34.18804780092564],[135.16498165982713,34.18803506094517],[135.16577681950955,34.18767732508723],[135.16583685594597,34.18777221568871],[135.1658833378961,34.18784429574398],[135.16588888419133,34.18786497913536],[135.16588171997432,34.18799211325982],[135.1660687572242,34.187954202958366],[135.1660719431176,34.18791269072247],[135.16626065197116,34.18780200868215],[135.1663720626893,34.1878985743133],[135.16649801988908,34.18790040464375],[135.1667199219311,34.18811321826622],[135.16676020191196,34.188080333412024],[135.16662564398112,34.1879556806299],[135.1668159957816,34.18780583707965],[135.1669315776719,34.18791507038209],[135.1670967763901,34.18778005753336],[135.166982434461,34.18768583473501],[135.16699154231202,34.187678639026664],[135.16727621635178,34.18746870702001],[135.16731111139404,34.18745040780665],[135.16740892663555,34.18753067923126],[135.1678616489587,34.18719996022167],[135.16802466616394,34.18735533052323],[135.16809486688135,34.1872769751489],[135.16815616094775,34.187206429953534],[135.1686260445128,34.18666962081253],[135.1686813709437,34.18661455073002],[135.16875517299266,34.18655591030412],[135.16887367536327,34.186485942529515],[135.16892182748347,34.18643217697598],[135.16969333366876,34.18602684218377],[135.16949077566133,34.18582234553693],[135.16902721628952,34.18610162111479],[135.168913177239,34.186002959261145],[135.16925682878158,34.18562387392145],[135.1697923947037,34.18509442150888],[135.17047007469483,34.18443105608735],[135.17174138984018,34.18291289782676],[135.17193314631578,34.18303464674025],[135.17198493069506,34.18307515978033],[135.171984963567,34.1830951115143],[135.17199500434816,34.18328901005722],[135.17200436512906,34.18361912693366],[135.1720144731939,34.183772727109144],[135.17202440592757,34.183839905317114],[135.17266999726812,34.18316531813842],[135.1726700320321,34.183161757212545],[135.17294936384616,34.18286261499437],[135.17332045265272,34.182465010731384],[135.17384629993597,34.181915726748116],[135.17393730427395,34.18154941268779],[135.1739440618611,34.181401244435506],[135.1739966025414,34.18131073171196],[135.1741180549232,34.181101481251375],[135.17498205252204,34.17957837007364],[135.17508875829103,34.179392468087904],[135.1751859958035,34.179220928223806],[135.17530068597895,34.17901704849757],[135.17543738975152,34.17878041142775],[135.17555088836806,34.17857634402628],[135.17557524496786,34.178536839911004],[135.17570350096983,34.17832097090372],[135.17584775521195,34.178066085077624],[135.17598559622607,34.17782350647785],[135.17639397993338,34.17711088228367],[135.1766779792307,34.17660639761192],[135.1769833360004,34.17608032784008],[135.17703395007308,34.17598411371884],[135.1773657329251,34.17539466187596],[135.17762621473778,34.174919226804995],[135.17763174154814,34.17490970819603],[135.1779999074218,34.174202758885755],[135.1781846370253,34.17382138612662],[135.1782082091282,34.17377313194056],[135.17826596667473,34.17375657025771],[135.17830189354595,34.17368694162054],[135.17833513059867,34.17361504195963],[135.17836215754653,34.17355725432239],[135.17839748816687,34.17347067320802],[135.17842741684927,34.17339316168738],[135.1784490587197,34.17333128094891],[135.17848716572968,34.17324931635465],[135.1785072114267,34.17320662817832],[135.1785259243172,34.17316726595243],[135.17854389257818,34.173126276829684],[135.17855924831875,34.173086351188644],[135.17856903815257,34.17304981422291],[135.17858003005603,34.17296757793583],[135.17858959445047,34.172887135214616],[135.17859872297953,34.17285167659405],[135.1786190682671,34.17278924620266],[135.1786772109501,34.17266567424105],[135.1787392074174,34.172558446303654],[135.1787978197757,34.17245353974651],[135.17885796227117,34.17233611259167],[135.17890920394427,34.17223052466131],[135.17895427995217,34.17212327354641],[135.1790104313922,34.171992296179546],[135.17907003072784,34.171863685908],[135.1791218422824,34.17175530774883],[135.17918627379277,34.1716205089595],[135.17930109524073,34.17143447959519],[135.1793633670871,34.17133683675187],[135.17939872233902,34.1712756335322],[135.1794539016184,34.17114858925955],[135.17950760258182,34.171084731857995],[135.17954682307914,34.17103992679781],[135.17960840005412,34.1709434151419],[135.17972320929206,34.170712488382684],[135.17979091274893,34.170613772686806],[135.1799070220722,34.170494032347236],[135.17996906355975,34.170414454032766],[135.18009345365851,34.17017628014631],[135.18023465310347,34.169949551039124],[135.18035549336545,34.16972376765665],[135.18036699709907,34.16967138438863],[135.18037289816382,34.169634190184276],[135.1805010831294,34.169471112462816],[135.18027665909327,34.169359616748245]]]}}]}
