{"type":"FeatureCollection","features":[{"type":"Feature","properties":{"potaRef":"JP-1438","nameEn":"Gifu World Fresh Water Aquarium Prefectural Park","nameJa":"","boundaryStatus":"全国都市公園GIS候補・公開前検証待ち","boundarySource":"国土交通省「都市計画決定GISデータ」都市公園・緑地を、POTA代表地点で空間照合して加工","boundaryScaleNote":"都市計画データは近似・未収録の可能性がある。POTA運用可否は公式情報で最終確認すること。","candidateMethod":"POTA representative point inside one MLIT urban-park polygon","sourceParkName":"","sourceParkType":"緑地","sourcePrefecture":"岐阜県","sourceCity":"各務原市"},"geometry":{"type":"MultiPolygon","coordinates":[[[[136.79212359393526,35.36991590132451],[136.7939047349512,35.36960252518506],[136.7940612094766,35.368770589635375],[136.79227682231743,35.369099904106584],[136.79212359393526,35.36991590132451]]],[[[136.81801494414105,35.36025555007113],[136.81966937657387,35.35997990594897],[136.82329003439852,35.35935094224524],[136.8243271797202,35.359169764664486],[136.82618316142612,35.35875562351877],[136.8269299340467,35.3585863912606],[136.8276078796926,35.3584527623933],[136.82830142022934,35.35832173059578],[136.82897295866647,35.35822643442458],[136.82941329914672,35.358179076784076],[136.8305373848725,35.35810293442085],[136.83074656016174,35.35809584432529],[136.83101534323956,35.35809671940421],[136.8313711676528,35.35810537873733],[136.83153348801238,35.35810582894595],[136.83218883330676,35.35815111713884],[136.8323760312956,35.35817465005096],[136.8328127954572,35.35823723062937],[136.83331495527835,35.35833834833596],[136.8336174941025,35.35840055571695],[136.83388253270925,35.35847288797471],[136.83438135378782,35.35862769370133],[136.8361489062092,35.359215586804204],[136.8387083297246,35.36006388478186],[136.83945649790752,35.36031907755345],[136.84074054524527,35.36083654855076],[136.84291810000192,35.361722085275076],[136.84489194303782,35.362522652278265],[136.84535336989683,35.36267219872836],[136.8458709592874,35.36282956417042],[136.84766394337356,35.363345754259306],[136.85007750435014,35.36403743601482],[136.85230396695223,35.36468511031042],[136.85254253244045,35.364750939752746],[136.85279027568225,35.36486537973927],[136.85462460367944,35.36561300237377],[136.855995999812,35.36619446730041],[136.85659131757754,35.36644660376575],[136.85728303693335,35.36679871569323],[136.85795867807758,35.367206488635745],[136.85838583684645,35.36749689540993],[136.8588437531456,35.3678271600121],[136.85953944424637,35.36832800073409],[136.85982827959106,35.36852616015607],[136.85995744895152,35.36863005542702],[136.860029021901,35.36869161031362],[136.86005382835802,35.36873642458584],[136.86009105018158,35.368800449491424],[136.8601095692605,35.368856755285144],[136.86011085951537,35.36892836068342],[136.8601012518724,35.36899226677868],[136.86006510258537,35.36905738414412],[136.8600046354374,35.36912861613646],[136.859898178548,35.36921017693293],[136.8597823748493,35.369286599460835],[136.8595570882709,35.369419002495114],[136.85906584929967,35.36970416152981],[136.85836834021123,35.370045051276264],[136.85779923752958,35.370278862077896],[136.857127182669,35.370491948768446],[136.85627098279696,35.37068921554097],[136.8556148938244,35.37080771774669],[136.85510889703582,35.37086523022977],[136.85430325210925,35.37090406587833],[136.85346029996575,35.37090188398526],[136.85240516784384,35.370868457992344],[136.85169985435374,35.37079757682017],[136.8506118592437,35.370623884437656],[136.8503118711274,35.37055981156452],[136.84958841186938,35.370395175127115],[136.84913190518913,35.37027463353918],[136.8475574076868,35.3698310871674],[136.84639047199556,35.369605588248525],[136.8454816000319,35.36943862746581],[136.84459917963815,35.36928257970734],[136.84407856653198,35.369187163331986],[136.84359531759537,35.369133433804095],[136.84298615451874,35.369093505023855],[136.84193956152288,35.36914888633916],[136.84107170381344,35.36921707194114],[136.8406014040439,35.369237502579786],[136.8401201900038,35.36922716206226],[136.83892615025005,35.36916064171093],[136.8385044314894,35.369177579484145],[136.83808263195309,35.36921440604428],[136.83691861765675,35.36936493453044],[136.83652329263757,35.36940544433099],[136.8347857539594,35.36944408229319],[136.83437057418075,35.36948091406628],[136.83359085410655,35.36958726096523],[136.83187454998262,35.36982843675724],[136.83150573377551,35.36986357889166],[136.83110394565375,35.36986427207575],[136.83071994934505,35.369833369454696],[136.83018601398277,35.369759554928606],[136.82954634130252,35.36963119637077],[136.8287170754446,35.36944082472275],[136.8278615342788,35.3691997434322],[136.82718255764516,35.36897000158544],[136.82608498512053,35.368540172173425],[136.82562219093018,35.36835081159237],[136.82516720928655,35.36815438289477],[136.82481105325127,35.36799129282637],[136.82475460865092,35.3679497131931],[136.8245847980507,35.367862993500665],[136.82443944452584,35.36778121183396],[136.82413119275807,35.36759047487174],[136.82394183499963,35.367474211593546],[136.82385820155744,35.367414302951396],[136.82379880503578,35.36736531236927],[136.823732839576,35.36730364554159],[136.82365595904446,35.36721301609585],[136.8236190586653,35.367064636895996],[136.82361272685705,35.366995906367656],[136.8235999332103,35.36688918476619],[136.82356950254768,35.366776988414024],[136.8235476724035,35.36671906322806],[136.82351034389592,35.366671943380936],[136.8234487865537,35.36661209713573],[136.8233430334853,35.36656297465959],[136.82321512902539,35.36653187139036],[136.8229282698757,35.366503932410204],[136.82256197959632,35.36646672547502],[136.82221774920322,35.36643319675948],[136.8214896160839,35.36635155727764],[136.82137928018173,35.366342200949006],[136.8211321802539,35.36630894662656],[136.82093802164448,35.3662848843944],[136.82080370636447,35.36625855457642],[136.82075614129158,35.36628282947672],[136.82071525265405,35.36629446589495],[136.82065010480073,35.36630060816627],[136.8205430976675,35.366287192099065],[136.8202916219156,35.36624488240034],[136.81992988823234,35.36617513249997],[136.8195703626611,35.36610538785986],[136.81886235078463,35.3659659271454],[136.81707778067045,35.365664229018854],[136.81615563738058,35.36552774928488],[136.81527994795243,35.36536969889976],[136.8147115411197,35.36531222293169],[136.81405935933404,35.36524639138017],[136.8133071469383,35.36521095046206],[136.81270770307148,35.36522198230078],[136.81216747290586,35.36525619982326],[136.811627107946,35.365321101126455],[136.811099251844,35.3653809223829],[136.81070874387564,35.365443703180944],[136.80962032606283,35.36553125604751],[136.80905283267307,35.36556935900316],[136.80849662369644,35.365551437775544],[136.808280244355,35.36556164562647],[136.80775229244765,35.365643257117156],[136.8071097516334,35.365679319807235],[136.8068668661522,35.36569306270867],[136.80496390088032,35.36581865695821],[136.80470240920448,35.36583161377278],[136.80348949828797,35.365903111128326],[136.80334958907116,35.36595604288481],[136.80305596877193,35.3659759799222],[136.80215708792724,35.36603481718096],[136.80143939803574,35.366102397195526],[136.80084617495788,35.36612121162886],[136.80077019308007,35.36873970010211],[136.79895120728082,35.368509483724864],[136.79893459798416,35.36881584130603],[136.7989255056088,35.36933799282379],[136.80293422497786,35.36988314859497],[136.8022887239039,35.37094520397549],[136.80629056641467,35.37291309849939],[136.8056347883628,35.37380981845133],[136.81077732410742,35.37468664986676],[136.8110015130239,35.37406483150505],[136.81626201189894,35.375032469059995],[136.81605306707843,35.37562960718323],[136.82012298246113,35.37616902046855],[136.82094160194086,35.37585531441223],[136.81992981497694,35.37771707049745],[136.82006768447744,35.377748523523245],[136.82026376966374,35.37779762932346],[136.82049362331688,35.377856838266574],[136.82075316460248,35.37791763372414],[136.82126727854632,35.37800756083437],[136.82140807828858,35.37802735217164],[136.82182032692452,35.378099277586955],[136.82237397662436,35.37819234111838],[136.82269693048661,35.378248761626715],[136.82364321395795,35.37840803085019],[136.82387445107864,35.378441590872235],[136.8243323739857,35.37850253876814],[136.82523230302485,35.37859717969038],[136.82548690142266,35.37861741558959],[136.82562090279345,35.3786275522554],[136.825891327303,35.3786496078045],[136.8260197665486,35.37866032028554],[136.8263145508593,35.378683576669204],[136.8266085197809,35.37869397784532],[136.82670194230477,35.378696577271725],[136.82689480086034,35.37869210992852],[136.82750665958764,35.37869727902468],[136.82867668528363,35.37870314511457],[136.82976039702046,35.378720063789245],[136.82980784869426,35.37871685920089],[136.82991208888978,35.37872080915394],[136.83028445714947,35.37879854373749],[136.83072890989692,35.37892556906362],[136.83122868591246,35.37908431125227],[136.8314931257494,35.379172213650904],[136.83188856319683,35.37931997379047],[136.83225315990484,35.379496657399194],[136.83252086656498,35.37956382920634],[136.8327888299739,35.37958412929265],[136.83296838727247,35.379563360995796],[136.83349341594374,35.37945931372896],[136.8345023576748,35.37923702318114],[136.83529273727137,35.379038858715745],[136.83590829515867,35.37888296562578],[136.83605671608808,35.37884783199207],[136.836264730359,35.37884281586662],[136.83663529374158,35.37882589940517],[136.83836445127656,35.37875700904553],[136.84002722352537,35.37868225850973],[136.84031792721106,35.37867696706655],[136.84046338118284,35.37866960343711],[136.84064902747406,35.378646993433854],[136.8408237450967,35.37863330020606],[136.84122911802012,35.37859007139202],[136.84153035723975,35.3785525766777],[136.84173265948166,35.37855172623456],[136.84183493774998,35.37856899285891],[136.84206144006947,35.3786405365079],[136.84216337723385,35.3786885312397],[136.8422620776053,35.37873806285397],[136.84260597470194,35.37844511862784],[136.84273549152397,35.37835373758414],[136.8429630361988,35.378225126052136],[136.8431264170998,35.37815511510223],[136.84338837678663,35.37808906037794],[136.84373458342546,35.37800825164148],[136.84598518513076,35.37746654112834],[136.84656580801126,35.37733441003141],[136.84688604647528,35.37725805652271],[136.84826529830028,35.37702583147047],[136.8491444955766,35.376928786113446],[136.85168043326777,35.37668109674604],[136.85479246565865,35.376374823020086],[136.8555398160138,35.37624865798705],[136.85577907465117,35.37619510580196],[136.855884247957,35.37619341876302],[136.8561869040289,35.37615158816758],[136.85635521719283,35.376137599367205],[136.85715421045126,35.37606749294819],[136.85728424151426,35.376063528859575],[136.85740120626045,35.37607744213345],[136.85759363228993,35.376110418191836],[136.85774518809666,35.376154882679195],[136.8582118402286,35.376267925347584],[136.85848686839887,35.37638123797362],[136.85857307535414,35.37642065334389],[136.85891579438552,35.37657812486892],[136.85903987849542,35.376626742365175],[136.8597635231502,35.37686577752182],[136.860105986185,35.376962314843404],[136.8612038974113,35.37719786542284],[136.86176485618284,35.377321945920286],[136.86237512630748,35.37745486037841],[136.86349684624793,35.377714441211644],[136.86407839938082,35.37784031909787],[136.86451363829727,35.37790295204278],[136.86533018652509,35.37797652533824],[136.8658362382238,35.37803309402828],[136.86713390216974,35.37817212518106],[136.86817762126952,35.37823664295949],[136.87000632502134,35.37836461219189],[136.87190414696585,35.378493157257964],[136.8723342624081,35.378536365468946],[136.87286658444694,35.37856292073318],[136.87311423185318,35.37857755060512],[136.87355612096704,35.37861108896552],[136.87415617497328,35.378651206986525],[136.87472032607005,35.37868904260059],[136.87530414351568,35.37873378344838],[136.8756749298695,35.37875765560842],[136.87601088674248,35.37877893555116],[136.87655251823836,35.37881570583941],[136.8769439251419,35.378841692150004],[136.87736264279806,35.378872816856465],[136.8775239724593,35.37888357767259],[136.87843713178952,35.378946838812766],[136.87888069652533,35.37897829515062],[136.8796334026342,35.37902887748668],[136.88088417957152,35.379114265657826],[136.8815228736248,35.37916811763583],[136.88227195436028,35.379246025595094],[136.88327403291024,35.37938180371241],[136.88396717465648,35.379483506844586],[136.88496254905982,35.37963851068501],[136.88668412203145,35.379904158860306],[136.88681648290185,35.37993171892419],[136.8868242058793,35.37987934388477],[136.88872573888602,35.38016826384564],[136.88977889237063,35.38032188586489],[136.89053163557884,35.38044040951951],[136.8918862399059,35.3806578430711],[136.8928979387619,35.38082618396213],[136.89377991301546,35.38097032158303],[136.89395155594687,35.381001511737686],[136.8945465057697,35.38114290514976],[136.89489443552372,35.381231644663195],[136.89647489594083,35.38130392979135],[136.89694416688207,35.38132460576255],[136.8976621215705,35.381315149937194],[136.89790643270132,35.38132845140241],[136.8983492699061,35.38130445089192],[136.89863005161692,35.38126676583434],[136.8995247989943,35.38120654593211],[136.900125311559,35.381146331082554],[136.90058152410876,35.38107555364625],[136.90141844602115,35.38080902300612],[136.9020133054964,35.38063218534465],[136.9027417485923,35.38064478016768],[136.90379454306336,35.38066151974273],[136.9081702971342,35.38066616242009],[136.91057365089566,35.3807466613577],[136.9127845915094,35.380797264764276],[136.91288160379136,35.38082679351735],[136.91376540152805,35.380832710705974],[136.91438942382663,35.38084743301227],[136.91502091795675,35.38087214102161],[136.9157928911212,35.38083341813254],[136.916851742481,35.38082507266136],[136.91701313600137,35.38081323715223],[136.91765257025816,35.380813227552515],[136.91822026657283,35.380758611635116],[136.91848442938428,35.380738364862566],[136.91876729240064,35.380725709059675],[136.91943338850135,35.380762498702964],[136.91983605732304,35.38074890701977],[136.9205773394418,35.380749364280746],[136.92096992406297,35.38079944115796],[136.92201824129822,35.38098539339067],[136.92218797797108,35.381006821973386],[136.9225240479874,35.38104833327431],[136.9228806361664,35.38111160544521],[136.92331433336122,35.381240774527576],[136.92374943499672,35.381400105546604],[136.92381312205958,35.38145063235839],[136.92408642899272,35.38155525713198],[136.92414955324622,35.38158585148422],[136.92433304289435,35.38170202062141],[136.92443438591906,35.38173684119672],[136.92463484704106,35.381817914788066],[136.92482003661564,35.38190592276882],[136.92498730378713,35.38200154167023],[136.92510098729304,35.382065144416615],[136.9253011306751,35.38219235445705],[136.9254540259229,35.382306960228036],[136.92553199741704,35.38235219645528],[136.92562093641624,35.38240493915446],[136.925740158985,35.38247767651571],[136.9258338278196,35.38253497214646],[136.925959452055,35.38260985429446],[136.92607599125353,35.382668032413065],[136.926210236555,35.38274651668685],[136.92634933446166,35.38282501091854],[136.92644337735805,35.38289795980676],[136.92649716839293,35.382942718391725],[136.92657324575563,35.38299487499061],[136.92665517225663,35.3830632062997],[136.92673093173062,35.38311938768194],[136.92683440877755,35.383201059859],[136.92693353451773,35.38327517636001],[136.9270179543718,35.38334149195563],[136.92711576672127,35.38340991451348],[136.92718880946174,35.38347241819859],[136.927272241347,35.38356064154934],[136.9273124760849,35.38358842039205],[136.9273755413881,35.383631671706354],[136.92753788928275,35.38375058350821],[136.92759684195067,35.38381691110703],[136.92811551307273,35.38428794342498],[136.92838604753646,35.38452257713782],[136.92858145692455,35.38471436051672],[136.92875889559255,35.38490460911401],[136.9290796921105,35.385332928173874],[136.92917971275585,35.38548120292426],[136.9294320228168,35.38581111082337],[136.92960844858817,35.38603636528902],[136.92976099037858,35.386209773987204],[136.92981437210997,35.38625350299431],[136.92991124467434,35.386349033632094],[136.93013194493514,35.386677335284375],[136.93149404732114,35.388121718318295],[136.93230371257098,35.38897951807553],[136.93244487518973,35.38912238096594],[136.9327723772273,35.38939432144458],[136.93287672923026,35.38948547885807],[136.9341249574987,35.38861044084627],[136.93465642788956,35.38819673132907],[136.93502971880608,35.38788151991261],[136.93477298037092,35.387676171938054],[136.93416510801327,35.387224051103885],[136.93125584272067,35.3846073297935],[136.93033343612657,35.383670492533575],[136.92799205523846,35.38113540672034],[136.9277384488425,35.38087690065798],[136.9275367542149,35.38077112677782],[136.92738000313685,35.380690262249225],[136.9259373842935,35.38013981151544],[136.92571409615095,35.3800535127945],[136.925031658519,35.379805492744914],[136.9240947909629,35.379498771806816],[136.92270844554184,35.379090352950755],[136.92155564739392,35.378796682007724],[136.91977794470301,35.378496992350236],[136.91524358984404,35.377780517473376],[136.9116717504345,35.377546701768686],[136.90885510450576,35.377529564260364],[136.90789304497287,35.3775610941183],[136.90430215353484,35.37750274427862],[136.90193022448094,35.37774932271634],[136.90040464576833,35.37800473755542],[136.8995024262596,35.37808700573255],[136.8958795043597,35.378380085098776],[136.89448232261282,35.37844685058821],[136.8935227290785,35.37851400382655],[136.89106652401912,35.37862518142557],[136.89044777528238,35.378616160570814],[136.890185297037,35.378591860717584],[136.8895958345056,35.37848976405283],[136.88907962258463,35.378374714931304],[136.88843354714368,35.37819600427964],[136.88585613328894,35.37767657611367],[136.880530410453,35.3765967179756],[136.87751082283646,35.3759968997873],[136.875739954199,35.37563732186549],[136.87112403729256,35.37466076008204],[136.8671717854037,35.37384168876612],[136.86555198148818,35.3735039605411],[136.86541365560748,35.37333069748397],[136.86478759565287,35.37256126569729],[136.86359137998,35.371279868099414],[136.8623951801171,35.36999844049395],[136.8609391829393,35.36838932877232],[136.85875368743407,35.36728724529781],[136.85555598004535,35.36571501999151],[136.8535930470782,35.364727913517434],[136.85305724478664,35.36445975059014],[136.85267875801142,35.36429547653247],[136.85189405512062,35.363947877856305],[136.8499543838532,35.36309614728992],[136.84894819701285,35.36265428282137],[136.84537744688362,35.36124540505846],[136.84227736564935,35.36002301696638],[136.83366139058836,35.35559280845629],[136.83358878506954,35.355615855896446],[136.83069507078557,35.35683020194664],[136.83056367289709,35.35686111572355],[136.82951909424068,35.35700903113886],[136.82847450084398,35.35715693747034],[136.82687525475933,35.35738115892717],[136.82649828738766,35.35743401215537],[136.8257515550125,35.35760598038174],[136.8250864761534,35.35778840584006],[136.82442138336455,35.35797081857089],[136.82400182632742,35.35807880011441],[136.8225065174907,35.358381951791735],[136.82102218714084,35.35871937007611],[136.82037173393343,35.35881170592127],[136.81952476437743,35.35893778180475],[136.8186778032408,35.35906385176663],[136.81722694259497,35.35923718112735],[136.81461348157967,35.35954750731992],[136.81156437902843,35.35990941071746],[136.80953070815266,35.36004245238044],[136.80914187726788,35.36006285555661],[136.80838872543686,35.360095032170285],[136.8076355840532,35.36012720411939],[136.80686621198865,35.36015679008065],[136.80609685036958,35.36018638018742],[136.80517678815812,35.360229035941586],[136.80425673604466,35.360271684718285],[136.80381950532913,35.36031238771146],[136.80331449782938,35.36036379247796],[136.80280950071165,35.360415195163085],[136.80229637941073,35.36049659733547],[136.80186669141318,35.36057238099119],[136.8007839830851,35.36088886650036],[136.79798904913704,35.362022788096766],[136.79652444427862,35.36253190955574],[136.79644774532474,35.36255610292188],[136.79421995957438,35.363137240619835],[136.7941405344534,35.363155745211095],[136.7939209671714,35.36316551557406],[136.79352295294228,35.36316399886549],[136.79312494970256,35.36316248989418],[136.7928622782809,35.363174784263364],[136.79282106944788,35.363176775115036],[136.79268942881143,35.36320727727788],[136.79261141925326,35.36322894018883],[136.79251904389227,35.36329945121806],[136.79251821537508,35.363371696907606],[136.7927965167754,35.3639363679361],[136.79397215298962,35.366052334164245],[136.79493174615203,35.36576341961508],[136.79470133264428,35.36519735495118],[136.79529416506264,35.36475006202287],[136.795642852759,35.36452626898833],[136.79620283300653,35.36420778943302],[136.79668853945026,35.36394816326991],[136.7972830640449,35.36366553822319],[136.79748123976358,35.363567625648614],[136.80022426662285,35.36237538840359],[136.80110663633346,35.36198231813862],[136.80161386031352,35.36177724453779],[136.80171490428478,35.36173502593694],[136.8018234498609,35.36169889367999],[136.80221917616376,35.361564470778234],[136.80253741660513,35.36148044344877],[136.802844506084,35.36142169686583],[136.80333700424862,35.36136531526857],[136.80440609962488,35.361277168337615],[136.80696927218355,35.3610797634858],[136.81073963611172,35.36077721881471],[136.81230739334782,35.360611444555886],[136.81305588312196,35.36056662298448],[136.81398307128467,35.36054401710352],[136.81621929045795,35.360505316511585],[136.8168729168458,35.36044753859002],[136.81801494414105,35.36025555007113]],[[136.81042511439867,35.370299647583785],[136.81049080251583,35.37025503516133],[136.81054542821497,35.370300002209014],[136.81047692881225,35.37034948416864],[136.81042511439867,35.370299647583785]],[[136.8081048049981,35.370755115672715],[136.80795995898455,35.37071066875198],[136.80746901101932,35.370540584271],[136.80737970610113,35.37047998047369],[136.80729891127453,35.37037995955744],[136.80729846033427,35.36997864976374],[136.80756696583603,35.36991251762116],[136.807797594232,35.369850942770555],[136.80806108538985,35.36976782096937],[136.80833035916595,35.36967383449196],[136.80843011717366,35.36972373746335],[136.8086348988626,35.37015506082188],[136.8087662966902,35.370290241738395],[136.80901356601572,35.37041615029406],[136.80972350219108,35.370763330455645],[136.8099563611748,35.37085316944392],[136.80986934986151,35.37100754617245],[136.80980871988888,35.37102232803844],[136.80966550595508,35.370948456317926],[136.8094951472389,35.370843445657876],[136.80932339102498,35.370736432333636],[136.8091076094859,35.37063295004303],[136.80894939942235,35.37055836168387],[136.80882288230165,35.37057121056865],[136.8083189140142,35.3707407489431],[136.80819574863918,35.370766368358574],[136.8081048049981,35.370755115672715]],[[136.81067614501615,35.37051857819503],[136.81058278538507,35.37054350043387],[136.8105703571049,35.370493802364635],[136.81065810450778,35.370467343019584],[136.81067614501615,35.37051857819503]],[[136.81050271447273,35.37082594672934],[136.81054136841374,35.370780390536105],[136.81060369595082,35.37081679532833],[136.8105611966929,35.370862340209605],[136.81050271447273,35.37082594672934]],[[136.81035598621636,35.37096331193391],[136.8103273642169,35.370913620343686],[136.81039767310128,35.37088390585353],[136.8104291410768,35.37094226739065],[136.81035598621636,35.37096331193391]],[[136.81012137898892,35.370972068933156],[136.81012640382858,35.37092247656733],[136.8101907924482,35.370927391022896],[136.81018384844023,35.370976190314174],[136.81012137898892,35.370972068933156]],[[136.81046343774807,35.37101323590924],[136.81040088520587,35.37102801240547],[136.81039993771157,35.37102485994908],[136.81038377495213,35.370983866677854],[136.81044057329393,35.37096592356465],[136.81046343774807,35.37101323590924]],[[136.8101718608841,35.37100847217716],[136.81017793500814,35.37100924433024],[136.81017294135674,35.37105175004804],[136.81010179874292,35.37104687705642],[136.81011452151185,35.371001183081965],[136.8101153064226,35.37100128286158],[136.8101718608841,35.37100847217716]],[[136.8105763568273,35.370693877907854],[136.81059100159663,35.3706427390352],[136.81068994953748,35.37065877887453],[136.81067531174267,35.37070834294816],[136.8105763568273,35.370693877907854]],[[136.81109163120536,35.37076389309591],[136.81108006695598,35.370701660498504],[136.81115319722502,35.37068612735302],[136.81116734097373,35.370749162227014],[136.81109163120536,35.37076389309591]],[[136.81140049779097,35.3707709241837],[136.8113434520445,35.370760866260966],[136.81135692014075,35.37070483709539],[136.81142127761493,35.37071683754586],[136.81140049779097,35.3707709241837]],[[136.81065316313794,35.370935840855886],[136.81065220871918,35.37093426321252],[136.81062353121789,35.370897170180385],[136.81067652906032,35.37086897935294],[136.8107051823749,35.37091158421181],[136.81065316313794,35.370935840855886]],[[136.82307469606056,35.370908410617936],[136.8234890824661,35.371109050901275],[136.82350815932662,35.37139723112522],[136.8227191452014,35.37212551028076],[136.82185044096494,35.37290057058854],[136.82169101189456,35.37301222538553],[136.8215450593677,35.37306967176474],[136.8213991528442,35.373116268759055],[136.8201707906315,35.37332250661139],[136.81990131474384,35.373354281614844],[136.81966702219287,35.37341870506819],[136.81807407403323,35.373562498270715],[136.81767441860467,35.373566459104225],[136.81714371061346,35.373552139123476],[136.81661317951315,35.37349690191514],[136.8160265392911,35.373421041872426],[136.81521247275376,35.37323200035577],[136.81508788730687,35.373162593183],[136.8137000584558,35.372810766329806],[136.8136845280531,35.3727859734237],[136.81361628388223,35.37267963275295],[136.81343349809472,35.372423566199245],[136.81314846314388,35.37207390408741],[136.81302893482146,35.37194494082052],[136.81290940676058,35.371816004476884],[136.8127550449595,35.37166740534797],[136.81263826610817,35.371576949068974],[136.8125214874782,35.371486501691315],[136.8123792489006,35.371379613941976],[136.81263495841463,35.37117210387221],[136.81237373479016,35.37093645032654],[136.81225901618703,35.37106339811024],[136.8120784640865,35.37102192282222],[136.81202077945798,35.37107345226289],[136.81199273156886,35.37104851980934],[136.8120422174155,35.37100485144298],[136.8119186904122,35.37091652703199],[136.8118647510132,35.37097219060922],[136.8118277107264,35.37094163351996],[136.81187994674315,35.37088869220922],[136.81181188482623,35.37084145180839],[136.81178122678705,35.37082066961278],[136.81171542158992,35.37089133044429],[136.81166727218877,35.37086426526491],[136.81173577915095,35.37079066147381],[136.81163698433014,35.37072590920464],[136.81160570216036,35.37076036427859],[136.8115591084176,35.37072912815815],[136.81158762622155,35.370690549494185],[136.81148529083367,35.37063595012808],[136.81145759484963,35.370676097259484],[136.81141053934408,35.37064137447091],[136.81143934051335,35.37060565174059],[136.81128527783832,35.37056684650525],[136.81115454719549,35.37050338261791],[136.81097634181566,35.370412725966794],[136.81079812583084,35.37032206902142],[136.81051541622182,35.37021180910911],[136.81041911516968,35.37019952597548],[136.8102447394082,35.37019008480362],[136.80982026474746,35.36998401310252],[136.8094172197586,35.36978842075994],[136.80956348577402,35.369544418310845],[136.81039893648898,35.369872329083584],[136.8105172275526,35.369861710476826],[136.81030123765385,35.36972154234673],[136.81008655298322,35.369540905341594],[136.81000010137603,35.36941197388138],[136.809985878527,35.369355209080815],[136.8099811338264,35.36931946197191],[136.81005882013335,35.369286517669785],[136.81015413223002,35.369282742042614],[136.81027273880065,35.36931810492142],[136.81040502320707,35.369438915615156],[136.81064253150478,35.3697505252173],[136.81083128349704,35.369517394598134],[136.81054666999546,35.36941059642059],[136.81023875897304,35.36920207574214],[136.81012680092104,35.36918025501652],[136.8099793717512,35.369207185814936],[136.8099458296753,35.36914646131388],[136.80981473606363,35.369161472649935],[136.80937656075992,35.36914340076429],[136.80903364583003,35.36916156640985],[136.80874249597957,35.36923849367292],[136.808960413944,35.36933528759367],[136.80950119591088,35.36951955827696],[136.80934856130762,35.36975481424632],[136.8091468411014,35.369659316890804],[136.80876992012045,35.3694842195061],[136.80855347959488,35.36938055583408],[136.8081821615965,35.369203228702006],[136.80802388843009,35.36912619796489],[136.80839951729223,35.36904955857232],[136.80883481332165,35.36895862891638],[136.8091065899288,35.36890337844009],[136.8092189945902,35.36888066297592],[136.809753107459,35.368823425732145],[136.80995614677167,35.36879845309514],[136.8104532694671,35.3687111254346],[136.8110692550205,35.36864896805066],[136.811453558538,35.36860670092281],[136.8119085664336,35.36855017436494],[136.81280932403936,35.368534733087735],[136.81334790211326,35.36855077474765],[136.81408074452332,35.36856738096636],[136.81465010316398,35.3686124382129],[136.8153562835128,35.368668739959425],[136.8163183220658,35.36877640990574],[136.81699336536389,35.36888685853946],[136.81761536683388,35.36901161600143],[136.81777415550164,35.36904823903335],[136.81908865245308,35.36933410999102],[136.81962311785085,35.36947929311326],[136.8200039993444,35.369480386348876],[136.82077782210595,35.36958297443286],[136.82092132976007,35.3696076786537],[136.82118493588277,35.3696557410539],[136.82134704501772,35.36971118453027],[136.82145145198442,35.36975367688777],[136.82159939280945,35.36983720891608],[136.82180181660283,35.369956697271974],[136.8219668041378,35.37006968547018],[136.82222818867862,35.37027372937538],[136.82236346943932,35.37039813981914],[136.82245838691935,35.370470012239466],[136.82264970743876,35.370631661588554],[136.8228847723978,35.3707851241412],[136.82307469606056,35.370908410617936]],[[136.8124625270508,35.37107435528501],[136.81249456957644,35.37109918955665],[136.81240957849616,35.371171678100964],[136.81237650706342,35.371145995003516],[136.8124625270508,35.37107435528501]],[[136.81214413856162,35.37117251192964],[136.81211442663744,35.371151951946985],[136.81218487968817,35.37108916537707],[136.81221361305737,35.371113659551185],[136.81214413856162,35.37117251192964]],[[136.8123408691591,35.37122217707373],[136.81228516786504,35.37126985866675],[136.81225605557538,35.37124824306799],[136.81231468273836,35.37119937394478],[136.8123408691591,35.37122217707373]]]]}}]}
