{"type":"FeatureCollection","features":[{"type":"Feature","properties":{"potaRef":"JP-1516","nameEn":"Tonboike Prefectural Park","nameJa":"","boundaryStatus":"全国都市公園GIS候補・公開前検証待ち","boundarySource":"国土交通省「都市計画決定GISデータ」都市公園・緑地を、POTA代表地点で空間照合して加工","boundaryScaleNote":"都市計画データは近似・未収録の可能性がある。POTA運用可否は公式情報で最終確認すること。","candidateMethod":"POTA representative point inside one MLIT urban-park polygon","sourceParkName":"９･６･２０２−１蜻蛉池公園","sourceParkType":"公園","sourcePrefecture":"大阪府","sourceCity":"岸和田市"},"geometry":{"type":"Polygon","coordinates":[[[135.42242830242418,34.43853763164364],[135.42246366431763,34.438526953135344],[135.42374779177396,34.43813210540349],[135.4242415312565,34.437981728245695],[135.42453473907128,34.437862806896774],[135.42477638020424,34.43774378652226],[135.42487115769822,34.43769436812193],[135.42486905214122,34.437679284462206],[135.42485332764193,34.43764131875797],[135.42483343218214,34.437605443037846],[135.42481055928866,34.43757533218374],[135.42477241375846,34.4375524790066],[135.42468144329354,34.43751162596456],[135.42463168802712,34.43747758409625],[135.42447404426625,34.43735794708453],[135.42444487184258,34.43733569499223],[135.42442898154715,34.43730449000608],[135.42442598841743,34.437287148309274],[135.42441898269814,34.43725514670749],[135.42442153369032,34.437230645828414],[135.424425647567,34.437200382446214],[135.4244336275075,34.43718393083065],[135.4244381987608,34.437167895910015],[135.42445474706028,34.43713486923026],[135.4246461240145,34.436912927032026],[135.42470298110374,34.436841071289514],[135.42476271660374,34.436763594430886],[135.42481135744495,34.436685497385334],[135.4248610489642,34.43659220528558],[135.4249145339952,34.43645342123201],[135.42495998089663,34.436303050616054],[135.42497603516063,34.43622930795847],[135.42496772544922,34.43620179893824],[135.42493248449384,34.436102887463186],[135.424910987856,34.43601488614997],[135.4249391073451,34.43589853031119],[135.42495455410577,34.43585310218928],[135.42496912153902,34.43569300296079],[135.4249767269853,34.43553738770842],[135.4249828667083,34.43549726195201],[135.4250488083445,34.4353713653093],[135.4250405846029,34.43534878812302],[135.42483260066444,34.43519539556527],[135.42480120377869,34.43509452774518],[135.4247624073591,34.43500644501953],[135.42473122226852,34.43491121280592],[135.42478816749835,34.43491838648073],[135.42484895889206,34.434904157607605],[135.4250109814506,34.434885906042666],[135.42510881459927,34.434868046700835],[135.42517728445196,34.43483047680568],[135.42522983398007,34.43480424555236],[135.42536317608534,34.43480796449596],[135.42539094306028,34.43480654432173],[135.42547780094264,34.434802444718876],[135.42558494538503,34.434772241567764],[135.42583566741854,34.43481624221409],[135.42593996276796,34.43481123245931],[135.42600903751264,34.43481085349998],[135.42607476928987,34.43484426659817],[135.4261670482364,34.434906680593706],[135.4261967420705,34.43492104624509],[135.426401571846,34.43507610758562],[135.42658300947974,34.43493947350717],[135.42672725328464,34.434866899592905],[135.42676568059028,34.43484679505905],[135.42681712801857,34.43483210669504],[135.42689003391192,34.43481723038517],[135.42692822798926,34.43481374912295],[135.42698691279898,34.43480838949121],[135.42716987851725,34.434803188340084],[135.427368100194,34.43443095984923],[135.4277740326316,34.433675989162865],[135.42798130614696,34.433283940982506],[135.42819617029116,34.432901790770494],[135.42831635444855,34.43268344940447],[135.42840695226218,34.432505250496256],[135.42850777451594,34.43232908268632],[135.42863442349702,34.43208625827647],[135.42888003057448,34.431630432163146],[135.42916435060613,34.43110055327645],[135.42924449703995,34.43095795185752],[135.42932096762974,34.43077503431267],[135.42937559298437,34.430628509195365],[135.42943566691883,34.430424680427244],[135.42950125725451,34.43016635210524],[135.42954936445574,34.42985329071674],[135.4295800823206,34.429466897901854],[135.42957327815597,34.429153580332425],[135.42952510981098,34.42873104632482],[135.42950512511985,34.428663472678764],[135.42947807564545,34.4285227690406],[135.42945869028014,34.42837180553772],[135.42942776336636,34.428089226140315],[135.4292438223215,34.42809442620235],[135.42904971218493,34.4280974689049],[135.4290012045515,34.428093302697654],[135.42896806515702,34.428085115228086],[135.42894778402365,34.42806121981842],[135.4289150195957,34.42799950051457],[135.4287232186918,34.427891835095956],[135.42866217101133,34.42785182797058],[135.42862678461418,34.42779812908039],[135.4286017091124,34.4277305405128],[135.42859794827137,34.42754613052479],[135.42859059959216,34.427500451110184],[135.42854734346895,34.42747447390918],[135.42850395547865,34.42747427116747],[135.42841448107225,34.42748188576705],[135.42819270749425,34.4275036671012],[135.42799076063937,34.427526532462736],[135.42790193582863,34.42743878459776],[135.42784852609884,34.427406836521186],[135.4277746089052,34.427382689979936],[135.4276726963256,34.42735234500792],[135.42757085036487,34.427304257913654],[135.4275037711513,34.42728732850546],[135.42740425573058,34.427278829882354],[135.42689084522826,34.42700089575292],[135.4266007943985,34.42683881828379],[135.4262112524114,34.42660765701853],[135.42595578847389,34.42645235760673],[135.42584343297096,34.42638224015038],[135.42572301842358,34.4263149065762],[135.42570555668033,34.42630848673995],[135.42569324564283,34.426306175074345],[135.4256804039725,34.426306682742705],[135.42566829047587,34.42631366690212],[135.42566211762175,34.42632856745239],[135.42566274335536,34.42634843136502],[135.42569331696498,34.426426197718826],[135.42571504439562,34.42647546083988],[135.42572012448926,34.42651535088844],[135.42572142921944,34.426548885367566],[135.42571427855705,34.426587446809705],[135.42569771556538,34.42662300699457],[135.42567723620505,34.42666009943818],[135.42564576877487,34.42669869092813],[135.425615887478,34.426724893654786],[135.4255806791806,34.42674571619406],[135.42554415744863,34.426761321640356],[135.4255082267619,34.426763686198484],[135.42546766516875,34.42675434500578],[135.42540735659577,34.42673546286447],[135.42537671486303,34.42672968426109],[135.42535015403405,34.42673012743464],[135.4253324264611,34.426730747339974],[135.42529870943065,34.4267450947172],[135.4252428346595,34.42679850995911],[135.42522455962558,34.42681870876991],[135.42521050504936,34.42683427545625],[135.42518381404165,34.42685373150401],[135.42515326242867,34.42687133926948],[135.42509535452592,34.42688797098498],[135.42506191255444,34.426892321487536],[135.4250314113481,34.42690415057462],[135.42501294332507,34.42691279969206],[135.4249945328414,34.42693370103367],[135.42494839215638,34.427005048497186],[135.4249045693549,34.4270683741021],[135.42485045483133,34.42713953076811],[135.42479251457723,34.42724026703922],[135.42472545578332,34.42733320712777],[135.42466634642267,34.42738857224361],[135.4246300328039,34.427415023941656],[135.42446022957702,34.42744352507865],[135.42441385587438,34.427450347877645],[135.42430728860333,34.42746591176213],[135.42418510865463,34.427484629566116],[135.424069991827,34.427499873511465],[135.42396628171815,34.42750811200176],[135.42390525493227,34.427514595127256],[135.42387197512502,34.42751429410996],[135.4238008118646,34.42750438447716],[135.42374336816252,34.42750241892472],[135.4236994969026,34.42750446605595],[135.42365292895636,34.427509457520465],[135.4236126859248,34.42752025765976],[135.42355958002437,34.427536208071],[135.42353284680286,34.42754904623662],[135.42350266695144,34.42756946814748],[135.42348340518413,34.42758909406973],[135.42346809747852,34.427601706602296],[135.42344723225048,34.427614004439825],[135.42341984190512,34.42762429713442],[135.4232780147449,34.42764898877714],[135.42326666243218,34.42765597628452],[135.42325559152843,34.42766634589984],[135.42324827127916,34.42789099363227],[135.4232431299133,34.42791562655423],[135.42323622080858,34.42793784402252],[135.4232264360443,34.42795104152581],[135.423203964082,34.42797389781275],[135.42307307551974,34.42807865263504],[135.4229898753666,34.428143621897306],[135.42259036480127,34.428498836996724],[135.4222465132589,34.42880035644334],[135.42216382390706,34.428877858970104],[135.4220289698818,34.42897189260997],[135.42187964541634,34.429080075004514],[135.42183762067165,34.429109311669244],[135.42160242694183,34.42927625590764],[135.42139412659972,34.42944501280768],[135.42128174435666,34.429520832599515],[135.4211342058694,34.42960324744553],[135.42105727241346,34.429636267348506],[135.42100613689524,34.42966757921368],[135.4209601221102,34.429708913396965],[135.42092185042165,34.42975550415158],[135.42086141360275,34.429811843778296],[135.42080412837385,34.4298482021125],[135.42072970354675,34.42987870035587],[135.42070944472462,34.429883391579686],[135.42054593012884,34.42989839390355],[135.42035247424243,34.42991635540009],[135.42032028214433,34.429930149657935],[135.42031801882328,34.429944365252126],[135.42028001443066,34.42994587098642],[135.4202192891443,34.42995093826809],[135.42019588715152,34.42994914143843],[135.41979251182295,34.42980101638626],[135.41960163562814,34.42972911427984],[135.4195505905966,34.42971577262018],[135.41949934915152,34.429715105678035],[135.419415247322,34.429732034065985],[135.41933566866157,34.42979659426873],[135.41926380275314,34.429851896153004],[135.419189474823,34.429887181100234],[135.41913298875676,34.429930583479724],[135.41910447090214,34.42999200526224],[135.41905048599537,34.4300434431998],[135.41897104972955,34.43007476400976],[135.41889475612092,34.430100041343486],[135.4188257225866,34.43010760178436],[135.41877194690952,34.430127207170415],[135.4186719584191,34.43018040066392],[135.4186105731984,34.43019588582441],[135.41852094388585,34.43022532775258],[135.418403057314,34.43028632440698],[135.41829290339732,34.43032735252928],[135.41822755159993,34.43033113465514],[135.41817050527305,34.4303029695802],[135.4181476143164,34.430287083701266],[135.41808661354798,34.430247071552664],[135.4180228938147,34.43017394184286],[135.4180097894863,34.43015260310934],[135.4179988621771,34.430121709382945],[135.41798925001765,34.43008630519304],[135.41798558918353,34.4300619191125],[135.4179827527636,34.429987663696345],[135.41796324210057,34.42994404443177],[135.4179319487543,34.42990347038603],[135.41789104013134,34.42985777488802],[135.41784032161206,34.42980992307225],[135.4177895618471,34.42977587363509],[135.4177616115012,34.429755320660114],[135.41773624140615,34.42974237995619],[135.41769058340887,34.42971947978678],[135.41766614951118,34.42971274612965],[135.41764147375974,34.42971107797763],[135.41760956731122,34.42971501001967],[135.4175916723653,34.42972083891],[135.41757094707486,34.42973158574869],[135.41753148017827,34.429760418393336],[135.41750388593582,34.42978578254933],[135.41746356651825,34.42982771050447],[135.41742793903856,34.429878676208546],[135.41741857800247,34.429898068843215],[135.4173953136164,34.429956422960586],[135.41737824936456,34.4300448008852],[135.41736361328103,34.43018151297928],[135.4173480629789,34.43024299612169],[135.41733212587428,34.430280253008696],[135.41730136611457,34.43032743735924],[135.41727756179193,34.43035225154742],[135.4172480842729,34.43038085221604],[135.41720782301596,34.43041277325162],[135.41716503774583,34.4304352521248],[135.41712839601757,34.43044888008438],[135.41711130365306,34.43045034926907],[135.41707699901266,34.43045018575844],[135.41705950385807,34.430448551714676],[135.41702998179147,34.430439675054885],[135.41700644932416,34.430426887206906],[135.4169794942091,34.43040872788345],[135.41690235526573,34.430347226609136],[135.41687160785696,34.430326795327545],[135.41683818431923,34.4303110032291],[135.4168179857491,34.43030540750966],[135.4167998110149,34.43030293175497],[135.41677013553112,34.43030518833341],[135.4167446382386,34.430310557117586],[135.41672857094392,34.430316394596595],[135.41671316165534,34.43032618396178],[135.41668264615078,34.43035068654606],[135.4166580990089,34.43037903111042],[135.41664338569933,34.430410794342045],[135.41663523973799,34.43044005556896],[135.41663119418533,34.430477360070384],[135.41663282234225,34.4305061089656],[135.41663792087996,34.43054275388369],[135.4166589051885,34.43060596185305],[135.4167261713927,34.430711934287224],[135.41681819942391,34.43082604848295],[135.4170406470329,34.431053612230706],[135.41716137685847,34.43123379267317],[135.4172689421649,34.43137629797643],[135.4172569093246,34.431468648585685],[135.41723278698487,34.431650527703034],[135.41724938830504,34.43172611086438],[135.41732335695684,34.43176646469033],[135.41744873918302,34.43181579932832],[135.4174941161943,34.43186053356822],[135.4175903708992,34.43198523336586],[135.4176640296114,34.43205150481042],[135.41779485331355,34.43213213945912],[135.4179309393263,34.432279287654154],[135.41812223618274,34.4324151406569],[135.41794594211564,34.43255573542239],[135.41783951544326,34.43263622325424],[135.41772727973407,34.432708659619344],[135.41763058579218,34.43275693647742],[135.4174635595992,34.432842779019786],[135.41741066236307,34.43287661428472],[135.4173653382647,34.4329166882081],[135.41733230230867,34.43296090464286],[135.41725144345182,34.43311673832694],[135.41723906620462,34.43314893647095],[135.41724340887689,34.433178536715594],[135.4171878651048,34.43323306765833],[135.41713184120357,34.43330816042908],[135.41703530642496,34.43340701399509],[135.41683189286078,34.433604103591605],[135.41676739509074,34.433686620533564],[135.41674567051797,34.43374864208193],[135.41673067274448,34.43384632459319],[135.4167279633277,34.433857301449706],[135.41673290366603,34.43421117967307],[135.41673527896887,34.434229501290034],[135.41678592773158,34.43459936543638],[135.41678787654507,34.43466811718999],[135.41678473982273,34.434679515732306],[135.41687486733753,34.43471854048436],[135.4170313501006,34.43473985070912],[135.4171480773291,34.434798304045145],[135.4172751192741,34.43491483858072],[135.4173651568507,34.43498570495206],[135.4174623240191,34.4350044781529],[135.41755068701406,34.43495446688409],[135.41771826844857,34.43487074553833],[135.41859260250024,34.43435905315609],[135.4192909029367,34.4339486451519],[135.41950222030096,34.43402402555734],[135.4196271959062,34.43417534733665],[135.419832206564,34.43417152393896],[135.4199655370374,34.43423343414387],[135.4202478312558,34.43435140511313],[135.4205197422843,34.43447778268225],[135.4205213018868,34.43451666450711],[135.4205258093664,34.43464079195578],[135.42057815050575,34.4347048510182],[135.42067365424498,34.434755023464994],[135.42090223343655,34.43482231527588],[135.42113750635937,34.434887799203665],[135.42113035205267,34.43495172063196],[135.4211220632483,34.435031837374005],[135.42111381385806,34.43506363172295],[135.42108424880547,34.43512222713503],[135.42094974088485,34.43536162547317],[135.42089842043387,34.43543815764475],[135.42087503612012,34.435463542470174],[135.42085459269362,34.43548217966482],[135.42079867939364,34.435509952758146],[135.42073511779688,34.43554387416417],[135.42067143693893,34.43558245593626],[135.42055770392872,34.435661928794666],[135.42054625789157,34.43568230346593],[135.4205609412507,34.435709978213126],[135.4205873140779,34.435751375700185],[135.4206342753218,34.43579414189943],[135.4206811220541,34.43582985749139],[135.4207391155245,34.43586492266605],[135.4207621356779,34.43588602858778],[135.4207774175826,34.435913706143815],[135.42081265510038,34.435944579515954],[135.42085203731688,34.43600872132065],[135.42090841100378,34.43611773210904],[135.42093575543788,34.43615871039693],[135.42096135737356,34.43618729326158],[135.4210549342075,34.436269433924735],[135.42113798056363,34.436351245190586],[135.42107404694306,34.4365305474145],[135.42107348663757,34.43661336927981],[135.42108863681634,34.436732759876186],[135.42110905653806,34.43686118180308],[135.42112995109656,34.436919177638906],[135.42121675898417,34.43704734582729],[135.4212750777828,34.437089038607965],[135.42142329386806,34.4372180652279],[135.42150782862169,34.43731776983944],[135.4217034142707,34.437538021684524],[135.42187199473537,34.437753358362784],[135.42197217326049,34.43790272132562],[135.42228888106752,34.43832229827675],[135.42242830242418,34.43853763164364]]]}}]}
