{"type":"FeatureCollection","features":[{"type":"Feature","properties":{"potaRef":"JP-1566","nameEn":"Nara Palace Site Historical Prefectural Park","nameJa":"","boundaryStatus":"全国都市公園GIS候補・公開前検証待ち","boundarySource":"国土交通省「都市計画決定GISデータ」都市公園・緑地を、POTA代表地点で空間照合して加工","boundaryScaleNote":"都市計画データは近似・未収録の可能性がある。POTA運用可否は公式情報で最終確認すること。","candidateMethod":"POTA representative point inside one MLIT urban-park polygon","sourceParkName":"","sourceParkType":"公園","sourcePrefecture":"奈良県","sourceCity":"奈良市"},"geometry":{"type":"Polygon","coordinates":[[[135.79056250567695,34.694698866293685],[135.79056219416256,34.69482252518466],[135.79078797395536,34.69483304899924],[135.7909177703204,34.69464246119478],[135.79107461849054,34.694491450097544],[135.79112801305652,34.694486980411526],[135.7911802752774,34.694566891120786],[135.79121975890234,34.69460420863681],[135.79127038279168,34.6946035351492],[135.7913651076475,34.69463410540418],[135.79143955516074,34.69467604390767],[135.79147996091532,34.69473312815374],[135.7914760985735,34.69496827717708],[135.79146289991024,34.695011501605],[135.79143338933997,34.69503442607998],[135.79121026018382,34.69503078148875],[135.79120175423944,34.69511928286232],[135.79121987364593,34.69511974151766],[135.791221319446,34.695162505320745],[135.79145888593553,34.69519113454224],[135.79147025558308,34.69519927864897],[135.79149216507287,34.69534000089685],[135.79150090105549,34.695366100251086],[135.79151381855814,34.69537638506793],[135.7918140546266,34.695395713299646],[135.79193004321456,34.695389069570204],[135.7920139315141,34.69517583374713],[135.792010747419,34.69514941131558],[135.7921801457811,34.695132215667144],[135.79223545560407,34.695098100909355],[135.79226865097345,34.69507383105172],[135.79237820004124,34.69506565551532],[135.79241230437177,34.69504594837519],[135.79251999740296,34.695043851160854],[135.79256039657153,34.695083450403914],[135.7926699342499,34.69507983579421],[135.7927223423706,34.695101970781025],[135.79275354329224,34.69513927371116],[135.7927396112674,34.695408978965084],[135.792767548428,34.69541715112535],[135.79278617604695,34.695421458931456],[135.79293362209629,34.69543001935537],[135.79301829971453,34.695430163198864],[135.7935412109146,34.69538315748884],[135.79394262580627,34.69533670437148],[135.79396565107595,34.69533066168907],[135.79404313482894,34.6952623745336],[135.79407451528687,34.695227458297296],[135.79409021680286,34.69520543898667],[135.7941189113034,34.69514011014423],[135.7941299620692,34.69509128587172],[135.7941954254195,34.69509158648796],[135.7942507596096,34.69509377047243],[135.7944489205393,34.69507643017384],[135.79543323627695,34.69510146256442],[135.79563824957367,34.69510465727221],[135.7957274164749,34.695056914069916],[135.79606012887274,34.695063172797134],[135.79611327387283,34.695066682625125],[135.79618572502065,34.695079347135945],[135.7962754323938,34.69509261060214],[135.79659569858617,34.69510739932769],[135.7968725189108,34.69510444012275],[135.7969788243558,34.69510518741089],[135.7970740974615,34.695100784877184],[135.79734607056656,34.695095143942126],[135.7973465073311,34.69507526064883],[135.7977146064361,34.69507811715612],[135.79792425975978,34.695089369104274],[135.7979483185252,34.69509582319391],[135.7980236565319,34.69509242026435],[135.7981273206747,34.695097081962125],[135.798154488163,34.69510257903044],[135.79817700544396,34.69510421987192],[135.79819683423494,34.695093669277554],[135.79822444528668,34.695076396654784],[135.79824463200782,34.69507835433518],[135.79828399541344,34.69501844672378],[135.79829105320937,34.694990235924934],[135.7985855888753,34.6949851640806],[135.79858632908318,34.69510703510548],[135.79859353480487,34.695124579160655],[135.79860608127805,34.6952883757991],[135.79861158052745,34.69536920380389],[135.79860835502527,34.695418374004994],[135.79860110058837,34.69542092769667],[135.79844628062074,34.69542836878834],[135.79845573808242,34.69558489089876],[135.79852097220675,34.695584998762776],[135.79850944739314,34.69564056943795],[135.79849733490187,34.695938595871745],[135.79852152328394,34.69599850172128],[135.79858095180796,34.6960443545756],[135.79868693402977,34.696107816454216],[135.79876345521384,34.696150704159834],[135.79883543999384,34.69614269835114],[135.79888167561657,34.69607777744481],[135.7989117497119,34.69605901208771],[135.7990986155599,34.6960742867426],[135.79912661040316,34.69605893881089],[135.79912671165812,34.69601703287694],[135.799575104237,34.69600323226888],[135.79969672865985,34.69598547247169],[135.8002150978544,34.696009129394426],[135.80039593079732,34.69602139887734],[135.8005574514724,34.69602679467598],[135.8006989640562,34.69602759633333],[135.8007666679172,34.69600547114363],[135.80099306834668,34.69601496347079],[135.8010104284958,34.69597223048829],[135.8011450201494,34.695980432290625],[135.8011539451064,34.69600097229138],[135.80179515639324,34.69603907664142],[135.80247905868586,34.69604240425223],[135.80248000067093,34.69623959172745],[135.8028950071896,34.696239891461104],[135.8029185308525,34.69490718541879],[135.80275581657213,34.69490045727802],[135.8027164816998,34.69490881224833],[135.80270413917455,34.694907937041066],[135.80270429470005,34.69485603571786],[135.80270904861177,34.694816275368346],[135.80271944372913,34.69479918766021],[135.80273915081312,34.694785108317525],[135.80274902515058,34.69476930260404],[135.80274888888871,34.69460851974422],[135.80274643519667,34.69455164318932],[135.8027303793697,34.694336100038136],[135.80272060451762,34.6943099997965],[135.8027071853148,34.694292445923026],[135.8027149613102,34.694288182376646],[135.8026803733127,34.694246220265015],[135.8026595519544,34.6942117636707],[135.80265222540984,34.69419026423192],[135.80264350633388,34.69410109271073],[135.80264326801634,34.69403791243835],[135.8026409633917,34.694027325273495],[135.8026289176054,34.69392876759148],[135.8026405704976,34.693838426393754],[135.80264669376172,34.69365798342624],[135.80265720445166,34.693592147970726],[135.80265442496028,34.69345445192843],[135.80265245874187,34.69323484248863],[135.80265857341334,34.693235213188714],[135.80265700890965,34.69294859601645],[135.80265784933408,34.692912606572314],[135.80266021389554,34.69289792900329],[135.8026664893931,34.69287142712567],[135.80267325114048,34.69285818205431],[135.80249309164506,34.692855752158344],[135.80236575832797,34.692845283014364],[135.80238615317865,34.69258930920559],[135.80234415025245,34.692570292467714],[135.80232035276086,34.692562984440556],[135.80233581998408,34.69171890032534],[135.80233794355,34.69156363251545],[135.8023511400911,34.69152944482756],[135.80235121734185,34.69149694631757],[135.8023707347451,34.69141715675739],[135.80237781364403,34.69134304853986],[135.8023782120374,34.69117542463909],[135.80239140384637,34.690852740255416],[135.8023706957743,34.690852706678335],[135.80237763369658,34.6908378939877],[135.80238114737298,34.69081167271324],[135.80239015203085,34.69079857382753],[135.8024032847481,34.690791183149535],[135.80238341601185,34.69072843426313],[135.80232806678825,34.69049173160022],[135.8022863916354,34.69049180653907],[135.8022051529776,34.69051105987917],[135.8017067427026,34.69052621424164],[135.80135070012759,34.69046918944301],[135.8013107873209,34.6904178107403],[135.80129990656562,34.690349374811184],[135.80130288424718,34.69025872556195],[135.80127063941484,34.69017600100696],[135.80124026918787,34.69017538133152],[135.80123720152477,34.68972609684575],[135.80125383044145,34.689699896987285],[135.80125392446826,34.689660556676515],[135.80134991407266,34.68964246831322],[135.8014437892942,34.68964262128277],[135.80152108877462,34.68964673824957],[135.8016239278482,34.68965089673914],[135.80167981163657,34.68966239071797],[135.80183432506706,34.6897065437187],[135.80186500840804,34.689720530643726],[135.8019153768731,34.689761410033775],[135.80203898630432,34.68990047446858],[135.80212541454856,34.68997526768955],[135.80227277540598,34.69015020028751],[135.80239371976765,34.69037845708347],[135.80242806277369,34.690385607980105],[135.8027482002497,34.69038283231036],[135.80273915231658,34.69064052618709],[135.80290235978865,34.69064180383297],[135.80289197363018,34.69029944267582],[135.8029021317459,34.69028501526264],[135.80289840752872,34.68991479077858],[135.80286991096966,34.68990030084918],[135.80285339516664,34.6898789884734],[135.80288945272122,34.689809868391826],[135.80289883278104,34.68973538374385],[135.80289969048198,34.689373528861154],[135.80288680388614,34.68937426822301],[135.80289335980495,34.6893263860823],[135.8029845510999,34.689293844825976],[135.80303984181532,34.689264286299874],[135.80307852855063,34.689250665170704],[135.80311351411055,34.68924540027559],[135.80314019860086,34.689247723985815],[135.80315919038824,34.6892557842963],[135.8031773764043,34.68922759115584],[135.80317780149213,34.68817309614572],[135.80308984969466,34.688149862935916],[135.80305676545186,34.68812971162964],[135.8030469790641,34.68810874273648],[135.80300548926442,34.687921808422345],[135.80295786845485,34.68791916576196],[135.80295747450083,34.68789425661652],[135.8027378959138,34.687818855199126],[135.80245032463299,34.687736002496244],[135.80230315949746,34.68769927416154],[135.80212291530606,34.68764044607809],[135.80195831142268,34.68758392374956],[135.80184337797684,34.687538884999626],[135.80170271734445,34.687476319630086],[135.80157769874774,34.687415299968684],[135.80147291648595,34.68735887435692],[135.8014067387665,34.6873230370294],[135.80133414611024,34.68727578617245],[135.8012992302913,34.68725216297822],[135.8011430414852,34.6871409186846],[135.80095747939126,34.686997697718645],[135.80090334454334,34.6869291910734],[135.80069772043893,34.686709156477185],[135.8005958701178,34.686582036062106],[135.80056467615117,34.68654169428772],[135.80046929211508,34.68640470171063],[135.80039138694426,34.68627077849281],[135.800280946341,34.68627211798205],[135.80028395554316,34.68616873535636],[135.80018011365047,34.68616881856227],[135.79998375715758,34.686178632530705],[135.79983895000927,34.68618346283085],[135.79934318200034,34.68619481091055],[135.79933892360518,34.68643401431611],[135.79899659149484,34.686441459917816],[135.7987634134848,34.68643711990013],[135.79712156874953,34.68643946611269],[135.79690563741477,34.68642491605468],[135.79675227727958,34.68641452438361],[135.79657558780818,34.68641017520583],[135.79645237643663,34.68639285087059],[135.79654911514342,34.68597338057047],[135.79655424659148,34.68588216482429],[135.7965541824112,34.68540678467198],[135.79660131654728,34.68520008820897],[135.79660875823578,34.685167665312285],[135.79666555739573,34.68502281476406],[135.79670499670206,34.684951928297586],[135.79680597449186,34.68480512414802],[135.79686510585873,34.684709943965],[135.79690701627723,34.684631966321405],[135.79693172314552,34.68456409603895],[135.79694168804082,34.684503296418235],[135.79694681648485,34.684413094231274],[135.7962950181793,34.68441981516212],[135.79591338833933,34.68442627199361],[135.79559065185282,34.684434853617276],[135.79520286418847,34.68445042033001],[135.794822441187,34.68446498460227],[135.79389591786082,34.684503965584376],[135.79300377888558,34.68453184827991],[135.79242090942165,34.6845389658571],[135.79215030805523,34.68453780786148],[135.79212320583432,34.685439742071985],[135.79210717819302,34.68550072099269],[135.79208380066174,34.68633893109676],[135.7915757858492,34.686324633203746],[135.7915728108157,34.686364158644224],[135.79154659607403,34.68640440454345],[135.7910734609619,34.686258775880205],[135.79104520019143,34.68624333333459],[135.79102327296206,34.686454251921134],[135.79087964017683,34.686479662404224],[135.79047930977202,34.68647726443628],[135.79045167606023,34.68648690951151],[135.7903936275696,34.68651417698598],[135.79018034571595,34.686513810016706],[135.79008516126567,34.686486848988345],[135.78978479348305,34.686532513609414],[135.78925679584495,34.6865196286382],[135.78919778645692,34.68665351226544],[135.78905990784588,34.68663454559511],[135.78875641854026,34.68661541614084],[135.7887448174319,34.68876532540313],[135.78876777984743,34.688904228785],[135.78874364752232,34.692606876817045],[135.78872321235391,34.692735560689485],[135.78871717860667,34.69384747986436],[135.7887526186577,34.693879117294394],[135.78904861902092,34.6939431490601],[135.78974059675912,34.69400651243507],[135.7899467169783,34.69402578843656],[135.7899344163617,34.69436093160851],[135.78973480617856,34.69435518150965],[135.78974569949256,34.69457684124892],[135.79011552617305,34.69456531549239],[135.79038719048836,34.6945482139427],[135.79036374258538,34.694681293324315],[135.79056250567695,34.694698866293685]]]}}]}
