{"type":"FeatureCollection","features":[{"type":"Feature","properties":{"potaRef":"JP-1375","nameEn":"Toyama Athletic Recreation Prefectural Park","nameJa":"","boundaryStatus":"全国都市公園GIS候補・公開前検証待ち","boundarySource":"国土交通省「都市計画決定GISデータ」都市公園・緑地を、POTA代表地点で空間照合して加工","boundaryScaleNote":"都市計画データは近似・未収録の可能性がある。POTA運用可否は公式情報で最終確認すること。","candidateMethod":"POTA representative point inside one MLIT urban-park polygon","sourceParkName":"富山県総合運動公園","sourceParkType":"公園","sourcePrefecture":"富山県","sourceCity":"富山市"},"geometry":{"type":"Polygon","coordinates":[[[137.1902066174885,36.626149961562284],[137.19018673429736,36.6261627940122],[137.19017405473733,36.62618085733109],[137.19017415340284,36.62620085854652],[137.19025939790842,36.62670223457245],[137.1902861058993,36.626989747000806],[137.19030751227788,36.6273502127128],[137.19031118946438,36.627642243864855],[137.1903023480423,36.62787375339843],[137.1902696838761,36.62823039071214],[137.19024396165835,36.62846167420302],[137.19028656551998,36.62849599622938],[137.1910920953684,36.628487981967446],[137.1910962246635,36.62856490748176],[137.19385910459016,36.62854458448786],[137.19384794890976,36.62848877981921],[137.19404876255484,36.6284682684641],[137.19411409462253,36.628785159555484],[137.1942267280944,36.62926114841019],[137.19429070919213,36.629514320728596],[137.19603163079339,36.62923282374426],[137.19633510591729,36.62921772898681],[137.19674508124234,36.62924337403907],[137.19770347129256,36.62931608046591],[137.19948714618948,36.62945077866033],[137.1999557006042,36.62949999870253],[137.20018915051702,36.627613903423196],[137.20019974762218,36.62749588945386],[137.20018902878888,36.62733282273824],[137.20011415212724,36.62654753422027],[137.19984656138305,36.623307669585564],[137.19482097897986,36.62359004395387],[137.1947303679542,36.62329825613651],[137.19440031276648,36.623358411780096],[137.19432567577024,36.62306876558012],[137.19326631728504,36.62329644630667],[137.19339971354418,36.62416755268104],[137.19368786500314,36.62606424690941],[137.1934482905743,36.6260814662389],[137.19344827572763,36.62603855314436],[137.19022765436353,36.62614502363682],[137.1902066174885,36.626149961562284]],[[137.19366898728396,36.62755549980922],[137.1939013416836,36.627531826069024],[137.19403638912735,36.6283917408653],[137.1938067819384,36.628416803075766],[137.19366898728396,36.62755549980922]]]}}]}
