{"type":"FeatureCollection","features":[{"type":"Feature","properties":{"potaRef":"JP-1303","nameEn":"Tsukayama Prefectural Park","nameJa":"","boundaryStatus":"全国都市公園GIS候補・公開前検証待ち","boundarySource":"国土交通省「都市計画決定GISデータ」都市公園・緑地を、POTA代表地点で空間照合して加工","boundaryScaleNote":"都市計画データは近似・未収録の可能性がある。POTA運用可否は公式情報で最終確認すること。","candidateMethod":"POTA representative point inside one MLIT urban-park polygon","sourceParkName":"特殊公園","sourceParkType":"公園","sourcePrefecture":"神奈川県","sourceCity":"横須賀市"},"geometry":{"type":"Polygon","coordinates":[[[139.6396475080095,35.2801855934085],[139.63993112276714,35.28037519791348],[139.6399396562914,35.280341282068214],[139.63994936129453,35.28031621506287],[139.64006583819204,35.28015470653952],[139.6402138699883,35.2802016136651],[139.64049385499973,35.28026321518198],[139.6405253897411,35.28030750579786],[139.64052771380585,35.28031407949659],[139.6405475105021,35.28034958600033],[139.64056285665416,35.280362920162894],[139.64060707748715,35.28045412195124],[139.64063022970328,35.28044481488269],[139.64072615104118,35.280505472310985],[139.6406686997016,35.28063382761328],[139.64072864357433,35.28083891857828],[139.64084020105457,35.28081091396156],[139.64086247895125,35.280804773897074],[139.6410328451883,35.28075932712274],[139.6412009055611,35.28070786402455],[139.64133225142015,35.280650484545625],[139.6414997829402,35.280580252532076],[139.6417073544133,35.28049423471781],[139.6417495052737,35.28047676729551],[139.6417598852383,35.28047246580873],[139.6418547766395,35.28064028662408],[139.64190896537608,35.2807200112825],[139.64198469369842,35.28083152639538],[139.64201782713974,35.28086976193337],[139.64206852973123,35.28091187366534],[139.64213289376767,35.280960118118315],[139.64216398176313,35.2809843423082],[139.6421998177026,35.281009051568184],[139.64224933690517,35.28101119219376],[139.64231804241598,35.280997515312414],[139.64236429162793,35.28095386745133],[139.64234286051715,35.28071587081508],[139.64234240069032,35.28071076433423],[139.6424878563175,35.280789818065024],[139.64254018135574,35.280809982387744],[139.64261159835843,35.280829977357925],[139.64262001719166,35.28083233441669],[139.64261448626968,35.28082332967924],[139.64254548483476,35.280750253084],[139.64249836291117,35.28071902727],[139.64241318358918,35.28066830808246],[139.64226441295867,35.28059203455488],[139.64215700337468,35.28054721229155],[139.6420716429266,35.28051810876763],[139.64199573011956,35.28050584901033],[139.64198945377268,35.28050483539137],[139.64198908254883,35.280504775439326],[139.64198658823935,35.28050709851806],[139.6419712356049,35.280521397212055],[139.64196922817558,35.280520809059084],[139.64187069947172,35.28049194126763],[139.64186632232847,35.28049065881199],[139.64189458254742,35.28046323603482],[139.6420292464202,35.28047335065131],[139.64204556469008,35.280456996937986],[139.64224502608707,35.28055152164384],[139.64231219454516,35.28057998403775],[139.64235473402158,35.28060081844137],[139.6423947135481,35.280611435734905],[139.64243863770406,35.280625712167875],[139.6424515604747,35.28062991238284],[139.64244872019694,35.28060288327108],[139.64244676637537,35.280596795639504],[139.64242925875953,35.28054208820013],[139.64240991198727,35.28051283418184],[139.6423408048199,35.28040933419161],[139.6422661501387,35.28029458483116],[139.64225948825222,35.28028503747784],[139.64220811705277,35.2802086345619],[139.64223532011923,35.280119579605596],[139.64224890251643,35.280073799113524],[139.6423061085423,35.27991142336365],[139.642257469038,35.2799023997943],[139.6422404533202,35.27989924304423],[139.64223956019265,35.279897194490204],[139.64222679305095,35.2798679106674],[139.64222619344673,35.27986653536276],[139.64222587557637,35.27986525190792],[139.64221506430124,35.27982159955574],[139.64221503988395,35.27982150096703],[139.64221554521754,35.27982112078993],[139.64227813848464,35.279774030024285],[139.64231429850147,35.2797421085002],[139.64231652666783,35.2797401415069],[139.6423202546218,35.27974089810514],[139.64232753650563,35.27974237598263],[139.64235916158248,35.27973674616877],[139.6424044967075,35.27972867571218],[139.6424500798284,35.27972235004981],[139.6424704754958,35.2797195196957],[139.6425089095909,35.27969914355822],[139.64252830525552,35.27968026044164],[139.64253906453774,35.27966978547815],[139.64254306756197,35.27966950292426],[139.64257205974846,35.27966745650362],[139.64262704030813,35.27966057309429],[139.6426661895598,35.279651918330444],[139.6426682627719,35.27965146000294],[139.64272871645423,35.279635552681576],[139.64272343205542,35.27963167751167],[139.64270114837598,35.279615336375954],[139.64268458500607,35.27959959904935],[139.64266646075313,35.27956799862013],[139.6426652266668,35.27956584693559],[139.64266379619752,35.2795600705085],[139.64265686135212,35.279532066659996],[139.64266486603017,35.27949709087184],[139.64266769877614,35.27948471341216],[139.64267333748063,35.27945811105451],[139.6426758222703,35.279446388273726],[139.6426887649601,35.279415795765715],[139.64269020906934,35.27941403119263],[139.64269250981982,35.27941261949319],[139.64271152357773,35.27939514305051],[139.64272022580863,35.27938735008752],[139.6427386030598,35.27936939490594],[139.64274340215258,35.27936188439529],[139.64274702714135,35.279348629997195],[139.64274692899716,35.27932905087963],[139.64278649732563,35.27933263936511],[139.64279910155827,35.27933378245099],[139.64283092941363,35.27931447458045],[139.64286539250386,35.27929356806602],[139.64292270130002,35.27925880250258],[139.64299259581279,35.279211682095315],[139.64300567481433,35.27920286468475],[139.64301325734093,35.27919775280591],[139.6430325806264,35.279217992440444],[139.64306129515413,35.27919825924272],[139.6430696548872,35.27919166564948],[139.64310927475822,35.2791604161469],[139.64314230469296,35.27913436431646],[139.64323006092403,35.27906206036601],[139.6433436348309,35.278970154533965],[139.643382757427,35.27893849582674],[139.64338365082537,35.27893777287235],[139.64342346424004,35.27890814105965],[139.6434356571874,35.27889906624369],[139.643442421325,35.27889403191362],[139.64346869286175,35.27887447884443],[139.64349910506206,35.278846918899575],[139.64351609901968,35.278831518735025],[139.64352352843426,35.27882478609209],[139.64355914397848,35.27878188768389],[139.64356172510332,35.27873455776563],[139.64354561053105,35.27868452531163],[139.64354504593604,35.27868277235834],[139.64357980625383,35.278680909879206],[139.64358904460627,35.27868041488087],[139.64359436730712,35.27862632846385],[139.6435818211424,35.27859399314248],[139.64357764198718,35.278561012587474],[139.64355032360132,35.27853258486471],[139.64344044187288,35.278507402013375],[139.64338214489052,35.27849386341726],[139.64335184053758,35.278478159206855],[139.64335096171493,35.27847685887339],[139.64332142708355,35.27843315848099],[139.6432743859992,35.27834764020256],[139.6433408194246,35.278278341269434],[139.64339237976634,35.27825656596157],[139.64345661877283,35.2782294360681],[139.64335344695152,35.278144661134505],[139.6432575108982,35.278237261769476],[139.64315884980795,35.278338890432984],[139.64316276236283,35.27834367235232],[139.64317541372685,35.2783591348279],[139.6431753669247,35.2783592901192],[139.6431618227097,35.2784042303414],[139.64310379554394,35.27832549189172],[139.6430599872756,35.27838417958818],[139.6430318423115,35.27842215345213],[139.6429997591307,35.278465440801156],[139.64299634549386,35.27846513525894],[139.64270885024087,35.27843940225306],[139.6423564231714,35.27771879168291],[139.6423560747335,35.27772238803928],[139.64233041600625,35.27798722037194],[139.64228541158545,35.27845172179878],[139.6422850972191,35.27845496642984],[139.64216823359243,35.27848337044118],[139.64224135151932,35.278658702353226],[139.6422262760006,35.27867319509586],[139.6422084544279,35.27869032772871],[139.64222460607857,35.27868881727919],[139.6422332045957,35.27868801317307],[139.64226587860145,35.27868656718305],[139.64227145093417,35.27868701747224],[139.64227522009799,35.27868761822383],[139.64227862550794,35.27868865109896],[139.64230987735954,35.278698578898414],[139.64232334305973,35.278703602565606],[139.64233052491096,35.27870685876692],[139.64233644294254,35.27870995977775],[139.64234093122965,35.27871335605552],[139.6423489967454,35.27871956127989],[139.64235384511107,35.278724129965575],[139.64235800119957,35.27872858039902],[139.6423687258667,35.27874007207472],[139.64237409883287,35.2787459756781],[139.64237929287953,35.27875320410151],[139.64240129475664,35.278784526487954],[139.64242896027937,35.27883403935242],[139.6424615954506,35.27893319065968],[139.64246231142332,35.278935365905994],[139.64254936017616,35.27903507159971],[139.6425506603159,35.27903656077821],[139.64228328296142,35.27911187186523],[139.64205058989398,35.2791774129751],[139.6419238248102,35.27921296460589],[139.64178471593434,35.279251977899435],[139.64177245524453,35.27925541641891],[139.64171979825718,35.279270181494084],[139.64160448523427,35.2793025085541],[139.64158264501611,35.27930863689492],[139.6415807472042,35.279309169418575],[139.64155710121884,35.279294935373],[139.64155616260027,35.279294370265],[139.64145397673988,35.27923284779396],[139.64117293801894,35.27908250521345],[139.64105996620594,35.2790196718717],[139.6409718253625,35.27898155801031],[139.64090295575593,35.27894791804206],[139.64081567534515,35.278925790391334],[139.640814877539,35.278925588128196],[139.64076600445202,35.278920893855144],[139.64074609947465,35.27891898197095],[139.6407303617011,35.27893076830871],[139.64071592680992,35.27894157888653],[139.64065802230022,35.278917447504526],[139.6406030070081,35.27889452014896],[139.64046810788673,35.27885425990356],[139.64039082287547,35.278771064184774],[139.64033289517891,35.27872162090719],[139.6402887023376,35.278665384222506],[139.6402811222763,35.2786760699087],[139.6402183111452,35.27876461524393],[139.64020384631152,35.27878500639926],[139.64020796170314,35.27879273803264],[139.640214371986,35.27880634152441],[139.64022078626627,35.27882296479832],[139.64022229231065,35.27882679515679],[139.64022628327314,35.27883694546484],[139.64023360471907,35.278855832730464],[139.64023714904695,35.278872812100914],[139.64024265522127,35.27892079455976],[139.6402421852797,35.27892909595842],[139.640240298238,35.27894646349154],[139.64023287880198,35.278969861955005],[139.64022824394056,35.27898231243517],[139.64022177413133,35.27899439047068],[139.64020737005285,35.27901483939827],[139.64017189204398,35.27905925142462],[139.64014327010202,35.27909092797095],[139.6401358882617,35.27909809180946],[139.6401266604997,35.27910487417026],[139.64005931726118,35.27915262582992],[139.64000651254003,35.27918832103338],[139.64000075583067,35.279191521126215],[139.63999429557794,35.27919472012094],[139.63998761766354,35.279196972278655],[139.63995674230213,35.27920485663953],[139.63992778416855,35.279211335756834],[139.63988628519417,35.279220620758466],[139.6396240461533,35.279553612952725],[139.63961677915296,35.279562840571856],[139.6394172652415,35.2796824739855],[139.63919836288485,35.27981373239749],[139.63915130291167,35.27984195042996],[139.63932770453297,35.27995647347663],[139.6396475080095,35.2801855934085]]]}}]}
