{"type":"FeatureCollection","features":[{"type":"Feature","properties":{"potaRef":"JP-1285","nameEn":"Musashinonomori Prefectural Park","nameJa":"","boundaryStatus":"全国都市公園GIS候補・公開前検証待ち","boundarySource":"国土交通省「都市計画決定GISデータ」都市公園・緑地を、POTA代表地点で空間照合して加工","boundaryScaleNote":"都市計画データは近似・未収録の可能性がある。POTA運用可否は公式情報で最終確認すること。","candidateMethod":"POTA representative point inside one MLIT urban-park polygon","sourceParkName":"武蔵野の森公園","sourceParkType":"公園","sourcePrefecture":"東京都","sourceCity":"府中市"},"geometry":{"type":"MultiPolygon","coordinates":[[[[139.52194909241865,35.67741766693953],[139.52193736889487,35.67730739929917],[139.52190321749669,35.67714082827428],[139.52189176960297,35.677073376325176],[139.52194693101256,35.67706405463104],[139.52195799554102,35.67705957640491],[139.52196069094316,35.67704822613666],[139.5219521702079,35.67702350661328],[139.52215347609206,35.67695957923031],[139.52241817885368,35.67687057692543],[139.522757223626,35.676754183954024],[139.52282613534155,35.676731377701394],[139.52284251440577,35.676695274172516],[139.52285066632334,35.67667267175257],[139.52285052359267,35.67665247983446],[139.52287247583175,35.67663207538128],[139.52293579708945,35.676597987546685],[139.52315671019875,35.676576742840446],[139.5234052412699,35.67655538945024],[139.52365090000535,35.67653402815887],[139.52397402589347,35.67650556434823],[139.5240148044308,35.67650170309534],[139.524017898967,35.67650135049794],[139.52438811375728,35.67646543504301],[139.52436196594616,35.676256070220624],[139.52472392227148,35.67627024861675],[139.52503598936738,35.676295599549086],[139.5251744873259,35.67590788075259],[139.52524160673684,35.675711228803664],[139.5253100117736,35.67551081418147],[139.52544926527656,35.67512096791228],[139.52547841531424,35.67503938746992],[139.52551036216454,35.67494634876124],[139.5255700551523,35.67477305910926],[139.5256709880145,35.67447996663667],[139.52567099916845,35.67447993872276],[139.52573698278144,35.67430717251709],[139.52586137584723,35.67398142911835],[139.52596948173942,35.67367990253385],[139.52608134751304,35.673367887186906],[139.5261627762856,35.673133289263085],[139.52618620154672,35.67299579382069],[139.5262080909347,35.672867320761036],[139.52624275208026,35.67267343096898],[139.5263163394447,35.67258059915137],[139.52631636719534,35.67258056406875],[139.5263570702743,35.672530948334355],[139.5263570902993,35.67253091142928],[139.5263611794611,35.67251943841376],[139.52637303925601,35.672486191007934],[139.5263730316616,35.67248615493379],[139.52636706675898,35.672428399833784],[139.52636705917146,35.672428361956946],[139.52634826784126,35.67236262317985],[139.52634657933316,35.67235672302046],[139.52634656816252,35.67235675544127],[139.52631689635137,35.67243575238209],[139.52617237031944,35.67282044859722],[139.526039337556,35.67317470767633],[139.52582769287966,35.67377736335427],[139.52578580936444,35.67389686801438],[139.52548679917172,35.67474845884532],[139.52548545218983,35.6747522961331],[139.52547827837614,35.67477272263381],[139.5244615894044,35.6745122679538],[139.52420213697852,35.6744458022066],[139.52402290472088,35.674402435865254],[139.52373065903456,35.67433182959864],[139.52343830230035,35.67426122143594],[139.52339702516662,35.67425147054814],[139.5233802492664,35.67424755147941],[139.5224266664017,35.67402316610521],[139.52242360152525,35.67402244520869],[139.52200378902376,35.67511210832148],[139.5219214863293,35.67532572982307],[139.5215540057625,35.676279526193184],[139.52144140526525,35.67655502710992],[139.52122201620426,35.677091800230684],[139.52115396810453,35.67725829128757],[139.5211122731669,35.67736030096852],[139.52093909683902,35.67778399772148],[139.52101838319274,35.67778787107831],[139.52126632430455,35.67779998207338],[139.52136550960972,35.67780482617118],[139.52137823335653,35.677804659936136],[139.52142960884416,35.677804008846515],[139.52143013913764,35.67780400210795],[139.52144794653822,35.677806463903394],[139.5215783133506,35.677824486372636],[139.52170013023965,35.67784008622844],[139.52172746828845,35.67776321891182],[139.5217490786416,35.677688821837236],[139.52178136261006,35.67753999937401],[139.52191961435855,35.677555229607975],[139.52195545174652,35.67754378478271],[139.5219607401668,35.67751901083676],[139.52194909241865,35.67741766693953]]],[[[139.52454464883775,35.677266516614566],[139.52448099401215,35.677256762788474],[139.52429997728825,35.677229012997586],[139.5242905552259,35.67722756555353],[139.52423518966373,35.67764853903331],[139.5242114331208,35.67781856530588],[139.52432876576796,35.67781886739259],[139.52449286706693,35.67781969856067],[139.5244928361115,35.677813970286905],[139.5244928955544,35.67780771764876],[139.52449307925056,35.67777953864841],[139.5244943677837,35.67761800686882],[139.5244919294865,35.677520283292836],[139.5244907357553,35.67747170640174],[139.52449059503132,35.67745002633355],[139.52449025099872,35.677395097877174],[139.52454464883775,35.677266516614566]]],[[[139.5226727776686,35.67781390112705],[139.52270421249256,35.67781420847452],[139.5229083179078,35.67781620681553],[139.5230117525791,35.677817218882495],[139.52301964981905,35.67771831228652],[139.52302228369567,35.677685439870864],[139.52283158981612,35.67766151267502],[139.52261907897957,35.67764469295112],[139.52259794072447,35.67780440769365],[139.52259616468072,35.677813150887076],[139.5226727776686,35.67781390112705]]]]}}]}
