{"type":"FeatureCollection","features":[{"type":"Feature","properties":{"potaRef":"JP-1545","nameEn":"Takasago Seaside Prefectural Park","nameJa":"","boundaryStatus":"全国都市公園GIS候補・公開前検証待ち","boundarySource":"国土交通省「都市計画決定GISデータ」都市公園・緑地を、POTA代表地点で空間照合して加工","boundaryScaleNote":"都市計画データは近似・未収録の可能性がある。POTA運用可否は公式情報で最終確認すること。","candidateMethod":"POTA representative point inside one MLIT urban-park polygon","sourceParkName":"向島公園　","sourceParkType":"公園","sourcePrefecture":"兵庫県","sourceCity":"高砂市"},"geometry":{"type":"Polygon","coordinates":[[[134.8029238779169,34.736486870115264],[134.8029670233232,34.73659871555309],[134.80308890609768,34.73690974227428],[134.80319275428423,34.737175321483925],[134.8033176692758,34.73749503575289],[134.8034620378072,34.737867385730276],[134.80350876020734,34.7379877725181],[134.80353375361017,34.73807965659691],[134.8036630366162,34.73842003411715],[134.80505409633275,34.73814796443368],[134.80493622335652,34.73773724455199],[134.8049251060423,34.73769875728108],[134.80481672909698,34.73732349273121],[134.80468016048147,34.73685080333038],[134.80460612737042,34.736592366871974],[134.80460518012276,34.7365890169381],[134.80460502417063,34.736588476638474],[134.8045602852189,34.73643107584852],[134.80450400351552,34.73623902083792],[134.80444584760113,34.736036100891084],[134.8044366181491,34.73600307843581],[134.80439519239403,34.73582329834938],[134.8043158520922,34.7355338527159],[134.80427054324514,34.735370125432624],[134.80418980276275,34.735078169912484],[134.8041869852317,34.73507236611481],[134.80415987420747,34.73497869645494],[134.80415783624525,34.73496018740211],[134.80413958381962,34.734893880194],[134.80420498974607,34.734881699727616],[134.80412785312794,34.73459928614074],[134.80407748898753,34.734602744789655],[134.80399556211708,34.73460923758774],[134.8038506424352,34.73462208657225],[134.80362299185012,34.73462676352684],[134.8034564804709,34.73462171958757],[134.8033094297586,34.73459385510292],[134.80314282196022,34.734569861428284],[134.8029788426168,34.73457997039072],[134.80283940939597,34.73459945909736],[134.80263907023857,34.7345946890297],[134.80257521560995,34.73459156408692],[134.80244154282465,34.73455613731564],[134.80231602739374,34.73451688355626],[134.80220030783235,34.73444880673003],[134.80210922250552,34.73437671316776],[134.8020743973615,34.73434544806577],[134.8019887679021,34.733897972778266],[134.80197463816893,34.73382464459925],[134.80195208997534,34.733705065509824],[134.80195065914006,34.7336856886224],[134.80193926695299,34.733625286505266],[134.80190207370515,34.73342616981342],[134.8018397010291,34.73308619953632],[134.8017946128678,34.73284254271088],[134.80174006136426,34.73259758811708],[134.80171330605754,34.732475401789536],[134.8017517040389,34.732445386784015],[134.8017613592356,34.73241102916053],[134.80175626230752,34.732380550815435],[134.80172803675046,34.73232473914158],[134.80170319842233,34.732286701144254],[134.8016784572747,34.732263925289686],[134.80164715335033,34.7322449790931],[134.80160936972604,34.73223876912394],[134.8015781988182,34.73224143153302],[134.80154704944886,34.73224790722818],[134.80147328865715,34.732267258396256],[134.80143225424362,34.73226741652851],[134.80140602224122,34.73227260211296],[134.80136024981758,34.73230581873057],[134.80132100397864,34.732332663573814],[134.80130657463846,34.73239371516572],[134.8013165960272,34.73242418357444],[134.80132429372506,34.73243569321529],[134.80132981912914,34.73245312511434],[134.80134117927807,34.73247508714653],[134.80135035225317,34.73248679844843],[134.80135973218853,34.732494551334014],[134.80136677334536,34.73250001438587],[134.8013778816556,34.732506381304084],[134.80138965232564,34.73251208756859],[134.80141271462114,34.732517948653566],[134.80146048326256,34.732523020364034],[134.8014926229494,34.73269185704192],[134.80153371961478,34.73288245763321],[134.80154823213348,34.732946327590575],[134.80158889370514,34.733133314785434],[134.80159770401121,34.73317358722001],[134.80160170560498,34.733191872394876],[134.8018349234669,34.73428288781242],[134.8018475695914,34.73428501166819],[134.80186201718396,34.73438752943478],[134.8018754710293,34.73446878447567],[134.8019476083026,34.73461581247183],[134.80215074772232,34.73497855233919],[134.80241421905174,34.73541615438817],[134.802765789952,34.73605331549959],[134.8029238779169,34.736486870115264]]]}}]}
