{"type":"FeatureCollection","features":[{"type":"Feature","properties":{"potaRef":"JP-1992","nameEn":"Amagasaki no Mori Chuo Ryokuchi Prefectural Park","nameJa":"","boundaryStatus":"全国都市公園GIS候補・公開前検証待ち","boundarySource":"国土交通省「都市計画決定GISデータ」都市公園・緑地を、POTA代表地点で空間照合して加工","boundaryScaleNote":"都市計画データは近似・未収録の可能性がある。POTA運用可否は公式情報で最終確認すること。","candidateMethod":"POTA representative point inside one MLIT urban-park polygon","sourceParkName":"尼崎の森中央緑地","sourceParkType":"緑地","sourcePrefecture":"兵庫県","sourceCity":"尼崎市"},"geometry":{"type":"Polygon","coordinates":[[[135.38498956046124,34.69656723255421],[135.3847422870068,34.696148172611686],[135.38342008081625,34.69395202865478],[135.38338613704786,34.6938938838929],[135.38333064343212,34.69384427162728],[135.3832856326127,34.69382438358936],[135.38323117750332,34.69379980617969],[135.3831724667094,34.69378122799861],[135.38311462851263,34.69377456792308],[135.38305970785538,34.69377026796021],[135.3830049379138,34.693777892278284],[135.38295666458583,34.69378546094702],[135.38273328511838,34.69387562257249],[135.3824222614101,34.693999925234365],[135.38218381233517,34.694097369811495],[135.38015564956055,34.694935176677774],[135.3799152869115,34.695381860264085],[135.37983106513116,34.69557339834888],[135.38001181893964,34.69616816534882],[135.3802479228746,34.69657163953407],[135.38030897673502,34.6968334940666],[135.3803417566882,34.69714329475933],[135.38130094185877,34.699925812633055],[135.38362192395167,34.69936167922035],[135.38370273837748,34.69924129922564],[135.38322446985694,34.6968380619492],[135.38383112272237,34.69675564964464],[135.3846281959661,34.696638338361154],[135.38498956046124,34.69656723255421]]]}}]}
