{"type":"FeatureCollection","features":[{"type":"Feature","properties":{"potaRef":"JP-1079","nameEn":"Nakayama Prefectural Park","nameJa":"","boundaryStatus":"全国都市公園GIS候補・公開前検証待ち","boundarySource":"国土交通省「都市計画決定GISデータ」都市公園・緑地を、POTA代表地点で空間照合して加工","boundaryScaleNote":"都市計画データは近似・未収録の可能性がある。POTA運用可否は公式情報で最終確認すること。","candidateMethod":"POTA representative point inside one MLIT urban-park polygon","sourceParkName":"6・5・401 中山公園","sourceParkType":"公園","sourcePrefecture":"山形県","sourceCity":"中山町"},"geometry":{"type":"Polygon","coordinates":[[[140.26491159667287,38.34176456350243],[140.26491113798116,38.34176631544177],[140.26490969238702,38.34177183039824],[140.26490680234906,38.34178285941578],[140.26490581545332,38.341786621532],[140.26490535675424,38.34178837437221],[140.26490391116627,38.34179388842767],[140.26490354208735,38.34179529843779],[140.26490102112652,38.34180491744501],[140.26490003536705,38.341808680467615],[140.26489957553082,38.341810432401324],[140.26489813107884,38.341815947363166],[140.26489435427413,38.3418303677876],[140.2648724504473,38.34191399742478],[140.26490763323625,38.34193241864943],[140.26504639966114,38.34200985631623],[140.26505594908144,38.34201532545124],[140.26510753305453,38.34204486912063],[140.26514072202608,38.34206387704744],[140.26528906243078,38.34214883425045],[140.2653284242586,38.34241366921272],[140.2653292198453,38.34241902204571],[140.26532983425372,38.3424361495041],[140.26533104396364,38.34246992141541],[140.26533185196504,38.342492435729895],[140.26533265881588,38.34251495093971],[140.26533386967895,38.34254872195517],[140.2653346765308,38.34257123716475],[140.26533548339012,38.34259375147331],[140.26533669424833,38.342627523389226],[140.26533750110866,38.34265003769759],[140.26533830796944,38.34267255200583],[140.2653395188298,38.342706323921306],[140.2653400148347,38.342720156007125],[140.26534032569157,38.34272883822935],[140.26534034640477,38.342729408635186],[140.2653408959215,38.342744738369944],[140.26534057087528,38.34275135071773],[140.26533891388036,38.342785110543886],[140.26533780921375,38.34280761739483],[140.26533670454637,38.3428301242457],[140.2653350464035,38.342863884065785],[140.26533394173418,38.34288639091638],[140.26533283706414,38.34290889776686],[140.26533117891717,38.34294265758643],[140.26533007424518,38.34296516443665],[140.26532944703553,38.342977948674715],[140.26532896957946,38.342987670385874],[140.26532731256535,38.34302143111136],[140.2653272650206,38.34302239220168],[140.26535291717585,38.34302992501626],[140.26537971412466,38.34303779402081],[140.2653914678935,38.343041245751124],[140.2653866070355,38.34306484348713],[140.2653820279597,38.343087075836515],[140.26537745001792,38.3431093090921],[140.2653705819559,38.34314265896942],[140.26536600287,38.34316489131781],[140.26536142491815,38.34318712457239],[140.26535455684098,38.3432204744482],[140.26534997774502,38.343242706795614],[140.26534539978306,38.34326494004921],[140.2653385316978,38.343298289022584],[140.2653339525847,38.34332052226992],[140.26532937346872,38.34334275551698],[140.26532250651226,38.3433761044944],[140.26531990005898,38.343388760218204],[140.2653179273891,38.34339833774075],[140.265313348263,38.34342057098679],[140.2653064801475,38.343453919957206],[140.26530190215817,38.34347615320807],[140.265297323022,38.34349838645315],[140.26529045489136,38.34353173542205],[140.26528587689194,38.34355396867193],[140.26528147614874,38.343575330654375],[140.26528129775272,38.343576201015075],[140.2652744295999,38.34360955088341],[140.26526985159038,38.3436317841323],[140.2652652724411,38.343654016474446],[140.26525840427317,38.34368736634129],[140.2652538262606,38.343709598688264],[140.26524924709415,38.34373183193033],[140.2652423789111,38.343765181795675],[140.26523780088846,38.343787414141644],[140.26523322171192,38.34380964738272],[140.26522635351373,38.34384299724658],[140.26522177433705,38.34386522958601],[140.26522063636116,38.343870756846094],[140.2652171962944,38.343887462831624],[140.26521563739868,38.34389503142151],[140.26524631508175,38.3439049509139],[140.26527277179324,38.34391350572411],[140.26527952490522,38.34391568902038],[140.26529922851805,38.343922059627474],[140.265338913038,38.343934891369514],[140.2653653686275,38.34394344615342],[140.26539182537428,38.343952000036005],[140.26543150992725,38.34396483174691],[140.26544946765915,38.34397063798362],[140.26545796668273,38.3439733865156],[140.26548442230757,38.34398194037188],[140.26551685624096,38.34399242779195],[140.26552410689354,38.34399477205162],[140.26555056367098,38.344003326799545],[140.2655770204618,38.3440118806406],[140.26561670508076,38.34402471228919],[140.2656431607363,38.3440332670108],[140.26566961754907,38.344041820831094],[140.26570930220103,38.34405465244857],[140.26573539614495,38.344063090076084],[140.26600804386254,38.344151246329794],[140.2660091279291,38.34415159664077],[140.26603558482182,38.34416015127989],[140.26607564499733,38.34417222868777],[140.26610241103896,38.34418016404837],[140.2661291770865,38.34418809940289],[140.26616932560395,38.34420000151962],[140.26619609166627,38.344207936858965],[140.2662228577345,38.34421587219222],[140.26626300628294,38.34422777427704],[140.26628977236592,38.34423570959512],[140.26631653846187,38.3442436440062],[140.26635666147394,38.34425559729002],[140.26638321717843,38.34426396042485],[140.26640977175217,38.34427232264724],[140.26644960533676,38.34428486642838],[140.26647615991888,38.344293229536746],[140.26649233871873,38.344298324268586],[140.26650322909643,38.34430029865031],[140.2665450347573,38.34430787865239],[140.2665729055935,38.34431293077946],[140.26659409117036,38.34431677213953],[140.26660085193555,38.34431768955306],[140.26664312729565,38.34432342573059],[140.26667131201214,38.34432725044667],[140.26669949673868,38.344331074255045],[140.26674205317812,38.34433494767641],[140.26677059150674,38.34433640906669],[140.26679662203287,38.34433774301185],[140.2667991365318,38.34433774524945],[140.26684203512545,38.344337788520086],[140.2668550068619,38.34433780163134],[140.2668706349483,38.344337817662456],[140.26689923477826,38.34433784589694],[140.26694213337248,38.34433788913095],[140.26697073320273,38.344337917347985],[140.2669993330261,38.344337946458964],[140.26704223162082,38.34433798965636],[140.26706972412723,38.344338008898],[140.26707083145146,38.34433801784898],[140.2670954624823,38.34433822598194],[140.26712406065099,38.34433846768022],[140.26715265881995,38.34433870937151],[140.26719555492647,38.34433907234033],[140.26719731428636,38.34433908714093],[140.26722415309612,38.344339314014206],[140.26725275126608,38.34433955568111],[140.267295647374,38.34433991861332],[140.26732424554464,38.344340160262774],[140.26735132216768,38.344332907613854],[140.26739193537983,38.3443220281699],[140.26741901199657,38.34431477460429],[140.2674208060983,38.344314294043166],[140.267446087457,38.34430752192778],[140.2674867017851,38.34429664245628],[140.26751377838315,38.3442893888686],[140.26754085382493,38.344282136170044],[140.26755957666592,38.344277120784255],[140.26756349803085,38.34427612612777],[140.26758210417438,38.34427140568903],[140.267622937491,38.344261047078504],[140.26765015893542,38.34425414102623],[140.2676773815187,38.344247234973075],[140.26771821366458,38.34423687632361],[140.26774543623512,38.34422997025457],[140.26777265765656,38.344223064173605],[140.26781349091968,38.34421270549624],[140.2678370121959,38.34420673837178],[140.26784040547994,38.34420524383143],[140.26786536496553,38.34419424729032],[140.26790280360436,38.3441777529162],[140.2679277630712,38.34416675636161],[140.26795272253054,38.3441557598016],[140.26799016113,38.34413926539919],[140.26801512057057,38.34412826882572],[140.26804002375377,38.344117297202466],[140.26804008114058,38.344117273153294],[140.26807788625322,38.344101306648035],[140.26810309118244,38.34409066171108],[140.26812829495336,38.34408001766405],[140.26816610117845,38.34406405023455],[140.26819130493104,38.344053406173764],[140.2682165086833,38.34404276120657],[140.26825431486296,38.34402679464917],[140.26827951858988,38.34401615056917],[140.26830472346046,38.34400550558825],[140.2683425296016,38.34398953900198],[140.26834744087896,38.34398746433698],[140.26836655778283,38.343977356712315],[140.26839030285083,38.34396480185966],[140.26842591985854,38.34394597046964],[140.26844966376217,38.34393341559923],[140.26847340879456,38.343920861630366],[140.26850902576643,38.3439020293137],[140.26853276963448,38.343889475327074],[140.26855651464533,38.34387692044011],[140.26859213042334,38.34385808899317],[140.2686158754138,38.343845534093965],[140.26863962039604,38.34383297918987],[140.26867532568502,38.343814253560346],[140.26869933133568,38.34380201163017],[140.2687233369853,38.343789768794046],[140.26875934486912,38.343771404978206],[140.26878335049867,38.34375916212958],[140.26880735612008,38.34374691927597],[140.26884336510568,38.34372855543939],[140.268867370707,38.34371631257327],[140.26889137515633,38.34370406969664],[140.26892738409967,38.343685705833785],[140.26895138966583,38.343673463851076],[140.26897539523097,38.34366122096245],[140.26901140298813,38.34364285706782],[140.2690354085331,38.343630614166685],[140.2690594140701,38.34361837126055],[140.26909542292893,38.343600007345174],[140.26911942844578,38.34358776442652],[140.2691434339546,38.34357552150288],[140.26917944162724,38.34355715755573],[140.26920344710894,38.34354491552049],[140.2692274525896,38.343532672579336],[140.26926346022003,38.34351430860594],[140.26927683946607,38.34350748514851],[140.2692875767323,38.34350220223089],[140.26931183146363,38.34349026859833],[140.2693482129843,38.343472366785775],[140.26937246769586,38.343460433140464],[140.2693967235434,38.343448499495565],[140.26943310502247,38.34343059765623],[140.2694573597063,38.34341866399306],[140.2694816143822,38.343406730324766],[140.2695047008968,38.34339599561379],[140.26951855073062,38.34338955639675],[140.26954333312264,38.34337831448467],[140.2695681143701,38.34336707166083],[140.26960528736743,38.343350207871055],[140.26963006859586,38.34333896503394],[140.26965484980963,38.343327723092415],[140.26969202277397,38.343310858373826],[140.26971680396872,38.34329961641902],[140.2697415863068,38.34328837356346],[140.26977882371688,38.34327160192538],[140.2698039964243,38.34326091231802],[140.2698291702613,38.343250223611605],[140.26986692929407,38.34323418963252],[140.26989210311967,38.343223500011476],[140.269917275787,38.343212811280374],[140.26995503592514,38.343196777278],[140.2699861849572,38.34318355041832],[140.2699827489862,38.34317048085167],[140.26993184210656,38.342976810793516],[140.2698974684729,38.342853556035976],[140.26988344280772,38.342803261209404],[140.26982004642963,38.342575936206],[140.26941979577356,38.341125486172714],[140.26912352782733,38.34006454916654],[140.26901662630135,38.339677132261315],[140.26899739725374,38.339666612048866],[140.26898712055134,38.33967069528448],[140.2689827499998,38.339673297838935],[140.26897772966097,38.33965585187011],[140.26897758727634,38.33965577370255],[140.26893915314014,38.33963474508946],[140.26893304023415,38.33963574546326],[140.26890504021677,38.339640327211164],[140.26887704020294,38.33964490805144],[140.26883504016874,38.33965178020019],[140.2688070412832,38.33965636193009],[140.26877904125027,38.339660943647765],[140.26873704119797,38.33966781576125],[140.26870904116348,38.33967239656123],[140.26868104111853,38.339676978255405],[140.268639042192,38.33968385033912],[140.26861104213842,38.339688432016516],[140.2685830420884,38.33969301278626],[140.2685410419999,38.339699884829216],[140.26851304307814,38.33970446648862],[140.26843246172075,38.33971766658273],[140.26843123385817,38.33971786878908],[140.2684212621331,38.33971950103872],[140.26837646491396,38.339726839758384],[140.2683652653166,38.33972867510993],[140.26832046809338,38.33973601290717],[140.26830926849323,38.33973784825333],[140.268264471259,38.33974518602909],[140.26825327165608,38.33974702136989],[140.2682357002735,38.33974989904545],[140.2682084732669,38.33975435911863],[140.26819727480512,38.33975619445957],[140.2681524764049,38.339763532186815],[140.26814127679648,38.339765367516875],[140.2680964795291,38.33977270522814],[140.2680852799179,38.33977454055284],[140.2680404826395,38.33978187824261],[140.26802928302556,38.33978371356191],[140.2679844857361,38.33979105123022],[140.26797328611937,38.33979288654416],[140.26792841321725,38.3398002373408],[140.2678612143832,38.339811244665874],[140.26782195043285,38.3398176764629],[140.26781075080808,38.33981951176124],[140.2678006244208,38.33982117024085],[140.26776590235568,38.3398266562943],[140.2677546872041,38.339828428445394],[140.26770982431168,38.339835516127025],[140.26769860915746,38.33983728827273],[140.26765374625438,38.33984437593282],[140.26764253109747,38.33984614807314],[140.26759766817673,38.33985323661261],[140.26758645188025,38.33985500784109],[140.26754159009272,38.33986209636453],[140.26753037378657,38.339863868488564],[140.26748551199537,38.33987095608951],[140.26747429568658,38.33987272820815],[140.26742943274084,38.33987981578204],[140.26741821757324,38.33988158790081],[140.26737335460982,38.339888676354086],[140.26736213943957,38.33989044846747],[140.26731338346488,38.339898150580915],[140.26730607794613,38.339899373956456],[140.26726132161983,38.33990686831217],[140.2672501331123,38.33990874145072],[140.2672053767747,38.339916235784955],[140.26719418712048,38.339918108912634],[140.2671494319155,38.33992560323095],[140.26713824225845,38.339927476353246],[140.26709348589833,38.33993497064459],[140.26708229738236,38.339936843767056],[140.26703754101098,38.339944338036936],[140.26702635134828,38.3399462111485],[140.26698159610947,38.339953705402465],[140.266970406444,38.339955578508665],[140.26692565005004,38.33996307273565],[140.2669144615256,38.33996494584201],[140.26689431804954,38.33996831903255],[140.26686967179288,38.339972312851614],[140.26685846654928,38.33997412911157],[140.26681364901512,38.33998139235537],[140.26680244491268,38.33998320861548],[140.26675762736758,38.33999047183777],[140.2667464232694,38.33999228719157],[140.2667016057134,38.33999955039234],[140.2666904016055,38.34000136664172],[140.26664558403854,38.340008629820986],[140.2666343799279,38.34001044606496],[140.26658956235002,38.34001770922272],[140.26657835823664,38.34001952546133],[140.26653354064783,38.34002678859759],[140.26652233539485,38.340028603924345],[140.26647751778808,38.34003586794002],[140.26646631367626,38.34003768326693],[140.26642149606556,38.34004494636017],[140.266410291944,38.340046762582645],[140.26636547432238,38.34005402565437],[140.2663542701981,38.340055841871454],[140.26630945256554,38.34006310492169],[140.2662982484455,38.34006492023247],[140.26625343079502,38.34007218416211],[140.26624222667226,38.34007399946751],[140.26619740901785,38.340081262474705],[140.26618620374146,38.34008307867015],[140.26614138607613,38.34009034165584],[140.26613018194087,38.340092157851416],[140.26608536426463,38.3400994208156],[140.26607416013368,38.340101236104886],[140.26602934243942,38.34010849994849],[140.26601813830575,38.34011031523239],[140.26597332060763,38.34011757815355],[140.26596211646418,38.34011939433301],[140.26591311810103,38.34012733524583],[140.2659116966821,38.34012756531982],[140.26589730837497,38.34012989674973],[140.26588376863683,38.34013240436676],[140.26584216999169,38.3401405414262],[140.26581551102103,38.34014869401121],[140.26580838903962,38.340150872294906],[140.26578946335357,38.34015796223052],[140.2657808107756,38.34016146111555],[140.26575133004428,38.34017338134569],[140.26572655270772,38.340184627894125],[140.26571794154384,38.34018853600939],[140.2657025513803,38.34019684582128],[140.26567973816336,38.34021014523725],[140.26566809252503,38.34021693433577],[140.2656528877702,38.34022640366923],[140.26564621842957,38.340231411337115],[140.2656255211313,38.34024695355667],[140.2655963616852,38.34027163825909],[140.2655783715972,38.340289145950294],[140.2655745054609,38.34029290854876],[140.2655656135754,38.34030156243574],[140.26556057958197,38.34030677712779],[140.26551890755889,38.34035008977851],[140.26550203038482,38.34036819657696],[140.26549622945765,38.34037435265641],[140.26547646547058,38.340395325831906],[140.26545920279173,38.34041328300033],[140.26544194010427,38.340431240166076],[140.2654160460571,38.34045817590973],[140.26539878334833,38.34047613306882],[140.265381520631,38.34049409022526],[140.26535562654598,38.34052102505399],[140.26535379855338,38.34052292622896],[140.26533861545522,38.340539131179575],[140.26532163511465,38.34055725366878],[140.2652961634369,38.340584438293114],[140.26527918306803,38.340602561676775],[140.2652622015468,38.340620685052336],[140.2652367309684,38.34064786966866],[140.26521974943296,38.340665992136834],[140.26520276902593,38.340684115508886],[140.26518982032184,38.340697933818284],[140.2651855293325,38.34071419782469],[140.26517971057677,38.34073625028456],[140.26517389181743,38.34075830274402],[140.26516516367164,38.340791381432474],[140.26515934490328,38.34081343389097],[140.26515352613131,38.34083548634904],[140.26514479797365,38.340868564134475],[140.26513897804875,38.340890616586016],[140.26513315926414,38.34091266904271],[140.26512771143445,38.34093746310614],[140.26512583832314,38.34094733482386],[140.2651234855577,38.340959739509955],[140.26511714788154,38.34099315412075],[140.26511292314206,38.34101543052947],[140.26510869726306,38.341037706031464],[140.2650994721145,38.34107069761511],[140.26509323517462,38.34109267866916],[140.26508699823086,38.34111465972279],[140.2650776416606,38.341147631747305],[140.26507140470724,38.34116961279982],[140.2650651665991,38.341191594747265],[140.26505581115254,38.34122456677502],[140.26504957304178,38.34124654782044],[140.2650433360711,38.34126852887097],[140.26503398060436,38.341301500896364],[140.26502774248013,38.341323481940236],[140.26502150549598,38.341345462989196],[140.2650127623575,38.3413785388871],[140.26500698119364,38.341400597824475],[140.26500120003325,38.34142265586056],[140.26499252885088,38.34145574381763],[140.2649867488184,38.34147780275917],[140.26498096764547,38.34149986079387],[140.26497229644423,38.34153294874886],[140.26496651526233,38.341555006782556],[140.2649607340698,38.341577065716784],[140.2649575964337,38.3415890395405],[140.26495738535118,38.341589847576564],[140.26495726626771,38.34159030108158],[140.26495593977126,38.34159536163293],[140.26495304860373,38.34160639064648],[140.26495206284977,38.341610153669706],[140.26495160416002,38.34161190560924],[140.26495015857216,38.34161742056642],[140.26494726854673,38.34162844958534],[140.26494628279923,38.341632211707584],[140.26494582295823,38.34163396454245],[140.26494437737654,38.341639478598616],[140.26494148734227,38.34165050851826],[140.26494050159414,38.34165427064042],[140.2649400417599,38.34165602257435],[140.2649385973142,38.34166153753689],[140.26493570614124,38.341672566549875],[140.26493529816682,38.34167412322752],[140.26493426169486,38.34167808151232],[140.26493281611135,38.34168359556828],[140.26493183035524,38.341687358591265],[140.2649299260735,38.34169462548752],[140.26492848048935,38.34170013954341],[140.2649270348979,38.34170565450021],[140.26492604914824,38.34170941662221],[140.26492414486532,38.341716683518335],[140.26492269927323,38.34172219847505],[140.26492125368088,38.341727713431744],[140.2649202679306,38.34173147555366],[140.2649183636465,38.34173874244967],[140.26491691806055,38.34174425650537],[140.26491679896952,38.34174471091125],[140.26491547361124,38.341749771467505],[140.26491258243112,38.34176080047969],[140.26491159667287,38.34176456350243]]]}}]}
