{"type":"FeatureCollection","features":[{"type":"Feature","properties":{"potaRef":"JP-1551","nameEn":"Harima Central Prefectural Park","nameJa":"","boundaryStatus":"全国都市公園GIS候補・公開前検証待ち","boundarySource":"国土交通省「都市計画決定GISデータ」都市公園・緑地を、POTA代表地点で空間照合して加工","boundaryScaleNote":"都市計画データは近似・未収録の可能性がある。POTA運用可否は公式情報で最終確認すること。","candidateMethod":"POTA representative point inside one MLIT urban-park polygon","sourceParkName":"都市計画公園","sourceParkType":"公園","sourcePrefecture":"兵庫県","sourceCity":"加東市"},"geometry":{"type":"Polygon","coordinates":[[[134.93335740636962,34.933324450760615],[134.93346272027856,34.93344607929363],[134.9335576078432,34.93353386410775],[134.9336477660689,34.93363357156889],[134.9337533192474,34.93378792188329],[134.93382242034215,34.9339271273455],[134.93385453890983,34.93405353445407],[134.93387317131726,34.93423698087808],[134.93387436669443,34.93434091402194],[134.93385169197055,34.93445893787779],[134.93381544163185,34.93459172272457],[134.93376545447904,34.93474720224823],[134.93370606681881,34.934919585619184],[134.93365213010793,34.93507391270145],[134.9336522242797,34.93523707759714],[134.9336384141409,34.93549009720999],[134.9336467937416,34.93567864249639],[134.93363935841307,34.9358300353764],[134.93359727254656,34.93603343375236],[134.933555023166,34.93622944089529],[134.93350936294837,34.93640806657635],[134.93352028403984,34.936675026819906],[134.93353162854177,34.93703014831595],[134.93354714888844,34.937267247289874],[134.93357322594588,34.93742072822],[134.93359851495615,34.937556183719224],[134.93357312734736,34.937677646441756],[134.93354220684407,34.93780598763165],[134.93355169393058,34.93792114807569],[134.93358795635314,34.938045190882576],[134.93365720690514,34.93821946259964],[134.93373136886783,34.9384066911029],[134.93384130160027,34.93862033597793],[134.93389607242227,34.938775387747306],[134.9338978021411,34.938982626119866],[134.933938306245,34.93943306847035],[134.9339610717497,34.93961261797782],[134.93399005994715,34.939789792898516],[134.93407633043765,34.93994081250231],[134.93415785498635,34.940101501190554],[134.9341719892438,34.940178236131224],[134.93409443109556,34.94042634235987],[134.93401979973547,34.94056544690987],[134.9339648779135,34.94067515634624],[134.93394767189318,34.94079270233565],[134.933962381059,34.94100835023971],[134.9339384755509,34.94115297330054],[134.9339601694348,34.94124553666507],[134.9340401359378,34.94135755397792],[134.93407930474078,34.94151953386706],[134.93409599967976,34.94172219080962],[134.93407038480757,34.94181255413513],[134.9339966357911,34.941982754827606],[134.93385930980955,34.94232202402687],[134.93383639347343,34.94260240277678],[134.93383747795258,34.94261600953711],[134.9338648712443,34.94260433537128],[134.93424851447352,34.942369770137326],[134.9344518643212,34.94218216082615],[134.9348497762779,34.94172828679445],[134.93504065706273,34.94151261252306],[134.9353421314061,34.94127051790272],[134.93559155667154,34.94112675998448],[134.93597610803275,34.94094311757557],[134.93629588348043,34.940749158186705],[134.9364270260528,34.94070343395535],[134.93682603196498,34.9406404232814],[134.93683370880052,34.94071700967747],[134.93670419434218,34.940730904542846],[134.93644734701863,34.940802494232855],[134.93616307274138,34.940955892221275],[134.93571068538256,34.94115961369217],[134.93540581550621,34.941326363572486],[134.93511689863055,34.94156406911138],[134.9350030352432,34.94171256351666],[134.93565915483882,34.941702911741224],[134.93588783650378,34.94209057952467],[134.93587767809453,34.94212362352719],[134.93566619849537,34.942306858340956],[134.9355599624486,34.94246541183873],[134.93541665394886,34.94262946762941],[134.93517850140134,34.94292326323108],[134.93506590730388,34.94305092754539],[134.93503279728458,34.94310427797223],[134.93498197372693,34.94322054821886],[134.93494388872148,34.9433122355146],[134.93488652043246,34.94341681908813],[134.93493164298312,34.943584177940195],[134.93488762854,34.94382337421105],[134.93485232306074,34.94395092600298],[134.93484162415936,34.94401498297471],[134.93484274537872,34.944363393524235],[134.9348382346957,34.94506493561842],[134.93492594756322,34.945262553025735],[134.935144549806,34.945633324334636],[134.93537118288805,34.945979174999124],[134.93539410975865,34.946060283311226],[134.9354130372792,34.946178371479114],[134.93548669373064,34.94633981923486],[134.935499661137,34.94640637316815],[134.9360663597843,34.94585646393819],[134.93627549576397,34.94568099271694],[134.93660659692446,34.945476429218346],[134.93692260649007,34.94536397932219],[134.93793089283002,34.94506319471721],[134.938900221692,34.94539109690266],[134.93950935173106,34.945597559103376],[134.93959557537593,34.94557639513124],[134.93997841552428,34.94581589505407],[134.93998327750518,34.94581893664742],[134.94026510191674,34.94599382559578],[134.94116494171232,34.94655223015224],[134.9413146646985,34.94727256186159],[134.94140834871166,34.94771299888601],[134.94121393832404,34.94774678520581],[134.94106779466796,34.94776995549392],[134.9409022295439,34.947796204950976],[134.94088926457917,34.947798260476176],[134.9406455586097,34.947932174624974],[134.9403745341434,34.94802872391592],[134.94031125434157,34.94805860814536],[134.94018224844558,34.94814299868856],[134.940080796168,34.94817794139896],[134.93999327279175,34.94820136587096],[134.93991698403315,34.948248803262594],[134.93988255880063,34.94831667509541],[134.93991108649536,34.948592650995465],[134.94011744570818,34.9488726065851],[134.9402806271994,34.9492805149537],[134.9403905098474,34.949705817253765],[134.94047287524347,34.94979933809655],[134.94049878521355,34.94991297328518],[134.94047453412787,34.950024335099776],[134.94044394997215,34.95010832407106],[134.94036921438445,34.950218135250324],[134.9402695956473,34.95032392398591],[134.94008897590587,34.95052143552938],[134.9400770422403,34.95059577572785],[134.94009949432748,34.95071564835851],[134.94013481548373,34.95081382157277],[134.94015294455176,34.9510601910967],[134.9400048737337,34.95142566280297],[134.93953755105997,34.951510750305545],[134.93888303966648,34.952077159163],[134.93856053627718,34.95263496936735],[134.93844088904282,34.95302562860942],[134.93837931023563,34.95361540211315],[134.93836455398943,34.95378269702003],[134.93841833996484,34.95420341232924],[134.93825149319858,34.9545634763911],[134.93823675467488,34.95476304354379],[134.938244990988,34.955034613301684],[134.9382179165622,34.955149774801775],[134.93829537337893,34.955439119198225],[134.9384243145645,34.9558953382523],[134.93842239101758,34.956110346699425],[134.93838615544695,34.9562602601706],[134.93828683880128,34.95646809129921],[134.93818121160123,34.95663674014227],[134.93805409161794,34.95678620460119],[134.93789966587948,34.957138814227456],[134.93769092421905,34.957371438818114],[134.93755423973823,34.95750102801514],[134.93747026459636,34.95769607150943],[134.93734389039398,34.95794757706302],[134.93727320086646,34.95816265695452],[134.93725574963196,34.95835105924117],[134.93729731124844,34.9584491119828],[134.93728086988062,34.95877516255278],[134.937290440389,34.958796119036165],[134.93732217725017,34.95877883342968],[134.93737503635688,34.95876009057465],[134.9374302741754,34.9587521534142],[134.93748916561202,34.95874969697516],[134.93755931532866,34.95875944438804],[134.93762921069458,34.95877928940448],[134.9377227232429,34.95880938367562],[134.93782824807087,34.9588499651982],[134.93793869714403,34.9588751972555],[134.938032569087,34.95889456209549],[134.9381059810481,34.9589161021059],[134.93818100013522,34.95894773044622],[134.93824988433508,34.95897893856401],[134.93830415759453,34.95900363874577],[134.93837274869549,34.959024751875226],[134.93843128978196,34.95903419602619],[134.93851351277632,34.95903288489503],[134.93876289663862,34.95901099853516],[134.93889842368728,34.95900680718105],[134.9390520695387,34.95900964686723],[134.93917471548,34.95901083807197],[134.93932561538008,34.95901251920836],[134.9394728084605,34.95903125629302],[134.9395933980036,34.95905057672827],[134.93971440771583,34.95908233512427],[134.93981088290184,34.95909826003208],[134.93989835972394,34.959111525416006],[134.93996574012397,34.959116868100736],[134.94005383329346,34.95910975724838],[134.94025490137017,34.95905448463513],[134.9404430267454,34.959025959667095],[134.94057716641424,34.95899698316499],[134.94072993557083,34.958955202733826],[134.94080947550688,34.95891676322508],[134.94087228657403,34.958866778483966],[134.94091777103185,34.9588132745398],[134.94097103313774,34.9587453984185],[134.94102357825165,34.95869907080751],[134.9410865933327,34.95867675982407],[134.94115422671211,34.95867191406258],[134.94133916868068,34.95868694426551],[134.94149845139097,34.95869696433856],[134.9416149745818,34.95869944578654],[134.9417648822722,34.95867065944315],[134.94201177591307,34.958638051495804],[134.94215445583288,34.9586387787066],[134.9422416808601,34.95864762650187],[134.94235303557264,34.95867672628632],[134.94256366889047,34.958745443082954],[134.94272787151988,34.95879879718959],[134.9428795027242,34.95882535059566],[134.94312063733528,34.95884307088016],[134.9433056227505,34.95886386722298],[134.94338510010124,34.958861484829434],[134.9434606543229,34.958846862208055],[134.94350832852598,34.95883787852684],[134.9435418575731,34.958855739317364],[134.94360797525252,34.95892707334518],[134.94376901307965,34.95907031769954],[134.94389114949493,34.95917995257588],[134.94412990525805,34.95945243594728],[134.94429844370927,34.95961754737945],[134.94448787135977,34.95980869585042],[134.94461331618578,34.95989172020494],[134.94469710594197,34.96004229331065],[134.94474899429247,34.96009936507673],[134.9448000154893,34.96012813528603],[134.94490605069512,34.96016302884369],[134.9450793865813,34.960221832661475],[134.94524683088648,34.96031293824299],[134.94543591113174,34.96041267872901],[134.94555011488933,34.960485752525834],[134.94562879781859,34.96052357785129],[134.94566741461068,34.96053338938557],[134.9457106679568,34.960533531889865],[134.94577579707246,34.96051571512824],[134.94591639301726,34.96045668150278],[134.94608502054786,34.96035351496496],[134.94621492948724,34.96024161911255],[134.94637834751052,34.96013009486284],[134.9465345364286,34.96001833645402],[134.94655791056735,34.95999577204309],[134.9465845984079,34.95997706718118],[134.94661189750983,34.95996692311288],[134.94664141065388,34.95997470694569],[134.94668524743292,34.95999440787668],[134.94680258405552,34.960076389146934],[134.94693568883832,34.96015838078522],[134.9470824014431,34.96022966626315],[134.94718235970032,34.960257106404484],[134.94731936094706,34.960288866511824],[134.94746181674648,34.96030320067436],[134.94756044080682,34.96029855521716],[134.9477343055825,34.96031056670244],[134.94794507943817,34.96030895938872],[134.94802582145707,34.96029980659037],[134.94812710609813,34.96028487054582],[134.94824757023167,34.96025757743602],[134.94837339549224,34.96022971618138],[134.94848548732776,34.96019570427173],[134.9486443255989,34.96017506750844],[134.94875658069546,34.96017756371424],[134.94888876962747,34.960195373780095],[134.9489839098516,34.96019344920935],[134.94909062710943,34.960172895762916],[134.94921502402443,34.960129806180156],[134.9493716380868,34.960075374939294],[134.94950286183027,34.96003738876579],[134.949642431849,34.96001729918234],[134.94982592801608,34.959999510571514],[134.9501167091488,34.95997856266186],[134.9502925823897,34.959966401119594],[134.95048017959425,34.9599552615037],[134.95057387915284,34.95993648568017],[134.950738708059,34.959882551809166],[134.9508309623572,34.95984629478249],[134.9509122237975,34.95978972055497],[134.95103452979808,34.959716260494694],[134.95119924755235,34.959633029068364],[134.951355096783,34.95956453636922],[134.95161207233073,34.95946028157224],[134.95182540146862,34.959376441242235],[134.95191841236115,34.95933900763927],[134.95203383901716,34.95926828599728],[134.95223140423306,34.9591850661351],[134.95239065010256,34.959117095679694],[134.95246580490013,34.95907867091666],[134.95253718228648,34.95904756720336],[134.9525652571382,34.95890778768454],[134.9528934570465,34.95785059260061],[134.95302541371458,34.957474280338126],[134.95317298833504,34.95704920927979],[134.95307832744655,34.95699794842486],[134.95305608642914,34.95696705162459],[134.95314898904957,34.95633393168161],[134.9531804386709,34.95591549288161],[134.9532049076182,34.95583513789712],[134.95310096923225,34.955380339874594],[134.95297868583543,34.95541206421845],[134.95277132664526,34.955400140857584],[134.9523453016062,34.95554717774792],[134.95187767787178,34.95559355140086],[134.95171098990204,34.95557366653014],[134.9515413920094,34.95557452986814],[134.95144163941876,34.95567600129671],[134.951222251409,34.95573913814972],[134.9511558027817,34.955682593912854],[134.9511350875288,34.95543173224178],[134.95093587150714,34.95479757515174],[134.95084378801488,34.954666069272555],[134.95084329053077,34.95464353524627],[134.95117116376605,34.95438828657565],[134.9512622380605,34.95438529918177],[134.951315512128,34.954364294510846],[134.95135290365818,34.95432786548024],[134.95139932329036,34.9542397367119],[134.95138609149447,34.95415443556624],[134.9513259164699,34.9540874926625],[134.9512781958371,34.95400227682795],[134.9512237570832,34.953868055599116],[134.95112744454423,34.95358142975504],[134.95102291936848,34.95346972928711],[134.95082967026843,34.953250845199825],[134.9507328033209,34.953313448373834],[134.95042299072773,34.95305630302949],[134.95056049492644,34.95295211647855],[134.95067094182266,34.95302141852802],[134.950772089431,34.95310627290094],[134.9508576653698,34.95321707832678],[134.95090226068245,34.95329446750964],[134.9510603302419,34.95343591448529],[134.9510538569086,34.953404937100416],[134.95089483613728,34.95313665918758],[134.95097922892361,34.95308971461645],[134.9510673201366,34.95311252437039],[134.9512196346469,34.95331872541207],[134.95136667038912,34.953229994621815],[134.95158227667363,34.953130728125444],[134.95188335246903,34.953069698764814],[134.95216523427828,34.95309170098884],[134.95227180764104,34.95306790024542],[134.95243461474402,34.95299459295357],[134.95261048659418,34.952998834744704],[134.95281452234022,34.9525843836635],[134.95274142569156,34.95247351597843],[134.95272547715206,34.952434744275834],[134.95287251656822,34.95237603034737],[134.95307354976458,34.95236310549612],[134.95344151770334,34.95241819991289],[134.9537451346465,34.95244793023967],[134.95389095421405,34.952459895962384],[134.9540216602926,34.95245679417343],[134.95409811040162,34.95244585637815],[134.95420345224028,34.95240412113779],[134.9544129646278,34.95228153290672],[134.9545061948347,34.95223084471001],[134.95465393639606,34.95216383158715],[134.95463175462058,34.95214068732055],[134.9544623787683,34.952170039775076],[134.95443397549417,34.95214945138103],[134.95458698099446,34.95204004269065],[134.95448187515964,34.951851723851206],[134.95447512731914,34.95178450926123],[134.9547286706652,34.9514903273042],[134.95480809863784,34.951395357530345],[134.95502887753577,34.95117030445323],[134.95521351199835,34.95081310133096],[134.95532339927507,34.9506487429462],[134.95545768707674,34.95055493415416],[134.95558841999878,34.95039641841298],[134.95561339565486,34.9503111923988],[134.9557085812635,34.950114005590656],[134.95579129485694,34.950033982610336],[134.95598171235977,34.94990662162182],[134.95607946499229,34.94981741658175],[134.95615846717175,34.94973894486511],[134.9561977515798,34.94966383188571],[134.9562601596513,34.94940353002731],[134.95623939285147,34.9491621346682],[134.95618045605823,34.94889704625771],[134.9560664682202,34.948576529641734],[134.9560086543162,34.948459816143504],[134.95587424231286,34.948232525126805],[134.9559182600977,34.94801603858281],[134.95604730132837,34.94779370740474],[134.95619516769077,34.947556225127805],[134.95620509973773,34.94739291925813],[134.95609942119526,34.9469548091969],[134.95600845007084,34.946695203456706],[134.9560081752359,34.946412686328394],[134.95602990762822,34.9462751919448],[134.9560156584702,34.94614265975721],[134.95592110448857,34.94593030894861],[134.9559675397812,34.94580206317223],[134.95596195312444,34.945555451465665],[134.95593866915755,34.945487690623],[134.95575682818145,34.94524198212866],[134.95583667294565,34.945029278377895],[134.9560655613374,34.94496716630633],[134.95619780425488,34.94492276733752],[134.95632445224646,34.94487686443117],[134.95626760080327,34.94462654916734],[134.95636374673865,34.944557364583474],[134.95608054253117,34.944443609726],[134.95604978000654,34.94434235278999],[134.95581461311895,34.94383423120778],[134.9556107969042,34.943432501519204],[134.95544378393095,34.94340991887817],[134.95531136671053,34.94343097001114],[134.9554305987173,34.94366446957019],[134.9553041644435,34.94373849611512],[134.9552687019395,34.94381205681208],[134.95530799791325,34.94397069349637],[134.95531631736364,34.94407206554576],[134.95529304735302,34.94417999972429],[134.9552706070087,34.94422383559521],[134.95517475521243,34.94433205118355],[134.9548269061262,34.94444308869649],[134.954631749751,34.94444877459575],[134.95440423131984,34.94443118759061],[134.95430923068457,34.944391107400214],[134.95422296458128,34.94442048532963],[134.9541606670608,34.94444892938819],[134.95402712304502,34.944582217095274],[134.95398388161718,34.944568014615875],[134.95392705308913,34.944566772462906],[134.95375087071082,34.9446351920218],[134.95372122805188,34.9446677059521],[134.95351352990582,34.94476711616846],[134.95332631449682,34.94482432314641],[134.95320154110405,34.94485768302706],[134.9531362622918,34.94475191385511],[134.9533138713204,34.94468384848914],[134.95380448618783,34.94445696927946],[134.95386486438034,34.94442078262078],[134.95395158165095,34.944364088294556],[134.95404564120838,34.944279320873434],[134.95422326961105,34.944054309276105],[134.95439774412375,34.94381768466002],[134.95445795708244,34.9437596831322],[134.95461073158688,34.94366523982375],[134.95476761952415,34.943608186021],[134.9550566553143,34.943494384723586],[134.95527575663957,34.94339797847061],[134.95543285669513,34.94336913853636],[134.95553328980375,34.94337484427059],[134.955658310112,34.94338907801669],[134.95563668170504,34.94329399425905],[134.9555867702181,34.94320834044906],[134.95542989676858,34.94300622443521],[134.95507815381373,34.94306472726809],[134.95493945135502,34.943021716094854],[134.95495217403433,34.94287976060673],[134.95503516207194,34.942807939997756],[134.95505884664522,34.94279844356134],[134.95510223617546,34.94280335983193],[134.95516849531745,34.94263282433013],[134.95495200549198,34.94253828700725],[134.95476086179195,34.942451282082125],[134.9545780641242,34.94236765973434],[134.95508756439403,34.94180235939311],[134.95497065816008,34.94176049872728],[134.95495550977637,34.94175507731315],[134.95470160890653,34.941664066360055],[134.9542704406937,34.94215008665618],[134.9541966539416,34.94216452662375],[134.9539608943013,34.94205485125729],[134.95380577534993,34.94209936463623],[134.9537718128051,34.94211053595717],[134.9537150443615,34.94211704597796],[134.95363338279222,34.94210340014531],[134.9536262875172,34.94216428518762],[134.95356625227046,34.942245813615166],[134.95347418445536,34.94234769832936],[134.9533010579629,34.942501560411614],[134.95309201485648,34.94253796445546],[134.95293498671285,34.942576266365776],[134.9525698918935,34.942649884485384],[134.95210224396538,34.942901882741715],[134.95178523607765,34.9430814460095],[134.951379210803,34.943332406581625],[134.9512540885425,34.94331907040901],[134.95103115039342,34.9434153987963],[134.95084262465616,34.94354589762582],[134.9506534787921,34.9435937350794],[134.95044243163034,34.943743098183084],[134.95036684713608,34.94378089287786],[134.95032934955168,34.94372951960393],[134.95023028041507,34.94375977104894],[134.95007931509778,34.94384797958848],[134.94981348348585,34.94366966717552],[134.94977292563158,34.94379445530139],[134.9496881071565,34.94388575324046],[134.94953371026355,34.94401292175439],[134.9494984022981,34.944063943411535],[134.9494182106903,34.944246986711406],[134.9491514219268,34.944292060458665],[134.94898094164742,34.944201065404314],[134.94882885460842,34.94413945478417],[134.9486044114594,34.94402033648542],[134.9485938617561,34.94388309696221],[134.948554013269,34.943619440279555],[134.9483307545996,34.943497430771785],[134.94809904769528,34.94337284935605],[134.94786655127473,34.94327441394398],[134.9473133081492,34.94309033789526],[134.9466651673512,34.94292305497013],[134.94668743743293,34.94285578344765],[134.94677654409912,34.9428695766477],[134.94690848031252,34.94251923236408],[134.947156141408,34.94246416380595],[134.9472980490322,34.94243847612548],[134.94739044990658,34.9423802252377],[134.9474125915696,34.942295826408895],[134.94731342727374,34.942210418096565],[134.9472012456497,34.942170419133774],[134.9470472791699,34.942105660607496],[134.94691052665164,34.942073808534374],[134.94687910722106,34.94205909306283],[134.94679172899623,34.94196857659],[134.94674708531534,34.94191273094329],[134.94668902814533,34.94179033478901],[134.94665985827427,34.941724855457785],[134.94666512552942,34.94159420667693],[134.94667209966366,34.941531068958845],[134.94662968917194,34.94137812427131],[134.94656373531126,34.94125369454108],[134.9463936173172,34.94109246985049],[134.94632790917532,34.94104511395716],[134.94627545082685,34.94086580691931],[134.94626683203427,34.94047254142499],[134.94673118884563,34.940263131259066],[134.94679307971452,34.94018015444112],[134.94693861647903,34.940377651491076],[134.9471695484828,34.9401939382793],[134.947317655736,34.939987115029744],[134.94741260259795,34.93978614940365],[134.94749103375457,34.939631241890304],[134.94753426696343,34.93955674263486],[134.9477249963957,34.93950205090711],[134.94777118745768,34.93948658254184],[134.947828953123,34.93946717931502],[134.9478776895613,34.93939670869177],[134.94783550514273,34.939332918088816],[134.94777838914914,34.93929264107277],[134.9474991507326,34.93916352099064],[134.9474685374218,34.93912464233],[134.94733386291122,34.939106572597716],[134.9469629935649,34.93891796694267],[134.94680541149552,34.938881352005446],[134.94676897882468,34.93882537471959],[134.9466341539521,34.93878702200854],[134.94659697725564,34.938631075977376],[134.94645282892537,34.93856076812441],[134.94625631150112,34.93811688683128],[134.94622565975675,34.93805799551807],[134.94614355077886,34.937983497986494],[134.94610749041044,34.93797745976989],[134.9460966427905,34.9379613782615],[134.94609653265468,34.93796128867051],[134.94592407921292,34.938000200197585],[134.94576507377178,34.93803688017232],[134.94570185476096,34.93805892415608],[134.94558652866027,34.93812522220991],[134.94529463237737,34.93831005088899],[134.94527710417893,34.938381985937816],[134.94515354893196,34.93843110705205],[134.9451063771277,34.938432426363285],[134.9450860569749,34.938423243599345],[134.9448506779828,34.93850925648698],[134.94470501212842,34.93855875888035],[134.9445310088439,34.93859560286617],[134.94443093457818,34.93863739339309],[134.94417216997917,34.93867006572962],[134.94405506351248,34.93857032143859],[134.9441884882997,34.93852340547527],[134.9441642077671,34.938482060170294],[134.94427735924415,34.938388009276125],[134.94435261649855,34.93839493265833],[134.9445997036374,34.93829344677236],[134.9449054855624,34.93817985573548],[134.94532479239362,34.9380670443003],[134.94539650963787,34.93803954890782],[134.94465930311517,34.93791633450461],[134.94471581285674,34.93760973230624],[134.94504442449735,34.93728346056006],[134.9455147411959,34.93684685579253],[134.94578849265363,34.93660748925527],[134.94507177375291,34.93601315837742],[134.94470343882756,34.93572095449601],[134.94471360186878,34.935703865657445],[134.9445778293758,34.93558122836758],[134.94425337756974,34.9353458650527],[134.94402446186447,34.935150857054275],[134.94351036129743,34.93473029222124],[134.94331988912492,34.934582056133074],[134.94309373489222,34.934404611048905],[134.94291598439975,34.93424459140835],[134.94278398209153,34.934113008630185],[134.9426469938399,34.93397324737088],[134.94242861757652,34.933751770476036],[134.9421887420143,34.93346486435157],[134.94204869881565,34.93329654123313],[134.94188944255652,34.93310559724261],[134.94177065126053,34.93295411489661],[134.94166271911212,34.932820427083065],[134.9413128955062,34.93289718012218],[134.94117516433147,34.93273028674247],[134.9408379954282,34.93271214087789],[134.94055997984123,34.93274445098499],[134.9403661342724,34.9329393250027],[134.94009056675912,34.93308124007659],[134.9399729508326,34.933103823175614],[134.9399466323836,34.93315687063942],[134.93963591061777,34.93310334207433],[134.9393679552061,34.93304518221097],[134.93921817020714,34.93305467348862],[134.93909228854378,34.933039886114145],[134.93904621502287,34.93295195243855],[134.9390590832763,34.93288581081813],[134.93894394475242,34.932873133245316],[134.93883202893255,34.932926607115185],[134.93873220774842,34.93282352609758],[134.93867396220315,34.932896474485375],[134.93859672873063,34.9329476118135],[134.938526084979,34.9329719427242],[134.93848591357684,34.93297214281973],[134.93842976118023,34.93297242249502],[134.9383119790647,34.93295750382436],[134.9382955649863,34.93291350386188],[134.9379783944929,34.93226431427925],[134.9373002360358,34.93245275837634],[134.93728388734846,34.93241759231465],[134.93644515392248,34.93263720916865],[134.9364153437365,34.932662147467575],[134.93638560912555,34.932622630544046],[134.93634759382354,34.93254349019467],[134.93626046853325,34.93234992703349],[134.93620624706242,34.932240036907736],[134.93613065510618,34.93215657560369],[134.9360257292947,34.932073349913544],[134.9359207878744,34.93198796068853],[134.93569305761852,34.93193617386957],[134.9355665662148,34.931837639615985],[134.93548841351335,34.9317631151126],[134.93570997062366,34.93168926850091],[134.9356387602026,34.93144135766435],[134.93572064914315,34.93129329146872],[134.93575197924537,34.93119181129082],[134.9357220359431,34.93112362858924],[134.9356335912531,34.931108561841974],[134.9355512162607,34.931175137816],[134.9354599199818,34.93112934506671],[134.93549425836437,34.93103506177527],[134.93457831776138,34.931353308225525],[134.9332872562585,34.93182322446828],[134.93263690911067,34.932104085867195],[134.93201329115328,34.932448635921794],[134.93235869617845,34.93253104025333],[134.9326126601314,34.93262290933175],[134.9328677934164,34.9327400131663],[134.93298180454727,34.93280850284301],[134.93312693743505,34.932941834504845],[134.93324973908256,34.93313513362628],[134.93335740636962,34.933324450760615]],[[134.93901798959956,34.93558987253617],[134.93895714630276,34.93568194505958],[134.9387898268918,34.93565961135092],[134.9388327419981,34.935481448139804],[134.93914480665592,34.93549314398845],[134.93901798959956,34.93558987253617]],[[134.93695015915608,34.9406233999269],[134.93712774286115,34.94061097868048],[134.93717978162266,34.94061630911078],[134.93730234819975,34.94062534549464],[134.93758056085235,34.94067579624918],[134.93782712732195,34.940725051640534],[134.93787455309692,34.94086255949699],[134.93764868603162,34.94082183101797],[134.93754032677867,34.9408022916152],[134.93695615857914,34.94071009105831],[134.93695015915608,34.9406233999269]],[[134.94545644648153,34.942555314358536],[134.94563037065626,34.94258040002491],[134.9460657368536,34.94268097179416],[134.9466114452646,34.9428389491437],[134.94659297174195,34.942901513873025],[134.945889696716,34.94270998527922],[134.94551074297254,34.942628510094366],[134.94535263554087,34.94261046614133],[134.94501298924408,34.94260334245994],[134.94480043836236,34.94261018188635],[134.94426648211436,34.94260430445468],[134.9439522232641,34.94259569793189],[134.94376085481574,34.94256546902374],[134.9435747691301,34.94252421540999],[134.94337523528566,34.942440930653945],[134.94321349812984,34.94234654809844],[134.94311072616307,34.94227602860887],[134.94296817908145,34.94218587642378],[134.94280619236653,34.942013247447065],[134.94270466387934,34.94187393962091],[134.94264505635743,34.94171873596634],[134.94249777988267,34.94131453665198],[134.94242461575325,34.941146870489376],[134.94233192736644,34.9410036417017],[134.94224853143794,34.940917879712195],[134.94218764063638,34.94085544295679],[134.94209057558353,34.94080130062888],[134.94201657997056,34.94078760855143],[134.94194269959942,34.94078951119208],[134.94188226144564,34.94081793966298],[134.94176879923887,34.940855918768435],[134.94172853194374,34.94078436383968],[134.94177385778426,34.94077007398571],[134.9419211103597,34.94069748964753],[134.94207774858148,34.94060619777965],[134.9421979253463,34.94051400669962],[134.94234089584344,34.94038059444058],[134.94254528011933,34.94012878216046],[134.9428619850984,34.93967033116358],[134.94282015119805,34.939653413217755],[134.94288379589423,34.939540681224116],[134.9429678002709,34.939368530637246],[134.94312859963412,34.93911522328249],[134.94330021249604,34.93890314851287],[134.94327844937752,34.93883213219394],[134.9434407333806,34.93870565308685],[134.943470710501,34.93871803290062],[134.9436340162223,34.938685210617344],[134.94397766446434,34.93859937709139],[134.94408817750363,34.938695729037704],[134.94387901316924,34.938774126095794],[134.94370439585364,34.93886118358489],[134.94358176616748,34.93894680778585],[134.94338730269814,34.93913312565392],[134.94315260557877,34.9394300746291],[134.94297598284535,34.93970500642301],[134.9429379168333,34.939694289717394],[134.9427429301974,34.93997309946789],[134.94250913740944,34.940348560233076],[134.94245840751546,34.940401820736454],[134.94240195702594,34.94046610776991],[134.94228149661643,34.940579124309394],[134.94224225581905,34.940646480128216],[134.94222751823423,34.940696495145005],[134.9422297483448,34.94074642511557],[134.94224717135305,34.940793123808064],[134.94231455016072,34.94085949445565],[134.9424042103505,34.94096334443499],[134.94250206202912,34.941094197210674],[134.94257030825804,34.94124818572796],[134.94266208543752,34.94149012927284],[134.9427963614287,34.941779456860516],[134.94285839513358,34.94190742403472],[134.94297206317404,34.94204504817354],[134.94304156358052,34.94211681653585],[134.94312556969962,34.942181210181616],[134.94327743934107,34.94228844319894],[134.9433745529917,34.94234880441262],[134.9434614351763,34.94238758178776],[134.94359750278934,34.94243052920002],[134.94365198490962,34.942455135912176],[134.94373934388292,34.942484355168304],[134.9439436551565,34.94251794462125],[134.94410249099903,34.942530938548295],[134.9445548577671,34.94253281006849],[134.94505275929095,34.94253372944869],[134.9452669165687,34.94255158161246],[134.94545644648153,34.942555314358536]],[[134.9378958547783,34.94072209538848],[134.93853927926668,34.94087800024328],[134.93869037696092,34.94092601666192],[134.93931962919316,34.94107468611668],[134.939714294383,34.94112103530197],[134.9398583611495,34.94113582130184],[134.94008969979313,34.94113863252407],[134.94019908645876,34.94112681782213],[134.94030709701937,34.94110653612804],[134.9405196352359,34.94105611821653],[134.94147324816447,34.94082990397124],[134.9416382388115,34.94077255607886],[134.94172721148175,34.94093166979761],[134.94143454524348,34.94107403408082],[134.9405852800688,34.94126091130402],[134.9401253923006,34.941362107669626],[134.9399961580483,34.94136951409977],[134.93980915605601,34.941351877638986],[134.93966090247966,34.94127400994169],[134.9395248427521,34.94123159893014],[134.93898272103343,34.94114127170581],[134.93858147496144,34.94101868899611],[134.93833867836696,34.94096121303963],[134.93795204717725,34.94087569580999],[134.9378958547783,34.94072209538848]],[[134.95230038069354,34.94792572100075],[134.9521262190543,34.94826420626044],[134.95191415891708,34.948440260324794],[134.95107852043526,34.94898665276011],[134.95023842219405,34.94926073012606],[134.9498178010525,34.94932164098451],[134.9495972889997,34.949349533382154],[134.94923957974805,34.94940498470926],[134.94871095448983,34.949327253417835],[134.94802588992914,34.94942726879282],[134.94778556923262,34.949412348498015],[134.94755495954888,34.949407655303354],[134.94723570179877,34.94929009580068],[134.94712217220703,34.9490999198986],[134.94700959836987,34.94903792713146],[134.94672319006884,34.94895003873608],[134.94660379048796,34.948941717123404],[134.94649547308046,34.948966062571046],[134.94642403704896,34.948532548838564],[134.94678482486887,34.94840560421338],[134.94700801588021,34.94825258027537],[134.94715205980677,34.94817432662826],[134.9472351085336,34.94815308313493],[134.94742002471222,34.94821173518083],[134.9477064311518,34.948299621962704],[134.9481012438792,34.94837515029793],[134.94826747378553,34.94835042011489],[134.948469854572,34.94832857161561],[134.9485670203084,34.94826254314393],[134.94859525468013,34.9481729749789],[134.94868124765125,34.948062290425696],[134.9490114799852,34.9478029788804],[134.94938916526442,34.94752097934853],[134.9498570760198,34.94721174728443],[134.95021663266834,34.94711193279306],[134.95065899509538,34.94706109664245],[134.9512953764718,34.94723157287015],[134.95183033257752,34.947395711088824],[134.952253464079,34.94739355591301],[134.95250242970158,34.947379486366714],[134.95255720103015,34.94744176871966],[134.95234916825694,34.94768712553762],[134.95230038069354,34.94792572100075]]]}}]}
