{"type":"FeatureCollection","features":[{"type":"Feature","properties":{"potaRef":"JP-1715","nameEn":"Sagajo Prefectural Park","nameJa":"","boundaryStatus":"全国都市公園GIS候補・公開前検証待ち","boundarySource":"国土交通省「都市計画決定GISデータ」都市公園・緑地を、POTA代表地点で空間照合して加工","boundaryScaleNote":"都市計画データは近似・未収録の可能性がある。POTA運用可否は公式情報で最終確認すること。","candidateMethod":"POTA representative point inside one MLIT urban-park polygon","sourceParkName":"都市基幹公園","sourceParkType":"公園","sourcePrefecture":"佐賀県","sourceCity":"佐賀市"},"geometry":{"type":"Polygon","coordinates":[[[130.305722740085,33.24420292491525],[130.3057289502959,33.244136774132954],[130.3055411073882,33.24391264385438],[130.30375932489923,33.243740716448976],[130.302147457657,33.24357462521136],[130.3020644557387,33.24357862961856],[130.3019130481289,33.2435670881277],[130.30177524997086,33.244132266759074],[130.30153516470585,33.24502638572904],[130.30151994068243,33.24510582395151],[130.3015283640845,33.24511550117537],[130.30151362203097,33.24516352699898],[130.3014966115802,33.24515930584163],[130.30147965329127,33.24524289629735],[130.30144460422517,33.24535256198825],[130.30139833800303,33.245454508393735],[130.3014050244873,33.245501917042255],[130.30133876573896,33.24566263402167],[130.30124220360432,33.24594337432348],[130.30116083559966,33.246150148182615],[130.30116379807043,33.24619748570598],[130.3011318742342,33.246307099596095],[130.30118113223497,33.24634754767757],[130.30420114241318,33.24682166255567],[130.30473062137798,33.246902810270186],[130.3050343831843,33.245798705160304],[130.3051040177469,33.24554521107779],[130.30534218503112,33.24465031890456],[130.30554872317174,33.24468652944576],[130.3056061314864,33.24466820762259],[130.305722740085,33.24420292491525]],[[130.30431642287328,33.24636107033962],[130.30344025191954,33.24624941075373],[130.3034448695486,33.24618400545929],[130.30369451318182,33.244456237011505],[130.3047433496507,33.24457941619383],[130.30462192388208,33.24520634018577],[130.30420114241318,33.24682166255567],[130.30431642287328,33.24636107033962]]]}}]}
