{"type":"FeatureCollection","features":[{"type":"Feature","properties":{"potaRef":"JP-1600","nameEn":"Hamayama Prefectural Park","nameJa":"","boundaryStatus":"全国都市公園GIS候補・公開前検証待ち","boundarySource":"国土交通省「都市計画決定GISデータ」都市公園・緑地を、POTA代表地点で空間照合して加工","boundaryScaleNote":"都市計画データは近似・未収録の可能性がある。POTA運用可否は公式情報で最終確認すること。","candidateMethod":"POTA representative point inside one MLIT urban-park polygon","sourceParkName":"浜山公園","sourceParkType":"公園","sourcePrefecture":"島根県","sourceCity":"出雲市"},"geometry":{"type":"Polygon","coordinates":[[[132.70396931368205,35.38089650289114],[132.70402653692497,35.380949683614126],[132.70411106150382,35.38099367475144],[132.70418241858061,35.38101718142045],[132.70436155934453,35.38103854083633],[132.70466786406195,35.38106403914841],[132.7050045085732,35.38109700935216],[132.7050395513059,35.381494318080264],[132.70505037903564,35.38161650014485],[132.70507796862987,35.38180972824483],[132.70511512737738,35.382084761116275],[132.7051032831914,35.38210779968621],[132.705096831972,35.38211422839952],[132.70445228138553,35.38232983024294],[132.70438946727435,35.38236814903862],[132.7044140053984,35.38236546181474],[132.70471250257276,35.38233326886261],[132.7047596295358,35.38231944779641],[132.70477312549517,35.38231805361315],[132.70479941469793,35.38247629506969],[132.70482372040135,35.38262257471449],[132.7048340850703,35.38264190871999],[132.70488479707083,35.382736961157626],[132.70487248202832,35.382771990464704],[132.70486245848153,35.38278744911128],[132.7051204847548,35.38328856136084],[132.7053756671247,35.383808434869465],[132.70538599033114,35.3838380450031],[132.70539134320487,35.38386506322898],[132.70539367296809,35.3839009286849],[132.70541212893002,35.38406111586154],[132.7054306864348,35.38420345479723],[132.70543654356638,35.384273197275846],[132.7054414805826,35.38428732728812],[132.70544784966248,35.384301631194624],[132.7054549768382,35.384330624589786],[132.70546938300984,35.384378334706625],[132.70540921319173,35.38438410158224],[132.70542953984204,35.38454419026096],[132.70543184866887,35.384576900894785],[132.70543124622677,35.38461872868096],[132.7054271765723,35.38465227902043],[132.70542177412503,35.38468403249677],[132.70541469909375,35.38471254838026],[132.70540412768415,35.38474495588668],[132.70539210621718,35.38477448536823],[132.70537211696356,35.38481414608891],[132.7053506011326,35.38485597697967],[132.7052512015071,35.384855068019554],[132.7052187397684,35.3848547710356],[132.70520074709617,35.38509713934047],[132.70519385331133,35.38513638109674],[132.70519449325323,35.38536515430691],[132.70519266736034,35.38540509459429],[132.7051941866391,35.385451510071675],[132.7051952033421,35.3854885531988],[132.70519921405062,35.38552891817088],[132.70520110574378,35.38554856032166],[132.70521023188488,35.38561333050909],[132.70521641641307,35.38564953933671],[132.7052249441348,35.3856905151539],[132.7052408208562,35.385744167990495],[132.70526910591641,35.38584301593122],[132.7053164868259,35.38599955864839],[132.70538885639817,35.38623918939632],[132.70544559530245,35.3864290422242],[132.70548207058414,35.38655110976743],[132.7055417054452,35.386547418462825],[132.70563713265508,35.38654654209041],[132.7056387836967,35.38654653472496],[132.7057446615029,35.386544710243314],[132.70585395385496,35.38654323099134],[132.7059592813023,35.38654140877782],[132.7060565790764,35.38654043358411],[132.70613351040282,35.38653900841225],[132.7061349413053,35.386539002022985],[132.70622443074657,35.38653905310258],[132.70629785665554,35.38654016740852],[132.7063199830107,35.38654042913905],[132.70641378497479,35.38654343544423],[132.70652553666972,35.38654762343436],[132.70663158098367,35.38655427061649],[132.70674247557935,35.38656197770684],[132.70688069326135,35.386573438557896],[132.70701527387874,35.38658419439531],[132.70718080089097,35.38659733556398],[132.70718972193114,35.38659810691451],[132.70757495618983,35.38662802201766],[132.70782572655742,35.38664817212744],[132.7078985222635,35.38665379529565],[132.7079550186523,35.386658139342636],[132.7080631671818,35.38666666878474],[132.7080647093603,35.386666842154476],[132.7081732957802,35.38667500897457],[132.70826799778763,35.38668089429307],[132.70854803794296,35.38669955958181],[132.70859317913846,35.386701250052006],[132.70864801007824,35.38670343787891],[132.7086850043179,35.386704894441145],[132.708775938092,35.38670692023566],[132.70886268922476,35.3867089647326],[132.708892191498,35.38670937317045],[132.70895901098694,35.38671015494671],[132.7090703010102,35.38671109760428],[132.70920073288465,35.38671042181832],[132.70940787420625,35.38670804920995],[132.70970020695316,35.38670493280351],[132.7099732768883,35.38670181217561],[132.7099759185581,35.386701800296024],[132.7101538931957,35.38669982798866],[132.7101571946781,35.3866997229967],[132.710388991504,35.38669723779083],[132.71062023130528,35.38669376310542],[132.71069837947567,35.38669323095009],[132.71069524825236,35.38663672711661],[132.71070755052918,35.386501731771325],[132.71073512177813,35.386411287085565],[132.71073738770778,35.38627336230038],[132.71067419056286,35.386271032811436],[132.71071184237184,35.386108160114524],[132.71069721552405,35.386028091294115],[132.71056775543212,35.38602578968768],[132.71055904070863,35.38585897930629],[132.71054638197828,35.38577691851771],[132.71054152021628,35.385774146055695],[132.7106070890928,35.38535920566908],[132.71067067556555,35.385354051801734],[132.71069210037658,35.38516790582309],[132.7106873925807,35.38510609079823],[132.71066212135284,35.384998036264854],[132.71063450578302,35.38465553742947],[132.7106321137026,35.38459434295268],[132.71062651921466,35.38445126143767],[132.71101066140858,35.38440843636342],[132.7109778719347,35.38430361573731],[132.71096701311956,35.384260126903136],[132.71095979739894,35.3842182441805],[132.7109473562521,35.38413582187115],[132.71092411254818,35.383919950463],[132.71090156860217,35.38369352947647],[132.71088876645243,35.3835606121895],[132.7108852640933,35.38349309486014],[132.71088302032814,35.38338681153532],[132.71088851581038,35.38329549269317],[132.71089549657717,35.383199164372776],[132.7109042198296,35.38313284492009],[132.71092661096304,35.38306450785302],[132.71094437973434,35.3829831392891],[132.71096978434943,35.38290298927239],[132.71099383805011,35.38284785926883],[132.71101189232533,35.38280900858601],[132.71105731201908,35.382752529355514],[132.71108299789663,35.382717547350474],[132.7111026492134,35.382688695030865],[132.71113285069762,35.38264103696874],[132.71114179858668,35.382621291975944],[132.71114778952176,35.382603759731346],[132.71115508923404,35.38255495191728],[132.71116077769312,35.38249240496735],[132.71117014757587,35.38240442185965],[132.71117653150839,35.38234545935743],[132.71118332382787,35.382217871197824],[132.71118981677242,35.38204900913646],[132.71119236134956,35.381973964873694],[132.7111978318312,35.38173648359192],[132.71119806989697,35.38154423125213],[132.7111953484579,35.38150450065091],[132.71119662624233,35.38146697849151],[132.71119462495108,35.38138863754518],[132.71118964304233,35.38132863555805],[132.7111879703002,35.3813073789949],[132.71118009091327,35.38126989810316],[132.71117070427752,35.38123742679108],[132.71115217174443,35.38120012010242],[132.7111274548911,35.381156459343835],[132.7110888621317,35.38109035306509],[132.7110644771034,35.38105347836392],[132.71103346135092,35.38097983825069],[132.71098691128753,35.380866245806445],[132.71095892755346,35.38079008611055],[132.71093100265406,35.380722678768166],[132.71088595173538,35.380602823786745],[132.7108799132326,35.38059195301894],[132.71078248593406,35.38040863171984],[132.7107716686039,35.38037942088009],[132.71072233084217,35.3803046102329],[132.7106051988412,35.380133816871464],[132.71054972779925,35.38005527490808],[132.71054046169584,35.38003906431423],[132.71053578246048,35.38002407700965],[132.7105355214409,35.379985182626164],[132.71053531250465,35.37995404909166],[132.71053357947966,35.3799254193049],[132.71053707405574,35.37991476701412],[132.71049339553107,35.379882819568344],[132.71046363699315,35.37984221006887],[132.71043694263156,35.37979897270148],[132.7103961157856,35.37973435453736],[132.71035384909405,35.379668381718155],[132.71031615297602,35.3796110417919],[132.7102844212874,35.3795732354746],[132.71021521010428,35.37949395291659],[132.7101399078803,35.379407405360055],[132.71010230995194,35.37936466765938],[132.71007965290386,35.37933421198017],[132.71007467250067,35.37932517527346],[132.7097680220123,35.37888108035685],[132.70962432870348,35.378666461943155],[132.7095676965773,35.37858188531396],[132.7095293833362,35.37845525699663],[132.70945208797323,35.37816123282854],[132.70937529957692,35.377905029221125],[132.70934684697534,35.377801198112024],[132.70930540912397,35.37765325652277],[132.70933870704576,35.377563534477396],[132.70938487219982,35.37739181701541],[132.70946632050376,35.37713600230319],[132.70950890648461,35.37693937704356],[132.70952771699538,35.37657313322684],[132.70954526504184,35.37650480908963],[132.70964410490006,35.375985030048696],[132.70971525672294,35.375876478705976],[132.7098570351634,35.37565991909511],[132.70999153077182,35.37555392223611],[132.71005524633378,35.375377086706315],[132.7101047932887,35.37523905721362],[132.71011122060258,35.37522920300151],[132.71012257435703,35.37521545059407],[132.71033600554097,35.37495740099256],[132.710598763514,35.374684706506585],[132.71083948317656,35.37444266830024],[132.71090990479965,35.374374962155045],[132.71098423012873,35.374303506570065],[132.71108639015435,35.37430603899094],[132.71117216003387,35.37425736429625],[132.7113052974538,35.37419552286965],[132.71127607410477,35.37416223952926],[132.71117437828246,35.374037096165566],[132.7112327887914,35.37400983588132],[132.71130911563236,35.37396937036849],[132.71133518258677,35.37395712898504],[132.71145631623412,35.37390241752262],[132.71197496781545,35.373629809986795],[132.71209565915876,35.37354712029064],[132.71219106955434,35.37348225720542],[132.71267327831836,35.37327684863618],[132.71291847833783,35.37332558808476],[132.71293086505727,35.373328047006325],[132.7129318535792,35.373317955823254],[132.7129380809764,35.37321318448884],[132.71294140884302,35.37318441464615],[132.71295602165742,35.3731317967108],[132.71298867399707,35.37302879885178],[132.71300760364593,35.37297985714964],[132.71299312015648,35.37297000718579],[132.7129531888023,35.37295639623136],[132.7128560792527,35.3729175339844],[132.71275482019345,35.37286715243533],[132.71264244812969,35.37280077601475],[132.7125554000178,35.372736087896214],[132.71254731169802,35.372728011795935],[132.7124145984716,35.3726480257029],[132.71231723994805,35.37258843184025],[132.71200622477974,35.372391617020455],[132.7119554131661,35.37236381264434],[132.7119031745743,35.37233655552805],[132.71181793408235,35.37229502480821],[132.7117419869631,35.372260753483694],[132.71166462319692,35.37222856173077],[132.71156344570736,35.37219007734251],[132.7114373704083,35.372147738938466],[132.7113557682261,35.37212349845434],[132.71130868917052,35.37211064029411],[132.71107636917202,35.372048669999145],[132.7106830579615,35.37194970037114],[132.7099760273758,35.37178444491814],[132.7091032822054,35.37154345413152],[132.70880015814325,35.3714716474372],[132.7084366612232,35.37137367246879],[132.70825371150937,35.37131779420936],[132.70821224768935,35.37130518009093],[132.70817503671458,35.37136907617118],[132.7078884929846,35.371340883972536],[132.70784815569633,35.37142118149543],[132.70781543921646,35.3714923767435],[132.70769395869505,35.371626869466645],[132.70740889494226,35.37193615547143],[132.70724119377783,35.37213710781335],[132.70693722501628,35.372434037881625],[132.70691787347405,35.37245323418286],[132.70629398739842,35.37319832870044],[132.70608262522035,35.37343778408745],[132.70582315649978,35.3737020350621],[132.7056735019507,35.37385409362072],[132.70561438959427,35.373920069683344],[132.70544171597518,35.37410274316555],[132.70524531463948,35.374308778397314],[132.70515896379302,35.37439645526376],[132.7050202015061,35.374538449861156],[132.7049730273778,35.374610772389794],[132.70484989082,35.374729314744016],[132.7046878563255,35.37488878267209],[132.70448767291097,35.37511588129684],[132.70438626817526,35.37523230729983],[132.70426453376498,35.3754148425284],[132.70418917295962,35.375535335004166],[132.7040541381362,35.37580184993055],[132.70393554181888,35.37605955699847],[132.7038810252116,35.37618671712226],[132.70378411994702,35.37642608316662],[132.70359671542442,35.37679550028424],[132.70333679770988,35.377350477751676],[132.70305887111434,35.37797539339161],[132.70262165310777,35.377853841167784],[132.70241159340165,35.37779428851872],[132.7021684702856,35.3777278510881],[132.7020203201684,35.377693262679564],[132.70188438860964,35.37789226393417],[132.70185391712076,35.37796126618451],[132.7018492836591,35.37804295392473],[132.7018614253743,35.37828159196133],[132.70187645648375,35.378474425860674],[132.70188889818627,35.37855847175044],[132.70191010056632,35.37863580843974],[132.70189875479832,35.378734382162634],[132.70162670643427,35.37872152505133],[132.70160795955175,35.37874937129637],[132.7016829027253,35.378881365590885],[132.7018012049334,35.3790791505823],[132.70193328490018,35.37929652502029],[132.7020445604778,35.379480098700526],[132.7021263580744,35.379633155177515],[132.70221332689619,35.3797692422802],[132.7023001478237,35.379899560986864],[132.7023260878577,35.37992756978951],[132.70240276294612,35.38002151668199],[132.70245835503985,35.38008959658631],[132.70253477356388,35.380194631795675],[132.70261270490565,35.38027874767574],[132.70266128362036,35.38033477978079],[132.7026991824219,35.3803569664649],[132.7028217229411,35.38041276049515],[132.70313131044227,35.380459070577245],[132.703472285454,35.380508215050725],[132.70375632283012,35.38054548779224],[132.70384131033924,35.38070257618498],[132.70391246722926,35.380835397126816],[132.70396931368205,35.38089650289114]]]}}]}
