{"type":"FeatureCollection","features":[{"type":"Feature","properties":{"potaRef":"JP-1302","nameEn":"Shonan Shiomidai Prefectural Park","nameJa":"","boundaryStatus":"全国都市公園GIS候補・公開前検証待ち","boundarySource":"国土交通省「都市計画決定GISデータ」都市公園・緑地を、POTA代表地点で空間照合して加工","boundaryScaleNote":"都市計画データは近似・未収録の可能性がある。POTA運用可否は公式情報で最終確認すること。","candidateMethod":"POTA representative point inside one MLIT urban-park polygon","sourceParkName":"汐見台公園","sourceParkType":"公園","sourcePrefecture":"神奈川県","sourceCity":"茅ヶ崎市"},"geometry":{"type":"Polygon","coordinates":[[[139.43896092622091,35.32158561248102],[139.43881388123683,35.32159083606072],[139.43863989083115,35.32159766256818],[139.43861465858157,35.321600256511914],[139.4385678726501,35.32160010377059],[139.43855687326308,35.32160027879036],[139.438545873876,35.321600453809125],[139.43822662155145,35.32160814305054],[139.43800270572854,35.32161557980757],[139.43785910242593,35.32161982822798],[139.437699345466,35.32162409483514],[139.43742060409502,35.32163219573784],[139.43712115089855,35.3216412845925],[139.43712735271276,35.321691165073574],[139.43713917736133,35.32178606368828],[139.43714605038357,35.321839044541775],[139.43715609242992,35.32190323229617],[139.43716166688537,35.32194937794425],[139.4371823044499,35.322096207294706],[139.4371891948089,35.32213707584118],[139.43721502804692,35.32215201945657],[139.43739417855286,35.322144648515376],[139.43761731136738,35.32213953418497],[139.43778738791795,35.32213375281257],[139.4380448671558,35.322125018175115],[139.43826088392086,35.32211671000528],[139.43831716509402,35.32211689388743],[139.43836712623548,35.3222593829545],[139.43837077027388,35.32226974674694],[139.43844030591376,35.322460186670405],[139.43845946940152,35.32251278482075],[139.43850157619323,35.32262736009232],[139.4385201007241,35.32267882937242],[139.43854394364251,35.32269693559177],[139.43855072404924,35.32269857757921],[139.43855158234499,35.32269872190427],[139.43855282779268,35.32269886659198],[139.43865132822316,35.3227107371323],[139.43887304750797,35.32274061704905],[139.4390759649801,35.32276726496521],[139.43940622457836,35.32281179337004],[139.43943412506482,35.32279068651209],[139.43940029352268,35.32270578707719],[139.4393402256296,35.3225560830062],[139.43927631811803,35.322392141104835],[139.4392424699817,35.322301888944516],[139.4391862075253,35.32216501355962],[139.43916390125014,35.32210472969664],[139.43915300245052,35.32207532775573],[139.43909550367653,35.32193626505846],[139.43908909919878,35.321919272269085],[139.43904188621906,35.32179453957811],[139.4390021991684,35.321694832253655],[139.43896092622091,35.32158561248102]]]}}]}
