{"type":"FeatureCollection","features":[{"type":"Feature","properties":{"potaRef":"JP-1283","nameEn":"Musashino Prefectural Park","nameJa":"","boundaryStatus":"全国都市公園GIS候補・公開前検証待ち","boundarySource":"国土交通省「都市計画決定GISデータ」都市公園・緑地を、POTA代表地点で空間照合して加工","boundaryScaleNote":"都市計画データは近似・未収録の可能性がある。POTA運用可否は公式情報で最終確認すること。","candidateMethod":"POTA representative point inside one MLIT urban-park polygon","sourceParkName":"武蔵野公園","sourceParkType":"公園","sourcePrefecture":"東京都","sourceCity":"府中市"},"geometry":{"type":"MultiPolygon","coordinates":[[[[139.51904931663464,35.68324982282809],[139.51878945443733,35.68334842977739],[139.51877535290083,35.68338386173109],[139.51879439768604,35.68343024536431],[139.51904216606084,35.68396796118766],[139.5193355344782,35.68461059283084],[139.51952340652815,35.685023881692594],[139.51955301859846,35.685088056877994],[139.51984115522225,35.68572129393086],[139.52030338871052,35.68673484240216],[139.52034048227026,35.686817010984086],[139.5206058354372,35.68673046359863],[139.52074307803244,35.686678153171805],[139.52091137360839,35.68660364139233],[139.52103322721902,35.686545455247646],[139.52114760984696,35.68648269499951],[139.52124448305932,35.68642694875713],[139.52135952895037,35.68635890260758],[139.52142978421338,35.68631702146317],[139.52147663504542,35.68628918604283],[139.52152429867985,35.686260866872495],[139.52157610654712,35.68623027254875],[139.52157027164716,35.68622493937477],[139.52154867910843,35.68617882541671],[139.52153705885382,35.68615400953821],[139.52152556463028,35.68612945898674],[139.52151411970303,35.686105018528565],[139.52150280080647,35.686080843397505],[139.5214915914838,35.68605690380582],[139.52148048407463,35.68603318080507],[139.52146944897308,35.68600961663105],[139.52145850374745,35.68598623927172],[139.5214476461844,35.6859630496227],[139.5214369113365,35.685940125292426],[139.5214262652556,35.68591738867541],[139.52141574409563,35.68589491828418],[139.52139491436756,35.68585043053582],[139.52138460579914,35.6858284131787],[139.5213744210462,35.685806662044655],[139.5213643250594,35.68578509862404],[139.52135430138563,35.68576369222773],[139.52134438072468,35.685742503326864],[139.5213345323765,35.68572147145035],[139.5213246840334,35.685700439573026],[139.52131479954173,35.68567932918217],[139.5213049534186,35.68565829730886],[139.52129510509099,35.68563726542896],[139.5212852578768,35.68561623264967],[139.52127537340223,35.685595123156794],[139.52126552619484,35.685574091277175],[139.52125567898906,35.68555306029807],[139.52123594623666,35.68551091801621],[139.5212318011372,35.68550206756555],[139.52122432556172,35.68549051429507],[139.52121719592768,35.68547949553011],[139.52121279657493,35.68547011531724],[139.5212029339141,35.6854490878989],[139.5211930701536,35.68542806047688],[139.5211832097092,35.68540703396394],[139.52117331091029,35.68538592803036],[139.52113381108836,35.68530170914505],[139.52112394735684,35.685280683519736],[139.52111408584716,35.6852596560966],[139.52110422434257,35.68523862867256],[139.52109436063353,35.68521760124197],[139.52108446298595,35.685196495303515],[139.5210746003885,35.685175468775455],[139.52106473779972,35.68515444134516],[139.52105487632087,35.68513341391685],[139.52102752606206,35.68507510114669],[139.5210055020142,35.68502817293156],[139.52099563282553,35.6850071472808],[139.52098576695641,35.68498612163777],[139.52097586272623,35.68496501837677],[139.52092647314075,35.68485978182383],[139.5209166039933,35.68483875616623],[139.52090673816537,35.68481773051631],[139.52087708257935,35.68475454524662],[139.520867216772,35.684733519593266],[139.52085734765538,35.6847124939305],[139.52084747964872,35.684691468269754],[139.52083761386035,35.684670441712484],[139.52082774475565,35.684649416948496],[139.52077835665784,35.68454418123544],[139.5207684525396,35.68452307705503],[139.5207585856841,35.684502051389444],[139.52074680352806,35.68447694657119],[139.52073810668253,35.68446016938024],[139.5207273899891,35.68443949123572],[139.52071663272585,35.68441873546724],[139.520705873255,35.68439798059343],[139.52064131227127,35.684273414362174],[139.520630553944,35.68425265948418],[139.5206197967271,35.68423190460803],[139.52060903951923,35.68421114882956],[139.52059828231688,35.684190393050024],[139.52055523490102,35.68410733922702],[139.5205444777264,35.68408658344251],[139.52053433462493,35.684067012747384],[139.52053371944902,35.68406582855545],[139.5205122446011,35.68402439370018],[139.5205014874486,35.68400363791161],[139.5204907291969,35.6839828821192],[139.5204615640499,35.68392752368347],[139.52038268557504,35.68376220804894],[139.5203735870829,35.68374307811918],[139.52036504306557,35.68372511599912],[139.52009544549244,35.683137985393586],[139.52009474325428,35.683136466565536],[139.5199548896643,35.68283376872818],[139.51995281137513,35.682828445251765],[139.51982948297632,35.682865260501615],[139.51967443774282,35.68293263948374],[139.5196682255583,35.682939113143185],[139.51963610812794,35.68295885954169],[139.51953204392188,35.68301339147528],[139.5194347335892,35.68306415518515],[139.51938392091358,35.68309061302484],[139.51937340245814,35.68309617407219],[139.51924011012713,35.68316658372654],[139.51921597774725,35.68317877845789],[139.5191805644743,35.68319373978982],[139.51915035437904,35.68320655050711],[139.51904931663464,35.68324982282809]]],[[[139.51742052009945,35.68380837349382],[139.51740774780114,35.683825375815246],[139.51743568911692,35.683884037989486],[139.51747810898692,35.68396932756786],[139.51753466468242,35.68408413071367],[139.51754222776353,35.684099383653994],[139.51757456218797,35.68416472743245],[139.5175835458579,35.684183679700475],[139.51769454899082,35.68441607276547],[139.51771328988934,35.68445452012962],[139.51792326166364,35.684889168711706],[139.5180516994895,35.68515504781044],[139.51812490607207,35.685306488856526],[139.51819011303226,35.68544159327444],[139.51821795527047,35.6854976419325],[139.51830082146196,35.68566524261287],[139.51832876760767,35.685723003211024],[139.51837523755208,35.685818398356695],[139.51838229018813,35.685832892757205],[139.51849075441316,35.68605576086266],[139.51872913376897,35.686545195188806],[139.5187655265261,35.686618571394156],[139.51902741536065,35.687161693322984],[139.51903129059394,35.68716973010954],[139.51912641727037,35.687198191195755],[139.51919755121813,35.687177566078944],[139.5194262418389,35.68710495901022],[139.52028484068174,35.68683435282469],[139.5202375514225,35.68673244842702],[139.51997499430695,35.68615957231829],[139.51969443335477,35.68554151364748],[139.5194972394901,35.68510212874598],[139.51871883030205,35.683405226967935],[139.5186942434149,35.68339835919562],[139.51865437534832,35.68341867727199],[139.51855020603392,35.68349345818824],[139.51849055881834,35.683546625293694],[139.51842520201734,35.68361157092165],[139.518362709491,35.68363669710251],[139.5182033044343,35.68368856015633],[139.51813198390732,35.68370369669353],[139.51796188300062,35.68375021245624],[139.51788306751837,35.68376082147562],[139.51771939644175,35.683773643515906],[139.5177160813492,35.68377381509863],[139.51757062433606,35.68378992870418],[139.51742052009945,35.68380837349382]]],[[[139.52207638852516,35.687222464692944],[139.52207695263095,35.687220595815624],[139.52207693509706,35.68722055881426],[139.52207638852516,35.687222464692944]]],[[[139.51982776127807,35.68999453661167],[139.51996825523028,35.68990121891062],[139.5200067501575,35.68987565000168],[139.5200748357124,35.68983042717695],[139.5202481720504,35.689715295007666],[139.520509251376,35.688839485130615],[139.5205284235946,35.688817869706355],[139.52064397604366,35.68868759435757],[139.5207337973505,35.68863221331795],[139.5207384490219,35.68862934102407],[139.52076757755532,35.68861129919095],[139.520780535725,35.688603310673265],[139.52079361095267,35.68859703595563],[139.52101985676896,35.6884884667335],[139.52113102475283,35.68845549465883],[139.521189097628,35.68843824887469],[139.521375399828,35.68834769377213],[139.52146254093597,35.688242639945756],[139.5215973443863,35.68789938817679],[139.521754761619,35.68776989886225],[139.52177058855025,35.68775687992331],[139.52191243719415,35.68759086549069],[139.5219729248552,35.68752007357858],[139.5220244576311,35.68739437606885],[139.52203195875185,35.687369569124826],[139.5220379959169,35.687349601437624],[139.52202362734175,35.687323706778685],[139.5219681689263,35.687206341527634],[139.52196708075334,35.687204039326936],[139.5218834694609,35.687027065049236],[139.5217338863341,35.68671074895559],[139.52167865774703,35.68659387900654],[139.52164681665448,35.686526426622315],[139.52164611206027,35.68652493033207],[139.52164424250276,35.68652099553284],[139.5216438655258,35.686520201354114],[139.5215914291832,35.6865515593381],[139.52152597923038,35.686591049977054],[139.52144547715824,35.6866372618363],[139.52139963176097,35.68666418405896],[139.52134925124608,35.686692446561516],[139.52134919478019,35.68669247706164],[139.52130352469254,35.68671720577506],[139.52123553650068,35.686755878445574],[139.52121417068898,35.686766729591696],[139.52112450830364,35.686810303521476],[139.52109868437952,35.68682257806122],[139.52101625253803,35.68686176117648],[139.52099754852702,35.686869422942905],[139.52099644965992,35.686869872578086],[139.5209429946,35.68689176688916],[139.5208117528007,35.68694505758157],[139.52074028073764,35.686970380699584],[139.52064973070233,35.687002338760585],[139.5206211242945,35.687012434577994],[139.52057376413535,35.68702734544371],[139.52045784655883,35.68706383893093],[139.52045348371365,35.68706519947235],[139.5203993298204,35.68708207561919],[139.52039929221363,35.68708208633786],[139.5202160366165,35.687139336973125],[139.52015983708117,35.68715689633539],[139.52015979836594,35.68715690795243],[139.52008981575614,35.6871787102136],[139.52004956774562,35.687191256164084],[139.52003240946559,35.68719660348729],[139.51999689267907,35.68720766997095],[139.51999685396024,35.68720768248933],[139.51991901592118,35.68723198442607],[139.51991897720237,35.687231996944405],[139.5197368230231,35.68728882156536],[139.51969866116642,35.687300726552365],[139.51969862134268,35.687300739067766],[139.51962597770193,35.687324873171846],[139.51962593566495,35.6873248865828],[139.51962107386146,35.6873264107438],[139.51961513571823,35.68732827101364],[139.5196150958945,35.687328283529006],[139.51951237220936,35.68735955100913],[139.5195123312807,35.687359563521525],[139.51942157256545,35.68738673745952],[139.5194174654199,35.687387967030425],[139.5194174233864,35.687387979539956],[139.51931249061107,35.68741933122516],[139.5193124474762,35.687419342830424],[139.51928797488995,35.68742555160327],[139.51922552708317,35.687441396053515],[139.51917745447946,35.687453592296855],[139.51917741243878,35.68745360660903],[139.51913552608588,35.687471957284615],[139.51912550439545,35.68747634692344],[139.51911813228133,35.687479576207274],[139.51898324420404,35.68750365110377],[139.5188845332804,35.68752158739816],[139.51883066621397,35.68753137523949],[139.51868354706252,35.68755857713589],[139.5186744364199,35.68756026141321],[139.51865674184168,35.68756427131269],[139.51865243085902,35.687565071274186],[139.51865238551784,35.68756508197202],[139.51864779156696,35.687565913642906],[139.518640544069,35.68756722601654],[139.5185425297789,35.68758497726811],[139.5185424844483,35.68758498526186],[139.51849467323814,35.68759359447665],[139.5184038835426,35.68760994305373],[139.5184038371036,35.68760995194588],[139.51836319504682,35.68761749912395],[139.5183631463981,35.687617508010305],[139.51825439268632,35.68763780613285],[139.51824698911562,35.68763918838087],[139.51824694047045,35.68763919636587],[139.5180536111896,35.687674286080465],[139.51805356254079,35.687674294966726],[139.51792701131944,35.68769775054001],[139.5179269626706,35.6876977594262],[139.5177870342684,35.68772388390348],[139.5177869845183,35.687723891885405],[139.51776244346956,35.687728354221065],[139.51770687340658,35.68773845617816],[139.5177068247577,35.68773846506427],[139.51767094064297,35.6877450329791],[139.5176708897844,35.687745041859394],[139.51763721824594,35.68775116398101],[139.51763716849223,35.68775117286421],[139.51760232140015,35.68775756951423],[139.5175336178692,35.68777018150386],[139.51753356590575,35.687770190381215],[139.51752112383903,35.68777249138037],[139.5175210729769,35.68777250116195],[139.5174862947509,35.68777880061138],[139.51748624499714,35.68777880949452],[139.5174108745744,35.68779257389623],[139.51734421892186,35.687804745876576],[139.51734416695837,35.687804754753856],[139.5173414923789,35.687805241682476],[139.5173306182225,35.68780723129905],[139.51717173536795,35.687836198691265],[139.51704944785845,35.687858952457944],[139.51691400195432,35.68788323718954],[139.51686513575228,35.687891998919376],[139.51685810037048,35.6878933009267],[139.51667451914776,35.68792728193125],[139.516631397881,35.687935280797774],[139.51654228092943,35.68795172070235],[139.51637388722227,35.6879828261926],[139.5163478277256,35.687987620451096],[139.51617099591547,35.688020148328995],[139.51596642788664,35.68805842205226],[139.51596290628402,35.68805908068097],[139.51574619970333,35.688097989039484],[139.515674773277,35.6881111399123],[139.51559604799297,35.68812598587775],[139.5155471146075,35.68813517774724],[139.51550803511557,35.688142518967105],[139.51547221245195,35.68814882408983],[139.5154293137081,35.68815637242922],[139.5153687655298,35.68816761480941],[139.5152110522688,35.688196898175946],[139.51514437654205,35.68821006218837],[139.51500152290882,35.68823645511317],[139.51498659515377,35.68823920987523],[139.51491892788164,35.688251920457354],[139.5148287021217,35.688268897879254],[139.51472458278144,35.6882883334461],[139.51467633937892,35.68829733840141],[139.51462891450947,35.688306106642266],[139.51444146079604,35.688335155226845],[139.51444407404304,35.68834037114466],[139.51449303410527,35.688438097156585],[139.51449960190587,35.68845269865695],[139.51450472297367,35.688464083856125],[139.51453495327422,35.688531296769796],[139.51457177773176,35.68861317073131],[139.51458332427757,35.68863884066618],[139.51466576022446,35.68882211196134],[139.51468320663074,35.68886089795926],[139.5147180042055,35.68893825967644],[139.51480161372814,35.68912413712248],[139.51486235249627,35.68925916833284],[139.51492162388578,35.68939093809174],[139.51498468708903,35.68953113660566],[139.5150092789627,35.68958580729391],[139.51513842900184,35.68987292465163],[139.5151455731187,35.689888807576935],[139.51519959712536,35.69000890865527],[139.51520392983107,35.69001854038472],[139.5152094541646,35.69003081536401],[139.51521006311668,35.69003216721951],[139.51530396366752,35.69000566998787],[139.51547041961462,35.68995869775881],[139.51589489826705,35.68983891396582],[139.51592019757436,35.68983177515359],[139.51601002824813,35.6901021243412],[139.51601027719795,35.69010287313123],[139.51592066604664,35.69018763570749],[139.51596067922347,35.690308549487156],[139.51598469176602,35.69038111326328],[139.5160390408762,35.69054534930001],[139.516081997991,35.69067515916214],[139.51608214757616,35.690675610239296],[139.51663273908392,35.690595773888745],[139.51663590975232,35.690595314421046],[139.51664627182018,35.69074058508992],[139.51664950879234,35.6907859665651],[139.51664972861653,35.69078905432176],[139.51684529141818,35.690781066030276],[139.516875768433,35.69077982114254],[139.51717602317774,35.69076755557859],[139.51745118478922,35.69075631407743],[139.51758864566767,35.69075069773383],[139.51767800572486,35.690747047189014],[139.51796100916656,35.69105734953975],[139.51805638745017,35.691161927970306],[139.51807791209833,35.69118552801877],[139.5180271448244,35.691254890373536],[139.51815154589156,35.69138845064259],[139.5182176002592,35.69145936817057],[139.5182760524203,35.69143067745301],[139.51828092425893,35.691428076242055],[139.51835452030284,35.69138898189264],[139.5186467314046,35.69123375661546],[139.51865225531714,35.69123082268711],[139.51870787642767,35.6912012761722],[139.51885501778992,35.691123112908016],[139.51885433588836,35.69112203129025],[139.51876830325403,35.69098559028507],[139.5186821819745,35.69084900656854],[139.51868858928023,35.69084366829997],[139.51892992241318,35.69064259113804],[139.51895398183373,35.69062254449466],[139.5189832468697,35.69059816054557],[139.5189841447718,35.69059741295366],[139.5191071828674,35.69063775482404],[139.51921728132118,35.69048399869293],[139.5193843959794,35.69030130948589],[139.5193870580266,35.69029839960747],[139.51939572501888,35.69028989168073],[139.51947498565556,35.69021208511289],[139.51951627521427,35.69017155376014],[139.51957061372042,35.69014169252403],[139.51977681710014,35.69002837461989],[139.51982776127807,35.68999453661167]]]]}}]}
