{"type":"FeatureCollection","features":[{"type":"Feature","properties":{"potaRef":"JP-1747","nameEn":"Takaoyama Prefectural Park","nameJa":"","boundaryStatus":"全国都市公園GIS候補・公開前検証待ち","boundarySource":"国土交通省「都市計画決定GISデータ」都市公園・緑地を、POTA代表地点で空間照合して加工","boundaryScaleNote":"都市計画データは近似・未収録の可能性がある。POTA運用可否は公式情報で最終確認すること。","candidateMethod":"POTA representative point inside one MLIT urban-park polygon","sourceParkName":"スポーツ公園","sourceParkType":"公園","sourcePrefecture":"大分県","sourceCity":"大分市"},"geometry":{"type":"Polygon","coordinates":[[[131.64606900088373,33.19736725846236],[131.646290992995,33.1972475307854],[131.64651267270838,33.19736279051521],[131.64658761222108,33.19744617044233],[131.6466480035489,33.197928816020365],[131.64648872060326,33.19845263836011],[131.64645593152648,33.19879248495058],[131.64635361318543,33.19912854444235],[131.64643637646867,33.19935705964749],[131.64685852012613,33.199676056956335],[131.6469793524538,33.20012204934782],[131.6470049107895,33.200272231937596],[131.64701675253298,33.20040932107764],[131.64701797677915,33.20054664546581],[131.64700847512975,33.20068384671157],[131.64698834791207,33.20082019945679],[131.6469738000756,33.20088375581147],[131.64742094785535,33.20095706956653],[131.64744463410608,33.200960952559036],[131.6474487840191,33.20094337335599],[131.64747248625716,33.20094719047094],[131.649312768059,33.201243522274844],[131.64933646908003,33.20124733903978],[131.64942761205006,33.20186625629236],[131.6492586432094,33.20279681623228],[131.64924946823075,33.20318093038257],[131.64924898366618,33.20320121441486],[131.64924098502203,33.203227629485],[131.64922712021706,33.203244235649315],[131.64910755572504,33.203387431189],[131.64954963875957,33.20347737589959],[131.64955965145745,33.203729263483794],[131.64958465569552,33.20377466940107],[131.65000148242675,33.20421171816912],[131.65006647892127,33.20424014350209],[131.64989926434646,33.2045603131064],[131.6498502554917,33.2046266339478],[131.64983751967048,33.20464386793439],[131.64981865857814,33.20466939100791],[131.6498029173716,33.204684768580904],[131.64977244089238,33.20471453740375],[131.6496974611772,33.20472845486599],[131.6495983642433,33.20471635567613],[131.64924570844013,33.2046749056102],[131.64914013905542,33.204671669406174],[131.64906073327313,33.20469643014236],[131.64898316589964,33.20479078838242],[131.64894380946896,33.20484613293184],[131.6489073916308,33.204911038494885],[131.64875349958413,33.20496755955607],[131.64873138353653,33.204975681490545],[131.6486857383604,33.204968802662776],[131.64866345281075,33.20496101721079],[131.64862857502388,33.20494883065512],[131.6485568572312,33.204906915909476],[131.64783927851406,33.20457096370392],[131.64729123094995,33.20427309356145],[131.64722042506054,33.20421295663918],[131.64717902092048,33.204139773274385],[131.64715761855683,33.20404448232103],[131.6470883607185,33.204019865683634],[131.64685608558077,33.204041541684326],[131.6467662583801,33.20407852841569],[131.64670563710223,33.204163423975345],[131.6467029066416,33.20427344674726],[131.64676934498397,33.20438157844729],[131.64702727957874,33.204625413962894],[131.64710975185244,33.20472588712934],[131.64716066832978,33.20482336761786],[131.64717362879693,33.20490842204991],[131.6471650680279,33.20498412054169],[131.64713133555577,33.20504994075482],[131.64701883936195,33.2052131943625],[131.64700905835838,33.205297916904755],[131.6478977756327,33.206658487809946],[131.64834809531888,33.20638544825248],[131.648510584784,33.206310661624386],[131.64875363650373,33.20662959241572],[131.64895975988574,33.20662428064432],[131.6491583298315,33.20671485911144],[131.6492183712877,33.206797755186784],[131.64934880621902,33.20666687466909],[131.6494671222216,33.20680901716246],[131.64951004093768,33.20684647066617],[131.64955932540502,33.20687860933725],[131.64961489417038,33.206903328344104],[131.64967604013833,33.2069215570333],[131.64994973425505,33.206943748458094],[131.6500040056567,33.2069433842039],[131.6500673547286,33.206932364313026],[131.65008859185215,33.20701164573834],[131.65044803292852,33.20758397651348],[131.65090257495513,33.20767427812898],[131.65125290975496,33.20751590771973],[131.651350809588,33.2078299130432],[131.6515023205529,33.20789485469688],[131.651388640461,33.20808598172943],[131.65152477083794,33.20816417551193],[131.65132213916345,33.20835089746256],[131.65133989476524,33.208492504837224],[131.65172441896925,33.20891591913406],[131.65181890033637,33.20946384027681],[131.65178179520126,33.20972477144743],[131.6516896937996,33.21026592165362],[131.65188098266245,33.21045318704086],[131.6522549449155,33.210678063257944],[131.6520613242054,33.210925843253506],[131.65181907291597,33.211317703951636],[131.6522519748207,33.21157780088207],[131.6519621208075,33.212026261324006],[131.65183764843022,33.21215072365447],[131.65180590715784,33.21225591451885],[131.6516118032708,33.21233166853996],[131.65150068837718,33.21302887937939],[131.651622847196,33.21317765339345],[131.65187230479694,33.21335324177783],[131.65207574374642,33.21341099925375],[131.65243428281255,33.213437130940754],[131.65250111496812,33.214728146052856],[131.65241869907663,33.21471991253454],[131.65174599948446,33.21465325951395],[131.65176660884666,33.21472332990465],[131.65188219023713,33.215092427145194],[131.65159015577248,33.21537982472996],[131.6517271115675,33.21556013204429],[131.6518201931648,33.21571482917758],[131.65192248588573,33.215925384142494],[131.65199798574207,33.216081525813344],[131.6520508108982,33.216188913451795],[131.65207487452614,33.21626579357807],[131.65208944503914,33.216321082354504],[131.65211287179667,33.21639886752128],[131.65212810914545,33.21647173618635],[131.65216376885502,33.21663674297367],[131.65222930698206,33.216621250681456],[131.65237850565748,33.216574841869544],[131.65276480819028,33.21644495305891],[131.65319206330244,33.21629717451645],[131.65342447969107,33.21618937182157],[131.65347089142563,33.216169741270654],[131.65389918178076,33.21600283857515],[131.65400899324482,33.215968807915566],[131.65436438102017,33.21590904951667],[131.6543800103921,33.21590463910238],[131.6543999151707,33.215898132262595],[131.6544333682031,33.215881454986075],[131.6544780765014,33.2158492090497],[131.65452108387035,33.2158190459827],[131.6545744360742,33.21578071307073],[131.65462298118132,33.215745110563084],[131.65464730131268,33.21572649751089],[131.65466202949756,33.21571632084463],[131.65472809913211,33.215671518798615],[131.65483126741555,33.21560983980744],[131.65495691134703,33.215541189414694],[131.65505239300666,33.215498937513615],[131.65520477813158,33.21544872136165],[131.6553576183756,33.21540201930438],[131.65542932895406,33.21538009066718],[131.65545980692505,33.21536730614967],[131.65572255669235,33.21525681459638],[131.65594434173323,33.215162679096835],[131.6561331705522,33.21507989822229],[131.65617442740842,33.21505966265154],[131.65622340323586,33.215024417936235],[131.65635247430077,33.21492653259197],[131.65643966632672,33.214851771547835],[131.65649754911718,33.214788256143265],[131.65654182271828,33.214726706115634],[131.6565658860736,33.214688166205185],[131.65664552898068,33.21456502290384],[131.65667130586385,33.21452611324508],[131.65669409399925,33.21448920312128],[131.65672388308795,33.21444170601031],[131.6567265338382,33.21443754414375],[131.6567284377443,33.21443392724622],[131.65674084209272,33.21441429462138],[131.65674392259194,33.21441022065746],[131.65677473178044,33.21435568479449],[131.65680366532257,33.21430855286473],[131.6568563414773,33.21422306299599],[131.6569079529258,33.21413866078013],[131.65694017999587,33.21408727338277],[131.65698792610496,33.214016777909364],[131.65703928288647,33.21394139410551],[131.6570980648192,33.2138547898372],[131.65714209469488,33.213789453688555],[131.65718855932803,33.21371977644583],[131.6571976907264,33.21370719441677],[131.65720183240606,33.213701581925726],[131.6572168960142,33.21367895955675],[131.65722082585066,33.2136737088689],[131.65723302420966,33.21365524950815],[131.65724850878667,33.21363154285701],[131.65727972278583,33.21358818596099],[131.65732089592763,33.21352818494081],[131.6573543173175,33.21347877489257],[131.65739962931485,33.2134128006797],[131.65743519125732,33.21336274810184],[131.65745939483583,33.213328715836504],[131.6574979150336,33.21327260613735],[131.6575197789007,33.21324129136012],[131.65754432714445,33.21321032307884],[131.65756315304566,33.21318876284094],[131.65759920052568,33.213146282033755],[131.65762684598923,33.21311349394324],[131.65763716732354,33.21310225816134],[131.65768950729205,33.213043730911],[131.65770791484417,33.21302361560211],[131.65771386989022,33.213016640940516],[131.6577258811764,33.213001879540435],[131.6577338655336,33.21299372192529],[131.6577661935677,33.21295594963424],[131.6577885328776,33.21293085411162],[131.65780310708962,33.21291454624465],[131.6578145907799,33.21290095985113],[131.65781672128657,33.212898964820994],[131.65785836396955,33.21285879881152],[131.6578738495894,33.21283527241871],[131.657891869135,33.21280632235253],[131.65790924708944,33.21277764618966],[131.65792596928443,33.21274735040924],[131.65795031821665,33.21270411981265],[131.65796646693656,33.212668867640694],[131.657979181073,33.212633363114215],[131.6579859085113,33.212614932607686],[131.65801619339416,33.21251919094665],[131.6580687166852,33.21235624426654],[131.65808425405191,33.21231098630316],[131.65810360099448,33.2122444277759],[131.6581217187522,33.21218563047334],[131.65812937980556,33.21216295697182],[131.65813232320008,33.212154916163385],[131.65813593718963,33.212150478657954],[131.65814273407705,33.212141335413094],[131.65816167564637,33.21212094669808],[131.6581741306516,33.21210816667454],[131.6581389410964,33.212078866800184],[131.65814647683953,33.21206809660014],[131.6582159487675,33.21196249914733],[131.658347762601,33.21195972774756],[131.65845074794765,33.21190309603664],[131.6585845713249,33.211771384738974],[131.65873863534048,33.21161320555806],[131.65894453964265,33.211376948750036],[131.6596546350398,33.21060245049038],[131.65920477713186,33.210203884210536],[131.65922091596224,33.20996709928035],[131.65942671816086,33.20996104929839],[131.65944195090447,33.209832384634645],[131.65967594974407,33.20982438196827],[131.65968926638874,33.20975496981183],[131.65983823225287,33.2097510232944],[131.6598788582513,33.20927560613321],[131.6600134331098,33.209183728559076],[131.65994131449838,33.2090218927735],[131.65935055572493,33.20893079605222],[131.65932756453975,33.20841089990906],[131.65939913218548,33.20837075530768],[131.6594237794899,33.208124366180186],[131.6597068527997,33.208138465909556],[131.65983609397048,33.20823678848371],[131.65999169142196,33.20824489103223],[131.66002283903364,33.20806465333477],[131.65992987669588,33.20804097987438],[131.65987798175146,33.20784359959081],[131.65978326179714,33.20765717686723],[131.65982148375068,33.207190247554365],[131.6600046004301,33.20719225201532],[131.66000708257755,33.206939761503484],[131.65902501512295,33.20687147522721],[131.65902631640427,33.20681610285939],[131.65929328556385,33.20661423779559],[131.6597998192863,33.20636141770012],[131.6598967063859,33.20622204072335],[131.65982884216487,33.20611230095291],[131.66018759667858,33.20589245433832],[131.6602347830706,33.20587730799222],[131.660282118277,33.20582950064194],[131.66034520065182,33.205696938123346],[131.66043960403096,33.20557001725385],[131.66056805312962,33.2055773606126],[131.66079372771958,33.20531962467456],[131.66110236735238,33.205154505582684],[131.66127739457832,33.20480885054067],[131.66136081812408,33.20476726717261],[131.66142936283342,33.204746846472645],[131.66145210969705,33.20474007049686],[131.66144726980602,33.204699327815675],[131.66147136464625,33.204698178287956],[131.6615096506924,33.20469635314237],[131.66157437886702,33.2046865654544],[131.66164655445644,33.204656229282605],[131.66170156088265,33.20462036459405],[131.66177939837203,33.204559004696115],[131.6619035229128,33.20441496033674],[131.66194312420927,33.20434857173909],[131.66189981725512,33.20433613827428],[131.661876978434,33.20432958158247],[131.6618812772796,33.20431737967427],[131.6618970590768,33.20430203153518],[131.6619148594178,33.20428471976336],[131.6619153308769,33.20422422484391],[131.6619358582653,33.20417869124036],[131.6619292566945,33.20409598917737],[131.66190109810955,33.20402325049778],[131.6618099502878,33.203888798527515],[131.66175263582525,33.203828232313334],[131.6616771276649,33.20377409932551],[131.66159924399423,33.20373505845318],[131.66157851554354,33.20372466779778],[131.66154293167293,33.20372464343069],[131.6615255732722,33.20371089923384],[131.66154900992774,33.20370606208167],[131.66159596548195,33.20369637116823],[131.6616191940673,33.20369179941925],[131.66160821069118,33.20367355923121],[131.6615620386789,33.20359941346974],[131.66155084590008,33.2035814398538],[131.66155148678467,33.20354398403154],[131.66156240002002,33.20352588828731],[131.66163121659403,33.203411794020745],[131.66167681914501,33.20336845630441],[131.6616928092696,33.20335326058994],[131.66168639961492,33.20332030090126],[131.6616973141769,33.20330220629211],[131.66177203309587,33.20317832301393],[131.66185903778936,33.203124460430175],[131.66188675405976,33.20299944431905],[131.66183708217534,33.2029814387593],[131.6618182918445,33.202932834036446],[131.66181083311892,33.20291353980866],[131.66181333937493,33.20289428838686],[131.66182653659075,33.202879420293385],[131.66183611399782,33.20286079839076],[131.66189059069114,33.202754879208015],[131.66192710193477,33.20271125849638],[131.6619450305476,33.2026508322981],[131.66198027503194,33.20258137591932],[131.6621520280093,33.202189256460706],[131.66216532917036,33.20211271576116],[131.66221562158316,33.20196337023468],[131.66223290888132,33.201928861353956],[131.66224227410078,33.20191016321673],[131.66222455850004,33.20188905841233],[131.66223301807094,33.201870058079216],[131.6623308266475,33.20165037010185],[131.66236261016263,33.201554766460944],[131.6623876845834,33.20149530400056],[131.6624267665828,33.20147958593517],[131.66244853658537,33.20147082976694],[131.66245907735856,33.20148810272129],[131.66245283410387,33.2015076995332],[131.66243728697685,33.20155649964055],[131.66243104372137,33.20157609760541],[131.66245487517597,33.201572904063944],[131.66247940473733,33.20156961792898],[131.66248429089802,33.20154975017927],[131.66249761996005,33.20149555678527],[131.66250250748564,33.2014756890274],[131.66253431004293,33.20145300372383],[131.6625429387745,33.20143405671569],[131.6626600643859,33.20117686514931],[131.66266869306412,33.20115791813228],[131.66264370778404,33.201142063276116],[131.66261176349977,33.20115429929392],[131.66258813818777,33.201174272587345],[131.66258824484393,33.20115398475946],[131.6625883202192,33.20113956848066],[131.66258836961765,33.201129905309216],[131.66258090951098,33.20111061112953],[131.66257239932395,33.20108860672226],[131.6625566084757,33.20106894253613],[131.66256439915279,33.2010497402936],[131.66271079841536,33.20068887781197],[131.66271792651264,33.200655540215294],[131.66262084107206,33.20061483396799],[131.6624954490839,33.200581168862364],[131.66247246170204,33.20057499625237],[131.66247961127024,33.200555618526366],[131.66248689405077,33.200535882290794],[131.66250932025355,33.200543375974675],[131.662538341928,33.200553074833884],[131.66256204951526,33.200402785719184],[131.6625877145124,33.200298395385296],[131.66260017324575,33.200261558753176],[131.66260677395277,33.200242044283954],[131.6626217247211,33.200227297191695],[131.66259554298182,33.20023920127969],[131.66257680709225,33.20022641445314],[131.66255029231075,33.200208319347134],[131.6626680674492,33.199843471469514],[131.6629144000639,33.19963972444099],[131.66292438028185,33.199498102485656],[131.66304891123883,33.199427917402204],[131.66314385397183,33.1991890878468],[131.6630394079011,33.19919162837282],[131.66303008516294,33.19912373641552],[131.662981768931,33.1991153904395],[131.66295813044357,33.19911130816621],[131.66292435468426,33.199097561571776],[131.6629343224586,33.19907908638981],[131.66296059043282,33.19903040222882],[131.662942763531,33.19896004172733],[131.66290582311476,33.19888340495185],[131.66293076419598,33.19870382841811],[131.6628581668321,33.198683498456056],[131.66261394699234,33.198648321753026],[131.6624992028219,33.19860425142846],[131.66241467870262,33.19853274424672],[131.66232464053513,33.198482098398046],[131.66223238863137,33.19839943075927],[131.66216046505824,33.19828124768692],[131.66218723580866,33.198161448797826],[131.66233804940293,33.1980972037229],[131.6621303295014,33.19810502752571],[131.66206779862551,33.198132870390694],[131.66201783213717,33.198134278828526],[131.66199371497584,33.19813495881203],[131.66199224112808,33.19809891424227],[131.66196811463956,33.19809853587431],[131.66177991513095,33.19809558474303],[131.66156538005816,33.19805261658977],[131.66135151299025,33.1980312764238],[131.66122957616315,33.19803829660802],[131.66113768241306,33.19801623990472],[131.66093940888354,33.198013616866],[131.66071162685643,33.19801859240761],[131.66049655900053,33.19799727561172],[131.66028019819223,33.19797232266518],[131.6600656752349,33.19798078621801],[131.65984951654056,33.197971960162036],[131.6596341938497,33.197974472722265],[131.65944784594336,33.19798663281209],[131.65923330357177,33.19799417167812],[131.65898900275891,33.19800272646165],[131.6587718679892,33.19798253142319],[131.65857379777,33.19799549901442],[131.6583512682835,33.197998479158],[131.65812530388325,33.198009345211155],[131.6579094370695,33.1980208119067],[131.65769329982234,33.198037797861545],[131.65751557909286,33.198075576450975],[131.6572595949289,33.19808707043325],[131.6571837583351,33.19807725165179],[131.6570451048002,33.19797869641094],[131.65682930943834,33.19797400213073],[131.65669456171116,33.19797027990992],[131.656727657008,33.19794823098742],[131.65675888117525,33.19792288169939],[131.65678047734139,33.197902281937246],[131.6568053646184,33.197872727874106],[131.65682789913498,33.19784266337212],[131.656847055056,33.19780983854997],[131.65686345189928,33.197798020779544],[131.65686891424235,33.19778843406485],[131.65686579356273,33.19777057090452],[131.65689891804328,33.197711630256954],[131.65692099847945,33.19768125188512],[131.6569484133441,33.19765412788249],[131.6569777821758,33.19763018721657],[131.65701135982624,33.19760767861162],[131.6570477587657,33.197589965787444],[131.65708588219363,33.19757503930804],[131.6571260399031,33.1975637551029],[131.65718802283823,33.19755392304118],[131.65723093505778,33.19755246145942],[131.6573591946299,33.19755459688271],[131.65739834922982,33.19755495101637],[131.65766111242718,33.197559271493944],[131.65787634104606,33.19756155968461],[131.65794117691863,33.19756185984776],[131.65794449213934,33.19757046300235],[131.657956085166,33.19757038440466],[131.6579609663148,33.197562035703314],[131.65800324507885,33.19756196685437],[131.65813349504924,33.197560950393004],[131.658215815121,33.19755571131413],[131.6582399486775,33.1975517344429],[131.65834347209324,33.19753070340648],[131.65842528650927,33.19750688317654],[131.6584476248567,33.19750498869562],[131.65846405690002,33.197503596369366],[131.65851171334265,33.19752154242155],[131.65855265046153,33.19752857762712],[131.65859477302521,33.19754065499351],[131.65861487765758,33.19754424664719],[131.65865359540103,33.19755116313963],[131.65874212903472,33.19753805962038],[131.65882129641216,33.19750872570299],[131.65888140919492,33.197501994785966],[131.65897147273856,33.19751903633787],[131.65901422985937,33.19751978524527],[131.65903520942348,33.19751848533857],[131.65905580726928,33.19751497716706],[131.6590767501778,33.19751025064386],[131.6590982804866,33.1975038520412],[131.65915441751156,33.19747971486282],[131.65922707298844,33.19743329616176],[131.6593324821605,33.19743386199282],[131.65985210436432,33.19738863734425],[131.66131232695068,33.197328397943416],[131.6610677022845,33.196760094437536],[131.6607833962425,33.19685081531353],[131.66075876302136,33.19685804669486],[131.6607670456294,33.19687710233414],[131.6607722800349,33.19688914164855],[131.66078056264888,33.19690819728677],[131.66075674096334,33.19691143546306],[131.66025011624558,33.196973902067974],[131.66016700267517,33.19694611942006],[131.65972103185175,33.197015571659435],[131.658895006772,33.19711994786871],[131.65834745557726,33.19718794885222],[131.6580830527583,33.19721315239795],[131.65769212507251,33.19724290097588],[131.65726714429252,33.197265524416466],[131.65677738458498,33.197288308201635],[131.65628712835132,33.197301986081854],[131.65530619893352,33.197302555153044],[131.6548158486926,33.197289265739336],[131.65447431759688,33.197264500623255],[131.65445027592614,33.19726275724554],[131.6544261460046,33.197262991463276],[131.65404327498476,33.19723785619015],[131.65401921670065,33.197236276712026],[131.65399508519656,33.19723611265715],[131.6535888754234,33.19720255064733],[131.6533740341493,33.19718297585388],[131.65315942530734,33.19716159661619],[131.65294508184877,33.19713841160827],[131.65273102581952,33.19711342994935],[131.6526191665235,33.19709941365296],[131.652517279197,33.19708665152555],[131.65230386115306,33.19705806815857],[131.652090525811,33.1970276592084],[131.6518718122859,33.19699452761203],[131.6516657825015,33.19696158314402],[131.65145388945578,33.196925849323364],[131.6512660553769,33.19689252501955],[131.65124244468,33.196888336488286],[131.6512185409992,33.196885554141254],[131.65092664084577,33.1968286049223],[131.65091034927045,33.19687644495971],[131.65121409669476,33.19694947711409],[131.65123748682805,33.19695446781626],[131.6512599909017,33.19696179000823],[131.65177218029447,33.19707806373468],[131.6517962260585,33.19708352296381],[131.65182215322557,33.197090363140596],[131.65220934060258,33.19717383182548],[131.6524162873724,33.19721704060997],[131.65262370678778,33.19725879459269],[131.65280757850542,33.19729430288902],[131.65285705466943,33.19730363358425],[131.65303907115683,33.19733719606182],[131.65324748660802,33.19737379490947],[131.65343265757014,33.19740469022053],[131.65348004326663,33.19741238922239],[131.65366557209606,33.19744172529745],[131.65384817807566,33.19746900236127],[131.65387520088228,33.19747305127952],[131.6538990019332,33.19747640036323],[131.65426964671136,33.19752856926366],[131.654295523255,33.197530405753184],[131.65431939824188,33.197533355016084],[131.65450620032615,33.19755643201987],[131.65471765408606,33.19758073640116],[131.65511572458712,33.197623082885706],[131.65513983875206,33.197623853920284],[131.655163835468,33.19762599790615],[131.65557743555436,33.19766295071186],[131.65568894061497,33.19768730432883],[131.655773901861,33.197693239405545],[131.6559864116676,33.19770682167111],[131.6561990729845,33.197718621851934],[131.65641187196755,33.197728626170004],[131.6566247757258,33.197736844031816],[131.65673868421572,33.1977404950849],[131.6567144389092,33.197781379940096],[131.65669268297742,33.197812207853445],[131.65666802063825,33.19784155295266],[131.65663741293298,33.19786635764854],[131.65660319952312,33.19788924231192],[131.65656745297048,33.19790794186429],[131.6565286767016,33.19792316825747],[131.65649611214076,33.197931534812206],[131.65647693491445,33.19793282593943],[131.65645674386968,33.19793918009223],[131.6564350331136,33.197941674550535],[131.6563919813542,33.19794304541372],[131.6563496366127,33.19794147279958],[131.65617803204944,33.1979327585816],[131.65596363521695,33.197921363404596],[131.6557109341793,33.197907130669925],[131.65569264471333,33.19794188287723],[131.65566226819104,33.197969012973836],[131.65555738046345,33.19803169347472],[131.65534381633825,33.198114964519185],[131.65529520507923,33.19811107575621],[131.65507743884865,33.19809524275723],[131.65491498440332,33.19807679378995],[131.65486216671272,33.19806146122011],[131.65472929433852,33.19803026986292],[131.6546519237896,33.19799728252665],[131.6544336070113,33.197986744431525],[131.65431460476069,33.197976043988476],[131.6541062680081,33.19796154243893],[131.65409116492665,33.19797736503097],[131.65407536981652,33.19799391147562],[131.65402297008117,33.19804880680462],[131.6537744978569,33.19798680117984],[131.65353259833037,33.19792597821931],[131.65325087935784,33.19785547810829],[131.65296415683426,33.19778275985053],[131.65268032176343,33.1977116935981],[131.6524342870142,33.19764989756654],[131.65210597476138,33.197567239563675],[131.65190038805562,33.197515729099834],[131.65167417922592,33.19745889693706],[131.65153017161936,33.19742259311699],[131.6513465877603,33.197371604821086],[131.65130308078685,33.19732870829809],[131.65123850413562,33.19734504450673],[131.65115282482628,33.19732325144174],[131.6511297273392,33.197317377388394],[131.65111507841556,33.19729000495039],[131.651091786106,33.19728470208158],[131.65085666980298,33.19723117446711],[131.65067380802532,33.197189543074415],[131.6506178003671,33.19715164584401],[131.65057266774662,33.19712109590774],[131.6505375083385,33.197084174607745],[131.6504729176175,33.19706406792658],[131.65032164609568,33.19704150326873],[131.65021683926454,33.1970116689539],[131.65042132569008,33.19644521554212],[131.65066450682804,33.19649918198734],[131.6506882955581,33.19650258715414],[131.65071174715482,33.19650736988],[131.6510197501069,33.196570177186786],[131.65151873186835,33.19666089100166],[131.65154239184722,33.19666488185561],[131.65172747795472,33.19669609179911],[131.65214576271543,33.19676297135337],[131.65267076561727,33.19683329382999],[131.6529877169951,33.19687028537423],[131.6531988599359,33.196893125847865],[131.65341020664343,33.19691418281528],[131.65362122552395,33.19693341636202],[131.65383377919622,33.196950971367265],[131.65434701821508,33.19699696156256],[131.6548395173609,33.1970193873717],[131.65486361318983,33.197020484040536],[131.6548934676674,33.19700528638926],[131.65485164853447,33.19674119365713],[131.65479411972458,33.196357456371764],[131.65473175461986,33.19597698665623],[131.65467422424157,33.1955816264373],[131.65456129311897,33.194846142703376],[131.65447995149003,33.19433611482229],[131.65445914584438,33.19420862784609],[131.6543916555972,33.19381457094046],[131.6543081411799,33.19327109178902],[131.65422690840873,33.19280317268525],[131.65421839062319,33.192754277292515],[131.6541629736761,33.19243614783628],[131.65407287338928,33.191857269119254],[131.65392256319797,33.19097249270132],[131.65383742911337,33.19044136899016],[131.65370406320892,33.18960942522501],[131.65365364641218,33.18930194430599],[131.65354954708684,33.18864224766257],[131.65350886846787,33.18841898657131],[131.65343770010185,33.18834744709209],[131.65342231967333,33.188331814593795],[131.6533887809962,33.18832391241832],[131.65336477251947,33.188325938243395],[131.65279345238858,33.188374135159584],[131.65274024110033,33.18847997703764],[131.65253343617613,33.188496458286934],[131.65245299936132,33.18850429794178],[131.65239110322628,33.18851320495979],[131.6523630197229,33.18851938397371],[131.65232291466407,33.188532857022906],[131.65227413401166,33.18853464426327],[131.65225603652098,33.18852373728898],[131.65219060652024,33.18853924395481],[131.6521380592041,33.18855529828247],[131.65205161719794,33.188586172282186],[131.65194474563242,33.18863303266137],[131.6516957811013,33.188758594859564],[131.65149433664917,33.18896303844201],[131.651259631446,33.18918188350444],[131.65112177150078,33.18931060050939],[131.6511613608688,33.18934330880206],[131.65108286533635,33.18937004662754],[131.65103114356663,33.18941799932599],[131.65095365181205,33.189494715466274],[131.65091313365696,33.18953223098867],[131.65079127349927,33.18964634762845],[131.65072100570129,33.18971115032507],[131.65057791510137,33.189780957323336],[131.65040073940165,33.1898388393525],[131.6501914393086,33.18975963531403],[131.65006276094076,33.18969590897287],[131.6498972052194,33.18964004929407],[131.64978797838964,33.18962240052326],[131.64972219863876,33.18962993683976],[131.64956350573596,33.18969146426636],[131.64944658403428,33.18985171362462],[131.64942255849718,33.18998226321619],[131.64836695292877,33.189661599246335],[131.64806069174426,33.189682083686165],[131.64807387618916,33.18979273831591],[131.6480824902597,33.190051119321524],[131.6480700411405,33.19022448218807],[131.64805190174104,33.1903549339333],[131.64801565344206,33.190526234640274],[131.64796793652326,33.190695391672755],[131.64793446071383,33.190787438842854],[131.647374541059,33.192298869964226],[131.64731619771416,33.1924621736496],[131.64726061389695,33.192638047160116],[131.64721028746266,33.19281092240406],[131.6471283166707,33.193176543291955],[131.64709568744357,33.19335818723464],[131.64706598695975,33.193570172458436],[131.64700024174547,33.194252301457205],[131.64683803000727,33.19434112315529],[131.64675792841948,33.194344009381744],[131.64662955159594,33.194365236080436],[131.64656133307886,33.19438590201204],[131.64655726171267,33.194410792628304],[131.64659396178095,33.19470555337124],[131.64653867796432,33.19474254052857],[131.64647440695302,33.194796977311086],[131.64645353785065,33.19481773542623],[131.64641372865626,33.194873487871654],[131.64638349594887,33.19493333759893],[131.64636347221904,33.19499611097534],[131.64635386439375,33.19506063426767],[131.64633635240705,33.19546532520107],[131.64674584931788,33.19556950991173],[131.64665550946384,33.196513173242295],[131.64664109401582,33.19660645176253],[131.64643160189564,33.19673566726564],[131.64633564163057,33.19673009801228],[131.64630241273292,33.19667053284769],[131.6460983168237,33.19668669167655],[131.64589482880737,33.19667832843257],[131.64575685709937,33.196676827137274],[131.64571136661147,33.19699454204581],[131.64606900088373,33.19736725846236]],[[131.64770394386025,33.19661764035814],[131.64786765007503,33.195809629181284],[131.6486115192979,33.195998694965745],[131.64970814927977,33.196277163760996],[131.64968312611845,33.19633394230204],[131.64945776857988,33.196993618176606],[131.64919898361725,33.19692984624124],[131.64897673224297,33.19687996792584],[131.6487736224611,33.19683232552822],[131.64836761678868,33.19674138647373],[131.64816408417207,33.19670036459076],[131.64802193393575,33.196671333452834],[131.64770394386025,33.19661764035814]]]}}]}
