{"type":"FeatureCollection","features":[{"type":"Feature","properties":{"potaRef":"JP-1487","nameEn":"Biwako Bunka Prefectural Park","nameJa":"","boundaryStatus":"全国都市公園GIS候補・公開前検証待ち","boundarySource":"国土交通省「都市計画決定GISデータ」都市公園・緑地を、POTA代表地点で空間照合して加工","boundaryScaleNote":"都市計画データは近似・未収録の可能性がある。POTA運用可否は公式情報で最終確認すること。","candidateMethod":"POTA representative point inside one MLIT urban-park polygon","sourceParkName":"文化ゾーン","sourceParkType":"公園","sourcePrefecture":"滋賀県","sourceCity":"大津市"},"geometry":{"type":"Polygon","coordinates":[[[135.9427020893548,34.97312621189398],[135.94281932778546,34.972938507425624],[135.94288119776365,34.97296545465983],[135.94300409494977,34.97279743192333],[135.94294520981907,34.972730424492596],[135.94313688436523,34.97252957505207],[135.9433429587537,34.9721548550226],[135.9435475904662,34.9721562123889],[135.94371959126812,34.97200590772693],[135.94391419373795,34.971842388580555],[135.94401096218266,34.971569465792804],[135.9442643213402,34.97125611148922],[135.94429748335355,34.97120506339884],[135.94618294560496,34.97119866931105],[135.94637228632155,34.971217233364754],[135.94667385187378,34.97121970098769],[135.94665592374454,34.97120002827794],[135.94664290298257,34.97117873325877],[135.9466105091014,34.97110985513448],[135.94661052826297,34.97108032273076],[135.94661535480097,34.97101758199846],[135.94661298036175,34.97098066543891],[135.94660582984693,34.97094560382355],[135.94659390567276,34.97090868306406],[135.94656047372482,34.970853308604624],[135.94653181189452,34.970805310324366],[135.94650555687815,34.97074439491987],[135.9464936302206,34.97069456498558],[135.94649137492357,34.970676624582836],[135.94648660952248,34.97064524203925],[135.94647467689197,34.97060463421812],[135.94645559159983,34.970549266049524],[135.9464317421667,34.97046066730168],[135.94640072918648,34.97035730819337],[135.9463614149196,34.97025419782298],[135.94635665933907,34.97022466330619],[135.94635669542782,34.97016930356343],[135.94635193732444,34.97012685086627],[135.9463424559214,34.97008936322521],[135.9463066526067,34.969993385074396],[135.94628756757476,34.969938007859284],[135.9462804197015,34.96989925016037],[135.94627805759612,34.96986049457794],[135.9462757050289,34.96979035855125],[135.946280575304,34.9697112199538],[135.9462901587459,34.96967615669883],[135.94630930392495,34.96963925865544],[135.94633084744146,34.96960235265394],[135.94634281704057,34.969569138478576],[135.94636080608115,34.969524946958444],[135.9461655568887,34.969403864183604],[135.9461245770031,34.96938708753422],[135.94610046581718,34.969381496686474],[135.94605224346108,34.969370305961824],[135.9460064304111,34.96935911628924],[135.94596785620297,34.96934792982023],[135.94590758381358,34.969325564363345],[135.94583042941645,34.96929574513886],[135.94570506869857,34.96924728880104],[135.94563055537648,34.96921495550621],[135.94557030041426,34.969166528158574],[135.94553174607023,34.96912555672432],[135.94549079234426,34.96906969178285],[135.9454522479567,34.969013827909265],[135.94542093023347,34.968959824315824],[135.94537997542653,34.96890582539471],[135.9453317781807,34.968857403348835],[135.94527393293288,34.96880897693621],[135.94521367228404,34.9687698526603],[135.94514616671032,34.96874003735113],[135.9450648374523,34.96871510176345],[135.94499973851916,34.96870576002962],[135.94494669069,34.96870573599357],[135.94490824818817,34.96871114545907],[135.9448768969923,34.968724166606684],[135.9448382860833,34.96875206785272],[135.94481415519724,34.968776261577275],[135.94480207913998,34.9688041748664],[135.94479482757956,34.96883954557132],[135.94478275150644,34.96886745885822],[135.94476585311494,34.968900959114855],[135.94475858932643,34.96893819587113],[135.94476335540762,34.9690163832335],[135.9447877989401,34.96917922833242],[135.9440232008828,34.96877589958268],[135.9431848797114,34.968731833671875],[135.9431541792019,34.9664707224604],[135.94274436003369,34.96667786998604],[135.94256010891525,34.96677332166444],[135.94226087604662,34.96692520508637],[135.9420181033327,34.967049204965306],[135.94185112817954,34.96713354858016],[135.94175611368627,34.96718460785723],[135.94163519039648,34.96724897846072],[135.94121690217395,34.96746609609592],[135.9411276503541,34.9675127133793],[135.94102112378775,34.96756598413314],[135.94083419526694,34.967663306951586],[135.94070175933504,34.96772988864713],[135.9403459341361,34.96791321929748],[135.93988180089883,34.96815571343452],[135.93955854171514,34.968323020583284],[135.9393857994931,34.968409575554126],[135.9390938820267,34.96856032792909],[135.93865655470196,34.96878200665071],[135.9382623863401,34.96898602775164],[135.93806687405686,34.96908655118228],[135.93792003184853,34.969168681989316],[135.93785379932896,34.96921086432993],[135.9377616534406,34.96927080148809],[135.93758775854735,34.96939922694759],[135.93751000820524,34.96946584224706],[135.93741496298165,34.969550225729805],[135.9373244718555,34.96963654966485],[135.93724382730687,34.96972094044225],[135.9371487628564,34.96982975375449],[135.93703227540686,34.96998383711914],[135.9369515995785,34.97010821723973],[135.9369143063144,34.97017009334333],[135.93684802374676,34.97029003658136],[135.93679907920693,34.97039306806615],[135.9367558282615,34.970497472740895],[135.93671832674815,34.97060187137969],[135.93663039183832,34.970864750535576],[135.93657253118303,34.97105424701076],[135.93657119609395,34.97106715547456],[135.93657131733943,34.971080353171864],[135.9365740587874,34.97108994632671],[135.93657925175305,34.97110165923442],[135.93658686626614,34.97111175074648],[135.9365997456845,34.97112547796202],[135.93661081144577,34.971133624082405],[135.93662822632032,34.971145406470306],[135.93665903127038,34.97116200071664],[135.937494476875,34.97134316184432],[135.938165184051,34.97149098695499],[135.93869460889036,34.971606283923414],[135.93918472534094,34.97171272442276],[135.93929277751886,34.971738046904],[135.93960004396618,34.971818134138665],[135.93982363014956,34.971882060738395],[135.93986961693741,34.971896056420476],[135.9400716408662,34.97195835823968],[135.94027311522683,34.97202381462366],[135.9403333344612,34.97204457821099],[135.9404031776767,34.972068916343055],[135.9406615603642,34.97216094851143],[135.94080579913228,34.97221519770762],[135.9409267818837,34.972262133453256],[135.9410581759877,34.97231448299719],[135.9413006959244,34.9724151152132],[135.94140310727772,34.97245897648118],[135.9415634669506,34.972530180330736],[135.94169977156383,34.97259334927184],[135.94178463155976,34.97263170277678],[135.94190780933818,34.9726736804683],[135.94216728193084,34.972809476679934],[135.942184798461,34.97281849979561],[135.9422510339015,34.972866760357554],[135.9424699976115,34.97298585931485],[135.9426577530106,34.9730995342782],[135.9427020893548,34.97312621189398]]]}}]}
