{"type":"FeatureCollection","features":[{"type":"Feature","properties":{"potaRef":"JP-1156","nameEn":"Saitama Stadium 2002 Prefectural Park","nameJa":"","boundaryStatus":"全国都市公園GIS候補・公開前検証待ち","boundarySource":"国土交通省「都市計画決定GISデータ」都市公園・緑地を、POTA代表地点で空間照合して加工","boundaryScaleNote":"都市計画データは近似・未収録の可能性がある。POTA運用可否は公式情報で最終確認すること。","candidateMethod":"POTA representative point inside one MLIT urban-park polygon","sourceParkName":"","sourceParkType":"公園","sourcePrefecture":"埼玉県","sourceCity":"さいたま市"},"geometry":{"type":"Polygon","coordinates":[[[139.72205649620574,35.903360322354196],[139.72194786077233,35.90321115386817],[139.72187797680243,35.903116809981164],[139.72172968685075,35.90292090165509],[139.72160030815223,35.90274970829959],[139.72139739551315,35.902480379802206],[139.72128504693578,35.90233191568749],[139.7212020017702,35.9022222354654],[139.72118417890613,35.9021986506343],[139.72104340526468,35.9022681456532],[139.72096525125306,35.90230448660942],[139.72071669552136,35.90242944873777],[139.72065128711358,35.902461745418805],[139.7206047252353,35.902484685840854],[139.72050960587714,35.9025315562275],[139.72036980605853,35.90260254037721],[139.72019175761383,35.90269223616464],[139.72014098591913,35.902714992171916],[139.72012657817575,35.902719034612005],[139.72011904342665,35.90272001898077],[139.7201084090258,35.902719378018276],[139.72009644829424,35.902716572593015],[139.72008261090664,35.9027090784392],[139.72006844925951,35.90269590554852],[139.72006258963395,35.90268751757838],[139.71984634277325,35.90240194889829],[139.71972322879606,35.90223968357817],[139.71945231621737,35.90188285853341],[139.71926456238137,35.90163300967949],[139.71908023711487,35.90138794177831],[139.71891802382444,35.90117534282983],[139.71885112694076,35.9010867676632],[139.71874796283632,35.900950206664895],[139.7185032410106,35.90062337479646],[139.7182476644777,35.9006639824075],[139.71814071921256,35.900681555118545],[139.71808783197451,35.90069153537196],[139.71803552742938,35.90070533873717],[139.71797499337285,35.900727208363136],[139.71785492597598,35.90078512383248],[139.71780426907335,35.90080778703344],[139.7177536151619,35.900827611000295],[139.71770250518568,35.90083955590882],[139.71751438609246,35.90087706138857],[139.71738518081827,35.900893970203235],[139.71727345735871,35.90089386228448],[139.7171842767737,35.90089992229182],[139.71713597493778,35.9009073548716],[139.71708078199566,35.90091964528393],[139.71701180905566,35.90092725970175],[139.71693622801368,35.9009325638549],[139.71686489755228,35.900941728007794],[139.71677234365805,35.900964350132995],[139.71656077841,35.901014332919935],[139.71575675925564,35.90120239051401],[139.71566793160954,35.90122266925132],[139.71555633646844,35.90124107424799],[139.715424204245,35.90125138118631],[139.71530231377116,35.90125874165633],[139.7152448118985,35.90126709911995],[139.7151458967339,35.90128850503994],[139.71503201082135,35.90132672501673],[139.71492503047003,35.901359342666716],[139.71477090317876,35.90139565243499],[139.7146754235404,35.90142641093902],[139.7146558617151,35.90143667587756],[139.71462682277217,35.901454125025225],[139.7142463067426,35.90199435105801],[139.71363259056645,35.903009620008],[139.71386997611336,35.90332434939531],[139.7138921987017,35.90335447618387],[139.7139464864942,35.90342627665788],[139.71400210221285,35.90349988020043],[139.71404754453874,35.90356022484705],[139.7140808258296,35.90360442345359],[139.71408336848924,35.90360803132972],[139.7142160509439,35.903782571874224],[139.71446339083684,35.904110632598574],[139.71467291972473,35.90438772986249],[139.71474633472948,35.90448731006266],[139.7147521945978,35.9044952476207],[139.71478802110747,35.90454116107989],[139.71480018535323,35.904556135292566],[139.7148041646768,35.90456217818268],[139.71481909174847,35.904581751942416],[139.71494038894917,35.904741858121],[139.7150313878698,35.90486290731161],[139.7151972425852,35.90508335659608],[139.71525595464058,35.90516237151252],[139.71533313449527,35.90526348731803],[139.71539693504263,35.9053479151887],[139.71546681784676,35.90543991932837],[139.71551845437432,35.905508471651956],[139.71556080537715,35.90556385531855],[139.71559574425777,35.905611299932694],[139.71568575060732,35.905730635097264],[139.71574877687615,35.90581397951022],[139.71576469862146,35.90583625813516],[139.71578371495374,35.90586286620709],[139.71580660090927,35.905894886087985],[139.71580504880018,35.90589560563893],[139.71585778687626,35.905968845844846],[139.71608422432666,35.90628192047236],[139.71617500304353,35.906404410693284],[139.71619877695682,35.90643553002572],[139.71621049812126,35.90645082814056],[139.71647156727937,35.9064840885579],[139.71677584036055,35.90651576253454],[139.71708108663017,35.90654047565366],[139.7173870656229,35.906558208747605],[139.71769353465018,35.90656894715565],[139.7180002554438,35.9065726834345],[139.7183069830827,35.906569413742176],[139.7183141403339,35.906569258356924],[139.71834144070934,35.906568049670064],[139.71836871789768,35.9065667859732],[139.718395996283,35.90656546007901],[139.71842327473254,35.90656408911181],[139.7184505410725,35.9065626640466],[139.71847780861054,35.90656117588271],[139.71850506514676,35.90655963362186],[139.71853229849552,35.906558036351086],[139.7185595551858,35.906556385917526],[139.71858678868722,35.90655468137539],[139.7186140012285,35.90655291371341],[139.7186412360046,35.90655109198626],[139.71866844757992,35.90654922426259],[139.7186956492726,35.90654729433102],[139.71872285104195,35.906545310313106],[139.71873844529003,35.906544141739275],[139.7187871874249,35.906498686927186],[139.71885852524602,35.90642926183717],[139.71892554319226,35.906359111518384],[139.7190468033633,35.90624286431812],[139.71914132855647,35.90615056805144],[139.7192432859695,35.90605160797127],[139.71931574549012,35.90597199855564],[139.71943924739531,35.9058368258923],[139.71947784950862,35.90580360314264],[139.71970689843138,35.905614719469604],[139.71989668301256,35.90545680518392],[139.71999139045965,35.90539073642936],[139.72021229656494,35.90523979040566],[139.72052656146096,35.90503431154504],[139.72053964667606,35.905025670994625],[139.72057041584628,35.9050053008169],[139.7205811640259,35.90498765009878],[139.72061779697233,35.90492913088922],[139.72065520491634,35.9048709368766],[139.72069340998863,35.904813086107715],[139.72073237895302,35.90475557764934],[139.7207721339505,35.90469842233754],[139.72081265281102,35.90464162826278],[139.72085393553348,35.904585195424325],[139.72089597102539,35.90452913282437],[139.72093876924512,35.90447344858351],[139.72098231023475,35.90441815349831],[139.7210266039527,35.904363255689326],[139.7210716282408,35.90430875513503],[139.7211173830982,35.90425465183459],[139.72116386849868,35.904200963813935],[139.72121108332215,35.904147699183206],[139.7212590076366,35.90409485071226],[139.72130764029657,35.904042444537986],[139.7213569813143,35.903990471646146],[139.72140700851924,35.90393894102862],[139.72143450493763,35.90391112162309],[139.72143658845062,35.90390902705266],[139.7215384664624,35.903808878747284],[139.72154061529307,35.90380681307864],[139.72164520467206,35.903708532974164],[139.72164740106797,35.903706515118714],[139.72175463416903,35.90361014821206],[139.72175689255386,35.90360816286033],[139.72186674162305,35.903513748777456],[139.72186904646526,35.90351181123763],[139.72198142943822,35.90341940848217],[139.72198378628593,35.903417512449856],[139.72205649620574,35.903360322354196]]]}}]}
