{"type":"FeatureCollection","features":[{"type":"Feature","properties":{"potaRef":"JP-1249","nameEn":"Hikarigaoka Prefectural Park","nameJa":"","boundaryStatus":"全国都市公園GIS候補・公開前検証待ち","boundarySource":"国土交通省「都市計画決定GISデータ」都市公園・緑地を、POTA代表地点で空間照合して加工","boundaryScaleNote":"都市計画データは近似・未収録の可能性がある。POTA運用可否は公式情報で最終確認すること。","candidateMethod":"POTA representative point inside one MLIT urban-park polygon","sourceParkName":"","sourceParkType":"公園","sourcePrefecture":"東京都","sourceCity":"練馬区"},"geometry":{"type":"Polygon","coordinates":[[[139.62532868878677,35.76780928343818],[139.62533093898338,35.76796450099181],[139.62534156860266,35.76804474013851],[139.6253536371759,35.768124531093],[139.62537047716512,35.768198291204286],[139.62539017980592,35.76827701372435],[139.62541354838027,35.76834952321524],[139.6254413305686,35.76842600629975],[139.62544704785347,35.768438995720274],[139.6254855463311,35.7685200040994],[139.62551239188926,35.76857395162639],[139.62568340224226,35.7689044139856],[139.62568692193187,35.7689119013234],[139.6257007877004,35.76893869555707],[139.62583438857058,35.769195001574204],[139.62585969885194,35.76924407904334],[139.62594916682818,35.7694170234251],[139.6259640295641,35.76944327853146],[139.6260397192268,35.769555808186674],[139.6260610061106,35.76957846892571],[139.62611196205557,35.76963281840105],[139.62613745221086,35.76965530609678],[139.6262329299213,35.769728931106684],[139.6263124363242,35.769777290564306],[139.62639362492868,35.769816729432634],[139.62647538668296,35.769848417564624],[139.62648135297655,35.76985077135314],[139.62649759940447,35.76985530607659],[139.6265397076399,35.76986700598384],[139.62661431506604,35.76988534164186],[139.62666007964313,35.769894523992605],[139.62669302612835,35.76989926765649],[139.62676422974556,35.76990804299301],[139.62685867066682,35.76991244153368],[139.6290342716371,35.769916066589744],[139.62907320239793,35.76991622284759],[139.629144096388,35.76991643336123],[139.62936673253873,35.769916991396954],[139.63132467110137,35.76992146760126],[139.6314988652053,35.7699217600471],[139.63402296300228,35.76992705094422],[139.63433372075815,35.76993829165749],[139.63513513351774,35.76993600954289],[139.63514832258434,35.769924854452114],[139.63536346724166,35.7697351126201],[139.63536135776113,35.76964911970621],[139.63536027743226,35.769594135160624],[139.63535302965494,35.769439360258055],[139.63535171512515,35.76885410705074],[139.63534614021987,35.76864912929848],[139.63532493409127,35.76783435775311],[139.6353251744732,35.767737372123115],[139.63532835490562,35.767569724931555],[139.63533218729924,35.7674513830457],[139.6353405905009,35.767273739378595],[139.63535070402722,35.76716460166924],[139.6353719214394,35.76694831085783],[139.6353767913881,35.766902169382],[139.63538604489227,35.76682764236625],[139.6354444488205,35.766377330229375],[139.63250345553743,35.766221658518745],[139.63246873108434,35.7656488780778],[139.6324202843746,35.76551954251245],[139.63238633455737,35.765430611957754],[139.63206191010607,35.764573689778196],[139.6327438214376,35.76461854475693],[139.63278925970872,35.764536506851414],[139.63198274937065,35.76386220587671],[139.63193992978447,35.76382653056261],[139.63189523450794,35.76378913951232],[139.63096468788711,35.76301520410409],[139.63092861473157,35.76297972004813],[139.63064411437261,35.76274263455823],[139.6305954285689,35.76270938254151],[139.63052033619107,35.76266653159049],[139.63047295536046,35.76264202489495],[139.63043152372265,35.762626451658555],[139.63040942806137,35.76261767121355],[139.63036114082843,35.76260172584389],[139.6303157225235,35.762588309098966],[139.6302827850152,35.76258113277518],[139.63021801934573,35.7625654299371],[139.63016495690778,35.762557318237945],[139.6300877837388,35.76255006713535],[139.62920994935516,35.7625396572002],[139.62926398554131,35.758832012448906],[139.62893765911107,35.75882866418562],[139.62893049230118,35.76253846154718],[139.6283068900297,35.762533434246656],[139.62820734703942,35.762538222000195],[139.62812935666227,35.76254782363815],[139.62806285504104,35.76256231216414],[139.62790580264505,35.76261116804207],[139.62785465638785,35.76263208231652],[139.62780273041426,35.7626551584954],[139.6277588776673,35.762678158313996],[139.62771346504604,35.76270566223868],[139.62636712946951,35.76365040968203],[139.62630220513546,35.763695906644394],[139.62544854230796,35.764294377840365],[139.6253926571649,35.76439325028867],[139.62538694885848,35.76467437380163],[139.6253846532306,35.764791546294504],[139.62534967438077,35.76671543285235],[139.62534863639465,35.766774289675766],[139.62534660054297,35.76687659018425],[139.62534508262596,35.76694986788919],[139.62532868878677,35.76780928343818]]]}}]}
