{"type":"FeatureCollection","features":[{"type":"Feature","properties":{"potaRef":"JP-1736","nameEn":"Techno Chuo Ryokuchi Prefectural Park","nameJa":"","boundaryStatus":"全国都市公園GIS候補・公開前検証待ち","boundarySource":"国土交通省「都市計画決定GISデータ」都市公園・緑地を、POTA代表地点で空間照合して加工","boundaryScaleNote":"都市計画データは近似・未収録の可能性がある。POTA運用可否は公式情報で最終確認すること。","candidateMethod":"POTA representative point inside one MLIT urban-park polygon","sourceParkName":"テクノ中央緑地","sourceParkType":"緑地","sourcePrefecture":"熊本県","sourceCity":"益城町"},"geometry":{"type":"Polygon","coordinates":[[[130.84511607693005,32.82110052766292],[130.84506597499404,32.82109592154008],[130.84484855933403,32.82107806734665],[130.84473675486691,32.821068820640896],[130.84471422306387,32.82106698911162],[130.84454480120712,32.821050657520004],[130.84432660098184,32.821029624434125],[130.84414100166381,32.82101785057518],[130.84406806504398,32.82101307043433],[130.84404616903072,32.82101412531006],[130.84402554469625,32.82102086305379],[130.84401388751272,32.821029956625544],[130.8439904430099,32.821061490120094],[130.8439244268922,32.821191175653446],[130.84365305959744,32.82167086071406],[130.84360388543521,32.82175773199806],[130.8433808400256,32.82214765834547],[130.84335652096306,32.82219037283501],[130.84311493426176,32.8226157158793],[130.8430304045956,32.82276485639648],[130.84301658422243,32.82278918743436],[130.84287312942246,32.82304232065848],[130.84285363045916,32.82307683479186],[130.84289234818831,32.82316697234209],[130.84332919009745,32.82334039320207],[130.8433678263321,32.823355591642915],[130.84347220745954,32.823397114420054],[130.84356506196804,32.823434023571195],[130.84367648555238,32.82347819542284],[130.84368075687345,32.82347988890973],[130.84371715161708,32.82349436301067],[130.84388119511928,32.82355949666703],[130.84415698220758,32.82367067044178],[130.8442590482703,32.82363156953941],[130.8444439674144,32.823301383116466],[130.84445939518648,32.82327380747076],[130.84447771528016,32.82324127556376],[130.84485620810347,32.822576223142136],[130.8450504417044,32.82223044630968],[130.84506672602373,32.8222014287775],[130.84520878920793,32.82194576625533],[130.8453295215208,32.82173426499576],[130.84534516203715,32.82170686985417],[130.84545143135233,32.82152087130284],[130.8455907191096,32.82126313076857],[130.8455945867185,32.821249969380595],[130.84559642323768,32.82123788763747],[130.84559622897999,32.821226705181324],[130.84559389371333,32.82121840581787],[130.84558984542142,32.821212539179044],[130.84558376775817,32.821206760216135],[130.84556499125105,32.82119492358436],[130.8455399063226,32.82118722740827],[130.84551254971535,32.82117646052871],[130.84547554914647,32.821161897822144],[130.84541427829595,32.82114288455557],[130.84536088743184,32.821129312483926],[130.84535438931894,32.82112766049096],[130.84525092472958,32.821112923616795],[130.8451783885456,32.821106255364086],[130.84511607693005,32.82110052766292]]]}}]}
