{"type":"FeatureCollection","features":[{"type":"Feature","properties":{"potaRef":"JP-1328","nameEn":"Kose Sports Prefectural Park","nameJa":"","boundaryStatus":"全国都市公園GIS候補・公開前検証待ち","boundarySource":"国土交通省「都市計画決定GISデータ」都市公園・緑地を、POTA代表地点で空間照合して加工","boundaryScaleNote":"都市計画データは近似・未収録の可能性がある。POTA運用可否は公式情報で最終確認すること。","candidateMethod":"POTA representative point inside one MLIT urban-park polygon","sourceParkName":"小瀬スポーツ公園","sourceParkType":"公園","sourcePrefecture":"山梨県","sourceCity":"甲府市"},"geometry":{"type":"Polygon","coordinates":[[[138.58424529375665,35.621653582390195],[138.58423199866345,35.62165027460583],[138.58375817328948,35.62261686667751],[138.58346366091425,35.623216038248906],[138.5832569542355,35.62360134102632],[138.58319348674485,35.623719014979024],[138.5828514171957,35.624307491356866],[138.58261713101416,35.62471823084949],[138.58244862461595,35.625005435808326],[138.5823516460287,35.62517469115278],[138.58234558491696,35.62518533157891],[138.58232685030953,35.62521797433598],[138.5822943400183,35.6252744229305],[138.58222160149973,35.62539733067615],[138.58214170330209,35.62553646809513],[138.5820382198953,35.62571564278648],[138.58200918076116,35.6257661398289],[138.58206641168053,35.62575429278168],[138.58218064925353,35.62572726365316],[138.5822630990061,35.62570782771646],[138.58235106756814,35.62568721615725],[138.58237987539232,35.62568052625137],[138.5824814234929,35.62566017572463],[138.5825256879885,35.62565401602873],[138.58258640157229,35.62564721407593],[138.58265959583457,35.62564563153332],[138.5827472567989,35.62564809522025],[138.58276928467134,35.62565087436631],[138.5827917390027,35.62563896072354],[138.58282153498968,35.62562704202975],[138.582847580684,35.62561837087511],[138.58286590221505,35.625613490823326],[138.5828795744408,35.62559653547705],[138.58295598645304,35.62550373089748],[138.58296942526815,35.625474607072995],[138.5829783354102,35.62544332305436],[138.5830058458654,35.62535650121936],[138.58302026100458,35.62531070118756],[138.5830227916434,35.625302406748496],[138.58303114396566,35.625265534554],[138.5830545201479,35.625237755939686],[138.5830685938748,35.62518213109538],[138.58312219193274,35.62502083725642],[138.5832006285351,35.62485835444475],[138.5832494489745,35.62477467265757],[138.58369937253366,35.62481708633328],[138.58380470647174,35.6248290014622],[138.58384089832802,35.62481049799201],[138.58406855764505,35.624824581151195],[138.58409914906366,35.62483474539447],[138.5841019147232,35.6248401517437],[138.584041111203,35.6250768064117],[138.58399263381423,35.62527676628505],[138.58396428327907,35.625403790474444],[138.58401641057384,35.62542115076569],[138.58402911758864,35.62543159791023],[138.5840458100678,35.62545258841776],[138.5840515671297,35.625468088135364],[138.5840546823121,35.62549098101085],[138.58405161392065,35.62551279654451],[138.58405008595042,35.62552965341407],[138.5840426122764,35.62556174775108],[138.58402164444328,35.62567524609997],[138.5839780516663,35.62579579097867],[138.58393379465508,35.62591471381836],[138.5839257586247,35.625936983498],[138.58393339129717,35.62595131011964],[138.5839912502925,35.625959562490614],[138.58406158711114,35.625970149715556],[138.58408830557232,35.625971393001606],[138.58419881709605,35.625971045403425],[138.5842696956494,35.62597180708839],[138.58453144666106,35.62596143812427],[138.58487378374957,35.625944521911954],[138.5856283439251,35.6259128903674],[138.58572151224914,35.62590308921007],[138.585839736634,35.62588858295574],[138.58601193889314,35.62586628619453],[138.58644728721825,35.62579701904262],[138.5867836249058,35.625746209827426],[138.58694975073064,35.62572040072125],[138.5872333107222,35.62566467074039],[138.58740462419385,35.62563804600867],[138.58762229786555,35.625603996009886],[138.58800764059927,35.62554278185762],[138.5882080965827,35.62551361082763],[138.58830070825567,35.62550029270176],[138.58879920347152,35.62543250309663],[138.5887956540073,35.625417452669296],[138.5887730416104,35.62533544376649],[138.5887386194522,35.62515627480624],[138.5886994546276,35.62498107539416],[138.58866085351644,35.62481633155657],[138.58861915172855,35.62464284659713],[138.58857343588323,35.62443321923143],[138.58851142894412,35.62416672673034],[138.58845091527442,35.62395260327132],[138.58843094586499,35.62386392213075],[138.5884141791442,35.623776230153375],[138.58838907059223,35.62363220803536],[138.58834969283018,35.623462777453256],[138.58831829291168,35.62331975144443],[138.5882474101408,35.6230116214973],[138.5881734208716,35.622688981543604],[138.58817220136046,35.62268429525873],[138.58812751757387,35.62250765741737],[138.58809414394648,35.62237617043853],[138.58805196404398,35.6221670810368],[138.5880488562523,35.62215184998024],[138.58798828935818,35.62188661798648],[138.5879760875728,35.621833445453944],[138.58796432896557,35.62178171480476],[138.58788214176536,35.62143077724347],[138.58787967934452,35.62139995182799],[138.58766064197135,35.620477368146524],[138.5876481095359,35.62042428594665],[138.58758455777766,35.62015274617873],[138.58757793319103,35.62015184961357],[138.58754139896888,35.62015737458613],[138.58613609551057,35.62036858942311],[138.58579139143853,35.6204207548895],[138.58602791168468,35.621401288275514],[138.58610512247057,35.621751779975405],[138.586162015032,35.621993759940075],[138.58621291993293,35.62221095619307],[138.58616954146677,35.622217747578304],[138.5861187700204,35.622227879339874],[138.5860554218973,35.622142924436396],[138.5858031183361,35.622201153278716],[138.58560244932724,35.62223068102171],[138.58567109457718,35.62252123724757],[138.58526000210222,35.62254478447678],[138.58514386736132,35.62254730033218],[138.58490152212485,35.62252430588021],[138.58463324103542,35.622508179652776],[138.58468047752916,35.622286136485414],[138.58469870465785,35.62219256039195],[138.58475687058055,35.621761839933754],[138.5847566332203,35.62174613805365],[138.58462636377624,35.621743723787695],[138.58459412664914,35.621742214079994],[138.58454543052332,35.621731161281936],[138.58450700271544,35.621721543471],[138.58424529375665,35.621653582390195]]]}}]}
