{"type":"FeatureCollection","features":[{"type":"Feature","properties":{"potaRef":"JP-1105","nameEn":"Aizu Recreation Prefectural Park","nameJa":"","boundaryStatus":"全国都市公園GIS候補・公開前検証待ち","boundarySource":"国土交通省「都市計画決定GISデータ」都市公園・緑地を、POTA代表地点で空間照合して加工","boundaryScaleNote":"都市計画データは近似・未収録の可能性がある。POTA運用可否は公式情報で最終確認すること。","candidateMethod":"POTA representative point inside one MLIT urban-park polygon","sourceParkName":"会津レクリエーション公園","sourceParkType":"公園","sourcePrefecture":"秋田県","sourceCity":"横手市"},"geometry":{"type":"Polygon","coordinates":[[[140.01243987357267,37.51787793215353],[140.01245033840243,37.517887612037896],[140.01271872854997,37.51781442349273],[140.0128330614331,37.51781223134619],[140.0129626923534,37.51783024534771],[140.01312796788767,37.5178851497392],[140.01363670605383,37.5181166037411],[140.01397754110332,37.518267871947344],[140.0142013387481,37.51835051104021],[140.01434881821643,37.51839480807793],[140.01447341021233,37.51842902977906],[140.01455984871217,37.518451154161454],[140.01464882288047,37.51846923769474],[140.01482173105865,37.51852158691005],[140.01489803046965,37.51855182744245],[140.01513208710946,37.51867492605651],[140.01548825618514,37.51885855153214],[140.01569427829378,37.518943233643135],[140.01617491557647,37.51910844471328],[140.01634785102505,37.51917091991905],[140.0167646604035,37.51921479629528],[140.0172083481272,37.5191795675392],[140.01735226906092,37.51916004200395],[140.01774056342947,37.51907702251616],[140.0181779764498,37.51896137744419],[140.01822230567666,37.51889468130958],[140.0181669924751,37.51862234069464],[140.01814440662184,37.518422937304905],[140.01814405940777,37.51828215120195],[140.01815706721882,37.51818045160132],[140.0181950908652,37.518070900377346],[140.01831249019756,37.51789474226625],[140.01845929248233,37.517700939619786],[140.01862086343368,37.51751884584035],[140.01876034317576,37.51734264361861],[140.0189657946036,37.51703730113245],[140.01905373576227,37.516867045652155],[140.01911227359628,37.516714443699705],[140.01915603863918,37.51654426662082],[140.01922167854732,37.51628606341375],[140.01927254553144,37.51601028507876],[140.01932306599582,37.515599586659945],[140.01939564653097,37.51517126411439],[140.01949028994463,37.51473117449651],[140.01956301446558,37.51436151270147],[140.01962123181974,37.51408572253995],[140.0196723292257,37.513903801403366],[140.01970139217167,37.513745370455766],[140.01970828958432,37.51355765290999],[140.01970792492892,37.513411009622125],[140.01967795786973,37.51320574287243],[140.01961828673092,37.51290081701626],[140.019588418903,37.512730746763545],[140.01958815653379,37.512625166104165],[140.01959525820487,37.5125195648198],[140.01962442613984,37.51240807162829],[140.01964611000415,37.512243786176114],[140.0196456434173,37.51205608020142],[140.0196450164403,37.51180384719098],[140.01965930697324,37.51162785015848],[140.01963677765892,37.51145191119854],[140.019570105257,37.51128776505982],[140.01948112613323,37.51104153740191],[140.0193849438698,37.51085984830593],[140.0193256251438,37.51069569943949],[140.019281089357,37.510549116610655],[140.01927347813537,37.51044941359749],[140.01927324531187,37.51035555607487],[140.0192730270632,37.51026757365695],[140.01927275058793,37.510156117845234],[140.01924304796114,37.51005644959626],[140.01918391924124,37.50996855086638],[140.01910999036383,37.50985134479033],[140.01900665017968,37.50975179226734],[140.0188223199803,37.509652357848935],[140.018549494599,37.509500275874835],[140.01772364691698,37.50903816251758],[140.01717318877263,37.50977225837751],[140.0167328651186,37.510382992161404],[140.01660048787897,37.51045359104087],[140.01654929627153,37.51059444828009],[140.01643921074427,37.51074713805048],[140.0163029436403,37.51092062045344],[140.01624519559346,37.51106826392842],[140.01617665293057,37.511256428226375],[140.0161449749079,37.51131465184214],[140.01604640134315,37.51146205201675],[140.01596674882418,37.51156633257208],[140.01588341566278,37.511650362184035],[140.0157928201352,37.511734402954595],[140.01574574548786,37.51179234386962],[140.01571157354962,37.511857915125645],[140.01568798160343,37.51193420205828],[140.01567364723869,37.512012339957685],[140.01565575487916,37.51212520246705],[140.01564146267975,37.5122207043605],[140.0156270930383,37.51228437975971],[140.01559018822402,37.51235198265275],[140.01553663711013,37.51242627930163],[140.01548232341477,37.51249869381671],[140.01544973466093,37.51253635569416],[140.0154104557471,37.512609314681974],[140.01538474526663,37.51269848143106],[140.01535950297233,37.5127708510765],[140.01535603344163,37.51283740214788],[140.01535620910073,37.512909732618695],[140.01535282385538,37.51301099366326],[140.01535292926707,37.51305439915329],[140.01533662941492,37.51308268254822],[140.01527320386157,37.513129745230486],[140.01518987520788,37.51321666683528],[140.01509933315486,37.51332385605178],[140.0150436045831,37.513424350590476],[140.0149357060245,37.51361890030938],[140.01479658055783,37.51400303378847],[140.01498116846471,37.514117891713184],[140.01495318661296,37.51424580883345],[140.01492710672997,37.514379057490025],[140.0149098106823,37.514505282132916],[140.01489904168054,37.51460345472908],[140.01483869473435,37.514978816582214],[140.01470922333448,37.515235205144855],[140.01465530017626,37.51535331306002],[140.01459398114966,37.51540234552121],[140.01420732983394,37.51541445420966],[140.014106124286,37.51540309318061],[140.01386503492185,37.51605138358377],[140.013701411887,37.51599068365379],[140.01358693536636,37.515936693732264],[140.0134855408732,37.51589404652501],[140.0134277878484,37.51586462381319],[140.0133265191574,37.51581304644865],[140.01326638572527,37.51588052177795],[140.0132403957088,37.51592074108854],[140.0132251246067,37.51596817984236],[140.01320763468138,37.51603853675832],[140.01320783748477,37.51612303190422],[140.01321149327995,37.516199213716604],[140.01322029899472,37.516243534061665],[140.01323080559484,37.51627538069379],[140.01323264414935,37.516315548600915],[140.0132137374887,37.51640838993114],[140.01317239122326,37.51656913571598],[140.01312732456773,37.51663154190701],[140.01307524081398,37.51666902552862],[140.01303276778256,37.51668558014815],[140.0129553202566,37.51670383694428],[140.01290343348757,37.51671972100251],[140.01282493955583,37.5167262020247],[140.01273976982176,37.51674156889632],[140.01269633405977,37.516762414057496],[140.01265120723116,37.51679988692692],[140.01261029224557,37.51684831968196],[140.0125923249357,37.516903872272],[140.01258898450666,37.516959285519185],[140.01260129272515,37.51701606269841],[140.012618905542,37.51711022716155],[140.01264339421,37.517165607174014],[140.0126730734433,37.51721542857026],[140.01272882310377,37.517258289974755],[140.01280193516772,37.51728587848832],[140.01279504092298,37.51731220987371],[140.0127101311023,37.51744116803929],[140.01255401456126,37.51760625087227],[140.01246045086936,37.51775461349135],[140.0124484141386,37.517811427597216],[140.01243987357267,37.51787793215353]]]}}]}
