{"type":"FeatureCollection","features":[{"type":"Feature","properties":{"potaRef":"JP-1716","nameEn":"Shinrin Prefectural Park","nameJa":"","boundaryStatus":"全国都市公園GIS候補・公開前検証待ち","boundarySource":"国土交通省「都市計画決定GISデータ」都市公園・緑地を、POTA代表地点で空間照合して加工","boundaryScaleNote":"都市計画データは近似・未収録の可能性がある。POTA運用可否は公式情報で最終確認すること。","candidateMethod":"POTA representative point inside one MLIT urban-park polygon","sourceParkName":"大規模公園","sourceParkType":"公園","sourcePrefecture":"佐賀県","sourceCity":"佐賀市"},"geometry":{"type":"Polygon","coordinates":[[[130.25028894929045,33.24250550036957],[130.2504811865862,33.24247465191704],[130.25050714385998,33.24247598098295],[130.25056637319338,33.242463985303395],[130.25065529521382,33.24244887735569],[130.250637155588,33.24239335658997],[130.25076980615987,33.24231018529269],[130.2508904069364,33.242241863635876],[130.2510985014233,33.242184041958176],[130.25122958306343,33.24214400098206],[130.25134369089955,33.2421015874309],[130.25154937896957,33.24198591351897],[130.25160525237862,33.241956906498075],[130.2518635861158,33.241850980185056],[130.25194839113226,33.241859787645666],[130.25215769350137,33.24172759508465],[130.25217799877439,33.24168695912076],[130.25228943200156,33.24158348299918],[130.2523640926158,33.24152679424178],[130.25242932037804,33.24148432361234],[130.25250820065904,33.24139498766569],[130.25255941167762,33.24133491288601],[130.2526044024363,33.24125380448197],[130.25262858989024,33.241195946043],[130.25269989860683,33.24109938433043],[130.25274230238554,33.24102954414749],[130.25278880456452,33.24096673500658],[130.25283964628034,33.24090626488771],[130.25298894927477,33.240851077869145],[130.25300999139057,33.24068659366433],[130.25303095704945,33.240523095236924],[130.25304514588905,33.24041344640346],[130.25305003957956,33.24039318707498],[130.25314450767212,33.24013333140677],[130.25320512454658,33.23986002764008],[130.25322008236193,33.239792037099456],[130.25321886559766,33.239771019713345],[130.253111917443,33.23930030273725],[130.25308687726832,33.23919131279579],[130.253034295592,33.23916637841239],[130.2528598141494,33.23904088696926],[130.2524237993928,33.23883121798255],[130.25243767509735,33.23881400717288],[130.25223142501642,33.2387175298167],[130.25193334431805,33.23855061207044],[130.25187677051971,33.23852835800788],[130.25180654622645,33.238483568427846],[130.25178419633275,33.2384620626465],[130.2517826663298,33.238427392318215],[130.25170994326317,33.238399033537625],[130.2515386695325,33.23828780614891],[130.25147426946165,33.23825215904865],[130.251387933071,33.23820943577935],[130.25136559287597,33.23819938173744],[130.25119053549116,33.23814187425192],[130.25114061877298,33.23811911920053],[130.25092865023439,33.238011251618936],[130.2506866955507,33.237896619608435],[130.2505805658367,33.23784719311029],[130.2505408227073,33.237826843828174],[130.25050450740767,33.237794702751934],[130.25035301951695,33.237540578167014],[130.25026196886782,33.237358958451075],[130.2500370950372,33.23670203418752],[130.24991489483008,33.236324204205545],[130.24984998412864,33.2361396786076],[130.24980688286715,33.236000040084875],[130.24969042787066,33.23559716593877],[130.24967989938102,33.23555083834093],[130.249646269764,33.23538788361805],[130.24960675668945,33.23519026457195],[130.2495926324027,33.23513914736087],[130.24949970131507,33.23470216812045],[130.249397186465,33.23499531571178],[130.2493239938568,33.23527241125539],[130.24925840484508,33.23544872764208],[130.24917218345243,33.23565250892977],[130.2490526103157,33.23592574981545],[130.24894564140476,33.23613726735111],[130.24888959048684,33.236242063579496],[130.24865832791934,33.236633163084285],[130.2486388576275,33.23666388453884],[130.24871547414634,33.23670114021009],[130.2486854252736,33.236751815843505],[130.24869060323778,33.23679058422324],[130.24869121862082,33.2368390697702],[130.24906592453732,33.2377059174736],[130.24902980621596,33.23772245519503],[130.24878161677245,33.23774945085788],[130.24866678242472,33.237764444276685],[130.2486513584435,33.2377651769232],[130.24863071500258,33.23776602865906],[130.24861806149423,33.23776505023255],[130.24859782802656,33.23776052366184],[130.24857259072573,33.237749534625316],[130.24852763786572,33.23772365241863],[130.2484993877122,33.237764780537475],[130.24779992594654,33.23782233978849],[130.2466877759584,33.23921120792235],[130.24611251322884,33.23997911179631],[130.244289300721,33.23911185483841],[130.24388718678227,33.23974920204209],[130.24375883570733,33.23969994225219],[130.2435116740551,33.23968978523678],[130.24362206905712,33.23931212543408],[130.24261633516684,33.239103438675585],[130.24210557893068,33.23907782686857],[130.24201390322125,33.2405083379221],[130.2430973690428,33.24054522159043],[130.2433736613289,33.24064213031208],[130.24315748499868,33.24110052716411],[130.24285243549897,33.241948832476616],[130.24270077362914,33.24245177182371],[130.24260289724577,33.242810459417605],[130.24256940038225,33.24299119566104],[130.24256629459055,33.242997831150845],[130.24256045652706,33.24304017522188],[130.24255496463903,33.24307972656249],[130.24255450588234,33.24308314994113],[130.24255036057153,33.24311937679774],[130.24254487407057,33.24316722034998],[130.24254317822258,33.24318109995705],[130.24254020549213,33.24320543093348],[130.24253740174325,33.243228403896254],[130.24253517555334,33.243246600932196],[130.2425338858055,33.24326363968439],[130.24253275342704,33.243278596683794],[130.2425316626709,33.24329310727038],[130.24253085743806,33.24330365673152],[130.24253012165093,33.24331348006158],[130.24252899915444,33.24332816704374],[130.24252857171254,33.24333385164421],[130.24252815134216,33.24333943298895],[130.2425278415982,33.243343494957266],[130.24252757917014,33.24334700782582],[130.2425268191919,33.24335700817453],[130.24250949246985,33.243536972037006],[130.24250246381746,33.24361781216945],[130.24248981120314,33.24375852036999],[130.24248869531638,33.24377092673871],[130.24248775144386,33.243784808615175],[130.24248283487594,33.24385709531123],[130.24248070737661,33.24388836976149],[130.24248002166524,33.24399278274973],[130.24248417773674,33.244095601877326],[130.2424882233125,33.24414801572703],[130.24249267154477,33.24420566102361],[130.2425027825299,33.24429273421219],[130.2425038588731,33.24430203073126],[130.24251355385329,33.24436448280783],[130.24251656690603,33.24438389189433],[130.2425257025829,33.24443507061045],[130.24253048822484,33.244461883567105],[130.24253545174807,33.244484954036714],[130.24254740862597,33.24454052483696],[130.24255634164916,33.24457475381713],[130.24257472764313,33.24464519839322],[130.242601930169,33.24475104329864],[130.2426302688664,33.24484986098987],[130.24263099564087,33.24485239075277],[130.24266364696405,33.244960974211644],[130.24267117254777,33.24498536391751],[130.24268723954083,33.245037401404076],[130.24271483169994,33.245110517376034],[130.2427196852302,33.245123973457986],[130.24274291933514,33.24518838175276],[130.24274553928996,33.24519564419873],[130.2427464829985,33.24519826473035],[130.24277473459566,33.245266041445426],[130.24278454162166,33.245289568437514],[130.2427953764752,33.24531488200294],[130.2428092631353,33.2453471570928],[130.2428189408004,33.245369758799505],[130.24284532505746,33.24542113598478],[130.24285909357656,33.24544744268289],[130.24287287967564,33.24547378238046],[130.24292049994443,33.24547699002527],[130.2429574861964,33.245656469653234],[130.24301632700335,33.245761690457044],[130.24310584662427,33.245886142422044],[130.2449598666212,33.24511206022144],[130.24480257365383,33.24456016206319],[130.24477211547418,33.244421789314984],[130.24471798653985,33.244127108133526],[130.24470243136173,33.244026539729965],[130.24467463404804,33.243790116776125],[130.2446682807286,33.243705315473676],[130.24491328226526,33.24370061503004],[130.24522059811093,33.24354577785233],[130.2452639112732,33.243540845747624],[130.24533187049033,33.243530974411435],[130.24550376595627,33.24349486378707],[130.24605397810248,33.243436545962254],[130.24634174420817,33.24339846286858],[130.24653568819818,33.243368468821],[130.24665298729968,33.243350056390796],[130.2467995035517,33.24332028363865],[130.24686467767577,33.24330327390181],[130.2471521548463,33.243215649330345],[130.24728623534557,33.24318435742774],[130.24741013270977,33.243155586232724],[130.24770755158391,33.243093573422904],[130.24806633316592,33.24304354999251],[130.24838339855992,33.2430038918615],[130.24856796110734,33.24293577606367],[130.24895380319091,33.24282132118407],[130.2494964742446,33.24266522816225],[130.24964415471453,33.242623700883186],[130.24983213993036,33.242567699616615],[130.24988480523805,33.24255330091736],[130.25000559735437,33.24252373047609],[130.25028894929045,33.24250550036957]]]}}]}
