{"type":"FeatureCollection","features":[{"type":"Feature","properties":{"potaRef":"JP-1478","nameEn":"Kameyama Sunshine Prefectural Park","nameJa":"","boundaryStatus":"全国都市公園GIS候補・公開前検証待ち","boundarySource":"国土交通省「都市計画決定GISデータ」都市公園・緑地を、POTA代表地点で空間照合して加工","boundaryScaleNote":"都市計画データは近似・未収録の可能性がある。POTA運用可否は公式情報で最終確認すること。","candidateMethod":"POTA representative point inside one MLIT urban-park polygon","sourceParkName":"亀山サンシャインパーク","sourceParkType":"公園","sourcePrefecture":"三重県","sourceCity":"亀山市"},"geometry":{"type":"Polygon","coordinates":[[[136.41400637004935,34.86942266949489],[136.41404405338523,34.86940648854939],[136.41410043244056,34.8694743849184],[136.41413981745777,34.86951994572082],[136.4141721466251,34.86950527609831],[136.41420213489934,34.86949188772406],[136.4142718896492,34.86946415491647],[136.41434188593212,34.86944092866985],[136.4143641689299,34.869434903730465],[136.41454910935934,34.8693872150232],[136.41495144530958,34.869307593887065],[136.41501143239867,34.86929521988966],[136.4150900029202,34.86928061730013],[136.41531478654272,34.869238832305996],[136.41554086608153,34.869193796704835],[136.4156441395071,34.86917586577345],[136.4156651832727,34.869172228396444],[136.4157053384516,34.86916528872067],[136.41571091181927,34.869164278165485],[136.41573571258684,34.86915860421299],[136.41578695210157,34.86914679950939],[136.41579322963568,34.86914536177072],[136.41590680265995,34.869119345089594],[136.41597061487352,34.86910115213703],[136.41601102660968,34.86909254100684],[136.4160879711592,34.86907661344801],[136.4161191851982,34.86906518415189],[136.41627028760885,34.86901425116536],[136.41670544350993,34.86887158731202],[136.41672138687778,34.868866394144646],[136.41690014404855,34.86880772575691],[136.41696020309433,34.86878804799777],[136.4170438499131,34.868760897620696],[136.4172890040846,34.86868144625314],[136.41732613167702,34.86866941917015],[136.4174067363844,34.868775635896135],[136.4176445947488,34.86874648434999],[136.417783966384,34.86872941856394],[136.41812100514855,34.868651363182344],[136.41814797342641,34.86864189520342],[136.41817547268366,34.86862917962918],[136.41818528013388,34.86862202436921],[136.41819985247196,34.86860529700455],[136.41820275656244,34.8685955508272],[136.41820292511113,34.8685857238215],[136.4181805779183,34.868514222764205],[136.41813918107144,34.868417545745636],[136.41810388019658,34.868336713971345],[136.41808936484827,34.868299803773546],[136.4180712451365,34.868263806680666],[136.41803282953924,34.86819434328849],[136.4179980908785,34.86813802967057],[136.41798386324444,34.86811482011489],[136.41796750748836,34.86808161262312],[136.4179571184633,34.86806037232191],[136.41787885204326,34.86794011283211],[136.41785772512188,34.86789357882002],[136.41782095033003,34.867824020580905],[136.41777411243584,34.8677110447149],[136.41776730300157,34.867683843639554],[136.41772305242534,34.8676716453606],[136.417532266011,34.86770844969553],[136.41740518613813,34.86773340665865],[136.4174026265263,34.86772467075502],[136.41731265987403,34.867626627779636],[136.4172869998289,34.86757019255701],[136.417265318015,34.86752235851476],[136.41695196297508,34.86773333236129],[136.41682250231662,34.86771318576744],[136.41679493467495,34.86783841632005],[136.41686158228276,34.86785091285917],[136.41680557627808,34.86807965030814],[136.4169570316257,34.86824653687274],[136.41708906467943,34.86840086885566],[136.41725895739359,34.86860210216274],[136.41722339460318,34.868613060275756],[136.4170826084937,34.86865631976903],[136.41696930093326,34.86869359419195],[136.4168779043776,34.868722264941496],[136.4167704454395,34.8687580846976],[136.41665600613416,34.86879524881193],[136.4164676256703,34.86885568850505],[136.41631383413522,34.8689063981993],[136.41619292075248,34.86894820371307],[136.41605276835818,34.86899966971871],[136.4159847112327,34.86901685052089],[136.4159775414072,34.86901834249264],[136.4158639738429,34.869041964101825],[136.41584845788213,34.869045081906094],[136.41579946242953,34.86893770238535],[136.4157169837307,34.86889291015235],[136.4156426670156,34.86888324809196],[136.41556714575412,34.86887340962969],[136.41542169951995,34.868857139681815],[136.41528829814322,34.86884353221791],[136.41519243751674,34.868834663700184],[136.41513805911026,34.868831333440184],[136.41510787840593,34.86883278892234],[136.4150910443335,34.86883491962851],[136.41504999455964,34.868850204631336],[136.41499087044627,34.86888186816036],[136.4149685193778,34.868896097817206],[136.41496014150735,34.86890496078319],[136.41514670118968,34.8690708285214],[136.4151610962014,34.86908403093668],[136.41519967288974,34.869120860427216],[136.41521076906068,34.86913055927819],[136.41524978207667,34.869163472978514],[136.41502422433615,34.86920701020259],[136.41496061634737,34.869217143401244],[136.41492814264276,34.86921959816554],[136.4148879881373,34.86921712107206],[136.41485339433703,34.86921110907102],[136.41482535839765,34.8692041728732],[136.41478787067706,34.86918834539994],[136.41474926069827,34.869166660220834],[136.41472862389793,34.86915203636198],[136.41444730230927,34.86884730226855],[136.4143485397118,34.868739550898255],[136.41428776431673,34.86861652459569],[136.41423512339864,34.86854521624618],[136.4142309200163,34.86853585532024],[136.4142008822953,34.86850043911401],[136.41419426641008,34.868489914430015],[136.4142040412194,34.86841055111911],[136.41421709578933,34.868396532642784],[136.41429604482403,34.86834839485145],[136.41443278603228,34.8682649024702],[136.41444968765984,34.868254567803795],[136.41458219279818,34.868171760964145],[136.41473766452646,34.86834033239922],[136.414770514162,34.8683065846868],[136.41495611843754,34.8678968404691],[136.41461999342712,34.86753622489932],[136.4144634387631,34.86735956099749],[136.41433033992084,34.86729182766825],[136.41433059535274,34.86727740325622],[136.41433938879177,34.867220579841344],[136.41434812146616,34.8671299514902],[136.4143502960833,34.867083697298455],[136.41435900752631,34.86696701541368],[136.41436180258424,34.86693545390874],[136.41435848761563,34.866906887728874],[136.4143529540661,34.86687228986227],[136.41434649552323,34.86684932410779],[136.4143345612659,34.866825114799404],[136.41431526068658,34.86679326763426],[136.41430259239598,34.8667753713298],[136.41427873131326,34.866750120912556],[136.41422096210258,34.86670280926649],[136.4141642970452,34.86665747738526],[136.41415419458278,34.866649488442896],[136.4140988241942,34.86660072643316],[136.41398896442857,34.86650419083849],[136.41392720359963,34.86644598501974],[136.4138473811941,34.866363049794856],[136.41372659730135,34.86622535319131],[136.41357608291747,34.8660478218492],[136.41338307537822,34.86612131885001],[136.41337740037096,34.866123861464644],[136.41330350315346,34.86615386155808],[136.41311823698948,34.86622255314049],[136.4129503375792,34.86628658835264],[136.41276257683953,34.86635970505523],[136.41259576740728,34.86642301473622],[136.41242186434454,34.86648959346273],[136.4123419609296,34.866520797973074],[136.41225888334114,34.86655325009354],[136.41214491178562,34.86659672714651],[136.41202258963378,34.866643067136394],[136.41171849312045,34.86675800594579],[136.41163551668,34.86678794498033],[136.41150862983162,34.86682975231322],[136.41145391575387,34.866846525031264],[136.41134240759138,34.86687971648349],[136.41123426949596,34.86690865916956],[136.41115233685204,34.866928678776986],[136.41111541216077,34.86693763800063],[136.41106908768748,34.86694789120094],[136.4108715350681,34.86698813420522],[136.4107201872512,34.86701596076652],[136.4104761114987,34.86704860706705],[136.4103447590403,34.8670618243705],[136.41017778173676,34.867278861397835],[136.41016157727978,34.86736365589306],[136.41012994132223,34.867446518879824],[136.41012434977333,34.86748782591744],[136.41011963542954,34.86752967141535],[136.41012017177636,34.867571678026195],[136.4102624272038,34.8680691784863],[136.41030308322144,34.868150715841715],[136.41032547479324,34.868202170306404],[136.41040811506213,34.86836740559954],[136.4104822115783,34.86852090865978],[136.41051200711786,34.86855672071408],[136.4106393423881,34.86879969056819],[136.4106336174661,34.86887324410088],[136.4106418751696,34.86890162667036],[136.4106948419399,34.86894489860121],[136.4107071246743,34.86896658385494],[136.4107418354296,34.86900163004331],[136.41088607394153,34.86908676302779],[136.41089868622262,34.86904566976573],[136.41099172697284,34.869068770976234],[136.41106149515556,34.86908993146049],[136.4110660905361,34.869091325224105],[136.4111026566157,34.86910467825581],[136.41112917525916,34.86912324919048],[136.41121720106665,34.86922968054016],[136.41125220704734,34.869256978971414],[136.41132852897059,34.86930633055773],[136.41136681663545,34.86935580810967],[136.4113923809404,34.869397499505375],[136.4114228709872,34.86947311492996],[136.41144688210431,34.869520032804814],[136.41147238796458,34.86954997393429],[136.41148827623172,34.86955775202291],[136.41153744205872,34.86956411217786],[136.41157869314205,34.86957311238516],[136.41160449926747,34.86959006331284],[136.4116734652357,34.86965559877135],[136.41175072800644,34.86969918489478],[136.41180680387362,34.86970707192857],[136.41186843926155,34.869706863172716],[136.4119398774186,34.86970662117629],[136.41201552485137,34.86970636487522],[136.412105212044,34.86971413787763],[136.4122047261207,34.86972418443526],[136.41235052961045,34.869747920876016],[136.41253843221938,34.86978536124933],[136.41271091407356,34.869821700205605],[136.41274879022052,34.86982638796662],[136.41280102327784,34.869827007157916],[136.41281176472543,34.86982697069155],[136.4128445443624,34.869826859401414],[136.4128783748729,34.86982275934604],[136.41291024590691,34.86981309306517],[136.4129295314482,34.869801873842476],[136.4129429879786,34.86978509887846],[136.41294455944708,34.86971179911127],[136.41300322822184,34.8697115998549],[136.41308383049494,34.869711326059786],[136.41308632272518,34.86971334160802],[136.41312544080347,34.869744977659366],[136.41317996477753,34.86978907289337],[136.41318012816504,34.86982173436455],[136.4131802546123,34.869822114993525],[136.41318700187384,34.86984242546115],[136.41320531968967,34.86985738804176],[136.41320836876514,34.86985987862377],[136.41322677132587,34.86986459511526],[136.41325289069897,34.869866099358596],[136.4133022351851,34.86986912032989],[136.41334288362305,34.869874557692846],[136.41340388221585,34.869887893568816],[136.41345132868324,34.869898885980696],[136.41348713866856,34.86990433974705],[136.4135132603627,34.86990504742165],[136.41353549029094,34.86990258230702],[136.41355958233817,34.86988497459959],[136.41369386248005,34.86976986108691],[136.41385552601483,34.86961194240044],[136.41386598091273,34.86960172965646],[136.4138985870485,34.86954543444641],[136.41393497116889,34.8694888006954],[136.41393605299893,34.869487116770024],[136.41396631836935,34.869450896637034],[136.41400637004935,34.86942266949489]]]}}]}
