{"type":"FeatureCollection","features":[{"type":"Feature","properties":{"potaRef":"JP-1023","nameEn":"Volcano Bay Panorama Prefectural Park","nameJa":"","boundaryStatus":"全国都市公園GIS候補・公開前検証待ち","boundarySource":"国土交通省「都市計画決定GISデータ」都市公園・緑地を、POTA代表地点で空間照合して加工","boundaryScaleNote":"都市計画データは近似・未収録の可能性がある。POTA運用可否は公式情報で最終確認すること。","candidateMethod":"POTA representative point inside one MLIT urban-park polygon","sourceParkName":"ラマパーク","sourceParkType":"公園","sourcePrefecture":"北海道","sourceCity":"八雲町"},"geometry":{"type":"Polygon","coordinates":[[[140.3141996303896,42.22506722934891],[140.3140946794859,42.22508293631509],[140.3140044672316,42.22509478141698],[140.31386721082845,42.22511281112054],[140.3136447873159,42.225160698899955],[140.31342194744863,42.2252044448172],[140.31319680932125,42.22523974618107],[140.31297507274445,42.225285012231915],[140.31275235151048,42.22532713613255],[140.31265569981576,42.22534481803522],[140.3125502500374,42.22542050591006],[140.31254959551103,42.225493759637175],[140.31254946439938,42.225508201498855],[140.31261667967962,42.22567464157012],[140.3126954429835,42.22586859931947],[140.312742561707,42.225986016634025],[140.31279493894633,42.226116495284685],[140.31280987622728,42.226153780054275],[140.31256280495396,42.226173858070126],[140.3123513297551,42.22608823184977],[140.31233775870368,42.226097206820285],[140.31237227179855,42.22613421089853],[140.31239387629068,42.22617627301297],[140.31240005626222,42.22620268623934],[140.31254117980598,42.22624598876862],[140.31275286340758,42.226259918787335],[140.31284384322288,42.22623835935771],[140.31284882230997,42.22625076360246],[140.31282909323025,42.22637777931275],[140.31253503688427,42.226355376958374],[140.31233288844658,42.22635540595362],[140.31228656830487,42.2263844137308],[140.31223231664342,42.22640443118772],[140.31217362243672,42.22641554645826],[140.31211384282267,42.22641928833122],[140.312114794592,42.226426292623174],[140.3123199523351,42.22645574919472],[140.31256294693128,42.22646488163183],[140.31254367374333,42.22663713116671],[140.31254570980298,42.22692028451906],[140.31219815519975,42.226972550368735],[140.31171690588576,42.22704845862042],[140.31159863059852,42.22704459662366],[140.31151309128447,42.22693175529627],[140.31149383832278,42.226940697198074],[140.31151418295858,42.22698310228477],[140.31152561329046,42.227027321874374],[140.3115256570039,42.22707233988801],[140.3115124951163,42.22711628455082],[140.311486488871,42.22715693177363],[140.3114036756738,42.227219470171924],[140.31157794862148,42.22719115944438],[140.3116485883447,42.22732946192391],[140.31109632406398,42.22748344897615],[140.31099353708055,42.22737354262757],[140.31093246420645,42.2273058049363],[140.31088883150989,42.22722073501522],[140.3106770342572,42.227116351380865],[140.30982203832914,42.22698084599458],[140.309826175059,42.226845825736646],[140.30965355745812,42.226393295252834],[140.3095247952267,42.2263405649833],[140.30940455426926,42.22634467894076],[140.30932514932388,42.22639980411257],[140.3091864829594,42.22645613929465],[140.30916584827972,42.22646452329569],[140.30907971664072,42.22650346327817],[140.30896808318596,42.22655392291982],[140.30877159137654,42.226645320350286],[140.30857066169213,42.22673292018631],[140.30836636174362,42.2268183965326],[140.30817040443728,42.226913241038964],[140.3079894695289,42.22702275349577],[140.30781192885811,42.22713540621349],[140.30766993406127,42.22727813984738],[140.30765072673128,42.22729800245613],[140.30759024378926,42.2273288431819],[140.30758884608554,42.22732382887451],[140.30747287701092,42.22732521056888],[140.30741189498377,42.227326789727705],[140.3074040199814,42.22732601935876],[140.30722803668763,42.22743481684384],[140.30703988891958,42.22754244063408],[140.30703870236167,42.22754316151267],[140.3068556208355,42.22765421285345],[140.30670273702952,42.227789171558335],[140.30654605820254,42.22792126878047],[140.30639346373556,42.22805610987748],[140.30623302622305,42.22818607465929],[140.30607647938828,42.228318954480024],[140.30593943981086,42.228455822173274],[140.30593445301406,42.22846079459522],[140.30590995611877,42.228486763932075],[140.30579786804725,42.22860559407038],[140.30569623536607,42.228711696926815],[140.3056599854289,42.228749520659306],[140.30554810234065,42.228868314434294],[140.30552370199905,42.228894229618454],[140.30548492295898,42.22893554791718],[140.30537114486273,42.229160125779],[140.30541260287438,42.229258947324695],[140.3054731995714,42.22939622299519],[140.30549407829875,42.22944351783031],[140.30564399334122,42.2297831151487],[140.30564550889864,42.229798285484854],[140.30567432929283,42.23008701704669],[140.30570806341981,42.23042496889374],[140.30577062539965,42.23063208436454],[140.30581841625516,42.231041634952405],[140.3058393515992,42.23116600050871],[140.30587853104305,42.23139879653964],[140.30591871471842,42.231753293721916],[140.30593564127872,42.231947295040534],[140.30593943533265,42.23199071755193],[140.30593452081368,42.232132751732394],[140.30592848410635,42.2323073884892],[140.3059276117981,42.232321101396124],[140.30589433163385,42.232843434391086],[140.30589679713788,42.23293271287049],[140.30589777358244,42.23296834863638],[140.3059200156539,42.23300749444358],[140.30592603425364,42.23301809774784],[140.30592917138588,42.23314074323029],[140.30663998653475,42.2329951393915],[140.30659127920273,42.23357446391035],[140.30655216170078,42.23403978008469],[140.30674775022783,42.23415514560758],[140.3070447531051,42.2344248450643],[140.30725319257184,42.23445325560135],[140.3079946895335,42.23468411343716],[140.30804322990477,42.23517856632525],[140.30852039333317,42.235080409781716],[140.3083908927918,42.23474433555946],[140.30846230148455,42.23472965033637],[140.3089081858531,42.23536938872979],[140.3098229787615,42.23507176063682],[140.3098979493894,42.235172237643354],[140.31012492644427,42.235069468908314],[140.31007516159906,42.23500003224874],[140.31032493685834,42.23491981418149],[140.31046942968746,42.23507232202184],[140.3110332866018,42.23495904627323],[140.31113011829206,42.23522520399475],[140.31200530412374,42.23507587780369],[140.31202472170742,42.23510887448381],[140.31211331471522,42.23525944767782],[140.31215451668314,42.23532948232723],[140.3122178072407,42.235314484040565],[140.31222566859591,42.23531262503567],[140.31232056197385,42.235290136560295],[140.31232796946327,42.2353072393648],[140.3124434306828,42.23527987766868],[140.31284653881156,42.2351843724716],[140.31308618159423,42.23512759930619],[140.31307642511396,42.235051326217246],[140.31309869427344,42.23512463924457],[140.31332894908215,42.235070085619675],[140.3135934224496,42.23500742733775],[140.31362892308223,42.23499674739385],[140.31366471454265,42.23496201867555],[140.3136969387804,42.23491012207124],[140.31360478936867,42.234708078509485],[140.31357651173855,42.23459990698395],[140.31355177176138,42.234515665046644],[140.31353169359372,42.234235358216225],[140.313520966461,42.23408558933474],[140.31365615469645,42.23371411603089],[140.31383930971504,42.23343001377749],[140.3141101741258,42.233081450490175],[140.31425519297363,42.232816042313225],[140.314196023867,42.2328063875716],[140.31426041642365,42.23260276214683],[140.3142950846208,42.23205981669323],[140.31430393839707,42.231663527288966],[140.31435227188942,42.23106134837995],[140.31436843469967,42.23085998277368],[140.31440061647507,42.23045906133782],[140.31441416506414,42.230141388635744],[140.3144286246578,42.229802376863596],[140.31443205624024,42.229722035785656],[140.314432482208,42.22971204154686],[140.31447371906623,42.22934120496715],[140.31450533761327,42.22857886101337],[140.31450659276737,42.22851469161463],[140.31451057661957,42.22831062266188],[140.3145181882216,42.22792165361164],[140.31453111923622,42.227260385460944],[140.3145934685119,42.22677019397992],[140.31460070096492,42.22629517754668],[140.3146123799153,42.22621294101122],[140.31451575935031,42.22572661142982],[140.31441903065286,42.22523969655153],[140.31441215955707,42.2252014800846],[140.3143367806987,42.22514772581605],[140.31432664613726,42.22514049259712],[140.31431674191566,42.225133430316724],[140.3141996303896,42.22506722934891]]]}}]}
