{"type":"FeatureCollection","features":[{"type":"Feature","properties":{"potaRef":"JP-1512","nameEn":"Ishikawa Kasen Prefectural Park","nameJa":"","boundaryStatus":"全国都市公園GIS候補・公開前検証待ち","boundarySource":"国土交通省「都市計画決定GISデータ」都市公園・緑地を、POTA代表地点で空間照合して加工","boundaryScaleNote":"都市計画データは近似・未収録の可能性がある。POTA運用可否は公式情報で最終確認すること。","candidateMethod":"POTA representative point inside one MLIT urban-park polygon","sourceParkName":"T-緑地","sourceParkType":"緑地","sourcePrefecture":"大阪府","sourceCity":"羽曳野市"},"geometry":{"type":"Polygon","coordinates":[[[135.6221265752096,34.558281075531625],[135.62186651015725,34.55765190874298],[135.62168612578245,34.557167993429694],[135.6216814211969,34.55659399397514],[135.6206558898815,34.55567243531042],[135.61968946250727,34.5546060441839],[135.61867005548922,34.55347384286543],[135.61822996688747,34.552984066760196],[135.61785216023438,34.552462384920766],[135.61737549185182,34.551535629094175],[135.61694466279693,34.550756790807014],[135.61680743740308,34.55026164306336],[135.61675522555132,34.54984388635195],[135.61676512659898,34.5494263470944],[135.61698610540415,34.54872687997671],[135.61707380860318,34.54827749094854],[135.61779172191618,34.54605079403295],[135.61801585712976,34.54625072983468],[135.61855723551415,34.54666376859129],[135.61949569067477,34.546859767211636],[135.61950417428827,34.54671846291412],[135.6196749481328,34.54672548237532],[135.61968956211504,34.54690541091188],[135.61999212782527,34.546951434089756],[135.62037210452849,34.54704269275916],[135.62060443749058,34.547159137524666],[135.62146993230377,34.54629473203502],[135.62021144809316,34.54497439278653],[135.62011322613975,34.544820750747114],[135.61959868785397,34.54492643147435],[135.61952121348241,34.54489404139795],[135.6194183579838,34.545272713121264],[135.61896065235032,34.54520045220511],[135.61908637852497,34.54490537663258],[135.618760559416,34.54485284527926],[135.61879230312246,34.54471804875572],[135.61867591322954,34.54470479431744],[135.61867640394271,34.54460843178402],[135.6185598817303,34.544620874147014],[135.61854356881602,34.544774998119436],[135.61820992363872,34.54473528951281],[135.61840090320212,34.543823713448354],[135.6185906026861,34.54316268011415],[135.61892023849182,34.54246358766529],[135.61913204390464,34.542033901936485],[135.61921973039387,34.54158451075858],[135.61942458438946,34.54099419529521],[135.6197548909743,34.54016019402847],[135.61994564798897,34.53928716100298],[135.62023399115478,34.53754076968484],[135.62033073381633,34.5368344400308],[135.62030394971936,34.535992771793175],[135.6203397273732,34.535061380598265],[135.62042152601623,34.53423936144284],[135.62052566603825,34.5336037229033],[135.62065227946397,34.53312876801618],[135.62080217972647,34.53265389517756],[135.62147012731984,34.531050148660086],[135.62162817069128,34.53049821130004],[135.62168442218768,34.53011937432403],[135.62158737889467,34.527819157865615],[135.62159748060472,34.527356647693566],[135.62167682280818,34.52701643627221],[135.62193563302824,34.526490542762566],[135.62133938437032,34.526205811509165],[135.6212943403534,34.52590371562061],[135.61984261550325,34.52594364528751],[135.61990461531963,34.52749210666723],[135.61997770592,34.52838533124258],[135.62001384181454,34.528912244741214],[135.61997235779242,34.52943888874587],[135.61984352795284,34.530350684685516],[135.6198413106582,34.53078752431362],[135.6200230785138,34.533210097699374],[135.62004261657657,34.533948954341646],[135.62004666255737,34.53468133114157],[135.61998074286473,34.535432737942045],[135.61987027047283,34.535785688712544],[135.61953173001575,34.53671602498712],[135.61943583016344,34.53725532831785],[135.61929350218537,34.53929131601599],[135.619234552471,34.5401969285076],[135.6191150935268,34.540787541663306],[135.61883853619568,34.54173736401021],[135.61720357137105,34.545676132298325],[135.61636974632071,34.54779320669992],[135.61619627096735,34.54831296171494],[135.6160904324233,34.54926979859249],[135.61618840318906,34.549848322913526],[135.61628680440484,34.55034333404333],[135.6164236982675,34.55090272184936],[135.61668479011095,34.55146896792134],[135.61696141785106,34.552035269346234],[135.61734651865734,34.55264691912967],[135.61778640440755,34.55317524462053],[135.61930732417758,34.554889393161005],[135.61981643127595,34.555552860304786],[135.62034058735003,34.556312741378164],[135.62060257110392,34.556711951909065],[135.6209328783291,34.55741976293638],[135.6212855106458,34.558320376297154],[135.6215097033616,34.55903440874201],[135.6223417054449,34.55915782388546],[135.6221265752096,34.558281075531625]]]}}]}
