{"type":"FeatureCollection","features":[{"type":"Feature","properties":{"potaRef":"JP-1155","nameEn":"Kitaurawa Prefectural Park","nameJa":"","boundaryStatus":"全国都市公園GIS候補・公開前検証待ち","boundarySource":"国土交通省「都市計画決定GISデータ」都市公園・緑地を、POTA代表地点で空間照合して加工","boundaryScaleNote":"都市計画データは近似・未収録の可能性がある。POTA運用可否は公式情報で最終確認すること。","candidateMethod":"POTA representative point inside one MLIT urban-park polygon","sourceParkName":"","sourceParkType":"公園","sourcePrefecture":"埼玉県","sourceCity":"さいたま市"},"geometry":{"type":"Polygon","coordinates":[[[139.64478771883066,35.86941465418902],[139.6448036410924,35.86924807781915],[139.64480713353825,35.869214511913796],[139.64482693653022,35.8690247843443],[139.6424309289885,35.86887781008585],[139.642416884934,35.86887657275943],[139.64239775845908,35.8690408786511],[139.64238274504012,35.86920642861523],[139.6423728017801,35.86931217267611],[139.64236883298,35.86935369209454],[139.64234823942635,35.86955843343876],[139.64234491759765,35.86959337318557],[139.6423150359698,35.86986929764894],[139.64231206270992,35.86989833505906],[139.64229609278712,35.87006408446656],[139.64226981147166,35.87031118790681],[139.64226797278783,35.870339036445515],[139.64225105747286,35.87051287657784],[139.64222763286824,35.87072312055624],[139.64221867951105,35.87080891314903],[139.64242194510544,35.870813449211035],[139.64282441623413,35.87083564371065],[139.6437024401072,35.870885041036125],[139.64387134064725,35.87084744756435],[139.6445323667187,35.870891746334536],[139.64463709072152,35.87089856818151],[139.64464031747778,35.870866895592236],[139.64474214582842,35.86985857650924],[139.64474709276425,35.86981080503905],[139.64478771883066,35.86941465418902]]]}}]}
