{"type":"FeatureCollection","features":[{"type":"Feature","properties":{"potaRef":"JP-1634","nameEn":"Kameyama Prefectural Park","nameJa":"","boundaryStatus":"全国都市公園GIS候補・公開前検証待ち","boundarySource":"国土交通省「都市計画決定GISデータ」都市公園・緑地を、POTA代表地点で空間照合して加工","boundaryScaleNote":"都市計画データは近似・未収録の可能性がある。POTA運用可否は公式情報で最終確認すること。","candidateMethod":"POTA representative point inside one MLIT urban-park polygon","sourceParkName":"亀山公園","sourceParkType":"公園","sourcePrefecture":"山口県","sourceCity":"山口市"},"geometry":{"type":"MultiPolygon","coordinates":[[[[131.47432426890367,34.17887252355449],[131.47404888101343,34.17889423000531],[131.47403773025852,34.17933618008681],[131.47405585952941,34.17957749761633],[131.4741004932963,34.17974014943527],[131.4742166060395,34.179943802336844],[131.47427594273069,34.18006355017272],[131.47375269072532,34.18012030757897],[131.47348814110288,34.180154632816034],[131.47337568129757,34.18017696047736],[131.47336185052455,34.18013181283003],[131.47314981408343,34.18021941030134],[131.47303398812025,34.18024079000611],[131.47296846873306,34.18024442259944],[131.47287369912277,34.18024455396973],[131.47260229024684,34.180223554213626],[131.4723351376518,34.18021401887225],[131.47217603310693,34.18020430113546],[131.4719955932238,34.18096852357594],[131.4722913984596,34.181376562568495],[131.4725011205582,34.18155477247635],[131.47292814416505,34.18186025929256],[131.47350679484327,34.18228335297111],[131.47356270884552,34.18227327533763],[131.47360922751852,34.18218293029492],[131.47366681525259,34.182092106805754],[131.4737265340863,34.18200598348692],[131.47378093383998,34.18193353396841],[131.47385392060224,34.181843338280906],[131.4739303401668,34.18175785009285],[131.47401273466954,34.18167131369834],[131.4741070482336,34.181586467345305],[131.47421484370378,34.18149791040374],[131.4742998813059,34.18143302641158],[131.47433581474056,34.181403297026506],[131.47439785086704,34.18135207720917],[131.47441293923399,34.181337647050015],[131.47443283886767,34.181318555865666],[131.47446171679593,34.181289327581666],[131.4745066193256,34.18123728979665],[131.47456001806492,34.18116771929461],[131.47459604379205,34.1811133774806],[131.4746286254604,34.18105568042127],[131.47463358493312,34.18104615174564],[131.47465234393664,34.18100730969998],[131.47467001889476,34.180968371380686],[131.4746844034782,34.180933832197965],[131.47470844087093,34.18085967834957],[131.47475401824647,34.180671777611146],[131.47486261497298,34.180225747750406],[131.47487688931145,34.180183604814744],[131.47497047771728,34.17981358977238],[131.47496943621488,34.17967603575463],[131.47498406314728,34.17949437594971],[131.47499092396157,34.17914146496158],[131.47497151474747,34.17887824727804],[131.47496555482095,34.17884204283781],[131.47495033270783,34.17884188473457],[131.47432426890367,34.17887252355449]]],[[[131.47710982216392,34.179588097687855],[131.4770874214228,34.17946139127139],[131.4771660823997,34.1794464164302],[131.4771315596162,34.17931630609278],[131.4763500855845,34.179408200066405],[131.47590024392252,34.179458680960764],[131.47542277897233,34.179504316430474],[131.4754098993694,34.17960711308635],[131.47536832187257,34.17983686952367],[131.47535549726584,34.179906308365986],[131.47532693312652,34.18004345663704],[131.47517429220238,34.180762590761965],[131.4751541445558,34.180852003166656],[131.47513039360533,34.18094428028482],[131.47509934745693,34.18103985209203],[131.47507821132874,34.181090852009696],[131.47505677917172,34.18113824397314],[131.47503449315508,34.18118391813578],[131.47502490118305,34.181202797048286],[131.474982853869,34.181277210065],[131.4749334278429,34.181351851941194],[131.4748661040607,34.18143955581883],[131.47480597834243,34.18150926883667],[131.47476441333055,34.18155113780415],[131.474719802819,34.18159398131055],[131.4746826518944,34.18162667912356],[131.47460463423127,34.18168213648466],[131.4751909611965,34.18190742609458],[131.47522835867272,34.18192292812842],[131.47531818347898,34.18182360323641],[131.4753735284672,34.18175877659459],[131.47540405242668,34.18172190303097],[131.47543512822696,34.18168120990984],[131.47546361926254,34.18164219717258],[131.47549783784427,34.18159257816012],[131.47554085344424,34.181531089925706],[131.47557614021213,34.18147551752616],[131.47562139729422,34.181391899317134],[131.4756656862334,34.181300612289384],[131.47568823815305,34.18123559180716],[131.47571077648357,34.181173564457126],[131.475744575001,34.18107501589704],[131.47591461832724,34.180426326134956],[131.47723816526596,34.1806655647047],[131.4771447244338,34.1801622788076],[131.47708387310675,34.17997752057523],[131.47705729581085,34.17988414880607],[131.47701240069912,34.17972224486305],[131.4771305643811,34.179705328285685],[131.47715293733702,34.17970211819178],[131.47713304455146,34.17958714629758],[131.47710982216392,34.179588097687855]]],[[[131.47452650798877,34.181737593182426],[131.47452034077142,34.18174254073433],[131.47450180982685,34.181958886783356],[131.47430919431534,34.18193231598735],[131.47427287688956,34.18197158117758],[131.47424708516508,34.182002248406604],[131.47418879320176,34.18207792427767],[131.47408117644164,34.182240966926344],[131.4740226994975,34.18233923769927],[131.47391289641962,34.182505326987034],[131.47440232317993,34.182776911958015],[131.4745586714748,34.1825507565156],[131.47487001484635,34.18218977449052],[131.47503832074733,34.182230644441866],[131.4751394218538,34.18198340445303],[131.47520029250794,34.181976882082395],[131.47510948902487,34.18193742251847],[131.4750089579581,34.1818935805188],[131.47480378282685,34.181804791198616],[131.47478918694074,34.18179875853642],[131.47456497327877,34.18171027009074],[131.47452650798877,34.181737593182426]]],[[[131.4719773334917,34.18134732309438],[131.4717755891046,34.181264047732874],[131.47166194675563,34.18121868624012],[131.47162280536807,34.18120295753209],[131.47159311594018,34.181251654459835],[131.47155619085257,34.181309596563324],[131.47151940081088,34.18136429376749],[131.47155733347955,34.181381908958514],[131.47156620692633,34.18139782685854],[131.4715614350858,34.181463794757924],[131.47152074838246,34.1816232323289],[131.47147851098669,34.18174686876528],[131.47145655385935,34.18180906088596],[131.4714664798341,34.18184743384924],[131.47148775728726,34.181877360302146],[131.47155080295747,34.181934768818515],[131.47165159412287,34.18201282067957],[131.4717696044659,34.18211567299249],[131.47181317560063,34.18217467505245],[131.47181300108622,34.18219596013194],[131.4717840402599,34.18222985744325],[131.47174406308145,34.182231325995474],[131.4716744543519,34.18222412490182],[131.4715117555579,34.18219850927528],[131.4712210088207,34.18216961632809],[131.47097639982476,34.18213884677693],[131.4709829770308,34.182154905752974],[131.47099293165354,34.182197696606416],[131.47102009963712,34.18227123842517],[131.47109449638396,34.18247225948669],[131.47129442901024,34.182670836490054],[131.4715058337317,34.18288606704751],[131.47164782376467,34.18302021357655],[131.4718577081929,34.18320937954711],[131.4725119954775,34.18367593967715],[131.4726778182881,34.183639362374215],[131.4727255960445,34.18356534978474],[131.47291419326805,34.18327335269319],[131.4734434241447,34.18243412831192],[131.47341665633297,34.1823826224768],[131.47315576446854,34.18218391959206],[131.47303259898666,34.18236165396248],[131.4725987540416,34.182165489379265],[131.47277695538673,34.18190160290704],[131.4727662970456,34.18189363086216],[131.4727247878586,34.181862291951056],[131.472515946562,34.181704868601855],[131.47237256390977,34.181595147725574],[131.4722446693583,34.181501742596524],[131.47213115523653,34.18141418877982],[131.47211897196354,34.18140501396156],[131.472107425517,34.18139755573006],[131.47209844483777,34.18139471002848],[131.47208731013674,34.18138995883617],[131.4719773334917,34.18134732309438]],[[131.47240183900666,34.18225250386153],[131.47231067485745,34.18237503429533],[131.472256569546,34.182350457849275],[131.47224725124934,34.18236232387026],[131.47210740429105,34.18229894536702],[131.47216594407377,34.182219235326926],[131.47229253957138,34.18227402795449],[131.47233038928397,34.1822197422285],[131.47240183900666,34.18225250386153]]]]}}]}
