{"type":"FeatureCollection","features":[{"type":"Feature","properties":{"potaRef":"JP-1380","nameEn":"Fuganunga Kansui Prefectural Park","nameJa":"","boundaryStatus":"全国都市公園GIS候補・公開前検証待ち","boundarySource":"国土交通省「都市計画決定GISデータ」都市公園・緑地を、POTA代表地点で空間照合して加工","boundaryScaleNote":"都市計画データは近似・未収録の可能性がある。POTA運用可否は公式情報で最終確認すること。","candidateMethod":"POTA representative point inside one MLIT urban-park polygon","sourceParkName":"カナルパーク","sourceParkType":"公園","sourcePrefecture":"富山県","sourceCity":"富山市"},"geometry":{"type":"Polygon","coordinates":[[[137.21081249672991,36.71023129564973],[137.2108683527253,36.71001205591869],[137.21148123109907,36.70937055992791],[137.21256818804278,36.71007287591381],[137.21205448510625,36.71059755944646],[137.21197830865842,36.710874173161365],[137.21221776094615,36.71130842216473],[137.21248269056773,36.71178978268017],[137.21261449603,36.71173888944587],[137.21278059713356,36.71165209687953],[137.21287457029015,36.71159097145649],[137.2129549911939,36.711536700079414],[137.21344508825828,36.71114764236135],[137.21373968336326,36.710917762645465],[137.21386542844985,36.71081183910974],[137.21391314317458,36.710758591351706],[137.21396797929887,36.71067677340314],[137.2139938682812,36.71063140152217],[137.21400838768324,36.71058902211078],[137.21402502318188,36.71052641004581],[137.21403233440986,36.71047022114634],[137.2140331277762,36.71041129239146],[137.21402858986855,36.71035341491682],[137.21401606791744,36.71029299456875],[137.21400750915222,36.710251697149175],[137.21397888766634,36.710159740862],[137.21381698734038,36.70967630981133],[137.21378909621575,36.709571075109984],[137.21377463803879,36.70949298278911],[137.21378007864928,36.709380608634405],[137.21378738092025,36.70930963395265],[137.213802339899,36.709263854853695],[137.21382771755466,36.709204638870034],[137.21384422253004,36.709167667854636],[137.21386439937564,36.709129216801976],[137.21389008357417,36.70908780640305],[137.2139157668399,36.7090449174196],[137.2139726533347,36.70897688019087],[137.21440098784012,36.70852523772275],[137.21463883238494,36.708283159980176],[137.21279371611016,36.70711196473021],[137.21238271058075,36.707537160681966],[137.2121388975737,36.70784367636136],[137.2113291199754,36.70865328367762],[137.2108858896647,36.70910937577952],[137.21083229526178,36.70931202972745],[137.2107384115273,36.70972117792565],[137.21051025052424,36.709696412105245],[137.21056076280485,36.70946904798277],[137.21013129707535,36.709858411178224],[137.20988897056822,36.71010808522006],[137.20979235901368,36.71023044201414],[137.20969115504343,36.71037380513261],[137.20958689590847,36.71054311630095],[137.20954241760606,36.710588848537604],[137.20949179463105,36.71062346280908],[137.20945652047797,36.71066301383566],[137.20935999777345,36.71094846589244],[137.20933859851738,36.711102920205256],[137.20928207953185,36.71157740050517],[137.2102901916874,36.71132868517682],[137.2104942702816,36.711281658442196],[137.21094078237854,36.71117029164099],[137.2106781236916,36.71075276531846],[137.21061674907193,36.71065025468142],[137.210599783788,36.71062182349716],[137.21058965275003,36.71060063719368],[137.21056137140232,36.71053905426172],[137.21054923132942,36.71050977565204],[137.21053831923405,36.710480990817715],[137.21053060804016,36.7104593588287],[137.2105106485351,36.710396982031604],[137.2104715053667,36.7102088850775],[137.21045873346054,36.71012284119552],[137.2104569978421,36.710053164491555],[137.21045863812859,36.709954841616685],[137.21070547436878,36.70997114076748],[137.21081249672991,36.71023129564973]]]}}]}
