{"type":"FeatureCollection","features":[{"type":"Feature","properties":{"potaRef":"JP-1319","nameEn":"Haruna Prefectural Park","nameJa":"","boundaryStatus":"全国都市公園GIS候補・公開前検証待ち","boundarySource":"国土交通省「都市計画決定GISデータ」都市公園・緑地を、POTA代表地点で空間照合して加工","boundaryScaleNote":"都市計画データは近似・未収録の可能性がある。POTA運用可否は公式情報で最終確認すること。","candidateMethod":"POTA representative point inside one MLIT urban-park polygon","sourceParkName":"榛名公園","sourceParkType":"公園","sourcePrefecture":"群馬県","sourceCity":"渋川市"},"geometry":{"type":"Polygon","coordinates":[[[138.899485472976,36.47478284256431],[138.89900371432967,36.4748084816242],[138.8984901845265,36.474780801826256],[138.89794140032168,36.47462825349683],[138.8975345709158,36.4745865365498],[138.89705352666732,36.47460354833224],[138.89674824863803,36.47464255203525],[138.8964276822132,36.47474074662601],[138.89605794647613,36.47496911604162],[138.8956826051096,36.475043221273076],[138.89537056934523,36.47504381055828],[138.89503024577016,36.47495529534256],[138.89481457599814,36.47487643318655],[138.89455626191574,36.47467872615934],[138.89438928738326,36.47453513381647],[138.89423802929113,36.47430864083952],[138.89357304666723,36.474030620795645],[138.89287955986623,36.473716774796095],[138.89229697840358,36.473332772760486],[138.8920785113464,36.473188827428935],[138.89177879220244,36.4730797827799],[138.89155879205182,36.47304830647265],[138.89065718031063,36.472194781296366],[138.89040370790897,36.4720608649915],[138.89019102639637,36.47204144156314],[138.88997500808605,36.47199526516868],[138.88965003077982,36.47185337499423],[138.88942170967246,36.471608466813976],[138.88900432356303,36.47121978518531],[138.88851136963737,36.47069408246962],[138.88835173786615,36.47055053960458],[138.88823079647491,36.47038806811658],[138.88806463489453,36.47031412054914],[138.88795359526756,36.47024652344101],[138.88787256210642,36.470119909311556],[138.8879864164713,36.46980059990739],[138.88807255592167,36.469653061172835],[138.88805605125899,36.46950470942427],[138.88786053783423,36.46928979759439],[138.88753525149966,36.46917456863538],[138.88713776361098,36.46895800071432],[138.88657025656013,36.46853542226799],[138.88630878931338,36.468305089064565],[138.8863047107144,36.46804415643859],[138.88638920212622,36.467748384760014],[138.88660579549023,36.46738362430984],[138.88667509613921,36.4670581046786],[138.8866185711116,36.46681466718318],[138.88642822921136,36.46677744653001],[138.88498806790136,36.46689066055298],[138.88412874004527,36.46662878616037],[138.88343786533565,36.46639793042446],[138.8830156477559,36.46610995556284],[138.88213644418224,36.46596061673171],[138.88178551793953,36.465854094938926],[138.88126048734367,36.465580249584235],[138.87990639922094,36.465243314089875],[138.87960589416198,36.46520531512533],[138.87947215746755,36.46534655321941],[138.87916431321042,36.465907377535885],[138.87857805782656,36.46643040416185],[138.87845900933624,36.46640869496025],[138.87818020881306,36.4662552575155],[138.87756434011942,36.46590043327511],[138.877209841997,36.46577009931345],[138.8761875702689,36.46562264132794],[138.87583566759554,36.46559621849211],[138.87501805728087,36.465823799254494],[138.87424794020728,36.46577903277172],[138.8737591618366,36.46550828887319],[138.87336479572537,36.465362726784086],[138.87292919485188,36.465267270091005],[138.8725593322895,36.46519611150737],[138.87208270201927,36.46515093080064],[138.8711907056824,36.46546389817009],[138.87089657118813,36.465503094871586],[138.8700635832437,36.46519987505104],[138.86916148708644,36.46514516626054],[138.86898809815168,36.46528815673663],[138.86879976790047,36.46546651150098],[138.86857838586124,36.465571516012545],[138.86819295218137,36.465870755264675],[138.8680230802824,36.46594942015185],[138.8678826331695,36.466028323030315],[138.86761468914696,36.466322540563844],[138.86752456299652,36.46648791520836],[138.867420162983,36.46662343451329],[138.86723456212755,36.46676122553261],[138.86696725463364,36.4669813790065],[138.86664876210747,36.46715070534963],[138.86636888937963,36.46722560416154],[138.8660163993566,36.4672405464539],[138.86586083219055,36.4673518240592],[138.86554449894598,36.46740327561866],[138.86502786700478,36.46762433088292],[138.86470939658633,36.46785301948338],[138.8644443850308,36.467910179217945],[138.86423098281105,36.467952971669106],[138.86389313151977,36.46797092753412],[138.86321935564652,36.467840916755755],[138.86295699586748,36.46769650574525],[138.86281095965023,36.4676300931371],[138.86276489643018,36.46778973953261],[138.86278485814853,36.46795896283691],[138.86276733479627,36.46818707972251],[138.86249736712267,36.46864143058985],[138.86232899420355,36.468900946842936],[138.86222857743942,36.46900685283084],[138.86198093559025,36.469144158441146],[138.86177048464853,36.469246225097734],[138.86168071501848,36.469381802518605],[138.86174918801632,36.46948315435326],[138.8619138650019,36.46952012110234],[138.86190328869424,36.4697809349162],[138.86215637089137,36.46979186548343],[138.86245290998994,36.47000325998243],[138.8628327818515,36.47001374270396],[138.8632839884706,36.46998731127063],[138.86335511815867,36.46999959430058],[138.86334490519533,36.47006450011451],[138.8624761547422,36.470187167450774],[138.86203167474397,36.470348048837614],[138.86151792515787,36.47059592574253],[138.86143835525962,36.47079683859632],[138.86127341856889,36.47092010141873],[138.86101979513072,36.47088244453817],[138.8609611709686,36.47109533531656],[138.8607351202393,36.47164081029908],[138.86053871511302,36.472174642119114],[138.86037557000887,36.472606088812356],[138.86030227804963,36.47275079690798],[138.86012066927307,36.47273448825357],[138.8600578803326,36.47305418689425],[138.86001926862184,36.47349563298235],[138.8600628923397,36.4738191282593],[138.86014744505493,36.4741043181012],[138.86025470121177,36.47433640885285],[138.8606137879966,36.474973786612594],[138.86052967897888,36.47583865460935],[138.86061521069803,36.47721487639975],[138.8607827750379,36.47790408839863],[138.8611709443523,36.47856535821209],[138.86145178216864,36.47900343575602],[138.86148319324445,36.479132648811955],[138.8622595489338,36.47957619564816],[138.86350473071357,36.48041053226232],[138.86380293606487,36.48062034588748],[138.86434762300598,36.48111108408636],[138.8649756413014,36.481641055421036],[138.8654795890808,36.48185861741194],[138.86618116544827,36.48211326432048],[138.86710052196293,36.48198434826699],[138.8694819772831,36.482371187416135],[138.87016913930182,36.4822671397934],[138.87115341716677,36.482485584193896],[138.87132190067857,36.48251065565092],[138.8728921862844,36.48258255904512],[138.87386746814784,36.482092431558286],[138.874379716905,36.48223294050098],[138.8747957594142,36.48243193062495],[138.8749862066153,36.482469001675206],[138.87513011134408,36.482422702708206],[138.87542836242,36.482365815041746],[138.87564425671258,36.48241795908218],[138.87582331777284,36.482487606371144],[138.87604948298446,36.482606894050036],[138.87627440577992,36.48283285232529],[138.8766787116848,36.48308803781897],[138.87693846475048,36.48316418838109],[138.87715226427878,36.48309476247741],[138.8774007939527,36.482948539055464],[138.87737015090426,36.48305032109501],[138.87800227907383,36.48298893119261],[138.87831847708708,36.483189502238176],[138.87858376456649,36.48335998255766],[138.87915725803435,36.48340608155463],[138.87936187717816,36.48318298999773],[138.87953632006779,36.48302607614586],[138.87971673574773,36.48280461543248],[138.87988968365843,36.48259376308551],[138.88007358736263,36.48262542815703],[138.880399265662,36.48271161103795],[138.88047572040801,36.48282313211771],[138.8805612228943,36.48291544238695],[138.88065113334807,36.48300778788906],[138.88094231487247,36.48320573089496],[138.8809670986544,36.4834632517354],[138.8810905708607,36.48345232419015],[138.8814184125164,36.483382104144056],[138.88159951711353,36.48330474277167],[138.88194692375131,36.48312372299485],[138.8821112730003,36.48289973133958],[138.88224575881665,36.48269927045405],[138.88263847564386,36.48240590270681],[138.88330045094713,36.48230438137917],[138.88363248334338,36.48217071658644],[138.88387672191442,36.482012583181216],[138.88409203426565,36.4818126504322],[138.88445920624508,36.48121085982759],[138.88471358341988,36.48081556160598],[138.88505620460785,36.48065942410225],[138.88510023834527,36.48066040454351],[138.88531371469045,36.48061379583372],[138.88569423741626,36.48053575473496],[138.88576697612177,36.48053115104764],[138.88626675805514,36.48049003545968],[138.88745688687254,36.48097143478783],[138.888111801374,36.48124047711016],[138.88824130003528,36.48124565055581],[138.89192518179516,36.48172076817608],[138.89285711467474,36.48184318810926],[138.89331135070069,36.48190313407661],[138.89376561558134,36.4819606920714],[138.89495417887312,36.48211240310986],[138.8956148936401,36.48219831991621],[138.89596324947084,36.48210731854839],[138.8964296204098,36.48197460533103],[138.89678217830743,36.481839849630354],[138.89731862592188,36.481563106699724],[138.89743932176447,36.48140277039291],[138.8982391734641,36.48101122262887],[138.8990892448978,36.48059398922937],[138.8992786695634,36.480470968148886],[138.8991679542769,36.48015936426616],[138.89897423604526,36.479774878292524],[138.8988396663622,36.47937058916501],[138.89877220872867,36.47887800034495],[138.8987676994511,36.47863779244243],[138.89877768950032,36.478421467692435],[138.8988830483433,36.47820591775885],[138.89900248214946,36.47804376198289],[138.8990726830123,36.47792364996603],[138.899260609935,36.477780690323904],[138.89937989943752,36.47762746069441],[138.8993744274879,36.47746734027634],[138.89929694217446,36.4771999191998],[138.89918476864335,36.476760264291606],[138.8992038783394,36.47640213394363],[138.89921895384032,36.47605835560443],[138.8992483864654,36.47575028752529],[138.89929815291444,36.475270388240574],[138.89937062842824,36.474961224544266],[138.899485472976,36.47478284256431]]]}}]}
