{"type":"FeatureCollection","features":[{"type":"Feature","properties":{"potaRef":"JP-1347","nameEn":"Nagano Sports Prefectural Park","nameJa":"","boundaryStatus":"全国都市公園GIS候補・公開前検証待ち","boundarySource":"国土交通省「都市計画決定GISデータ」都市公園・緑地を、POTA代表地点で空間照合して加工","boundaryScaleNote":"都市計画データは近似・未収録の可能性がある。POTA運用可否は公式情報で最終確認すること。","candidateMethod":"POTA representative point inside one MLIT urban-park polygon","sourceParkName":"長野運動公園","sourceParkType":"公園","sourcePrefecture":"長野県","sourceCity":"長野市"},"geometry":{"type":"Polygon","coordinates":[[[138.23474989977498,36.65984769941697],[138.2353791778955,36.65988799778465],[138.23540317408126,36.65986716914434],[138.2353914591144,36.65979485944531],[138.2353957709128,36.65970009709511],[138.23539792955643,36.65965191277352],[138.23539621070668,36.659571593759004],[138.2353828209372,36.659406114705114],[138.23537721913982,36.65929526728441],[138.23536783886112,36.659123371912905],[138.2353699590189,36.6590864316301],[138.23534076606757,36.65906516342169],[138.23528936543804,36.65906719093736],[138.2352494791045,36.65907067185078],[138.2351138900028,36.65907536778162],[138.23508023565176,36.659070295542534],[138.2350077981142,36.65907381944369],[138.23476733443127,36.659084230883934],[138.23457889879728,36.65908978254674],[138.23447070588654,36.65860933176434],[138.2343338561781,36.658010453669526],[138.2341783346144,36.65727637751557],[138.23393798570368,36.65612889265378],[138.232745070701,36.656230492843584],[138.23084306276743,36.65640000073809],[138.23020586676589,36.656456489377426],[138.2301318556592,36.65646847915534],[138.22989677023634,36.656544759083744],[138.22992429938662,36.65671909675526],[138.2299139080563,36.65671222993136],[138.22979936428592,36.65665636362086],[138.2296159512459,36.65653921045615],[138.22962513012894,36.65659509921684],[138.2296400397709,36.65669385455049],[138.2296735628937,36.65692734706895],[138.2296863376204,36.65701668713351],[138.22997281070866,36.657050698846476],[138.2300248936902,36.657391016113614],[138.23007850361716,36.65775109522092],[138.23019732193148,36.65853441627089],[138.23028527127332,36.65910240688116],[138.23031755663126,36.65931021397967],[138.23003370206445,36.659300547065165],[138.23003606212433,36.65931500408275],[138.23004744662308,36.65938454640876],[138.23005997856893,36.659470656486604],[138.23007176297213,36.65954751123066],[138.23016192779713,36.659586518946625],[138.2302512978599,36.65959443586856],[138.2303638203158,36.65959983666964],[138.23047075881252,36.65960587360495],[138.2305673124538,36.65960994932427],[138.23062237568976,36.65961457999706],[138.23070895746787,36.659620165119094],[138.23083282384712,36.65962517656758],[138.2309669644917,36.65963179724734],[138.2310800507408,36.65963915429411],[138.2311686469663,36.65964447326483],[138.23126409866887,36.65965022220194],[138.23138794435258,36.659657999773565],[138.23153775233953,36.65966583574834],[138.23164398313332,36.659672789279725],[138.23174482513,36.65967893750328],[138.2318564251857,36.65968589392791],[138.2319656118389,36.65969206075396],[138.23212226976116,36.659698730812124],[138.23220842350813,36.65970523312614],[138.23232788017458,36.65971102617733],[138.23252075678752,36.65972132792559],[138.23266665135037,36.659728757153125],[138.2328125360937,36.65973579865505],[138.23292072739116,36.659741953360005],[138.23310183257323,36.65975341737706],[138.23321883698824,36.659759988100326],[138.2333191829583,36.65976732349072],[138.2334782952505,36.65977597093457],[138.23366383564596,36.65978585787512],[138.23381116663688,36.659795262586215],[138.23398299192488,36.65980551490843],[138.23408922586657,36.65981167319156],[138.23426007770095,36.65981876866835],[138.23442651019974,36.6598293958412],[138.23459737196475,36.65983687838112],[138.23474989977498,36.65984769941697]]]}}]}
