{"type":"FeatureCollection","features":[{"type":"Feature","properties":{"potaRef":"JP-1481","nameEn":"Isuzu Prefectural Park","nameJa":"","boundaryStatus":"全国都市公園GIS候補・公開前検証待ち","boundarySource":"国土交通省「都市計画決定GISデータ」都市公園・緑地を、POTA代表地点で空間照合して加工","boundaryScaleNote":"都市計画データは近似・未収録の可能性がある。POTA運用可否は公式情報で最終確認すること。","candidateMethod":"POTA representative point inside one MLIT urban-park polygon","sourceParkName":"五十鈴公園","sourceParkType":"公園","sourcePrefecture":"三重県","sourceCity":"伊勢市"},"geometry":{"type":"Polygon","coordinates":[[[136.73058250200788,34.46326761136446],[136.7304841767764,34.463220492902664],[136.73031684152286,34.46318571297952],[136.73020426249468,34.46315537662469],[136.73010604144005,34.46312018443118],[136.72998167421454,34.4630589093658],[136.7298745230861,34.46299037595996],[136.729758172082,34.462857494114296],[136.72969997704777,34.46278866737394],[136.7295957052766,34.46272011652855],[136.72949456361266,34.46268017038813],[136.7293646037064,34.46263801067663],[136.72925484338387,34.46260050029901],[136.72915956544583,34.462572445194965],[136.72909024565382,34.46254900607263],[136.72898912406976,34.46251144392858],[136.72883616940936,34.462474191660576],[136.72870566933543,34.462458478049705],[136.7285852604361,34.462442787994945],[136.72850282164077,34.46243171724601],[136.7284136192789,34.462418387851365],[136.72832531855798,34.46240259635842],[136.7282384601411,34.46240248277735],[136.72813498386793,34.46241896606482],[136.72802529979936,34.4624475666979],[136.72791638449294,34.46248950525363],[136.7277694913113,34.46255754364856],[136.72745388943255,34.46270087180195],[136.72738001253813,34.46274178998633],[136.727197511224,34.46284574004395],[136.72706969548997,34.46292989159352],[136.72690530599357,34.46303896234338],[136.7268289239817,34.463104867388914],[136.72678462311904,34.46315498523238],[136.72672688056295,34.4632240248861],[136.72662630306843,34.463323971060795],[136.7265462260063,34.463403150339914],[136.7264728752066,34.46350491881822],[136.7264454606864,34.46358198108447],[136.72642364615976,34.463664690585645],[136.72640048899885,34.46376832348383],[136.72628689230683,34.464325691296885],[136.72627356219468,34.46438265683885],[136.72621994447428,34.4645008049485],[136.7259989205545,34.46482517007495],[136.7259108434998,34.46484778056818],[136.72583648213833,34.46487075851521],[136.72578024735475,34.46488786082281],[136.7257033140292,34.46491073225422],[136.7257405405775,34.46499886085646],[136.7257294367636,34.46506158288898],[136.72573112477914,34.465118278897],[136.72574038530894,34.465156989563454],[136.7257657330034,34.46520570181191],[136.72579520152541,34.465265208808006],[136.72584499430357,34.46533378887881],[136.7259036619221,34.465409078575526],[136.72598038228938,34.465495079343704],[136.72604949623786,34.46555741509242],[136.72612418935998,34.465622963153926],[136.72619972211015,34.46568490007367],[136.7262781703067,34.46574411594448],[136.72636021118916,34.46580339876419],[136.7264425490455,34.465859254863204],[136.72652685711813,34.46591636133218],[136.72665632916292,34.46599763152863],[136.72674793179524,34.4660423426623],[136.7268393920874,34.466083178910374],[136.7269241716158,34.46611927672963],[136.72708754439563,34.466168429910745],[136.72724185069845,34.46620131918574],[136.72739986561032,34.46623508772177],[136.72750453190775,34.46625483931326],[136.72761082777347,34.46627422050392],[136.72766238967276,34.466283018979816],[136.7277681038344,34.466298076169366],[136.72787861340814,34.466313826833996],[136.72798373332824,34.466323116704785],[136.7280887366066,34.46633150655491],[136.72819870833735,34.4663354492363],[136.72830168199687,34.46633573725749],[136.72841729010082,34.466336941579726],[136.72852984745873,34.466337803365036],[136.72863673556142,34.46633761700993],[136.72879978683648,34.466337095707985],[136.7289087406061,34.46633662634079],[136.72898514942588,34.46633626082293],[136.7290147226911,34.466332389091136],[136.7291022655423,34.466323121235526],[136.72927377353238,34.46631549802106],[136.7293487407032,34.46631207568793],[136.72946508324074,34.46631012109797],[136.72962498034985,34.46630988977988],[136.7297551600867,34.466309474162706],[136.72999794580588,34.46631550981553],[136.73012622445114,34.466321776450684],[136.73027821066228,34.46633781900278],[136.7304158313486,34.466354397070546],[136.7305207426849,34.46637694114262],[136.730727540068,34.46642484002895],[136.73095684196394,34.46648207091343],[136.73113460650043,34.46652085790358],[136.73129845807168,34.46656188973327],[136.73149789937074,34.46661953804984],[136.7315993157139,34.46655944478776],[136.7318008919661,34.46644026983459],[136.73236580769384,34.466117346810236],[136.73211295563993,34.465815676485114],[136.73176980008512,34.4653717318809],[136.7314949856253,34.46503371142731],[136.73124484027983,34.46458510306231],[136.7311884817625,34.46439700224996],[136.7310662639789,34.46425223050723],[136.73083566503738,34.46399877405481],[136.73078579517713,34.4638941191975],[136.7307150189634,34.463703718890706],[136.73064815220513,34.46330100458527],[136.73058250200788,34.46326761136446]]]}}]}
