{"type":"FeatureCollection","features":[{"type":"Feature","properties":{"potaRef":"JP-1906","nameEn":"Fuefukigawa Fruit Prefectural Park","nameJa":"","boundaryStatus":"全国都市公園GIS候補・公開前検証待ち","boundarySource":"国土交通省「都市計画決定GISデータ」都市公園・緑地を、POTA代表地点で空間照合して加工","boundaryScaleNote":"都市計画データは近似・未収録の可能性がある。POTA運用可否は公式情報で最終確認すること。","candidateMethod":"POTA representative point inside one MLIT urban-park polygon","sourceParkName":"","sourceParkType":"公園","sourcePrefecture":"山梨県","sourceCity":"山梨市"},"geometry":{"type":"Polygon","coordinates":[[[138.65830236629108,35.705874391918584],[138.6583203642837,35.70586661648976],[138.65925382616936,35.70546346547149],[138.65933591275893,35.70545190947253],[138.65953389203528,35.70542370484817],[138.6597857283797,35.705470151743896],[138.65986311440966,35.70548438072352],[138.65986344612145,35.70548447041964],[138.66006538967545,35.70539397519168],[138.66019751438597,35.705315650888124],[138.66055885792522,35.70524738661363],[138.66068606629622,35.70525271519683],[138.66081357001016,35.70524001590929],[138.6610456757726,35.705201758024074],[138.66112215482937,35.70520463018313],[138.66112328804397,35.705218599855996],[138.6611865028054,35.705219957405376],[138.6612289991581,35.705195022757046],[138.66144597307368,35.70510612753779],[138.6615850260451,35.70512144445807],[138.66158621317888,35.705162094520055],[138.6615126738302,35.705301724845874],[138.66145729086003,35.70540284239709],[138.6613773013004,35.70552256107597],[138.6612561608138,35.705622144217074],[138.66115139033823,35.70572900639149],[138.66122084439968,35.70581021668456],[138.66125328807,35.70589679459083],[138.6614024624452,35.70599844911363],[138.66151243705426,35.706060946594825],[138.66165502060153,35.70607256308755],[138.66174642848375,35.70613454446852],[138.66182871669298,35.706222587545206],[138.66190004692444,35.706301992181906],[138.66191405931337,35.706290796383286],[138.66209432781417,35.70613858328488],[138.6621479252457,35.70608361784617],[138.66226089734343,35.70598891220928],[138.66239260799514,35.705870475233624],[138.66261269403324,35.705681251576124],[138.6626730717905,35.70570027896998],[138.6627386358036,35.705824218437584],[138.66279313369483,35.70588633906119],[138.66293999128158,35.70577175687633],[138.66302102432311,35.70573135604796],[138.66311086090326,35.705726907777596],[138.6632664759176,35.70573435841405],[138.66352095886995,35.70572238531849],[138.66362871199397,35.705724672571904],[138.66379969470754,35.70573534654728],[138.6639937786857,35.70574815208738],[138.66396645543375,35.70562704559086],[138.66395701878673,35.70555197457564],[138.66383270180853,35.70533978178601],[138.66374511152475,35.7051454761062],[138.66372630446054,35.705081504628744],[138.66371108497532,35.70504258627276],[138.6636517952344,35.704961003042506],[138.66356965995848,35.70483997095083],[138.66353172745866,35.70471824779608],[138.6634564352939,35.70453870759637],[138.66345002630698,35.70453898670978],[138.66346398977885,35.704504084838376],[138.66347031819393,35.7043560717548],[138.6634843528419,35.70435605269326],[138.66362295788397,35.704314852148535],[138.6638276740043,35.704124655618344],[138.6637955120528,35.70401473258864],[138.66384433894967,35.7040059228723],[138.66398905439263,35.70398093819696],[138.6639849159962,35.70384880339809],[138.6644028822681,35.70375214749234],[138.66441437178975,35.703750509337674],[138.6646978616696,35.70371406708003],[138.66479892857913,35.70369058333507],[138.66480781449198,35.70371256452971],[138.6648415661247,35.70378886411765],[138.66516184651366,35.70369459273653],[138.66516330728717,35.70370630850638],[138.6653417492198,35.70363864125015],[138.66540381228876,35.703618004807375],[138.66549091458063,35.703628521216125],[138.66552144423216,35.703642720839895],[138.6655889956056,35.70371104170208],[138.6657282224644,35.70381117225903],[138.6657956599448,35.703824329485805],[138.66584530373493,35.70372988794564],[138.6659259884715,35.703523093236875],[138.66597822713175,35.703294524607514],[138.66599039462395,35.70314019374467],[138.6660108666609,35.70304714440267],[138.66602930759998,35.70298717803913],[138.66606275691015,35.70291727592618],[138.66608146761308,35.70282756405814],[138.66608886279008,35.702823317427494],[138.6660944827517,35.70281564805001],[138.66613506495554,35.702774940375384],[138.6661413505684,35.702768531991225],[138.66619920077707,35.70274177165317],[138.66623990537218,35.70270683252509],[138.66630045172198,35.70264806987212],[138.66638973905899,35.702593774298705],[138.66647595008058,35.702548136040605],[138.66651226137287,35.702526272723155],[138.66656349964217,35.702508535029956],[138.66668614775702,35.7024485144523],[138.66681366209573,35.702390470013825],[138.66684125881451,35.70237610002331],[138.6670139744752,35.702320155992396],[138.66708686908015,35.702301126111024],[138.66714806918716,35.70229130637335],[138.66719866896844,35.702285467346236],[138.6672302630016,35.702280285661686],[138.66726219287906,35.702277176647264],[138.6673306987811,35.702273295689544],[138.66739954241243,35.70227238873569],[138.6674852998908,35.7022745228583],[138.66765726745263,35.70228383794737],[138.66766113931968,35.702285815562654],[138.66766357045518,35.702285812176285],[138.6679557886232,35.7023044236368],[138.66795579070268,35.70230541513806],[138.66808731179074,35.70231415508558],[138.66823585313503,35.70232395274258],[138.66838516805845,35.70233374913406],[138.66838516578417,35.70233266749635],[138.6685303933386,35.70234310038261],[138.66886405669646,35.70236399515702],[138.66924215746704,35.702391316378844],[138.66943581312535,35.70241402880388],[138.6694811193834,35.702413334062896],[138.66965156519865,35.702434366220366],[138.6696511256556,35.70243553861746],[138.66983661151696,35.70246177724449],[138.66985153465887,35.70246400960574],[138.66986325196902,35.70246570566884],[138.66987408752286,35.702468484616055],[138.6700197554309,35.70247792357895],[138.67013576150077,35.70246568134169],[138.6701365346625,35.70246549997538],[138.6701565250199,35.70246015365047],[138.6702382131364,35.702419296340445],[138.67024494846547,35.70241667284901],[138.67026316303676,35.702407723548504],[138.670293515663,35.70239046449341],[138.6703195615991,35.70237465371244],[138.67034041641554,35.702360112186525],[138.67036965569923,35.702338978807965],[138.6703859778255,35.70232354232222],[138.67039668043262,35.70231577541229],[138.67043154571596,35.70229003708044],[138.6704428014204,35.70228253979345],[138.6705177062648,35.70217003318986],[138.67055236342307,35.702098505652955],[138.67057077290556,35.702025468805914],[138.67056859381609,35.70198815528235],[138.67056549754386,35.70198716816573],[138.67056708632836,35.70190297819586],[138.67053808159426,35.70182658333358],[138.6705367501538,35.70182406139107],[138.67051663350546,35.70177000784283],[138.67043235414556,35.701683325517514],[138.67039503273176,35.70164525051128],[138.67024321621648,35.70154983023678],[138.67018479212464,35.7015134976071],[138.67006097233318,35.701436155000614],[138.6700149412231,35.701407466401804],[138.67001317103933,35.701406477397796],[138.66998253190184,35.70139272974634],[138.6698273027494,35.701302992376654],[138.6697140146181,35.70124122820897],[138.6696000716507,35.70118325060023],[138.66941411564358,35.70109004064986],[138.6694147838188,35.7010924734019],[138.6693960873954,35.70108249453461],[138.66939430807514,35.70107717896989],[138.6690607044198,35.700925046447324],[138.66906213831146,35.70092378251874],[138.66890915273677,35.70084900350685],[138.66875067392917,35.70073682524335],[138.66870496646717,35.70070398939417],[138.6686776290822,35.700683656796805],[138.66866181486972,35.70067791020359],[138.66860090582557,35.70061535048095],[138.6685485126851,35.70055611386304],[138.66853833078443,35.70054873690485],[138.66842279538824,35.70036321687328],[138.6684231039628,35.70035230989228],[138.66840059670196,35.70031664722106],[138.6683773049464,35.700275757709996],[138.66835658491817,35.700249196344025],[138.66834140977298,35.7002320014442],[138.66830615265485,35.70017634622109],[138.66829584611594,35.70016220915807],[138.66825850635414,35.70011457900503],[138.66813669287762,35.699990901288295],[138.6679455718281,35.69985650375151],[138.66789246850513,35.69982701296739],[138.66785098652002,35.69980633935937],[138.66765963979353,35.69972205772854],[138.66765740219276,35.69970890087508],[138.66750235274725,35.699649446182946],[138.66738787638855,35.69959876828136],[138.66737172890308,35.69959203047602],[138.66716401360762,35.699500469731994],[138.66715195888472,35.69949570922248],[138.66713456272015,35.69952601933785],[138.66709439842018,35.69960710806781],[138.66704322852436,35.69970966461089],[138.667002823864,35.69978155968993],[138.6669783764528,35.69982197488355],[138.66690604287396,35.699950069429754],[138.66682979019728,35.70005356202165],[138.66681589346823,35.70006638070355],[138.6668135775966,35.70006863733239],[138.66679957054694,35.70008154630206],[138.66679891597576,35.70008560336408],[138.666579519431,35.6999566510426],[138.66657044881572,35.699952156755934],[138.66634066531782,35.69987621879572],[138.66628693267785,35.69986268238259],[138.66628637997655,35.699862593009335],[138.6662753257645,35.69986071540718],[138.6660289574246,35.699833293347304],[138.66601107484396,35.699842421826446],[138.6659510611796,35.69983736678307],[138.66594010086033,35.69982746684705],[138.6658313413059,35.69981562853796],[138.66581984547304,35.699813931775914],[138.6657745315062,35.69981020844548],[138.66565175847234,35.6998082141818],[138.66564402383904,35.69980849523605],[138.665545790246,35.69981025283782],[138.6653657857241,35.69981266354427],[138.66535550896748,35.69981267766197],[138.66521849298329,35.69981647127531],[138.6651405937376,35.69981910200222],[138.66509994284002,35.69982600816079],[138.66508218719267,35.699843158501714],[138.6649433387159,35.69997666114495],[138.6648943547342,35.700068938183854],[138.66485436993702,35.700131097192866],[138.6648067633188,35.70019470881218],[138.66476233081207,35.700243533635934],[138.66469830315674,35.70032862023999],[138.66467348787623,35.700351999616196],[138.664657090123,35.70038474169771],[138.6646383415779,35.700402794697794],[138.6646263213303,35.70041479932914],[138.66461473308905,35.700421935982604],[138.66457770501157,35.70047120129428],[138.66453494939717,35.70052957823749],[138.66448592573258,35.70060292643475],[138.66443491845922,35.70067898142419],[138.66437474998176,35.70076027683454],[138.66427454046956,35.70087678020627],[138.66417058700506,35.70099986858309],[138.66415933587936,35.70100979897216],[138.66412436656708,35.701039411517435],[138.66395121722996,35.701207031455866],[138.66376315987847,35.701379989493795],[138.66375885608412,35.701382879725436],[138.6636912366803,35.70144174086917],[138.66368781747292,35.701444900305574],[138.66355875192014,35.70155540314495],[138.66348317050918,35.70161166102307],[138.66341365372654,35.70166151091028],[138.66341012252212,35.701663949396675],[138.66337106541977,35.70169428836408],[138.6632884615704,35.70177516298467],[138.6632839396672,35.701779495683176],[138.66315364735618,35.70188504222602],[138.66305919364942,35.70195349387643],[138.66305489053295,35.701956744628795],[138.66288013489398,35.70209732415653],[138.6628315822968,35.702131822086564],[138.662766880903,35.702213393219225],[138.6626479171725,35.70229323491557],[138.6626405244239,35.70229874324657],[138.66235424228216,35.70248210732876],[138.66232974054347,35.702497283348215],[138.66230424661185,35.70251363247824],[138.66229893828088,35.70251165662744],[138.66214722097703,35.70257044998659],[138.66212428224682,35.702538933023725],[138.6619714585345,35.70237860521696],[138.66188717154026,35.702283894745385],[138.66187198482223,35.702260479614175],[138.6618609718405,35.70222443972323],[138.6618393777303,35.70214731169882],[138.66175795679908,35.70183004962709],[138.66172818585616,35.7017531128391],[138.66171861831688,35.70172139755429],[138.66171539746074,35.701713379709894],[138.66170800633915,35.70171969921282],[138.6616242724399,35.701789036706174],[138.6615442481307,35.70183484346825],[138.6615493337961,35.701890811569534],[138.66155044394378,35.7018933339088],[138.66156312159896,35.70193297706627],[138.66151265012263,35.701947737091686],[138.66150359392458,35.701950363209036],[138.6614989528657,35.70195045957282],[138.66139831164048,35.70207489314789],[138.66134145276985,35.70204576506599],[138.66128522865662,35.702002574772536],[138.66127692874096,35.70199663686761],[138.66123047602986,35.7020315820234],[138.66119186302802,35.7020634520131],[138.66113228959622,35.70211310699169],[138.66108174984527,35.70214895892819],[138.66101476585033,35.70219537884186],[138.66095229912355,35.702235122557965],[138.6607861987775,35.70234062427427],[138.6606863410757,35.70241575139879],[138.6605928838861,35.70248654333648],[138.66056419629896,35.70250857497455],[138.6605544885327,35.70251697064152],[138.6604919281614,35.70256536737001],[138.66043107659718,35.702639360624644],[138.66042799035503,35.70264333075499],[138.66035244451774,35.70271896601438],[138.66032851146218,35.70274243344953],[138.66026211232824,35.702860691148025],[138.66022623132446,35.70293284831166],[138.6602164695893,35.702969546960205],[138.66014961383289,35.70308068439781],[138.65996873242526,35.70303513546132],[138.6599645387319,35.70303793527372],[138.6598324079211,35.70300070405092],[138.6596432580785,35.703297414812056],[138.65963598739674,35.703308871820866],[138.6595991944411,35.70336741935519],[138.65951260542803,35.703503099789],[138.65944072396815,35.70369942269864],[138.6593964112994,35.7038110706635],[138.6593043687647,35.703872215084175],[138.65928298858478,35.703901627953215],[138.65926833416788,35.70392337029691],[138.65926472943863,35.70400008142371],[138.65914880372347,35.70427713478398],[138.65907686409983,35.70444497432558],[138.6590107158443,35.70457990626616],[138.65900411373988,35.70459424672643],[138.65900245985753,35.70459614178236],[138.65891566685082,35.704797261288896],[138.65869896422035,35.705135559886315],[138.65849481693724,35.70545311010168],[138.65831237401912,35.70573791178686],[138.6583048396183,35.70583977617177],[138.65830236629108,35.705874391918584]]]}}]}
