{"type":"FeatureCollection","features":[{"type":"Feature","properties":{"potaRef":"JP-1526","nameEn":"Nishiki no Hama Prefectural Park","nameJa":"","boundaryStatus":"全国都市公園GIS候補・公開前検証待ち","boundarySource":"国土交通省「都市計画決定GISデータ」都市公園・緑地を、POTA代表地点で空間照合して加工","boundaryScaleNote":"都市計画データは近似・未収録の可能性がある。POTA運用可否は公式情報で最終確認すること。","candidateMethod":"POTA representative point inside one MLIT urban-park polygon","sourceParkName":"９･５･２０８−１二色の浜公園","sourceParkType":"公園","sourcePrefecture":"大阪府","sourceCity":"貝塚市"},"geometry":{"type":"Polygon","coordinates":[[[135.33132693318183,34.43304573122345],[135.3314764842246,34.433110359548685],[135.3317183595626,34.433266348992774],[135.33192732269646,34.43339623902057],[135.33232314416384,34.433647449934845],[135.33249902421343,34.433768710968444],[135.33265298040126,34.43386392395309],[135.33291658201892,34.43407145317172],[135.33335585502044,34.43441741473695],[135.33359612903624,34.43466227411037],[135.33386997299408,34.434972821432126],[135.33406635700203,34.43529168220989],[135.33420201996378,34.43556611798914],[135.33428759588733,34.435927333179684],[135.3342856890537,34.43616778024075],[135.3343307964397,34.43637016799193],[135.33437826937381,34.43656791667684],[135.3344484940454,34.43670676567519],[135.334567619573,34.43686335249698],[135.3347399709578,34.43706178052923],[135.33493424416753,34.437245677604444],[135.33515576911694,34.43742352899651],[135.33526200781256,34.43751764082248],[135.33532805167104,34.43762547180953],[135.33544693368123,34.437813186446725],[135.33559154060669,34.438069503304575],[135.33566104387828,34.43830540691726],[135.33572556486752,34.43858930817839],[135.3357599984334,34.4387454337086],[135.33582557792042,34.4389121501453],[135.3359481711323,34.439157916224666],[135.336133661864,34.4393841718772],[135.3363060778085,34.43957554802472],[135.33642506679365,34.439728327793084],[135.33650853572297,34.439864993611],[135.33659212132295,34.44000758308643],[135.33670187360482,34.44022637692765],[135.33675431828485,34.440361891602606],[135.33683452925976,34.440598411523936],[135.33692249621313,34.44075130202109],[135.33705880381177,34.44099460800778],[135.33718202971383,34.44119967195407],[135.33723415014035,34.44131165460157],[135.33761326017827,34.4413596330695],[135.3379099308515,34.44138828586821],[135.33792211984772,34.441389478786384],[135.33801088550524,34.441398695260595],[135.3381664783083,34.441341361505415],[135.33850052980898,34.44185435728993],[135.33824528065443,34.44196692107976],[135.33825318825635,34.442239236304395],[135.33831885503827,34.44241654485897],[135.3384572094234,34.44260535356796],[135.3385598731269,34.44273324169557],[135.3386740353667,34.442847822172894],[135.3379417565948,34.44336265629696],[135.33832666676508,34.443750001501],[135.33881157438162,34.444225930108296],[135.33886797947144,34.44418270002406],[135.33892661249683,34.444142592251914],[135.33901934657942,34.44408632398655],[135.33907153540173,34.44406027228696],[135.33911590402022,34.44403923590326],[135.3391719747354,34.44401770379814],[135.33922490773222,34.443999400233594],[135.33928328798382,34.44398168503275],[135.33934074509656,34.443966498127196],[135.33940418907423,34.44395247045791],[135.33946267145743,34.443942508917544],[135.3395503656125,34.44393199292884],[135.33963783716075,34.44393316857479],[135.33969995864285,34.44393646109834],[135.33989357615255,34.44395807955277],[135.3405431451665,34.44403595224252],[135.34105992894501,34.44409762660817],[135.341711030077,34.44417606932766],[135.34177739667317,34.44381159366339],[135.34168286537917,34.443800374506324],[135.34169813629174,34.44373889995198],[135.34174149946023,34.443546277152336],[135.34160830304342,34.44352417560758],[135.34150856613672,34.44350380475767],[135.34140764009325,34.44348243573366],[135.34125527477732,34.443448609774656],[135.34128604281335,34.44337731089625],[135.3414440648687,34.4434169100587],[135.34164997156105,34.443462969410824],[135.34175650701025,34.44348368326698],[135.34182467554643,34.44349153296678],[135.34224200781009,34.44349054220305],[135.34242586229666,34.44351235655552],[135.34256359834188,34.44352869376796],[135.34278444392086,34.443554294579954],[135.34288240186942,34.44356564850016],[135.34296323622826,34.44357501710538],[135.34304478978987,34.443585651669906],[135.34320084142152,34.443612995141116],[135.34332452395978,34.44363277199147],[135.34336139127623,34.44363567459084],[135.34338870680637,34.44363546066764],[135.3434239813901,34.44363330610125],[135.3434642896989,34.443627572414925],[135.34350561753988,34.44361670544208],[135.3435530063126,34.44359614343663],[135.34364324822852,34.443550559472335],[135.34367276729748,34.44353295769583],[135.3437034062335,34.443511305017154],[135.34371997130907,34.44349426477156],[135.34373507781976,34.44346892257643],[135.34374525520332,34.44344770098319],[135.34374562331226,34.443442374889145],[135.3429619402254,34.442884353479556],[135.3427994688992,34.442744553829655],[135.34274352382243,34.44269052165191],[135.342651271596,34.442609374437914],[135.34237720895908,34.44235138708218],[135.34204575246468,34.44197603501862],[135.34173886405992,34.441576454845816],[135.34153398676446,34.4412652327703],[135.34148763703922,34.441179824183564],[135.3410985366523,34.44154482401387],[135.3409755028869,34.44153711997381],[135.3404678630483,34.44110869621785],[135.3404466331689,34.4411211220544],[135.34055885028206,34.44147362336086],[135.34055724898667,34.441541698626864],[135.34051892611984,34.44158706452035],[135.34046910021678,34.44160070645751],[135.33975118861053,34.44162964790334],[135.33971300514392,34.44162818858403],[135.3396854153325,34.441612172585174],[135.33956216269937,34.44152857475471],[135.33944666454406,34.44156859204581],[135.33899393617406,34.441686581480674],[135.33888055919715,34.441710057525015],[135.33877150297351,34.44174172473252],[135.33858136857597,34.44181732682297],[135.33825224438465,34.44131007364997],[135.33830389890738,34.44129087102859],[135.33835058362453,34.44127678925554],[135.33839368746652,34.44126142594071],[135.33841932517544,34.44125309023318],[135.33845065096693,34.441240998849395],[135.3384658249143,34.441234860355685],[135.33853849430025,34.44120983021416],[135.33855855555376,34.441204890142174],[135.33866241552576,34.4411711034534],[135.33872009603775,34.44115495338771],[135.33828630205787,34.44031659546549],[135.33787072319052,34.43951938146004],[135.33724716252976,34.43831600630378],[135.33749778470718,34.43821904300434],[135.33755694200335,34.43819615798786],[135.3375890592936,34.43818291713566],[135.3376110414682,34.43816888211496],[135.3376691871885,34.438119738864096],[135.33780518878226,34.43800296936386],[135.3378141613314,34.43799526475185],[135.3378356150243,34.43797924345079],[135.3378601068021,34.43796432043899],[135.33789484217496,34.437947469510874],[135.33833401372215,34.4377841535418],[135.3384950038521,34.437720384490554],[135.33837517289203,34.437533488035626],[135.33890024332075,34.43726443389406],[135.33861143798583,34.437098323956285],[135.33879209377312,34.43699939280247],[135.33890812420535,34.436950435711196],[135.3390601866342,34.436903647630395],[135.33924421961314,34.43687181729599],[135.33907587936935,34.43655649710615],[135.338914635759,34.43659338179693],[135.338774002213,34.43663008923035],[135.33870465644625,34.436659158376585],[135.33861280043797,34.436704441553964],[135.3385794011721,34.43664847389958],[135.33853347778754,34.436651885727045],[135.3384911629437,34.43666546834567],[135.33841392752447,34.43671533814097],[135.3383625459589,34.43674582953897],[135.338312462382,34.436769016487624],[135.3382400481122,34.436792533337396],[135.33820549389876,34.43680441789131],[135.33810853493048,34.4368289107122],[135.33808871451677,34.436837935978375],[135.33807187798163,34.43685354958525],[135.33805801996544,34.43691644680513],[135.3380522505457,34.436930551646064],[135.33780042378996,34.436801467684326],[135.33776502920253,34.43683159463523],[135.3377448617022,34.43684874981335],[135.3377011634082,34.436885944886654],[135.33769772063172,34.43688925290491],[135.33762367928742,34.43696035261772],[135.33761816433514,34.43696564180188],[135.33755288364085,34.43702001135523],[135.33753340658197,34.43703790949663],[135.33739134566665,34.43696855099921],[135.33730777524656,34.43694001530815],[135.3371696434528,34.43689950894219],[135.33667947811415,34.43721106305313],[135.33648466538838,34.43692011752031],[135.3363216343602,34.4366763862722],[135.33624026357083,34.43654451881821],[135.3358576659195,34.43596235765967],[135.33562208109967,34.43560764907927],[135.3355803829509,34.43554882273214],[135.33546131967276,34.43536786870348],[135.33538377187307,34.43518362421182],[135.3353036352453,34.43500344053537],[135.335216993544,34.43483957529089],[135.3351133846719,34.43465151969079],[135.334852127691,34.43422680101511],[135.33459333193457,34.43380900092232],[135.3345855804785,34.43379994338929],[135.3345736683339,34.43379142216741],[135.334563512882,34.43378502911189],[135.33454655700191,34.43378000544499],[135.334521809447,34.43377649001524],[135.33446735569729,34.433670263254484],[135.33444474553528,34.433600271201406],[135.3344426651745,34.43354701519403],[135.33444305046086,34.433498415513334],[135.33444229015856,34.433454326290125],[135.33443691045184,34.433430207982404],[135.3342411728297,34.43333067679974],[135.33402738809784,34.43321288108289],[135.33368077574573,34.43302209423573],[135.3336304355735,34.43295983936875],[135.33362798031786,34.432937431847634],[135.33363175606445,34.43287983528758],[135.33366182554775,34.43283379544107],[135.33370369049013,34.432806833239674],[135.33373635115976,34.43279348815536],[135.33376270173875,34.432788285612],[135.33380519287422,34.43278935552692],[135.33381395023454,34.432789547479885],[135.3338893611912,34.432799460453126],[135.33396076241618,34.432821062488024],[135.33403478324306,34.432864946675416],[135.33422127051514,34.432975516713356],[135.33427569179753,34.43300615867476],[135.3343225437337,34.433022632346564],[135.33435691049505,34.43302739921774],[135.33440381330288,34.433027852848774],[135.33441467210517,34.43301962683925],[135.33444382515924,34.43296424190284],[135.33444340413155,34.43294186349875],[135.33441916799356,34.432875243343055],[135.33452758860145,34.43281131950928],[135.33473521074868,34.432698918793236],[135.3350594538467,34.43249403227569],[135.33481942979154,34.432079147430414],[135.33442529712212,34.43215701425501],[135.33402275242796,34.43225005191453],[135.3339294108943,34.43226207489603],[135.33387292382895,34.432261487741194],[135.3336470355433,34.432320128071424],[135.33330484225402,34.43242841260699],[135.33323101040335,34.432451251656445],[135.33294635878775,34.432539573372146],[135.33285547859862,34.432567674319074],[135.33266169889117,34.432623386697564],[135.33264469760803,34.43262822531861],[135.33241990963774,34.43269193600086],[135.33204654871324,34.43279780201659],[135.33168524995372,34.432902741116685],[135.33147107001054,34.432974540695774],[135.33132693318183,34.43304573122345]]]}}]}
