{"type":"FeatureCollection","features":[{"type":"Feature","properties":{"potaRef":"JP-1517","nameEn":"Sennan Satoumi Prefectural Park","nameJa":"","boundaryStatus":"全国都市公園GIS候補・公開前検証待ち","boundarySource":"国土交通省「都市計画決定GISデータ」都市公園・緑地を、POTA代表地点で空間照合して加工","boundaryScaleNote":"都市計画データは近似・未収録の可能性がある。POTA運用可否は公式情報で最終確認すること。","candidateMethod":"POTA representative point inside one MLIT urban-park polygon","sourceParkName":"0-3　せんなん里海公園","sourceParkType":"公園","sourcePrefecture":"大阪府","sourceCity":"岬町"},"geometry":{"type":"Polygon","coordinates":[[[135.17601636922265,34.33724263706651],[135.17602602820978,34.33725514328549],[135.1760318554596,34.33726494615182],[135.17604624731942,34.337289141099774],[135.17607052941048,34.337329981875165],[135.17608868499795,34.337360503892285],[135.17613974654904,34.33742909386801],[135.17616335691991,34.3374597246995],[135.1761797237828,34.337475341266774],[135.1762042288767,34.33749227473882],[135.17625047437852,34.33751990245915],[135.17633696519675,34.33756637257043],[135.17632278135463,34.33758091812641],[135.176288990676,34.33761554425339],[135.17624836967292,34.3376473566984],[135.1762613835533,34.33765799224027],[135.17627262910173,34.337667191455026],[135.17633208113114,34.33771577858521],[135.17647733664256,34.3378344964373],[135.17653354343878,34.337880438169],[135.17659828932375,34.33793339716919],[135.17679662487927,34.338095601144005],[135.17697009173676,34.338233629693924],[135.17713245118156,34.33836282040758],[135.1772317901501,34.3384403981431],[135.17739422761792,34.33856724503817],[135.17767853952026,34.338779032764364],[135.1778053699333,34.33887396895865],[135.17797287705912,34.338999361596294],[135.17806474504852,34.339073093028645],[135.1781558803551,34.33914618839825],[135.17816862644668,34.33915647034138],[135.17818193887476,34.33916440307153],[135.17819744848816,34.339169925411575],[135.17821202575678,34.33917298029456],[135.17822677865115,34.3391736292494],[135.1782408847464,34.33917150614127],[135.17825830408327,34.33916620480977],[135.17827155555474,34.33915921667513],[135.17828856692782,34.339147827223016],[135.17832909660746,34.33911534635769],[135.17899728679055,34.33855726914068],[135.17960408136767,34.338075407518424],[135.18036558286147,34.33745330751288],[135.18205466638716,34.337413972225036],[135.18277595278784,34.33739592543741],[135.18300647546917,34.336883839455005],[135.18273869408077,34.33598443582636],[135.1827668827988,34.33598695895288],[135.1828665514277,34.33599718043361],[135.18417029339906,34.3360958474878],[135.18600868387517,34.33623438808978],[135.1870443046405,34.33631212925537],[135.18720543095083,34.336339433699315],[135.18724621287257,34.33634790840647],[135.18738564905476,34.336359201558636],[135.18741439524754,34.336364801563484],[135.18761991606277,34.33639789945829],[135.18884368556024,34.33659776993568],[135.18933523794163,34.33667774627919],[135.1897619599562,34.33675242336734],[135.19123536581552,34.33701940943158],[135.19086710778515,34.33844119134416],[135.19265877619844,34.338891346304955],[135.1928780176434,34.33850278604673],[135.1930475978178,34.33817006394712],[135.19387519859714,34.33644510134991],[135.19392413499264,34.3360897662923],[135.19354445732935,34.336005136008865],[135.19339573285208,34.33596502958209],[135.19322334576455,34.33592185509669],[135.19307926038059,34.33587966925161],[135.19273135817184,34.33575464052827],[135.19261507078093,34.33570592995294],[135.1924062766044,34.33560611396408],[135.19227663885778,34.335619142573805],[135.19210592632467,34.33555333991975],[135.1920995364457,34.335493219188315],[135.19201838741992,34.335436391634175],[135.1919348524458,34.33541078661383],[135.19163033734188,34.33512500816693],[135.19142907299133,34.33502902669661],[135.19137327522054,34.33494886299272],[135.19130455778267,34.334844705116865],[135.19128522631186,34.33480142977506],[135.19128564600973,34.334795067680076],[135.19123720521097,34.334756883092254],[135.19117493818788,34.33474159640759],[135.19112389366248,34.334690493550056],[135.19105619440492,34.33461391133012],[135.19101484734986,34.33456020393635],[135.19095438382186,34.334485003742664],[135.19091309911494,34.334507440730505],[135.19095529962715,34.33455714194785],[135.19098620858153,34.33459439041418],[135.19101280908467,34.334621954922646],[135.19103412604503,34.334651972767375],[135.19107950988246,34.33470744679305],[135.19106728755196,34.33473986653736],[135.1910883454077,34.3347957478206],[135.19110387874233,34.334870128250635],[135.19112322220585,34.33495629893386],[135.19115976649968,34.33505070610458],[135.19114958007864,34.33507029237044],[135.19116833212325,34.33518978002504],[135.1911227550718,34.33520534604325],[135.19113765610885,34.33528333745995],[135.1911473565894,34.33530305509252],[135.19116088344904,34.33530909460515],[135.1912489253673,34.33536557157354],[135.1912697056071,34.33537340796798],[135.1912847901978,34.33537114556457],[135.19133162300287,34.335407056649835],[135.191384447301,34.33549585550819],[135.19138499571923,34.33552930623148],[135.19137474839692,34.3355665622791],[135.19134414961465,34.335618108548516],[135.19123928957094,34.33561198872453],[135.19121038162555,34.335576818066215],[135.19118310390877,34.33555409940917],[135.19114691719196,34.33551978219501],[135.19108477038202,34.33547267192584],[135.19102401993564,34.335437471167],[135.19099696264905,34.33542576171755],[135.19096966435205,34.335405197555716],[135.19094704618865,34.3353725927027],[135.19093903063182,34.335339254916434],[135.19086376830333,34.33534175972604],[135.19073045657387,34.33512969318272],[135.19058240113205,34.335180895657906],[135.19053187439877,34.33508947915137],[135.19032087296566,34.335060316685585],[135.19013861116022,34.33503855625616],[135.18991211506568,34.33500460260231],[135.18978392492704,34.33498807668872],[135.18969365428154,34.334972513798824],[135.18964671053493,34.334926765566166],[135.18959080319158,34.33486382874858],[135.18954967548865,34.33481225896768],[135.18951852099545,34.33478590812644],[135.18948447604043,34.334766299687665],[135.18945837445506,34.334779559843305],[135.18941866697276,34.334817612403704],[135.1893567649941,34.334878507263596],[135.18909099370532,34.33512232670689],[135.1890627280616,34.335134580751635],[135.18888810744824,34.33518611009393],[135.18770625065605,34.33511507766636],[135.18758752738458,34.33512327836014],[135.18734920400058,34.33517086682653],[135.18697886030787,34.33523733102576],[135.18692829016882,34.33533665133858],[135.18683934402907,34.335453008294444],[135.18661174566796,34.335454462675685],[135.18638051610472,34.335441422808955],[135.18627791734943,34.335436413642334],[135.18623014289744,34.33543408571485],[135.1861418452491,34.33542580873819],[135.186060073308,34.335418143045935],[135.18571211620173,34.335413674894106],[135.18568381633136,34.335328201133],[135.1856400265862,34.3350327821961],[135.18558610986358,34.33502168627356],[135.18562515434346,34.33473869149882],[135.1856613473008,34.33468887877297],[135.18566377048342,34.33467204512856],[135.18562301673174,34.33466862771928],[135.18555748056684,34.33467685562039],[135.18553862836916,34.33467200616317],[135.1854130581928,34.334993921736014],[135.18539884838037,34.334992249510805],[135.1851783354943,34.33493879959006],[135.18515840977145,34.33501236778165],[135.18518656376082,34.33508026970397],[135.18510499852513,34.335073749706204],[135.1849877939888,34.33502716246426],[135.1849659204428,34.335054901462264],[135.18492742805472,34.33506261484429],[135.18481294965028,34.33503531146345],[135.18469521942018,34.335103729728246],[135.18467863624483,34.335101365462556],[135.18434741246824,34.3350524598381],[135.18428746432372,34.335048093722776],[135.18424103337085,34.33504958747939],[135.18422645396578,34.33505129342573],[135.18383226646202,34.33509734969553],[135.18342718267962,34.33507788934566],[135.18285448609305,34.33492603619194],[135.1826864848872,34.33487965769581],[135.18265765484904,34.33487270371831],[135.18282263585976,34.33467803577214],[135.18281332839473,34.334600071710405],[135.18278771126106,34.33452629913707],[135.18274400996006,34.33445815767592],[135.182707109133,34.3344059917763],[135.18265808956903,34.33432034296897],[135.18263140643847,34.334270219618446],[135.182625848507,34.33421802851032],[135.18262845991651,34.3341605638409],[135.18264242076143,34.33412738124187],[135.18266866566907,34.33408150583422],[135.18268041561296,34.334049931242205],[135.18268377087696,34.33400204587509],[135.18268319867056,34.33396131955557],[135.182677823173,34.333920570190216],[135.18266400727515,34.33388727430272],[135.18265066608558,34.33385657801355],[135.1826469143874,34.333829930534414],[135.182652031871,34.33379868130235],[135.18266188585406,34.33377546033368],[135.1826775600869,34.33374601251944],[135.18251284444938,34.33372976711678],[135.1824531656117,34.33358125489116],[135.18243854339693,34.333591876558295],[135.18232368289856,34.33367479944549],[135.18218486520496,34.333774997975745],[135.18209767070076,34.33382235941201],[135.18197286026302,34.33383754601373],[135.18182078101034,34.33379695240145],[135.181671994133,34.33377992879191],[135.18158630470464,34.33376293006602],[135.18157977116567,34.33373852682522],[135.18137354250192,34.333700906419],[135.18135291629292,34.33377579456111],[135.1812733453166,34.333778940831785],[135.18128056360683,34.33387491279589],[135.1812830381642,34.3339781555028],[135.1812769478846,34.334068088325495],[135.1812672372599,34.334150333862475],[135.1812389662494,34.33429727590968],[135.1812327931775,34.33431742909443],[135.18119201253708,34.33443201240138],[135.1811535094411,34.33453588261515],[135.18112097075408,34.33460751762676],[135.1809266567308,34.334998657635026],[135.18087774863466,34.33508839414851],[135.1808678788395,34.33510870288916],[135.18083902749513,34.33516990463841],[135.18082611926232,34.33520092135414],[135.1808029038709,34.33526369341328],[135.18075820558,34.33540105925851],[135.18074340251704,34.33544811066738],[135.18073027333895,34.33549066558242],[135.18072764504092,34.33550390060919],[135.18070231086747,34.33554313733565],[135.18065834396347,34.3355996670966],[135.1806128416989,34.33564196930864],[135.1805492079631,34.33569248037542],[135.1804940659826,34.33572581984704],[135.18042218611976,34.33575370113972],[135.18034812855865,34.335767476770386],[135.18025971040612,34.33577943427877],[135.17977072124847,34.33582835871308],[135.17932809616337,34.335870379641364],[135.1790062198255,34.335900587109556],[135.1785236577034,34.335947836721374],[135.17828237557504,34.335971550958874],[135.1780414070259,34.33599652897785],[135.17788133542905,34.33601745186055],[135.17784150241695,34.336023224712605],[135.1777356925491,34.33604099573439],[135.17764399949115,34.33605994332075],[135.17755793360078,34.33608136278719],[135.17752817803517,34.3360901782999],[135.1774391304068,34.33611644595832],[135.1772877569847,34.33617033262627],[135.1772263366771,34.33619426144816],[135.17715440805594,34.33622587284767],[135.17710713448102,34.336247913292745],[135.17700643466821,34.33629880446081],[135.17698392922165,34.3363108239526],[135.17691663018928,34.336346883863484],[135.17689530690794,34.33636026359203],[135.17683187510318,34.33640094729468],[135.17677016526838,34.33644335546283],[135.1767402791352,34.33646551266329],[135.17668136739655,34.33651073436569],[135.17665298942418,34.33653425399177],[135.1765973131145,34.336582021714015],[135.17654390037507,34.336631697862224],[135.17651789639226,34.336656946343055],[135.17646718188468,34.33670853383227],[135.17642865223345,34.3367499257268],[135.17637115462497,34.336814990616155],[135.17631440500568,34.33688357650587],[135.1762923345439,34.33691777662063],[135.17627542574982,34.33695760098925],[135.17627159207476,34.33696954761897],[135.17626769107926,34.33698171016465],[135.1762616061655,34.33701493596861],[135.17626110238095,34.33704423255351],[135.17626303954958,34.33707508718916],[135.1762633588915,34.3370802190868],[135.17627082963617,34.337138688985874],[135.17627509692363,34.33716909951241],[135.1762746830381,34.3371892010175],[135.1762681390817,34.33720268005812],[135.176254159471,34.33722079707039],[135.17623954279443,34.33723737718102],[135.1762211427979,34.33725185829971],[135.1761996124058,34.337264154663956],[135.17619762748936,34.337264862539456],[135.17617529174336,34.33727282610029],[135.17616429981163,34.337274374911374],[135.17614613099352,34.337276326201106],[135.17612656968805,34.337276194582095],[135.17610214890973,34.33727287487989],[135.17608014364282,34.33726704712151],[135.17605593610566,34.33725748118933],[135.17603326592462,34.337248520612704],[135.17601636922265,34.33724263706651]]]}}]}
