{"type":"FeatureCollection","features":[{"type":"Feature","properties":{"potaRef":"JP-1620","nameEn":"Hiroshimaken Sogo Ground Prefectural Park","nameJa":"","boundaryStatus":"全国都市公園GIS候補・公開前検証待ち","boundarySource":"国土交通省「都市計画決定GISデータ」都市公園・緑地を、POTA代表地点で空間照合して加工","boundaryScaleNote":"都市計画データは近似・未収録の可能性がある。POTA運用可否は公式情報で最終確認すること。","candidateMethod":"POTA representative point inside one MLIT urban-park polygon","sourceParkName":"6・5・301号総合運動公園","sourceParkType":"公園","sourcePrefecture":"広島県","sourceCity":"広島市"},"geometry":{"type":"Polygon","coordinates":[[[132.42066596154467,34.375476319973764],[132.420655234249,34.375525084334285],[132.42068363675995,34.3755629198804],[132.42102766111785,34.3760607516057],[132.42107792902829,34.37614446541759],[132.4210939493172,34.37616795839607],[132.42172951052598,34.37710075815765],[132.4218042601565,34.377210482100324],[132.42184248535997,34.37726534273132],[132.42260050259674,34.37837355182021],[132.42262670964118,34.37841505453287],[132.42277090295988,34.37862662454993],[132.42284379730125,34.378641823790346],[132.42427717124568,34.37797776598268],[132.42424440037112,34.37792923443098],[132.42416903146088,34.37782021922719],[132.4242754461725,34.37776772629148],[132.42443942335836,34.37769623241469],[132.4245577831483,34.37764005102471],[132.42459383869303,34.377693082483106],[132.4251389332508,34.37743946251292],[132.42544406005192,34.37729905658998],[132.4254569118828,34.377230563853736],[132.42535325500918,34.37711541184127],[132.42532382685295,34.37709744369055],[132.42514819640735,34.37691384008951],[132.42513725363966,34.37689132413539],[132.4251087949134,34.37682926026045],[132.42463203851577,34.37632257633036],[132.42445423895154,34.37613728674606],[132.4244313374675,34.376113951149506],[132.4243691280048,34.37604364846831],[132.4228931690518,34.374486212344245],[132.42283111604897,34.37446648260845],[132.42260743786193,34.37457064383926],[132.4225194936876,34.374613235437664],[132.42073329512397,34.37544462370789],[132.42066596154467,34.375476319973764]]]}}]}
