{"type":"FeatureCollection","features":[{"type":"Feature","properties":{"potaRef":"JP-1939","nameEn":"Ichinoyanomori Prefectural Park","nameJa":"","boundaryStatus":"全国都市公園GIS候補・公開前検証待ち","boundarySource":"国土交通省「都市計画決定GISデータ」都市公園・緑地を、POTA代表地点で空間照合して加工","boundaryScaleNote":"都市計画データは近似・未収録の可能性がある。POTA運用可否は公式情報で最終確認すること。","candidateMethod":"POTA representative point inside one MLIT urban-park polygon","sourceParkName":"市野谷の森公園","sourceParkType":"公園","sourcePrefecture":"千葉県","sourceCity":"流山市"},"geometry":{"type":"Polygon","coordinates":[[[139.9105175587548,35.8701671929978],[139.9105610520079,35.87019348746685],[139.9107389277371,35.87031029050663],[139.91091092280385,35.87043278966333],[139.911076760242,35.87056078760027],[139.9112351889205,35.870693254177084],[139.91126666004237,35.87072086548778],[139.9113859459528,35.87082428174828],[139.91153817301233,35.87095045025418],[139.9116940665881,35.87107335474769],[139.91182470041812,35.87117131244812],[139.9118536877402,35.87119304904568],[139.91189412714607,35.871138175336675],[139.91184757720995,35.87090120270934],[139.91184271678415,35.870773189430494],[139.91184538729954,35.87072224259197],[139.91186440713233,35.87067792937421],[139.91190521613552,35.87063360120888],[139.9119674836815,35.87053665737472],[139.91204234614509,35.870429893198384],[139.9121099286674,35.870351214042024],[139.91219513206553,35.870285751171636],[139.91228236922166,35.87022723542728],[139.91228998156038,35.8702207861938],[139.9123530258852,35.87017713981839],[139.91238950892813,35.87016026100749],[139.91240953336904,35.870151793314704],[139.91242616175398,35.87014689693511],[139.91244874944297,35.87014330320129],[139.9125071477898,35.870136430927225],[139.91257109602003,35.87013117698929],[139.91261968531612,35.87012691612946],[139.91263802219194,35.87012494758184],[139.91266487242814,35.870120377471174],[139.9127188618456,35.87011221037725],[139.91275551344978,35.870108282274984],[139.91277982036138,35.87010729188049],[139.91280411687967,35.870106950387985],[139.91282117119272,35.870106938422374],[139.91283751524043,35.87010548495342],[139.9128655677114,35.870106844174146],[139.9128936134937,35.87011237617945],[139.91291316461465,35.870117220183715],[139.91300638306882,35.8701445436531],[139.9130273306528,35.87015043210912],[139.91304943104964,35.87015735618851],[139.91306813018903,35.87016288572015],[139.91308057152432,35.87016759951567],[139.9130893896791,35.8701705043475],[139.91310893265586,35.870178115167576],[139.91312247243113,35.87018481093656],[139.9131506047981,35.8701989227297],[139.91327429259005,35.87025144277891],[139.91335304379567,35.870283814631904],[139.91341645080956,35.87030705096677],[139.91347195519123,35.87032283426714],[139.91353274633354,35.87032713532118],[139.91357279534319,35.87033138793475],[139.9138621970185,35.8703295786073],[139.91393051925218,35.87032748939871],[139.91399084142512,35.87032284662352],[139.9140511623453,35.87031667051696],[139.9141322154426,35.870305879499384],[139.9142054416707,35.87028600224496],[139.91426431294616,35.87026566406514],[139.9143859089702,35.870235114928136],[139.91456240663823,35.8701887051978],[139.91472344754433,35.87014776719419],[139.9151287580407,35.870058657167625],[139.91524713094626,35.870013217182404],[139.9153536482286,35.86996861347131],[139.91547535540255,35.86991792017983],[139.9155168173683,35.869905623491746],[139.91554234562545,35.86990220690732],[139.91557504313678,35.869910317667276],[139.91560279510372,35.86992675835002],[139.91570855339592,35.86999008619937],[139.91572318436306,35.86999874655551],[139.91581376962273,35.87006726761251],[139.91582333871472,35.87007823446308],[139.91589120647265,35.87016013478618],[139.91593362266607,35.870222325838874],[139.91601672207506,35.870304362119164],[139.91605546252987,35.87033618574056],[139.91614540456305,35.870408572962354],[139.916213317798,35.87046704167859],[139.91627868063313,35.870522773713304],[139.91633428810485,35.87057088111377],[139.91641830209514,35.870653584431494],[139.91650232247076,35.870757824061286],[139.91652573735226,35.87078659727264],[139.9165685926206,35.87083323241145],[139.9166036978409,35.870871725137214],[139.9166611602744,35.87095057176023],[139.91668220592848,35.870987110858415],[139.9167429771698,35.87109166921836],[139.91676197337605,35.87112844156945],[139.91688686680385,35.87104828296014],[139.91677969964752,35.8709153319316],[139.9169710942324,35.87088901009585],[139.9174315015714,35.87098910409667],[139.9180559931896,35.87111289932617],[139.91843458481304,35.87118815577276],[139.91868144892393,35.871238930564445],[139.91872362824284,35.871246495983215],[139.91907169598375,35.870309521002206],[139.91900526771818,35.87019212634394],[139.91882691325986,35.86986306525707],[139.9186778296416,35.869599877846156],[139.91853525431094,35.86935860937231],[139.91840251310958,35.869145465150666],[139.91830853285717,35.8689804494761],[139.9181540402898,35.86870049384275],[139.91792081067976,35.86826618459992],[139.91770923942,35.86798079873521],[139.91651446463385,35.86854292003064],[139.91635913453763,35.868570602487615],[139.91632171770013,35.86829988336362],[139.9162723952981,35.868189861511866],[139.91621845072524,35.868071088316036],[139.91612997218581,35.86797071895888],[139.91605741932483,35.867865321149125],[139.91597249919542,35.86777774372677],[139.91585772830484,35.86764543567335],[139.9156672261368,35.867442325099596],[139.91558889141885,35.86730848820153],[139.9155989893102,35.867290650806424],[139.91563312142813,35.86718779786206],[139.91546700840775,35.867001540377714],[139.9153898714319,35.866924399591184],[139.91530245269894,35.866943963807444],[139.91526525218043,35.866945110994074],[139.91511029037127,35.86694710972031],[139.91508048590146,35.866947131006334],[139.91501857436504,35.8669378518323],[139.91494978317473,35.866926712886354],[139.914910798362,35.866917417304094],[139.91485346106248,35.86689694692144],[139.91478007328706,35.86687462312485],[139.91472962708423,35.866867200271216],[139.91469523737314,35.86686722471591],[139.91463793234198,35.866878453446375],[139.91457604360903,35.86689155004966],[139.9144637297154,35.86691773504641],[139.9142780280726,35.86692159598793],[139.9141863234886,35.86692352546375],[139.91409691919827,35.86693291198806],[139.9140009834608,35.86694618265911],[139.9139276255778,35.86695369310415],[139.91385884951475,35.866957470830364],[139.91359978823007,35.866966976308824],[139.91337741470824,35.86698204951317],[139.91317109002887,35.86699711111592],[139.91307710022338,35.867006500121256],[139.91301291859097,35.86701959758533],[139.91290518919362,35.86704577805896],[139.912838718389,35.86706260633778],[139.9127581661448,35.86707007908993],[139.9128590710553,35.8670979790007],[139.91294393106912,35.86712961945233],[139.91297145975068,35.867146382284474],[139.9130333915464,35.86717617382681],[139.9130930303003,35.867205967086676],[139.9131618606791,35.86725626503556],[139.91319627838917,35.867284211197976],[139.91321948096765,35.86731369443327],[139.91324933227168,35.86736029026152],[139.9132562434812,35.86739384958838],[139.91325631584138,35.86746657165529],[139.91324951222728,35.86754116334311],[139.91325186225217,35.86759896661833],[139.91326339436526,35.867667951355955],[139.91328409345283,35.867733200363865],[139.91330019424686,35.86778539988403],[139.9133048148595,35.86782082545034],[139.91330482971318,35.86783574279065],[139.91328422709637,35.8678674565912],[139.91325674815405,35.8679010400193],[139.91323157498994,35.86794767453247],[139.91322243211647,35.86797565099869],[139.91323610788285,35.868012383676756],[139.91324761036577,35.868051533718976],[139.91325223468033,35.86809068858326],[139.91323398941512,35.86818766440867],[139.91320429195338,35.86829583617028],[139.91315855069868,35.86840961329985],[139.9127749407497,35.86873002763842],[139.9123670270729,35.86892423837976],[139.91220518708735,35.86899080969576],[139.9121874134384,35.86903360020406],[139.9119789606194,35.869464694221996],[139.91194695978987,35.8695146758349],[139.9119096130654,35.869560316887096],[139.91187759307323,35.86959074919348],[139.91184289911448,35.86961792513037],[139.91181220179243,35.869635323596405],[139.91177483270152,35.86965815707063],[139.91173745512808,35.869672301931914],[139.91161863269303,35.86970170820368],[139.91141266122543,35.869750333434375],[139.9113779501803,35.86976013205421],[139.91136059723783,35.86976774655691],[139.9113472526807,35.86977753046573],[139.91133391118322,35.86979057255972],[139.91132591350035,35.86980578314077],[139.91130993904756,35.869857925802265],[139.91127798215464,35.869949173857485],[139.91124201621633,35.87003607906768],[139.91123401834875,35.87005020263562],[139.911227352624,35.87006106727421],[139.911210842951,35.870076529539986],[139.91117080431152,35.87009936320413],[139.9111307577812,35.870114594820514],[139.9110813587962,35.8701254888228],[139.91099055991643,35.87013423923169],[139.91076004758426,35.87014862076001],[139.9105175587548,35.8701671929978]]]}}]}
