{"type":"FeatureCollection","features":[{"type":"Feature","properties":{"potaRef":"JP-1495","nameEn":"Arashiyama Prefectural Park","nameJa":"","boundaryStatus":"全国都市公園GIS候補・公開前検証待ち","boundarySource":"国土交通省「都市計画決定GISデータ」都市公園・緑地を、POTA代表地点で空間照合して加工","boundaryScaleNote":"都市計画データは近似・未収録の可能性がある。POTA運用可否は公式情報で最終確認すること。","candidateMethod":"POTA representative point inside one MLIT urban-park polygon","sourceParkName":"嵐山亀山公園","sourceParkType":"公園","sourcePrefecture":"京都府","sourceCity":"京都市"},"geometry":{"type":"Polygon","coordinates":[[[135.67065607902592,35.01596451299596],[135.67118813430326,35.01600602214058],[135.67127921992892,35.016021530692186],[135.67137309040132,35.01604649768666],[135.67145382182505,35.01607858037315],[135.67153757925487,35.01611791808128],[135.67205694690733,35.01640103518666],[135.67234551937938,35.01616969695825],[135.6724307760638,35.01608654327346],[135.67248027626093,35.01603935078842],[135.67250782353113,35.016001113711305],[135.6725299740394,35.01594257997943],[135.67254670872163,35.01586825597315],[135.67253601297938,35.01580287352187],[135.67249522949913,35.01572614245886],[135.67243808965904,35.01565387366898],[135.6727865738441,35.01499386581149],[135.6728882601818,35.014998846465055],[135.6729123935384,35.015074306541585],[135.6730236885051,35.015074605518826],[135.6729964563645,35.01443482007019],[135.67282544926536,35.01443017010904],[135.67288163995767,35.01395696784508],[135.67307167904957,35.013953285351654],[135.6730656881443,35.01391984373878],[135.6730880190703,35.01326005291796],[135.6730438482121,35.013263207165316],[135.67279522392457,35.013282606525934],[135.67255464914678,35.01331122295347],[135.6725002054462,35.01331724750336],[135.67206183723047,35.0133657563287],[135.6714973670939,35.01356936941921],[135.6712834558511,35.013660833609876],[135.6711514081401,35.013717095221345],[135.67057586685445,35.01406737323789],[135.67045568057506,35.01413558817111],[135.6704346075754,35.0141170238489],[135.67040477244927,35.014110658712056],[135.67036235856648,35.01410726128913],[135.67029737352058,35.01413835394384],[135.6702635014764,35.01418501828435],[135.67022319427872,35.01421337437819],[135.6701871105214,35.014235044941486],[135.67016492452544,35.01425299504891],[135.67009476015934,35.01431592052171],[135.67003142319362,35.01435701387198],[135.66993400808312,35.014462980493526],[135.66986591031613,35.01452144107942],[135.6698263874439,35.01455604633384],[135.66974221408688,35.01464993401237],[135.6696632533894,35.01473907607591],[135.66963873935003,35.01477594062402],[135.66961422638792,35.01481280426836],[135.66947915827387,35.01497576417989],[135.66943536007528,35.0150137561883],[135.66941901754578,35.01502836861656],[135.66940265560055,35.01504508140598],[135.66939167790485,35.01507436628369],[135.6693806569881,35.01511411616361],[135.66936415428808,35.01516851706261],[135.66936656717613,35.015243911449616],[135.6693633492224,35.01536745312911],[135.6693550467512,35.01540721131157],[135.66933049287084,35.01543646730959],[135.66924061646225,35.0155095062024],[135.66909908480952,35.01564472887106],[135.66894659139558,35.015772474460114],[135.6687576926716,35.01594417334604],[135.66859214183788,35.01609512263788],[135.66856482708457,35.016132303838624],[135.66854745843324,35.01615943831251],[135.66848252590296,35.01621767236183],[135.66843543590662,35.016265740608596],[135.66832709418205,35.01634669101344],[135.66841513351028,35.01665019914226],[135.6686465191055,35.01701366659616],[135.6689137013526,35.0166560819671],[135.668968947078,35.016543554823144],[135.6690324572154,35.01641978186334],[135.66906827076028,35.01637030159335],[135.66910952665935,35.01632984990843],[135.66916721063927,35.016291698457955],[135.66925238099998,35.01623108523542],[135.66933202608203,35.01618172612589],[135.66938421192881,35.01614806602004],[135.66943646231024,35.01609863041129],[135.66948876812484,35.01603567384097],[135.66958790770798,35.01590749206823],[135.66965403684307,35.01581302264278],[135.66967998482437,35.015786141231104],[135.66969802353825,35.01577483275181],[135.6697209785395,35.015764421085024],[135.67065607902592,35.01596451299596]],[[135.67275195128482,35.01494835659276],[135.67234890191887,35.01571449542396],[135.67141090945177,35.015364850962555],[135.67181617910518,35.014608880751375],[135.67275195128482,35.01494835659276]]]}}]}
