{"type":"FeatureCollection","features":[{"type":"Feature","properties":{"potaRef":"JP-1321","nameEn":"Shikishima Prefectural Park","nameJa":"","boundaryStatus":"全国都市公園GIS候補・公開前検証待ち","boundarySource":"国土交通省「都市計画決定GISデータ」都市公園・緑地を、POTA代表地点で空間照合して加工","boundaryScaleNote":"都市計画データは近似・未収録の可能性がある。POTA運用可否は公式情報で最終確認すること。","candidateMethod":"POTA representative point inside one MLIT urban-park polygon","sourceParkName":"敷島公園","sourceParkType":"公園","sourcePrefecture":"群馬県","sourceCity":"前橋市"},"geometry":{"type":"Polygon","coordinates":[[[139.05356164609714,36.417706567724096],[139.05317109503832,36.41728432990876],[139.05309830243303,36.41725203253552],[139.05300672479885,36.41715480357188],[139.05290792242394,36.41704401778903],[139.05277350316305,36.41689329063875],[139.0527374460105,36.4168528606985],[139.05253122320667,36.41663800954412],[139.05244780351634,36.41654692585077],[139.05228872774128,36.41637322751745],[139.0522485010164,36.416329317519676],[139.05192482813007,36.4159758898526],[139.05164628538708,36.41567454989434],[139.05160618086867,36.41562408038085],[139.05225349963064,36.415241610386445],[139.05255954879152,36.415121241178866],[139.05278323106094,36.414901449135506],[139.05274542369912,36.41479532473994],[139.05274132391145,36.41478382519983],[139.05287164531302,36.41479210234741],[139.0530584617848,36.41480525561686],[139.05325339114594,36.41481999279576],[139.05344230425115,36.414834239744735],[139.05363356364327,36.414848024060404],[139.05368621379696,36.41485170241293],[139.05390803397506,36.41486798397746],[139.0540003720232,36.41487455285401],[139.05413911732455,36.41488455989861],[139.05415902989017,36.41488588848013],[139.05416516826358,36.41488532470622],[139.0541748387016,36.414881674713556],[139.05417805982236,36.41487957782614],[139.05419187536103,36.41485723619792],[139.0542486410131,36.414763688727724],[139.05432302907565,36.41464385807804],[139.05446155214239,36.41442046105887],[139.0544976735326,36.41435079675592],[139.0545461313684,36.414277247458976],[139.05452891224786,36.41416585947331],[139.05452811425513,36.41400465908948],[139.0545290978244,36.41393294509402],[139.05453000875914,36.413789320050896],[139.05453116694582,36.41364549924613],[139.05453167978416,36.41345798227392],[139.05453202071996,36.413290922248386],[139.05453296667125,36.41311698071542],[139.05453448969482,36.41291092196113],[139.054531291877,36.41291069382043],[139.05453141246556,36.412845003457676],[139.0545323884406,36.41274846933732],[139.0545211852638,36.41274819799739],[139.05451970499834,36.412577043471586],[139.05451818612602,36.412355140041676],[139.05451708548622,36.412037842504205],[139.05451568186717,36.4120176095934],[139.05451281221585,36.41201131826828],[139.05451303716038,36.411983201143656],[139.0545150217895,36.41174095258728],[139.05451645795983,36.41164735047114],[139.05451929605536,36.411510597257774],[139.05451920249462,36.41147082505919],[139.05451941007334,36.411400998570414],[139.0544641196348,36.411400674001015],[139.05427738091083,36.41140508948479],[139.05427709017556,36.411389541249974],[139.05426494330334,36.41128962206673],[139.05425441229949,36.4112030796693],[139.054248141535,36.41117003545758],[139.05419953471176,36.41099194931847],[139.0541666050774,36.410943229880715],[139.05409170005518,36.41082056129918],[139.05402054268586,36.410667535524205],[139.0540056714314,36.41063378627844],[139.05392108304335,36.41048603514687],[139.05379984794678,36.41048858737582],[139.0537454369665,36.41040154217251],[139.05368954129582,36.410297949549395],[139.05362767934088,36.41017340113047],[139.053571743645,36.4100337947525],[139.05349928328715,36.40984620671529],[139.0534698109366,36.409801952758144],[139.0533675985251,36.409610529332696],[139.05327918886326,36.40939913444024],[139.0530954544383,36.409047965650636],[139.05309441635708,36.40904696750703],[139.05297544014684,36.40904907494101],[139.05285201358598,36.409050233006475],[139.05279639127255,36.40905104106374],[139.0527853460418,36.409051752944684],[139.0527728621245,36.40905361801668],[139.05275485781934,36.40905784519497],[139.0527275042358,36.4090671203697],[139.0527059769701,36.40907800177799],[139.05269618106277,36.40908422837704],[139.0526860426626,36.40909125483745],[139.0526742752877,36.40910062287701],[139.05266189898524,36.40911178940903],[139.05265238436837,36.40912221760878],[139.05264415769975,36.409133185957764],[139.05263692895312,36.409145710958256],[139.05262240605995,36.409174176219224],[139.05260225893645,36.40921649277286],[139.0525551163666,36.409325875028514],[139.052484654735,36.409499145794655],[139.05242517001963,36.40964397405452],[139.05237197434488,36.409773124933615],[139.0523105057086,36.40992351790912],[139.05225177567783,36.4100552650428],[139.05220360400574,36.41015819566166],[139.05214706345225,36.41027390512634],[139.05209546315373,36.410378373308056],[139.0520461988389,36.410473464957946],[139.0520088688696,36.410544760905076],[139.0519679091644,36.41062210832709],[139.05192310162505,36.410701899042465],[139.0518635869901,36.41080944171467],[139.05179570051715,36.4109246991259],[139.05173614974322,36.41102357159339],[139.05165227742492,36.411159623966014],[139.05159842739474,36.41124368129301],[139.0515420291693,36.4113273253668],[139.0512655897819,36.41177181847303],[139.04930824394697,36.41407686506484],[139.04932952894274,36.41418557675036],[139.04932461033852,36.414228975031314],[139.0493638870136,36.4143172206001],[139.04945497161896,36.41450268014983],[139.04952601699404,36.4146374397261],[139.04953762324243,36.41465310729621],[139.04963025828064,36.41479419911252],[139.04961637942301,36.41480717684766],[139.04962442805515,36.41488284338868],[139.04962714207326,36.41490681605896],[139.04962573830346,36.4149620796597],[139.04962380822727,36.41503765366849],[139.0496219870503,36.415093509344246],[139.0495934573635,36.41518396842199],[139.0495729594277,36.41521648566563],[139.04954562878953,36.41525984498836],[139.04953619814282,36.41527289607101],[139.0494981250731,36.41532557664936],[139.0494638016586,36.415355641878236],[139.0494151024079,36.415398302123606],[139.0493170551873,36.41546605410386],[139.0492222825948,36.415512962989546],[139.04916186211986,36.41553694464703],[139.04914328932676,36.41554431194598],[139.04886932006139,36.41565515065954],[139.0487185400305,36.41571635428795],[139.04866831406983,36.415745558651125],[139.04865189363989,36.41575510298309],[139.04860438244958,36.41579143500953],[139.04857553708345,36.41581348794144],[139.0485492117146,36.41585105868708],[139.04852817090915,36.415880949579815],[139.04852265262681,36.41588858282861],[139.0485123262092,36.415935226917526],[139.04849476856603,36.416021107449],[139.04848431782224,36.41607456315946],[139.04846636961287,36.416163901863186],[139.0484566222578,36.41624042481981],[139.04843763135466,36.416395700993],[139.04841940617402,36.41654789906441],[139.04840441205184,36.41665381287171],[139.0483992550756,36.41669534396806],[139.0483970361112,36.416725259423],[139.0485353850772,36.41673722696883],[139.04858068369057,36.41682323221351],[139.04887199317852,36.41668725550143],[139.04899821843293,36.416647393897684],[139.0490103107673,36.416643570975964],[139.049049615003,36.41662601981884],[139.0492496312456,36.41653342371844],[139.0493503148339,36.41649306957128],[139.04945098829134,36.41674763571019],[139.0495408126966,36.4169400624296],[139.04944939727488,36.41695244012924],[139.04919173100143,36.417024055725605],[139.04920532928116,36.41715871755783],[139.04931544340158,36.41750136046683],[139.0494169470536,36.41810369187247],[139.04934181295184,36.418289890444505],[139.04916803717697,36.418286542201045],[139.04891571039198,36.418296890179505],[139.04879246375376,36.41830198354656],[139.04867861359162,36.41830733770809],[139.0484864750706,36.41831478987559],[139.04835992946113,36.41831970880264],[139.04832894502968,36.41834590229378],[139.04832831098423,36.41844645799009],[139.04832537339283,36.418630858507285],[139.04832455467422,36.41868217848812],[139.04832321463704,36.418766570384555],[139.0483213909957,36.418871201750896],[139.04832160402765,36.41888770477341],[139.04828834845674,36.4190420209792],[139.04821667064164,36.419372915940514],[139.04815889164027,36.419638058880444],[139.04813614539188,36.41974850890547],[139.04810385925708,36.4198895291755],[139.0480437944007,36.42015790144726],[139.0479900127806,36.42039582531219],[139.0479639111103,36.420514977175245],[139.04798628765855,36.42054748771375],[139.04826033200592,36.42060816669347],[139.04857161480456,36.42067842659849],[139.0488974406573,36.42075078198185],[139.0490381269186,36.420781653322535],[139.04914490528785,36.42075233451221],[139.04919887305354,36.420688556140476],[139.0492913821897,36.42057448144308],[139.0493750945352,36.42047365024531],[139.0495187310986,36.42029759061862],[139.04962511085762,36.420176909623265],[139.04965764074444,36.42014354310257],[139.04972555370037,36.42007562110298],[139.04975644014482,36.42004588475985],[139.0498129151716,36.41999428021748],[139.04983691998427,36.419973664259274],[139.04987487106715,36.4199422168323],[139.04989336579487,36.419928287924066],[139.04993220815024,36.419903578555164],[139.05002601759918,36.419845252306416],[139.0500725552742,36.419818322260674],[139.05017260484007,36.41976042526138],[139.05043517354298,36.41961904719016],[139.05055221216514,36.419554952611996],[139.05073535352082,36.41945548420209],[139.05089479152485,36.4193677024182],[139.05103865838277,36.419293761417215],[139.05118966255478,36.41921517065455],[139.05129025717648,36.41915402281365],[139.05147441841225,36.419041618188494],[139.05163267032293,36.418945175774546],[139.05194598005085,36.41875277499706],[139.05205147364669,36.4186900264248],[139.05211358573783,36.41865094968212],[139.05226916550333,36.418552938800886],[139.05248023476048,36.418418898702605],[139.05269009926482,36.41828271441871],[139.05290671752638,36.4181401390773],[139.05309091503662,36.41801806188919],[139.05331894076483,36.41786752130163],[139.05356164609714,36.417706567724096]]]}}]}
