{"type":"FeatureCollection","features":[{"type":"Feature","properties":{"potaRef":"JP-1621","nameEn":"Shukkeien Garden Prefectural Park","nameJa":"","boundaryStatus":"全国都市公園GIS候補・公開前検証待ち","boundarySource":"国土交通省「都市計画決定GISデータ」都市公園・緑地を、POTA代表地点で空間照合して加工","boundaryScaleNote":"都市計画データは近似・未収録の可能性がある。POTA運用可否は公式情報で最終確認すること。","candidateMethod":"POTA representative point inside one MLIT urban-park polygon","sourceParkName":"8・4・301号縮景園","sourceParkType":"公園","sourcePrefecture":"広島県","sourceCity":"広島市"},"geometry":{"type":"Polygon","coordinates":[[[132.46698308787865,34.39943632241544],[132.46675111698374,34.399497181488854],[132.46627101332237,34.39962668588573],[132.46640680943176,34.399981908845874],[132.46588479451663,34.4001124998011],[132.46597077042665,34.40043685309521],[132.46621851126062,34.40128554950599],[132.46627571465444,34.40146938493534],[132.46627626811446,34.401475441147056],[132.46640071699986,34.40144654070989],[132.4665050653374,34.401422760672475],[132.46655940690985,34.40141093607994],[132.46659310519374,34.40140634568456],[132.46664311737035,34.40140171618265],[132.46670292287666,34.40139706174214],[132.46676491763915,34.40139874165709],[132.46681714383794,34.4014012911676],[132.46701623951765,34.40141348207019],[132.46709346352785,34.40141413812645],[132.4671369881967,34.401419384690925],[132.46730560861016,34.40142798783585],[132.46752858365969,34.401196275781224],[132.46765320741372,34.401085528416914],[132.467715487567,34.401024520028216],[132.46781306921,34.400949902253586],[132.46793768859465,34.40086211638539],[132.46799466794891,34.40082774571352],[132.46823331060116,34.40068305090788],[132.4684502463034,34.40055179100467],[132.46871699469023,34.40040223684808],[132.46874411570508,34.40038230676431],[132.46876906902037,34.40036238292867],[132.46879183751398,34.40034345078755],[132.4688124388873,34.400324382449476],[132.46884169455564,34.40029557303755],[132.46886986531084,34.40026662565533],[132.46889587603087,34.40023951466657],[132.46893487874743,34.40019786280313],[132.46897605956715,34.400153669462675],[132.46900312767642,34.40011937132279],[132.46902803079752,34.40009127673816],[132.46904753305233,34.40006784483116],[132.4690562008769,34.400056131103156],[132.4690778463964,34.40002621349533],[132.46910272057767,34.39999008969152],[132.4691384401679,34.39993957094112],[132.46916334369686,34.39991161697043],[132.4691926096278,34.39987999007934],[132.46922833930765,34.399838346213926],[132.46925110953302,34.39981391988773],[132.46927600994647,34.399785121141626],[132.46929659180086,34.399760699317895],[132.46934317087303,34.399705505211664],[132.46937456635166,34.39966936521804],[132.46940924445659,34.39963054036784],[132.4694298328326,34.39960795047103],[132.46945464372232,34.399577884318916],[132.46927785211227,34.39948168371235],[132.4692248495587,34.39949671484524],[132.46922368798587,34.399496120886305],[132.4688053887974,34.39960329862737],[132.46841623256995,34.399699974744934],[132.46840890614848,34.39970179502859],[132.46835384674262,34.39954352705938],[132.46818518808254,34.39958388184615],[132.46779332388996,34.39967960069556],[132.467788034092,34.39966548179241],[132.46777588633813,34.39963305740286],[132.46763771652664,34.39926427514943],[132.46762311770325,34.39926810662064],[132.4673891299476,34.39932951640505],[132.46698308787865,34.39943632241544]]]}}]}
