{"type":"FeatureCollection","features":[{"type":"Feature","properties":{"potaRef":"JP-1017","nameEn":"Okhotsk Sea Ice Prefectural Park","nameJa":"","boundaryStatus":"全国都市公園GIS候補・公開前検証待ち","boundarySource":"国土交通省「都市計画決定GISデータ」都市公園・緑地を、POTA代表地点で空間照合して加工","boundaryScaleNote":"都市計画データは近似・未収録の可能性がある。POTA運用可否は公式情報で最終確認すること。","candidateMethod":"POTA representative point inside one MLIT urban-park polygon","sourceParkName":"","sourceParkType":"公園","sourcePrefecture":"北海道","sourceCity":"紋別市"},"geometry":{"type":"Polygon","coordinates":[[[143.38430345455876,44.323734169823936],[143.38434016350817,44.32374003993147],[143.38606751759474,44.32284165292108],[143.38554066553155,44.32231241338651],[143.38581440862717,44.32216900018077],[143.38622139752445,44.32195745229921],[143.38720567524982,44.32144695669916],[143.38751654848286,44.32128619533014],[143.3879433994777,44.32106572230764],[143.38848026368754,44.32078777383713],[143.38861206639007,44.320719138403305],[143.38887025943922,44.32058469311302],[143.38908792683054,44.32047136089874],[143.38976147869386,44.32011941143183],[143.389875824398,44.32006034496524],[143.3902824121222,44.31985028968391],[143.39084083016922,44.31955875863832],[143.39132728507803,44.31930746392447],[143.3915501293028,44.319191987249134],[143.39174153240322,44.319092106795104],[143.39199064937944,44.318974566451026],[143.39211529400242,44.318910237506174],[143.39230968770065,44.31881080297957],[143.39264988392833,44.318619160188014],[143.39273464090374,44.318575111106725],[143.3946865242411,44.3175606977141],[143.39539652054358,44.31719158119074],[143.39654164008883,44.31659656087269],[143.3977895977255,44.31594825788888],[143.39911943926356,44.31525766234534],[143.39920563962045,44.31521290083685],[143.40059955752227,44.31448904445399],[143.40173977635808,44.31389677521932],[143.4019187830422,44.31380380647261],[143.4035887488962,44.31293649138756],[143.40436315582664,44.31253417730399],[143.40551878711798,44.311934595450474],[143.4058794778622,44.31174899677201],[143.40664133257206,44.31135696458612],[143.40749496593352,44.31091623294155],[143.4076192554123,44.310893570746344],[143.40776656556304,44.3109681658592],[143.40800309576719,44.31099283188748],[143.40815034672386,44.311083501559075],[143.4083275571913,44.31110218018124],[143.40835327402357,44.311156100924535],[143.40836945908472,44.31120210809958],[143.40818122188583,44.31149278114395],[143.40859755067714,44.3112609874607],[143.41079666856203,44.31004066284055],[143.41355274875485,44.30850279027814],[143.4138814147432,44.30841720647798],[143.41338706025508,44.30803083831288],[143.41283468758851,44.307940789708766],[143.41276892754806,44.307975453156395],[143.4123415382822,44.307142362952256],[143.41161960876192,44.30723382318463],[143.41117424974877,44.30700896108804],[143.41159914310268,44.306614245072524],[143.4112178003177,44.30636778847032],[143.41107775166026,44.30649780805331],[143.41054968425402,44.30698586827098],[143.4105322314854,44.30697223915554],[143.4104546421672,44.30702106189187],[143.41037461577915,44.30707215940134],[143.41030794134224,44.30711578600431],[143.40975004274284,44.30748732188862],[143.40889342927431,44.30798482076094],[143.40866463001717,44.30809897921018],[143.40840730399742,44.308230455180315],[143.40833225302694,44.30826893648587],[143.4060323619749,44.309400585117125],[143.40569895327621,44.309563425932225],[143.4057345065279,44.309598815281966],[143.4056566699711,44.30964179612214],[143.4055072934701,44.30972096173689],[143.4051635960879,44.30989430936117],[143.40514925591316,44.30987958593754],[143.40512668740223,44.30985626946321],[143.40453816410508,44.31015324352912],[143.40187352904803,44.31149027073534],[143.40160007764524,44.311627472839454],[143.39851766815372,44.31317395430464],[143.39793214969197,44.31346769561571],[143.3964557521845,44.31420834995005],[143.39507974111945,44.314898603372164],[143.39447242022501,44.31522357829065],[143.3944105696316,44.31526104504824],[143.39389396835,44.315574001528596],[143.39320202839843,44.31602033033675],[143.39285944689829,44.31624130366378],[143.3923662929046,44.316540500078816],[143.39238709416043,44.31656008359118],[143.39200068089727,44.31683085901611],[143.39194971851362,44.31686431843875],[143.3918956493403,44.31689918593493],[143.3917675405772,44.3169811988071],[143.39145287203658,44.31717465402912],[143.3910798425819,44.31741519567438],[143.39105474388512,44.31739508784177],[143.39100734574237,44.31742556814682],[143.39067140341643,44.317650347525635],[143.39033175134588,44.317870131786464],[143.3901555287167,44.31798347596952],[143.3888762963578,44.31880619661367],[143.38880160489285,44.318854228567155],[143.3887067793735,44.31891521453006],[143.38856127164195,44.3190087914671],[143.38800794385938,44.31934346185466],[143.38774749438028,44.3194848758614],[143.38742714477752,44.31965881856449],[143.38701829615374,44.319852883818164],[143.38684133237928,44.3199375642929],[143.38568894414107,44.320410388359456],[143.3855036745359,44.32048647312686],[143.38538857718885,44.320531538346735],[143.3848183711453,44.3207564862395],[143.38481733858146,44.320756901508155],[143.38418843249138,44.321008665089586],[143.38339975184272,44.32131918909122],[143.3827361454006,44.32158531117924],[143.38270561698107,44.3216615128276],[143.38413503412923,44.32351570903612],[143.38430345455876,44.323734169823936]]]}}]}
