{"type":"FeatureCollection","features":[{"type":"Feature","properties":{"potaRef":"JP-1468","nameEn":"Higashi-mikawa Furusato Prefectural Park","nameJa":"","boundaryStatus":"全国都市公園GIS候補・公開前検証待ち","boundarySource":"国土交通省「都市計画決定GISデータ」都市公園・緑地を、POTA代表地点で空間照合して加工","boundaryScaleNote":"都市計画データは近似・未収録の可能性がある。POTA運用可否は公式情報で最終確認すること。","candidateMethod":"POTA representative point inside one MLIT urban-park polygon","sourceParkName":"東三河ふるさと公園","sourceParkType":"公園","sourcePrefecture":"愛知県","sourceCity":"豊川市"},"geometry":{"type":"Polygon","coordinates":[[[137.30246846887206,34.84266273831283],[137.30272364926142,34.842657035162766],[137.30302211538705,34.84263566003504],[137.304681901243,34.842552410071406],[137.3050303201019,34.84253392122126],[137.30531020860528,34.842519746534364],[137.30551711775468,34.84251714860586],[137.30571858913143,34.84251908205211],[137.30589208029707,34.8425217052854],[137.30612709655222,34.842535310090035],[137.30636625182882,34.84255229029729],[137.3067653850869,34.84259221827355],[137.307124255815,34.84263738405466],[137.307414096318,34.84267554291082],[137.3075952299059,34.84269671667478],[137.3079424576527,34.84273629523842],[137.30833960601632,34.842784676383914],[137.30866903543054,34.8428192702975],[137.30901001921922,34.84284535770555],[137.3093215195482,34.84285636966538],[137.309617220105,34.8428550579162],[137.3099491830328,34.8428620415769],[137.31024973419352,34.842864526889336],[137.31048400413468,34.842863006066565],[137.31057342471055,34.84285550804223],[137.31075889618316,34.842830280977935],[137.31077196916624,34.84282757001815],[137.31077012633602,34.842811678827154],[137.31107960711068,34.84255535003918],[137.31113117462874,34.842536808137886],[137.3111822164188,34.842524036413856],[137.31129607716306,34.84239266129498],[137.31125711864047,34.84233697712495],[137.3112007748991,34.84225032016591],[137.31114870477492,34.84217510710348],[137.31112704239635,34.84214311169113],[137.31136713658512,34.842134343239415],[137.3114568746476,34.84214005110563],[137.3115844310107,34.84215597288143],[137.311613682071,34.842156776420595],[137.31183980223284,34.84213567319054],[137.3118650311093,34.84213121673248],[137.31195618928695,34.842105018589265],[137.31213758141973,34.842024604704875],[137.31230006536305,34.84186843342671],[137.31235064559195,34.84182986094581],[137.31239934850868,34.841793246939396],[137.31247870175216,34.8417325442599],[137.31247793072723,34.841685955864484],[137.31257635012884,34.841604829406776],[137.31250651022503,34.841461088464776],[137.31250126338443,34.84142482756467],[137.3125362487788,34.841391267988506],[137.3126499156167,34.84123886892403],[137.3126959005604,34.84118659906885],[137.31267760844273,34.84116239782403],[137.3128460991481,34.84100930891658],[137.3128286118184,34.84098945374143],[137.31293397956634,34.84096130858591],[137.31282959606898,34.840890576452],[137.31283293449778,34.840830686045074],[137.31287736432913,34.84084524590389],[137.31295303588803,34.84084266679556],[137.313064000861,34.840832544720634],[137.31322019783957,34.840820700289754],[137.31353831194969,34.8407917932717],[137.31354027466398,34.84085027997793],[137.31367847589894,34.84083347141163],[137.31380577476543,34.8408161890684],[137.31389217937704,34.8407866055953],[137.31393371208338,34.84080747003327],[137.31402807370034,34.84073320769138],[137.31413637772587,34.84070265094198],[137.31398397056222,34.84057068527597],[137.31388815399757,34.840490946738086],[137.31385349126288,34.84044725709973],[137.31382691322554,34.840412112870624],[137.31391313908975,34.84032537473179],[137.31404487110777,34.84028671229413],[137.31416078647922,34.84023873840579],[137.31418902321946,34.84027198740901],[137.31422032372114,34.84028193802452],[137.3142997225553,34.840309571713874],[137.3144002529153,34.8402735701099],[137.31450456654878,34.84021317834952],[137.31453716220648,34.840213643568276],[137.31457134624964,34.840234084005345],[137.31459414960878,34.840249417773975],[137.3146268466163,34.840233187133755],[137.31467728942437,34.840228960854446],[137.31474589837075,34.84022721860125],[137.31490948395935,34.840220627745715],[137.3149150495623,34.840293867537675],[137.31498775943663,34.84040215678721],[137.31505535345164,34.84026128767424],[137.31506903875703,34.840240608683914],[137.31517879958326,34.84029727801007],[137.31520059867532,34.840325648527156],[137.315406152406,34.84040554939361],[137.31537865173107,34.840569078379424],[137.31545657987886,34.84056898308486],[137.31547405080696,34.84056787991817],[137.31548941308282,34.840555546685486],[137.31569671774471,34.84038704663642],[137.3158011636337,34.840327681310086],[137.31584861968258,34.840255836970414],[137.3161130957473,34.84020122422544],[137.3164977801716,34.839644825265495],[137.31649501996978,34.839587863109195],[137.31670132014165,34.83957930605406],[137.31671025695172,34.839539133367346],[137.316486161467,34.83941785179999],[137.3164763846624,34.839332401980954],[137.31645911736825,34.83924054272928],[137.3163932666771,34.83911054687768],[137.31652274306907,34.83909595448465],[137.3165429151939,34.839089267573854],[137.31654348348937,34.839046887525214],[137.3165413641816,34.83899363874019],[137.31652652037474,34.83888154692597],[137.31677016566587,34.838852876430934],[137.31691175103853,34.838889455651724],[137.3168669980893,34.838787109932284],[137.31694568399558,34.83868146553998],[137.31707267159234,34.83848923574643],[137.31716074609224,34.838369858824414],[137.31721714466565,34.83842460904306],[137.3172686697483,34.838468989043506],[137.31740787368548,34.83848300617984],[137.31754217129495,34.83850464688779],[137.31776132797953,34.838664183160326],[137.31783572419994,34.838718766493294],[137.31771242428493,34.83884596755504],[137.3177047501995,34.83892465969534],[137.31768878611248,34.83900824823721],[137.31768618063543,34.83902446939296],[137.31768460171554,34.83905198502466],[137.31783254703248,34.83914596256845],[137.31791834270084,34.839143872629336],[137.31795121313885,34.83918119878094],[137.31797215124027,34.839210741821816],[137.31798116779143,34.8392384065463],[137.31797826261473,34.83926410280771],[137.31796466450547,34.83930207272002],[137.31794431316516,34.839354204522564],[137.31793016769674,34.8393858556215],[137.31807546335244,34.8394952968211],[137.31818664693242,34.839337288335436],[137.31828498159538,34.839178745847406],[137.31851958479217,34.83916799585297],[137.3185808812119,34.83906092972415],[137.3186411462616,34.83893415813896],[137.31870717052897,34.83887126837754],[137.31882629647572,34.83880583305408],[137.31908007990648,34.838595079023285],[137.3191163209498,34.83863383401926],[137.3191623291293,34.838555661681056],[137.3192077477208,34.838477994901936],[137.31923945048558,34.838421557521634],[137.31932059611688,34.83835305917799],[137.31942464436898,34.83831799557284],[137.31957170178202,34.83816204122918],[137.31953875526293,34.838142880760756],[137.3195378930286,34.83803725349253],[137.31952385967,34.838001336572425],[137.3195454840905,34.837961953663516],[137.3195526231451,34.83791185483678],[137.3195525525898,34.83787369187041],[137.31953468803422,34.837599415045844],[137.31952719848078,34.837459889004094],[137.31952128886823,34.83739311085302],[137.31955451654915,34.837371124864916],[137.31956292889924,34.837196008478635],[137.31944646955256,34.836945529697026],[137.31942715172906,34.83676319018071],[137.31958832731436,34.8366811678313],[137.31937651909735,34.836479787104984],[137.31956440100018,34.83628314199542],[137.3196600823109,34.83618898656401],[137.31971347538953,34.83614980345414],[137.3197739731456,34.83613308569535],[137.3198298478576,34.83611740143364],[137.3198548225509,34.836106804443574],[137.3197617626624,34.83604579109262],[137.31973551970486,34.836062312493866],[137.31952140980403,34.835975533177304],[137.31948903225495,34.83600996505999],[137.31909454534022,34.83574999410264],[137.31941556946092,34.83542348483659],[137.31941019098292,34.835393151709745],[137.31931821083782,34.835366800115004],[137.31924004712528,34.83536100238223],[137.31916958206293,34.83536783393583],[137.31897821071928,34.835384877594294],[137.31885769649912,34.835400200617165],[137.31884416686083,34.83540351702155],[137.31882706667068,34.8354034572769],[137.3186955572274,34.8354031078442],[137.31866857282805,34.835402898159884],[137.3185085607211,34.83537933452865],[137.3184370283896,34.83536467530218],[137.31841301228155,34.83535542885816],[137.31839563052813,34.835344921054045],[137.3183772392596,34.835326472317945],[137.31836393119198,34.83530753043205],[137.3183500298093,34.83524527235379],[137.3183407591226,34.83520405845494],[137.31830031097508,34.83514764812113],[137.3182839429877,34.8351354442226],[137.31826005139033,34.835122501454954],[137.31822682321004,34.835109903868904],[137.31819309750028,34.83510025478872],[137.31815017673424,34.835090617149426],[137.31810267162203,34.83508519519295],[137.31801737022485,34.8350802439511],[137.3177371330605,34.835062120607326],[137.31761361529573,34.83505508900161],[137.31754202800562,34.83519106135582],[137.3172264299615,34.8356861650588],[137.31709165755396,34.835652189390295],[137.3170077209602,34.8356284413454],[137.3169208881548,34.835602311458686],[137.31680654793396,34.835561903296366],[137.31674140853752,34.83553455382485],[137.31656915526617,34.83546320988066],[137.3164521351404,34.83554087374695],[137.31641896048728,34.83559219624526],[137.31630966199424,34.83548169272271],[137.31616376222166,34.83535160398707],[137.31603328457356,34.83518575268225],[137.31590723670865,34.83528715451407],[137.31579248517016,34.83537829685334],[137.31567582688515,34.83522020814315],[137.31561465957648,34.8350655861567],[137.31572059195744,34.83500479827687],[137.3158290807577,34.8349217600249],[137.31575777238115,34.834896207959815],[137.3155386999949,34.834817707939855],[137.31548466270448,34.834834298498244],[137.31543234411183,34.834697093326795],[137.31552590997364,34.83444653124621],[137.31566132232217,34.834141057227654],[137.31570521763868,34.83411493847016],[137.31576024327947,34.834139253839815],[137.3157791369069,34.83415178853891],[137.31578888616494,34.83416207168663],[137.31580750036036,34.834189409307704],[137.31580994393173,34.83419241731257],[137.3159238222904,34.83427508016336],[137.31597401683172,34.83431101535079],[137.3160081342735,34.83433205949153],[137.3160462105325,34.83435360359996],[137.31609280896367,34.834371873809125],[137.3161872008528,34.83440414862334],[137.31662043080362,34.83452694920077],[137.3166517988951,34.834514920619185],[137.31665561348373,34.8344961828057],[137.31664394790934,34.834399935323255],[137.31662379631305,34.83426655661565],[137.3166237832532,34.83425935366936],[137.31662793208008,34.83423802814707],[137.3166456775399,34.83420818474438],[137.3166711323579,34.834185102076965],[137.31672835529668,34.83415362334264],[137.31690203565387,34.834095334530794],[137.31700082188806,34.83406697760237],[137.31703330958717,34.83406952474786],[137.31706541345503,34.83405940632365],[137.31711848379393,34.834047233594184],[137.3171368753026,34.83403607735709],[137.31736959261855,34.83398831464535],[137.31755021440048,34.83357377885939],[137.31729609997697,34.833472832182785],[137.31723211200722,34.83342733169218],[137.31696246930747,34.833291773415226],[137.31702753582078,34.833160885751575],[137.31742389759845,34.833297936659676],[137.31744529072301,34.83318217592228],[137.31791819453824,34.83334169480479],[137.31792879626096,34.83332181262303],[137.3181051046503,34.83338060528906],[137.31811669148726,34.8333553850009],[137.31837144487017,34.8334371579269],[137.31840250011922,34.83336819973004],[137.31832317755118,34.83329936475001],[137.31837848046382,34.83316953968379],[137.31845016504414,34.83313892015889],[137.31851030345817,34.83312167158779],[137.31856752212087,34.83310591049726],[137.3186596386443,34.83310564218864],[137.318795598003,34.83312585510132],[137.31888893888149,34.83318132466612],[137.31898497329814,34.83326143321447],[137.31907295050098,34.83328125423321],[137.31921694358715,34.8334020042052],[137.31930965752997,34.83348060033893],[137.31950113988498,34.83368639621889],[137.31956200922025,34.83364688824468],[137.31957247268627,34.83363520971963],[137.31960379402489,34.83357466185429],[137.31959193598655,34.83346480227793],[137.3195687751861,34.83340345745736],[137.31954247444008,34.83334687648312],[137.319499388287,34.83327691132666],[137.31948794801392,34.83325695753377],[137.31947662316304,34.83322254357836],[137.31942713982363,34.83313408770559],[137.3196482300271,34.83297927521527],[137.31984828615305,34.832867003421406],[137.32016171636164,34.83270614183573],[137.32094092554914,34.83247761826047],[137.32101820333,34.83246119412053],[137.3211293499202,34.83244364513702],[137.32115789762696,34.83243844330743],[137.3208006869829,34.83108775001668],[137.32061232075813,34.830452324513445],[137.320793548044,34.830348603121045],[137.3209162824418,34.83021472841594],[137.32103879887165,34.83006386062907],[137.32115796781605,34.82999994642375],[137.3213909898378,34.82982430898155],[137.32137333980103,34.82976346229834],[137.32164043649973,34.82948771478234],[137.32148844533103,34.82940392476171],[137.3211532839329,34.82925400802475],[137.3215350599378,34.828999552662275],[137.32174796902368,34.828856709562054],[137.32153439245118,34.82864885279732],[137.3213574201326,34.828464766688995],[137.32124628142986,34.82841051787262],[137.32117603835763,34.828498409396786],[137.32112749713468,34.828559146353975],[137.3209945211023,34.82872614902023],[137.32093923351894,34.828699786319504],[137.32085071890344,34.82865085974512],[137.3203468284341,34.82834559739625],[137.3203688523991,34.82832040245461],[137.32022375132382,34.82822789095309],[137.32002756656718,34.82841117045262],[137.31987192841828,34.82840224789099],[137.31976806772838,34.82835756066278],[137.31967077373423,34.82833380688588],[137.3196055708626,34.828307987929534],[137.31948732220897,34.828292990452255],[137.3194236747786,34.82828710697444],[137.31938678268205,34.82828119078222],[137.31935061542617,34.82827586865782],[137.31929709159547,34.82826997330982],[137.31925976724355,34.82826441461454],[137.3191903347672,34.82825877716724],[137.31885412608347,34.828367368042834],[137.3186667988521,34.82842866339222],[137.31854401760785,34.82849112286217],[137.31839093866714,34.828586443537674],[137.31830906668296,34.828646342875615],[137.31826465314535,34.82869011186274],[137.31830622863862,34.828807413448615],[137.31855678608588,34.82907298418541],[137.31864527111324,34.82916282784723],[137.3186750491088,34.82917976855465],[137.3187209644593,34.82923511543439],[137.31842473615993,34.82937979167904],[137.31805822088526,34.82956736862039],[137.31803598677232,34.829570295503196],[137.31793485974717,34.82965347177209],[137.317901472112,34.829808963959344],[137.31786872386365,34.82993152723064],[137.31783152899632,34.83005880363733],[137.317747401653,34.83031610725209],[137.31773123085733,34.83041250735655],[137.31771450459107,34.83042506435193],[137.31774994829624,34.83047852693491],[137.31778111204665,34.83052553469074],[137.31783067745624,34.830600298325045],[137.31793270830633,34.830754199596825],[137.31799136057037,34.83079142522062],[137.31802743232242,34.830852741686975],[137.3180739297404,34.83085668557633],[137.31826808092853,34.83099654914797],[137.31818957450255,34.83105263536362],[137.31737932448252,34.831576301279725],[137.31731876583223,34.831522608267804],[137.31732612948025,34.831556956122526],[137.31726233857106,34.831570844243984],[137.3171918704047,34.83161033410952],[137.31714868429316,34.831618446022475],[137.31724130238857,34.83168020300385],[137.31722080142825,34.8316938130427],[137.31733374615337,34.83175121580498],[137.3173754466782,34.831792999047515],[137.31741051398188,34.83189768346882],[137.3172893784791,34.831979867977076],[137.3172407173313,34.832012848198914],[137.3171993253508,34.83204090173799],[137.3171010885707,34.83203757051754],[137.3170553591686,34.83201019538864],[137.316989550505,34.83187478074518],[137.3169751819824,34.83183914246866],[137.31696916490918,34.83182497565712],[137.31695041425596,34.83178081913209],[137.31686958082926,34.831781572545566],[137.31681487637888,34.831732948389025],[137.3167754647761,34.8317070041457],[137.31675326490458,34.83169238941233],[137.3167285660352,34.83167612801689],[137.31657791066047,34.831669516463656],[137.31652031161968,34.83164998977104],[137.31646697364747,34.83163190741239],[137.3163870341092,34.8315701297301],[137.31631740416938,34.83150028713665],[137.31634908592466,34.83137099233727],[137.31637519795117,34.83126687058868],[137.31592855556278,34.83098362162763],[137.3158870853229,34.83094825716451],[137.31584317561916,34.83091269554583],[137.31573902447624,34.83084327897535],[137.31569616864564,34.83079244554201],[137.31561143883334,34.83069194486599],[137.3155944705882,34.83069115248793],[137.31550575434716,34.83068758204544],[137.31548371791726,34.83064625279542],[137.31541097548143,34.830731255628024],[137.31537240897492,34.83077350999616],[137.3152403234013,34.83089872713678],[137.31514532320463,34.83096366080151],[137.31504202082175,34.83100813150515],[137.31492004777945,34.83105914630877],[137.31495504998225,34.83116052754545],[137.31492472053446,34.83124518719298],[137.3150830373767,34.83132886138281],[137.31556236769222,34.831544202382396],[137.3155556095286,34.831689117374076],[137.31556815343455,34.83183692057574],[137.31563510251135,34.83199190520532],[137.31574241586128,34.83215842458131],[137.31599519096727,34.832237824978286],[137.31601456640226,34.83228127140226],[137.3151723575779,34.83222868133609],[137.31517064938367,34.83225766656557],[137.3149376966898,34.832470974559214],[137.31485719649265,34.832581217603305],[137.3147537950838,34.83266319046719],[137.31474707218916,34.83281032302994],[137.31472991355398,34.83282617420908],[137.31462079993386,34.83283221176788],[137.31454888652132,34.832835165968106],[137.31438881342288,34.83270668070386],[137.31373822676684,34.83277674001617],[137.31286291830236,34.832884288941464],[137.31284539251726,34.83287201357657],[137.31282076672787,34.83283871480404],[137.31281546689146,34.83281553465699],[137.31282585726237,34.83273726318107],[137.31271701651008,34.832699711302766],[137.31266531424933,34.832638246160094],[137.312622112039,34.83263531404292],[137.3125904823989,34.83257958535278],[137.3125659674219,34.83260280127078],[137.31241291585147,34.832368216750055],[137.312433748498,34.83227178564579],[137.31244053259172,34.832138455046625],[137.31244038189416,34.83205294818455],[137.3122488655259,34.83189086287971],[137.31206837012647,34.8320084717535],[137.3119071711193,34.83212604830718],[137.31170564801698,34.83226106261451],[137.3115444310328,34.83236270924417],[137.31141066070688,34.832442110107706],[137.3112034067654,34.832533173378344],[137.31101091509444,34.83259458655789],[137.31074671891733,34.83267233837547],[137.31060792887632,34.832732830881675],[137.3103925568456,34.832808991605454],[137.3101821480116,34.832878799550365],[137.30999284553437,34.832983371053395],[137.30982108377347,34.83307777076003],[137.30961589760057,34.8331272878859],[137.30939129396407,34.83310725889045],[137.3091999484514,34.83304227791561],[137.30899632022837,34.832974399172656],[137.30877690880467,34.832915237976465],[137.3086681268782,34.83291101978302],[137.30846641867626,34.832935892986036],[137.30824720370964,34.832991220784955],[137.3078438364045,34.83308299321599],[137.3077072210024,34.833215031741695],[137.30759854243428,34.8332716725653],[137.30723008411113,34.83325471798219],[137.30714232123486,34.833234526647175],[137.30690197942337,34.83324349437114],[137.30671957197754,34.833271245249634],[137.30649510339055,34.83333092115662],[137.3063898771135,34.833354228571984],[137.30627823809053,34.833341726762264],[137.3062539516018,34.83327477337038],[137.30602474001148,34.83329693352778],[137.30583834376773,34.833378011228874],[137.30572041529405,34.83338982047347],[137.30483492162514,34.83351033189674],[137.30412910433463,34.83359181550298],[137.3030344058097,34.83457319154665],[137.30269029455187,34.8348905522593],[137.3027008377924,34.83489923991867],[137.30184418898224,34.835689284361706],[137.30218375156946,34.83572804055817],[137.30220765458782,34.835862787750514],[137.30246593133865,34.836084231936795],[137.3022191414368,34.83623366888926],[137.30210590709981,34.83641070479577],[137.3020401761323,34.83644555771629],[137.30197685225053,34.83634781573753],[137.30179541159845,34.836437139417164],[137.3017638597181,34.83645890955498],[137.30174287985602,34.83650023944688],[137.30172189258738,34.836543741950976],[137.30168247903003,34.83657203861873],[137.30137208159942,34.836665849938704],[137.30126946429348,34.83668336241919],[137.3011957749549,34.83667908970256],[137.30112997590584,34.83667916245069],[137.30104041320925,34.83662926438983],[137.3009509388596,34.83663370840627],[137.30092996207398,34.83667721076177],[137.30090894257756,34.83670115067515],[137.30069069563078,34.83681660263873],[137.30050134394813,34.836903760492035],[137.30038035589737,34.83694736372514],[137.30032781221593,34.83700394533006],[137.30018844383505,34.83707437908602],[137.30013229897864,34.83707444069798],[137.29993420526884,34.83717900614859],[137.29989739506306,34.837194984935564],[137.2998060990464,34.83716175654725],[137.29975181008786,34.8372212336174],[137.2997394622184,34.83718501596264],[137.29961159512362,34.8371940715764],[137.29964837760951,34.837276410164655],[137.29965194795236,34.83731408883413],[137.29966437394006,34.837409769149616],[137.30003080979515,34.83752958258664],[137.29993192488914,34.837562607312265],[137.29947211519,34.83766471968591],[137.29947510169626,34.837554719378964],[137.29917366611792,34.837734573092476],[137.29907490255684,34.83772902824739],[137.29904023986353,34.837700245115684],[137.29879846881755,34.83792513394356],[137.29870725573255,34.837944074268776],[137.29855470896533,34.83800075459222],[137.2984793414031,34.8380486606898],[137.2984407523137,34.83806029574719],[137.29834600322988,34.83805605313267],[137.29826522466453,34.838015555158],[137.29820558032154,34.83801561966718],[137.29812315154012,34.83803746189034],[137.2979337109631,34.83806519817431],[137.2978636642589,34.83815222311188],[137.29789712361827,34.83822899455177],[137.2978954138585,34.838260882339156],[137.29793062906052,34.838334758069415],[137.29793068657196,34.83837098916436],[137.29787819319225,34.83846089798346],[137.29784136878106,34.838475424751515],[137.2977219542081,34.838410339182545],[137.29759585295398,34.8385553995978],[137.29749064271567,34.83859463775219],[137.29738904756695,34.83870053761717],[137.2972856734876,34.838794855072614],[137.29724485025685,34.83881145939586],[137.29712417956583,34.83874720396907],[137.29704716665998,34.83886902465868],[137.29694042550403,34.83904739196784],[137.2967671225403,34.839305531708156],[137.29683735844162,34.8393373425075],[137.2967533289728,34.83945481627963],[137.296690303666,34.83953750583157],[137.2966086533466,34.839506266069975],[137.29653032798097,34.83964271009635],[137.29651778227088,34.83966783918551],[137.2965097018734,34.839695640952066],[137.29650487826447,34.83972243858061],[137.2965033342153,34.83975576855895],[137.29650458050148,34.83977652869598],[137.29651195169689,34.83981235531863],[137.29651930196988,34.83984181739689],[137.2965657691414,34.83997914685221],[137.29657594550167,34.83999789612882],[137.29658977754147,34.84001897637623],[137.29660768604663,34.84004574972593],[137.29666276037486,34.84011460128061],[137.29669849486277,34.84014341999229],[137.29676672305393,34.840184401193405],[137.29681801204566,34.840210093069565],[137.29687267726027,34.84026198781477],[137.29693304134994,34.84034296772532],[137.2971703471066,34.84019783385649],[137.2973404642412,34.84015127824662],[137.29754037462385,34.84007569821896],[137.29773676615955,34.840001582078266],[137.29791738222693,34.83993616405448],[137.2981348759975,34.83988955620523],[137.29835239259288,34.839857434992524],[137.29856291936363,34.83984416224869],[137.29879451909073,34.83983956569526],[137.29901210951508,34.839853816207054],[137.29921222506815,34.83991445835532],[137.29938606896368,34.84000412096916],[137.29954069362705,34.84014308012839],[137.29964270727962,34.84029803506939],[137.29974648245351,34.840460236025024],[137.29984149504256,34.84061954366233],[137.2999680775172,34.84078026803843],[137.30012103231715,34.84096705265344],[137.30024582890854,34.841104583187594],[137.3003969463897,34.84123630606471],[137.30057084128504,34.84135495001224],[137.30077450208952,34.841434426940225],[137.30097989229833,34.8414878303429],[137.30120979264333,34.84151801079081],[137.3014046567683,34.84158010652635],[137.30148370827476,34.84163799416404],[137.30157705735888,34.84185382606804],[137.30167735583308,34.8420261710165],[137.3019109124716,34.842144746794446],[137.30219174038777,34.84220384283433],[137.30243048539006,34.84227169365437],[137.3024972993594,34.84235423217313],[137.3025114749197,34.8424368204358],[137.30246846887206,34.84266273831283]]]}}]}
