{"type":"FeatureCollection","features":[{"type":"Feature","properties":{"potaRef":"JP-1770","nameEn":"Kamoike Prefectural Nature Park","nameJa":"","boundaryStatus":"全国都市公園GIS候補・公開前検証待ち","boundarySource":"国土交通省「都市計画決定GISデータ」都市公園・緑地を、POTA代表地点で空間照合して加工","boundaryScaleNote":"都市計画データは近似・未収録の可能性がある。POTA運用可否は公式情報で最終確認すること。","candidateMethod":"POTA representative point inside one MLIT urban-park polygon","sourceParkName":"鴨池公園","sourceParkType":"公園","sourcePrefecture":"鹿児島県","sourceCity":"鹿児島市"},"geometry":{"type":"Polygon","coordinates":[[[130.55744678534063,31.563167180687923],[130.5572148468447,31.563095754041555],[130.55675918989695,31.562952386814768],[130.55667683210183,31.56299305023693],[130.55663341575485,31.563263668166783],[130.5565994890674,31.563532334671685],[130.55657893373424,31.563713376999022],[130.55654662983812,31.56399521771759],[130.5565300500516,31.564137489524864],[130.5565222358757,31.564208266292667],[130.55650044662417,31.564338343555946],[130.5564847528056,31.564404673376828],[130.55646243106293,31.56446917627834],[130.55641650258698,31.564580318797514],[130.55636980087073,31.564676756664156],[130.556375983706,31.564728099651703],[130.5564213473964,31.5647585629305],[130.55661963478553,31.564885164461412],[130.55683157480482,31.565020742421726],[130.55706209046983,31.56517126673859],[130.5571461545602,31.56523803245085],[130.5571729155497,31.565259501611166],[130.55717889740956,31.565264302721406],[130.5572177172547,31.565297539125716],[130.55725547902733,31.5653317640097],[130.5572920786644,31.56536670642588],[130.55732762108073,31.565402456934542],[130.55736147720978,31.56543838198626],[130.55740392365306,31.565484438724557],[130.557544467714,31.565637176116645],[130.55755389991472,31.56564749110806],[130.55771258345897,31.56581833029774],[130.5580011426995,31.56612608497643],[130.55800156151574,31.566126627600575],[130.55802210521225,31.566148616261064],[130.55806140351723,31.566192226602766],[130.55811306632782,31.566249860054935],[130.55829352115344,31.566450899240614],[130.55830979568302,31.56646232017088],[130.55832894209783,31.56646788828203],[130.55834020865146,31.566469009561207],[130.5583555920672,31.56646834114301],[130.5584947726359,31.56641921412888],[130.5585686092679,31.566398904440444],[130.5586598311993,31.56637784297006],[130.5587917369333,31.566352321865892],[130.5589148643643,31.566334166407593],[130.55899759806806,31.56632597343428],[130.55908411729476,31.56631923660063],[130.559196426307,31.566316647463598],[130.55923403863824,31.566315694806832],[130.55934358626254,31.5663178764073],[130.55969774432074,31.566342186951072],[130.5599873382239,31.56636401938952],[130.56016604386886,31.56637753243],[130.5606110707029,31.56641117267371],[130.5628951651299,31.566564850348612],[130.5633716952257,31.566597776945898],[130.56328663044025,31.566518474643562],[130.56335776569895,31.56578903176311],[130.56337115419103,31.565651257950712],[130.5633894180345,31.565461908650853],[130.56381813235166,31.565491513373043],[130.56398175597255,31.565667142094238],[130.56410957095528,31.565773197555778],[130.56419212344744,31.56582642409941],[130.56426886033827,31.565861681754782],[130.5643364799146,31.565886716139183],[130.56440464803842,31.565907062163095],[130.5644813782402,31.565921123599185],[130.56457171603068,31.56593126271559],[130.56476907719173,31.565942668160265],[130.56478563307056,31.56593902648999],[130.5648063303785,31.565928273429627],[130.56493189003396,31.565839677335198],[130.56503487002854,31.565736121938706],[130.56526505047103,31.565507987384446],[130.565337931194,31.565443474454593],[130.56556942784806,31.565544649599385],[130.5657034032672,31.56582200671125],[130.56569748489576,31.56584886502606],[130.56586167949152,31.566220489298832],[130.56587000660113,31.566242164629475],[130.56594778067642,31.56639486004907],[130.56610707389927,31.566710635996024],[130.56626458443944,31.566820037157342],[130.56666853939117,31.56776314394961],[130.56736706015477,31.569206481624214],[130.5679280936317,31.570358919501817],[130.5683465105604,31.57114251283716],[130.5686039086276,31.571593820579174],[130.56866160383495,31.57153313300322],[130.56871470183782,31.57146413185783],[130.56874487193537,31.571409665083106],[130.568806267668,31.57127737431032],[130.56885657851944,31.571127187308658],[130.5688786679679,31.57099719919652],[130.56888792900892,31.570861936442785],[130.56888440846066,31.570757026626517],[130.56887373128131,31.570673469121274],[130.56884631973819,31.570563517936844],[130.56882307142718,31.570487494484645],[130.56878506675474,31.57039022518647],[130.56870043569504,31.570214959406204],[130.56857865285443,31.569963262358392],[130.56808421531284,31.568943099247136],[130.56796085806317,31.5686908550834],[130.56748887130763,31.567716585005094],[130.56736541856074,31.56746289677693],[130.56683337201517,31.566357456219265],[130.56631559016805,31.565290846027892],[130.56570247032198,31.56402295292124],[130.56567169767405,31.563957546415807],[130.56552498307377,31.563656514537648],[130.56541334509015,31.56342424094884],[130.56539915404713,31.56339505937106],[130.5653028354258,31.563198645604103],[130.56517941534628,31.56294044545994],[130.56507048897302,31.562714404308608],[130.56495142151235,31.56247191286017],[130.56483288847008,31.562227889780747],[130.56468055256778,31.561913578921583],[130.56455190461423,31.56164769366873],[130.56441563778654,31.56136671957124],[130.56416742931046,31.56085229700138],[130.56405370801852,31.56061640721493],[130.56393486696007,31.56037166063959],[130.5638256321824,31.560145256534593],[130.56370313873612,31.559893371778053],[130.56357417438517,31.55962874715501],[130.56346076994294,31.559393308875308],[130.56336552325834,31.559194642329565],[130.56323269621785,31.55892296885359],[130.56311104187355,31.55867252950465],[130.56300296044301,31.55844811291565],[130.56289883803254,31.55823318036055],[130.56279825956133,31.558026377488098],[130.56267617608665,31.557778100943576],[130.5626622972608,31.557750092663856],[130.56259971777558,31.557752404073106],[130.56219151570292,31.557894328540684],[130.56211194969677,31.55792508352037],[130.56200571288377,31.55796034708499],[130.5620002225004,31.55796312435577],[130.5619948307068,31.557967345102274],[130.56198847321454,31.557975350777834],[130.56198454343948,31.55798228241691],[130.56198304180367,31.557988049825028],[130.5619825875984,31.557995083567604],[130.56199071592044,31.55801387221203],[130.56209055904773,31.558219861426068],[130.5621767302901,31.55839874489869],[130.5622319226937,31.55851222023895],[130.56226583098612,31.558581967754513],[130.56237809131076,31.55881343455536],[130.56246885034813,31.5590026158832],[130.56248481282805,31.55903559209677],[130.56269313761797,31.559470959974636],[130.56276470139585,31.559620389127343],[130.56285035860444,31.559797105656717],[130.56292630784614,31.559954937948444],[130.56304629476543,31.560201763886287],[130.5631503134697,31.560416876307603],[130.56326759307717,31.56065719865586],[130.56338318495665,31.56089814649963],[130.56347104982137,31.5610763132686],[130.56356024197652,31.561263594311512],[130.56361962766724,31.561382134318187],[130.5636886939708,31.561525601458357],[130.5637664216159,31.561686686353443],[130.56385982045444,31.561875695256525],[130.56393929325876,31.56204670756487],[130.56401837982165,31.56221023222827],[130.5641007871373,31.562384591693615],[130.56426243069734,31.562713185920753],[130.56429614766415,31.562779414570002],[130.56431931017582,31.56282738763143],[130.56474752161884,31.563688595310673],[130.56470600142796,31.56378270883191],[130.56487715082113,31.564129554209618],[130.5648894351296,31.564478654792367],[130.5648498742581,31.564491057385062],[130.56477682537945,31.564478451843794],[130.5645862044753,31.56446806154065],[130.56447259973245,31.56447795689383],[130.56435113101415,31.5645026175],[130.56421596804176,31.564549870518015],[130.56413307985378,31.564591709485132],[130.56403247593687,31.56466009581716],[130.56398615882424,31.564698180974762],[130.56386558565174,31.564824585318043],[130.56345835631848,31.564796677669474],[130.5635532006498,31.563771021364985],[130.5636451509896,31.563705852917856],[130.5631853689032,31.563676321891453],[130.56315620205416,31.563673606539325],[130.56273886705264,31.563645301305268],[130.5624808666527,31.56362701071864],[130.56207544302768,31.563597120557827],[130.56181091355234,31.563578445469517],[130.56133480853183,31.563548130272867],[130.56120687065678,31.56353713825632],[130.56110798280685,31.563531296829833],[130.56078816963333,31.5635083709907],[130.56050268706923,31.56348772708965],[130.56045034826835,31.563484390277964],[130.56025068177428,31.563471617322318],[130.56003576105346,31.56345455234241],[130.5597611203017,31.563435748020805],[130.55946426540075,31.563414250874352],[130.55909800446798,31.563389897994693],[130.55883884726745,31.563371505878774],[130.55858516313398,31.563354124292864],[130.55847153754513,31.56334624562607],[130.55821132296205,31.563328750547573],[130.5580666496461,31.563314991673465],[130.55795084606802,31.563299889331706],[130.55787244424988,31.56328356330526],[130.55777362542673,31.563263197978085],[130.5576532717642,31.563230130615114],[130.55756543852272,31.563203399220896],[130.55744678534063,31.563167180687923]]]}}]}
