{"type":"FeatureCollection","features":[{"type":"Feature","properties":{"potaRef":"JP-1376","nameEn":"Gofuku Prefectural Park","nameJa":"","boundaryStatus":"全国都市公園GIS候補・公開前検証待ち","boundarySource":"国土交通省「都市計画決定GISデータ」都市公園・緑地を、POTA代表地点で空間照合して加工","boundaryScaleNote":"都市計画データは近似・未収録の可能性がある。POTA運用可否は公式情報で最終確認すること。","candidateMethod":"POTA representative point inside one MLIT urban-park polygon","sourceParkName":"富山県五福公園","sourceParkType":"公園","sourcePrefecture":"富山県","sourceCity":"富山市"},"geometry":{"type":"Polygon","coordinates":[[[137.19267275800155,36.696869962055835],[137.1920809523038,36.69649142496064],[137.19070559590085,36.6956067010533],[137.1887691651982,36.69436465260056],[137.18805473643556,36.695127617083045],[137.18802222822475,36.69518907472945],[137.18624956386043,36.69697800698173],[137.18746163616112,36.69777214519336],[137.19006428016644,36.69946994288874],[137.19061973823977,36.69891810130718],[137.19196178163477,36.69758126674368],[137.19267275800155,36.696869962055835]]]}}]}
