{"type":"FeatureCollection","features":[{"type":"Feature","properties":{"potaRef":"JP-1513","nameEn":"Oizumi Ryokuchi Prefectural Park","nameJa":"","boundaryStatus":"全国都市公園GIS候補・公開前検証待ち","boundarySource":"国土交通省「都市計画決定GISデータ」都市公園・緑地を、POTA代表地点で空間照合して加工","boundaryScaleNote":"都市計画データは近似・未収録の可能性がある。POTA運用可否は公式情報で最終確認すること。","candidateMethod":"POTA representative point inside one MLIT urban-park polygon","sourceParkName":"大泉緑地","sourceParkType":"緑地","sourcePrefecture":"大阪府","sourceCity":"堺市"},"geometry":{"type":"Polygon","coordinates":[[[135.53240871702263,34.559857120055135],[135.53226271493108,34.55984944771746],[135.5321710679455,34.55984963747897],[135.53185575181868,34.55987953150498],[135.53177780845581,34.55988498306787],[135.53138742346104,34.559915888799495],[135.53106488005307,34.55993338932045],[135.53063400428152,34.559935542565796],[135.53025706545094,34.55992930851801],[135.53025621413263,34.55992930525377],[135.5302271846903,34.55993665964458],[135.53014086531343,34.55993496873884],[135.5299386533701,34.559946992027776],[135.52985647458382,34.55994938019267],[135.52943904466645,34.559960844091336],[135.52886560997715,34.559983785179774],[135.52876838351588,34.5599878274182],[135.52868924478034,34.559991147356804],[135.52854515200832,34.5599956434062],[135.52844936921161,34.559997943906716],[135.52841179411345,34.55999817040395],[135.52836568364293,34.55999591874578],[135.52833649639496,34.55999283097274],[135.5283027381507,34.55998701562804],[135.52818135205624,34.55995806353687],[135.52798003359663,34.55989868604111],[135.527911115507,34.55988778156011],[135.52782587051541,34.55988316962332],[135.52778135234803,34.559883673547546],[135.52773392387047,34.55988817806114],[135.527438965978,34.55995243006935],[135.5273748746204,34.55996251692675],[135.52732016367074,34.5599683600499],[135.52723936281808,34.55997290074279],[135.52688921178276,34.55997469937358],[135.5266552502771,34.559973780339774],[135.52617076945182,34.559974167264386],[135.52574555713858,34.55997431924169],[135.52542869106853,34.56006558468548],[135.5249869794528,34.560207660535646],[135.52443997185864,34.560411800479585],[135.52406038062887,34.56057142426778],[135.5236486829295,34.56076248382093],[135.52364109517492,34.56077389482946],[135.5235969088456,34.560840345330995],[135.52357488299987,34.56168354816855],[135.5235734658813,34.56174096993575],[135.52355824943749,34.56234547485483],[135.5235546114243,34.56271589819246],[135.52355682770354,34.56295787677805],[135.52356178783918,34.5633111145483],[135.52356970615253,34.563871805162215],[135.523574336812,34.564301941812595],[135.52360003969932,34.56527938749518],[135.52361662928993,34.56561905743127],[135.52363097679333,34.56587415542084],[135.52364971118402,34.56625818875843],[135.52367109260211,34.56667495785326],[135.5236819771628,34.56688758033736],[135.52370406012776,34.567410732236766],[135.5236981059742,34.56835938543755],[135.52369799495764,34.56839797029354],[135.52370221494124,34.56848100788469],[135.52370524535598,34.5685216879992],[135.52370930489332,34.568574262860054],[135.52371664368215,34.56863469377787],[135.52374744140636,34.568832664181826],[135.52377471745004,34.56899969283397],[135.52380237173585,34.56912960559056],[135.52384737065404,34.56930534959002],[135.52389319592015,34.56948588244645],[135.52393594646423,34.569605185897124],[135.52398300784373,34.56970435701207],[135.524012688166,34.5697649200963],[135.52411811981992,34.56992958922494],[135.52425736876668,34.57010675797045],[135.52437338848478,34.57023663709555],[135.52452326329072,34.570381390218095],[135.5247236711446,34.570547330274756],[135.52483231205852,34.570627222749614],[135.52514670864326,34.57084332495785],[135.52572145683655,34.571226138700155],[135.52627085168584,34.571593074636354],[135.52640125246785,34.571680127148554],[135.52708476642755,34.57166259018352],[135.52798273810237,34.571651265667654],[135.52830630623333,34.571641384859326],[135.52933195011744,34.571645896277],[135.52965387326245,34.57164840141566],[135.52994261788587,34.571645848144755],[135.5301191897331,34.571642018479935],[135.53019463001925,34.571634278913656],[135.53023437125995,34.57162302161244],[135.53027879159785,34.57160488002209],[135.53036751543422,34.57164622786036],[135.53037881290064,34.57165285249286],[135.5304029626264,34.571660968949985],[135.5304514641235,34.5716730959772],[135.53057209198792,34.571692246329604],[135.53067254983478,34.57170092300597],[135.53076411328908,34.571700786166495],[135.53096000660213,34.571698630855614],[135.53120578996393,34.571704488375374],[135.53124715035767,34.571705683887615],[135.53126512346088,34.57170746586182],[135.53129090348486,34.571716399799904],[135.5313062421287,34.57172150723639],[135.53132453247565,34.571725003294155],[135.53138097444125,34.57172747376865],[135.5317611623922,34.57174020179149],[135.53178067238179,34.57174000621844],[135.53180224599421,34.57174108061069],[135.53184650575878,34.57173917687565],[135.53189192411668,34.571734753256486],[135.53191837637135,34.571730707673474],[135.53197982277808,34.57171534692349],[135.53207717916177,34.57170698375378],[135.53334635492342,34.57171791924775],[135.53338470784746,34.57171986890181],[135.53343163051483,34.571719281947395],[135.5335061230881,34.5717153753523],[135.5335735119618,34.57171345880344],[135.53364047883932,34.57171440047759],[135.53368247723952,34.57171735560394],[135.5337091985255,34.57172367823448],[135.5337283223756,34.57173407373701],[135.53374161196328,34.57174507805998],[135.53375184819564,34.57175638625266],[135.53376572948622,34.571788308228086],[135.53377131228717,34.571822993269215],[135.53374850654313,34.57198438638645],[135.53374621300142,34.57215918746715],[135.53376639433756,34.57256396101164],[135.53377889468575,34.57267388102571],[135.5337894046646,34.572705474154105],[135.53381299545697,34.57273514503571],[135.53382602212696,34.572742942059584],[135.5338689181555,34.57274620438594],[135.53417451546667,34.572753143108166],[135.5342768712407,34.57275156052853],[135.53439124607473,34.57274022848573],[135.53438898730607,34.57296229411187],[135.53438203662714,34.57311735680032],[135.53438936180603,34.57363730649792],[135.5344034110803,34.574012334697386],[135.53439264315054,34.57450150756738],[135.53440996218433,34.574758774375894],[135.53475812321255,34.574731640935525],[135.53521009553074,34.57469641559891],[135.53523965819454,34.57467218696096],[135.53526105642408,34.57429362746867],[135.53529906018204,34.573434963664575],[135.53532657467778,34.57278104539173],[135.5353507455081,34.57237658114466],[135.53542933165474,34.57084331328891],[135.5354327473362,34.57063442766968],[135.5355236942616,34.568967951419936],[135.53553620233296,34.568708671794575],[135.53557768198365,34.56862163546231],[135.53557663369867,34.56848837596537],[135.53560766032197,34.56773051472321],[135.53566006348098,34.566767488102265],[135.53568343555244,34.56611144544936],[135.53569099429134,34.56587892521902],[135.53569212256346,34.56586220616026],[135.5356907514602,34.565853997057815],[135.5356849302151,34.56584252552365],[135.53567437652708,34.56582959352384],[135.53565847641096,34.56581781315918],[135.5356441162977,34.565813250976205],[135.53562816783077,34.56581017013304],[135.53561356853749,34.565809438446536],[135.53556119958472,34.56581014078059],[135.5352217625505,34.565814715521476],[135.53517804169368,34.56581537267168],[135.53498375407625,34.56582227675685],[135.53388046840442,34.565875225956425],[135.53379118031756,34.56586163257224],[135.5332925307115,34.56573657854704],[135.53283152863014,34.56563414166934],[135.53280001893458,34.56562535776104],[135.5327746837772,34.56560356834166],[135.53273550467634,34.565552849385455],[135.53272169553046,34.56553293513986],[135.53271282762694,34.56552008285998],[135.5327023735711,34.565501590035794],[135.5326935450087,34.565481694800575],[135.5326902300522,34.56547308956415],[135.53268721779304,34.565463640314896],[135.5326853785058,34.565449969679236],[135.5326851316561,34.56544081270563],[135.5326865126547,34.56542983073159],[135.53269305288805,34.56539449932239],[135.53273833129617,34.5652677553957],[135.532760355172,34.56520402891915],[135.53276790432722,34.56516334859209],[135.53280173836214,34.564908361287536],[135.5329282941545,34.563908690946114],[135.53305722961036,34.56291164383787],[135.53306345973925,34.56283480757927],[135.5330983642437,34.56257622299735],[135.53318810679568,34.56183361006638],[135.533221402604,34.56161452241331],[135.53325520596857,34.561376648256825],[135.5332943056081,34.56106847517028],[135.5333214102938,34.56087871698611],[135.5333346167227,34.56075796271247],[135.53335250159384,34.560200558010294],[135.5333646452257,34.559878493480824],[135.53312781348365,34.55979713475868],[135.5331034040025,34.55977756840239],[135.53298516471276,34.559758815135694],[135.53240871702263,34.559857120055135]]]}}]}
