{"type":"FeatureCollection","features":[{"type":"Feature","properties":{"potaRef":"JP-1329","nameEn":"Atagoyama Koiki Prefectural Park","nameJa":"","boundaryStatus":"全国都市公園GIS候補・公開前検証待ち","boundarySource":"国土交通省「都市計画決定GISデータ」都市公園・緑地を、POTA代表地点で空間照合して加工","boundaryScaleNote":"都市計画データは近似・未収録の可能性がある。POTA運用可否は公式情報で最終確認すること。","candidateMethod":"POTA representative point inside one MLIT urban-park polygon","sourceParkName":"愛宕山公園","sourceParkType":"公園","sourcePrefecture":"山梨県","sourceCity":"甲府市"},"geometry":{"type":"Polygon","coordinates":[[[138.58811815612145,35.669995976237985],[138.5881185954928,35.66999372248353],[138.58812134119162,35.66997929850344],[138.58812200000068,35.66997569252862],[138.58811999187256,35.66995766653471],[138.58810870534168,35.66994000787948],[138.58809609881936,35.669927397878695],[138.5880912331486,35.66992253402319],[138.58806868407405,35.66990902991958],[138.5880435983439,35.66989913315923],[138.5880305581059,35.66989391472873],[138.58799498405133,35.66988907331527],[138.58769639979707,35.66988388290268],[138.58754230249605,35.66988120077494],[138.58744951407175,35.66988081751087],[138.5874387989799,35.66988055488019],[138.58738036280855,35.66987888469047],[138.58732423563728,35.66986738783012],[138.5873006924529,35.66985379416607],[138.58726022969302,35.66982281625686],[138.58723678856018,35.66980147069667],[138.58721211677235,35.66976579418912],[138.58720279113263,35.669722715303315],[138.58720141657773,35.66967764763765],[138.58721771929345,35.66963572197532],[138.58724011816253,35.66961290100662],[138.58725854766664,35.66959675307212],[138.58728326738012,35.66957501206132],[138.5873268761714,35.66955343762277],[138.58735680531132,35.66954800767438],[138.58739943809292,35.66954310932259],[138.58774018514657,35.669518884990346],[138.58786211163226,35.66949797436467],[138.5880307296214,35.669446472936826],[138.5881907267639,35.6693907411324],[138.58819536444656,35.669389205401174],[138.5883576823337,35.66933464345997],[138.58837471808022,35.66931699108343],[138.58838842533595,35.66926600836396],[138.58837800009755,35.66922799609099],[138.58834966812915,35.669189059528335],[138.58826311997038,35.66912703640598],[138.58822090252926,35.66910759768028],[138.5881142184958,35.669066528102626],[138.5880340312152,35.66905301207123],[138.58783541200023,35.669053283307875],[138.58770128194487,35.669065630736185],[138.5875810837898,35.66908057285172],[138.5875121638747,35.66908756353382],[138.5874815695958,35.66909065043372],[138.58727192542025,35.66910026697763],[138.58727082091085,35.66910035791546],[138.5872351313994,35.669090558807056],[138.58717975499488,35.66905787906061],[138.5870689832346,35.66897494272444],[138.5870268725138,35.66895171773419],[138.58690324010206,35.668926838981285],[138.58680667575578,35.66890671786984],[138.58670008168076,35.66890706507772],[138.5863845736136,35.66887673527651],[138.58628028324136,35.66886220779975],[138.5862365300556,35.66885214376035],[138.5861575253891,35.668828494195],[138.5860707784822,35.66879547582894],[138.58593295474995,35.66872121096071],[138.5859026781194,35.668701095882106],[138.58581883244642,35.66860231106124],[138.58572692641394,35.66849601446459],[138.58568123625062,35.66843033686157],[138.5856149480055,35.66831536876024],[138.58556471659378,35.66823788634738],[138.58548028661912,35.66809787287511],[138.5854289249526,35.667996054120735],[138.58540884983887,35.66791909106459],[138.58539473830305,35.66784095198953],[138.58539083691338,35.66780778421075],[138.5853868238202,35.66777344472528],[138.58538565216674,35.6677623316205],[138.58491503300834,35.66818185716861],[138.5849525096566,35.668200552261915],[138.58495483073895,35.66820190268458],[138.58504027014988,35.66825295025109],[138.5850491133226,35.66825898320769],[138.58512715464036,35.66831246964531],[138.58514308179392,35.66833219846311],[138.58514596714625,35.668344815651125],[138.58514785348027,35.668352836540905],[138.585146016727,35.668391506760116],[138.58514375478686,35.668445861177354],[138.58514278486342,35.66846866661079],[138.5851418219264,35.66849805206517],[138.58514000172482,35.66855231603168],[138.5851376465435,35.668622895234485],[138.58513604237578,35.66867256204277],[138.5851360440985,35.66867418451366],[138.58513550902458,35.668690409613],[138.5851252636909,35.66871628627239],[138.58510984824548,35.6687624474862],[138.58509220214816,35.66878841951044],[138.5850918711498,35.6687887802937],[138.5850681467564,35.66881196235197],[138.5850401147765,35.66883550799702],[138.58501041870633,35.66885229451004],[138.58497542367508,35.66887205928731],[138.58494042614393,35.668889480485404],[138.58482727358785,35.66895518022994],[138.5847772670729,35.66898559172888],[138.58474470796625,35.66901094323847],[138.5847385273148,35.66901581500414],[138.5846976903932,35.6690475720766],[138.58468731660912,35.669056593106255],[138.58465620114328,35.66908924470034],[138.58463159570306,35.669115131410976],[138.584599279959,35.669161845257506],[138.5845671847189,35.669208198390834],[138.58454214820426,35.66924436104121],[138.58450619274745,35.669296395519666],[138.58448501918133,35.66932958091474],[138.5844350627056,35.66940785515652],[138.58442756377872,35.66941966840463],[138.58439216408058,35.6694751276764],[138.58436492500596,35.669517781719634],[138.5843519119996,35.66953816187202],[138.58432577560043,35.669579012387],[138.58431188314785,35.669603449330396],[138.58427382178226,35.66967000633413],[138.58634766590762,35.6699305842829],[138.58626910745454,35.66997360905088],[138.58623432648025,35.66998715456212],[138.58620518399837,35.67000529303002],[138.58619536179535,35.6700135926947],[138.58615783899975,35.67004552815928],[138.5860541640034,35.670194058456495],[138.58601456288022,35.67024519460895],[138.58593127916743,35.67035287802515],[138.58586142533846,35.67041728589659],[138.5858165086548,35.67045616709794],[138.5856667492724,35.67058580105199],[138.5856181903984,35.670627749438076],[138.58552956968532,35.67070370803241],[138.58544315604848,35.67077777211113],[138.58537625967875,35.6708193728599],[138.58535815524206,35.670830202171956],[138.58531322523072,35.67085700479363],[138.58523880821963,35.670890137887014],[138.5851997246415,35.670909364793694],[138.58517631457244,35.67091704302654],[138.58511745822952,35.670936464166125],[138.58492199387445,35.67098915222669],[138.58487439771642,35.671001985282196],[138.58479753722835,35.67102286115123],[138.58472398965066,35.67104283326714],[138.58463707976364,35.67106642022327],[138.5843930251441,35.67113275230123],[138.58435127959203,35.67114197555701],[138.5840550783141,35.67121187685033],[138.58405825326767,35.67127952267868],[138.58410773584126,35.671379837981505],[138.58413063535144,35.671411730587884],[138.58418403136366,35.67145162409198],[138.5842340875592,35.671466822288906],[138.58429463709928,35.67148129202114],[138.58434136661145,35.67148432396701],[138.58439195382965,35.671479240834316],[138.58440554984577,35.67147723025661],[138.58439364292514,35.67160421501241],[138.58439381852276,35.67177103198034],[138.58443349646535,35.6727456406099],[138.5843283341802,35.672746795952946],[138.5842141113305,35.672745704109445],[138.58413722355226,35.67274233264325],[138.58402420364803,35.67272961207002],[138.58399724367533,35.67272359168244],[138.58368245317413,35.67265332351399],[138.58357816644585,35.672625345224134],[138.5833687327487,35.67212435414924],[138.58302451095417,35.671642609854814],[138.58270400075963,35.67118417578542],[138.58251098109844,35.67067345501542],[138.58233613672007,35.67074531498348],[138.5821358752355,35.67078559891023],[138.58192432807323,35.6707431801871],[138.58171338502802,35.67078388530983],[138.58161478805297,35.67076458167052],[138.58128783127327,35.670832964669394],[138.58115029861474,35.670554253716865],[138.58122237219624,35.67020193947584],[138.58191308339346,35.67009490223722],[138.5819652919429,35.67008811542499],[138.5820051635153,35.67008295045065],[138.58202106803174,35.67008095659711],[138.5820324454452,35.67008076857207],[138.58211341279087,35.67007936132559],[138.58217223292374,35.670078401799465],[138.58252731563422,35.67002669055166],[138.58263939719163,35.66997959805604],[138.58280975980855,35.669762781878326],[138.58268100388528,35.66939692182042],[138.58254353110962,35.66911430039269],[138.5823184717009,35.6691618126143],[138.58200333322878,35.66883339592233],[138.5819625024209,35.66881807333248],[138.58188970614177,35.668804476067116],[138.58174755473513,35.6688045996959],[138.5817152876518,35.668770522641324],[138.58169693555848,35.66873346160568],[138.58169834550904,35.6686862286823],[138.58174374242705,35.668651513024194],[138.58187119645945,35.668613163133216],[138.58184179308648,35.66852768785112],[138.58162199079771,35.668529820062886],[138.58152003758613,35.66843343315452],[138.58143060247193,35.6683832691386],[138.5812495646424,35.66832365740849],[138.58105441616448,35.66834630523422],[138.58085657584255,35.668065696453624],[138.58067316772375,35.6678338419753],[138.5805954136103,35.66775496977287],[138.5804766270893,35.66765698878768],[138.58026117596515,35.667655861647624],[138.58020559748124,35.66772653031271],[138.5801543362395,35.66776243911316],[138.5797723434474,35.6697130395178],[138.57967125099887,35.6697262574835],[138.579569440089,35.669761307099705],[138.57943479655086,35.669804184185665],[138.57912458362307,35.66968919292306],[138.57868732405433,35.66954581857788],[138.57859200432765,35.66953196362495],[138.5785302509491,35.66952641539974],[138.57852163416848,35.66952560978302],[138.57838299247265,35.66951272033505],[138.57830367339415,35.669504749718655],[138.5782685431711,35.66950116706492],[138.5781222777952,35.66948629925045],[138.5781065906213,35.66948459681761],[138.57807829853198,35.669481586551534],[138.5778587913616,35.66925579044129],[138.57764964621816,35.66906377071481],[138.57763924964345,35.669050076543094],[138.57760850221948,35.669009444423956],[138.57758826192816,35.668982596540026],[138.57757410509234,35.66896412750628],[138.57753229834577,35.66890971147805],[138.5774904915689,35.66885520529745],[138.57748761593894,35.66885142137961],[138.5774416040683,35.66878898580119],[138.5774174920338,35.66875619131277],[138.57740797504405,35.668738169962324],[138.57738949416154,35.668702938139646],[138.5773892728931,35.66870257773246],[138.57736767705092,35.668644453022466],[138.57736136447286,35.668627511257235],[138.5773370211671,35.668583900418824],[138.57731057567142,35.66853668543095],[138.5772749558646,35.66848307657304],[138.57725352708002,35.66844915361118],[138.57724611305883,35.66846984488886],[138.57722096318295,35.66850618637085],[138.57719901228543,35.6685380189292],[138.57711486055555,35.66867246763264],[138.5770608378041,35.66877940510724],[138.57704618598788,35.668820426974015],[138.5770288090143,35.66889930826564],[138.57702929969494,35.66895014541222],[138.57702966164427,35.66898196366192],[138.57702784321583,35.669043799040345],[138.57702751365218,35.66904569213529],[138.57702202213417,35.66907850563946],[138.5770163105559,35.669112220657354],[138.57701054962632,35.669094557423485],[138.57700523192736,35.66907833610328],[138.57699167150162,35.668990641142926],[138.57698022352835,35.66891718652925],[138.5769756298337,35.66884967659678],[138.57696577165993,35.66870627438472],[138.5769634063132,35.66865868337843],[138.57696036618322,35.66859856371187],[138.57695851680788,35.668513114689034],[138.57695816925022,35.668496259227155],[138.57695723728173,35.66845745569446],[138.5769073425569,35.66845749658535],[138.57690857844057,35.66850223997555],[138.57690892520972,35.66851828420193],[138.57691066026803,35.66859976725528],[138.57691370070668,35.66866024747227],[138.57691617691648,35.668708289095456],[138.57692603612605,35.668852863096376],[138.57693063029805,35.66892091385448],[138.57694230096408,35.668996261214694],[138.5769563053426,35.669086209330295],[138.57697199157903,35.66917909484504],[138.57696847823848,35.66932797692927],[138.57703015180454,35.669457681170925],[138.57678393324335,35.669492036531445],[138.57684789660325,35.66983275089085],[138.57717249426557,35.670400814050524],[138.5773532138852,35.670426558488906],[138.57758863655192,35.67051123525331],[138.57770493358603,35.67050170485611],[138.5780303375723,35.670459120873886],[138.57815288096668,35.6704097453016],[138.57841741278253,35.67042810555202],[138.57853767837418,35.670399255338765],[138.57859675596967,35.670412746403215],[138.57881430883205,35.67036440778039],[138.57889203517018,35.67034689728233],[138.57897075733024,35.67034232078622],[138.57924021292936,35.67038019072938],[138.57957443006222,35.67041506078522],[138.5796618346768,35.67036607645669],[138.57995248869477,35.670348793782324],[138.5800142026666,35.67032519089449],[138.5801481939497,35.67095528779575],[138.58029667201308,35.671654356895424],[138.58034354560277,35.671889394683376],[138.5804038613698,35.672111732137935],[138.58045384979312,35.67235690822955],[138.58022788221675,35.67332861268981],[138.58033362836463,35.67336912198541],[138.5815384654729,35.67240113912239],[138.58166598036686,35.672416592373466],[138.58175249767967,35.67247154444882],[138.58193148880386,35.6726699231147],[138.58200415698946,35.67279244232083],[138.58187768131052,35.67308131019984],[138.58230521891184,35.673414652818884],[138.58250177709218,35.67359089890904],[138.5825428340673,35.67361957047643],[138.5828513443289,35.67362816500141],[138.5828535008431,35.6735984272332],[138.582943709396,35.6736742967599],[138.58282244544844,35.67369165053191],[138.58261398796816,35.673685889747034],[138.5825399522404,35.6736638118224],[138.5824211662818,35.67358796155779],[138.5823617786096,35.673555120119424],[138.58225030957266,35.67346132736293],[138.58192651147073,35.67353927347862],[138.581057175914,35.67325047612937],[138.58088306236948,35.67352801770795],[138.58139175576918,35.67369533925709],[138.58207046811566,35.67370811972393],[138.5827044760353,35.67457891660506],[138.58292261856488,35.67436590744631],[138.58380765646942,35.67423974249983],[138.58439284025508,35.67466144652749],[138.58456033651188,35.675063115791254],[138.58456633235178,35.67518628412266],[138.58460745019846,35.675271155504475],[138.58466174143518,35.675329706548816],[138.58474241159112,35.67538704919378],[138.58481425214248,35.67542048459473],[138.58544399835355,35.675641425419265],[138.58552443709212,35.67567777473921],[138.58559133567923,35.675737992956655],[138.58577297023908,35.676109490488685],[138.58585927720705,35.67629174954182],[138.58597918321072,35.67647812183786],[138.58601403769862,35.67670544103942],[138.5861035880739,35.67682073464388],[138.58611500946375,35.676953147058605],[138.58613077434944,35.677138746330975],[138.5861748881221,35.67735671160802],[138.5862101537598,35.67744158659834],[138.58627034257353,35.67753720610425],[138.5863642830774,35.67767585090172],[138.58657993850895,35.677871807529804],[138.5869569420161,35.678190810808495],[138.58710807853518,35.67836170082984],[138.58715945720888,35.67844058777267],[138.58719483104264,35.678623522627966],[138.5874244879886,35.678586381816665],[138.58736311384231,35.67837826353779],[138.58731171807133,35.6782838280277],[138.58700800111657,35.6779755353099],[138.586780133105,35.677786078134126],[138.58659282926212,35.67759437397861],[138.58649891684223,35.67748203137437],[138.58640785670968,35.67730990765118],[138.5863593580551,35.677185580138435],[138.5863436418834,35.676932891734566],[138.58625547373893,35.676685816709394],[138.5862117753022,35.676525196440075],[138.5860315288043,35.67619404402828],[138.58597998029336,35.67606772648518],[138.58580582451796,35.67570732884111],[138.58572925985348,35.67559562222321],[138.5856245216798,35.67551122914799],[138.58554413795625,35.675464207605856],[138.5854708677825,35.67543717339956],[138.58535646945023,35.67538901310171],[138.58521134204446,35.6753544310863],[138.58504275542484,35.67530313599546],[138.58491931454856,35.675238315291466],[138.58480519310808,35.67516936862458],[138.5847719035648,35.67511224505488],[138.58477993815944,35.67496930877014],[138.58511743673503,35.67524448500515],[138.58772888469554,35.675323247378934],[138.58839664472703,35.67598949508338],[138.58861638532022,35.67590323447865],[138.58865532092554,35.675329229948225],[138.5899413244416,35.67424250098256],[138.5901703554455,35.66961457323305],[138.589857356568,35.66955985048553],[138.58969520727013,35.67004108833037],[138.5895138463614,35.6700175532291],[138.58940917229214,35.67000748153509],[138.58931385206643,35.67001515986366],[138.58920613143684,35.67005667583856],[138.5890683828426,35.6701142764014],[138.5889296107017,35.67018539815923],[138.58881673069638,35.67025650967497],[138.58811815612145,35.669995976237985]]]}}]}
