{"type":"FeatureCollection","features":[{"type":"Feature","properties":{"potaRef":"JP-1789","nameEn":"Banna Prefectural Park","nameJa":"","boundaryStatus":"全国都市公園GIS候補・公開前検証待ち","boundarySource":"国土交通省「都市計画決定GISデータ」都市公園・緑地を、POTA代表地点で空間照合して加工","boundaryScaleNote":"都市計画データは近似・未収録の可能性がある。POTA運用可否は公式情報で最終確認すること。","candidateMethod":"POTA representative point inside one MLIT urban-park polygon","sourceParkName":"バンナ公園","sourceParkType":"公園","sourcePrefecture":"沖縄県","sourceCity":"石垣市"},"geometry":{"type":"Polygon","coordinates":[[[124.17409586144157,24.373280486430115],[124.17408588249269,24.37323742876573],[124.17396981248012,24.373196487803476],[124.17389180255611,24.37316443910818],[124.17375679579048,24.373069525829106],[124.17369191988927,24.372953578458826],[124.1736848216195,24.372877560195118],[124.17363885863391,24.372624524392847],[124.17360482426251,24.372471518951265],[124.17357875861286,24.372377555563737],[124.17354481552573,24.37228956118511],[124.17352589432446,24.372246604756135],[124.1734707886505,24.372140577629118],[124.17338177421283,24.37202962580823],[124.17317588707773,24.371768659024497],[124.17307787116613,24.371615641291154],[124.17297587581093,24.371407639673546],[124.17288179699803,24.371105723182318],[124.17285078324089,24.371019711438535],[124.17281481043163,24.370933705736487],[124.17278276109884,24.3708627742329],[124.17267082622595,24.37069677089466],[124.17237578217033,24.37027780771176],[124.1721928472185,24.370032883606658],[124.17212383505887,24.369922809515245],[124.1720948026238,24.36979986514803],[124.17211284901217,24.369682913232765],[124.1722638097911,24.369504851682056],[124.1723528159537,24.36932189924105],[124.17242477186534,24.369038832097598],[124.17238472367339,24.36888682669629],[124.17218574157269,24.368617903914412],[124.17203469341558,24.36844291811118],[124.17191572758865,24.36836288192232],[124.1713896948494,24.368209027133982],[124.16924790321039,24.36768817148934],[124.168107924869,24.367880320363806],[124.16687197411872,24.368042325729874],[124.16556616475143,24.36806742753105],[124.16421121060903,24.36812164981443],[124.16384423216331,24.368112685408086],[124.16175631882851,24.368374841320783],[124.16148726779636,24.367611800580917],[124.15818136258495,24.367080031877702],[124.15719340906782,24.366989106477952],[124.15721848298517,24.36834302868316],[124.15723947792179,24.368485037253183],[124.15722143227246,24.368486953135776],[124.15720947462954,24.368923986226932],[124.15719645382474,24.368977002670402],[124.15718348980012,24.36901096714457],[124.1570614729596,24.369209926383917],[124.15694453514439,24.369375922869953],[124.15682249704862,24.369558990238144],[124.15670060562076,24.36972995800539],[124.15657652000391,24.369901921256286],[124.1565345666668,24.369963005175727],[124.1564936495983,24.370008015739607],[124.15643662884318,24.37004798736195],[124.15639463437591,24.37007701714494],[124.15631761007907,24.37011394047159],[124.15627859927181,24.3701239150879],[124.15612460780349,24.37017898049869],[124.15595663515477,24.37023595704704],[124.15584360671137,24.370282038733578],[124.15578064302481,24.370315966862837],[124.15573158535707,24.370352949892734],[124.15569466420565,24.37040797843606],[124.15567362944307,24.370488994255375],[124.15564663316253,24.370676923753273],[124.15562164654298,24.370846972995245],[124.15564267820561,24.371146994809436],[124.15569662722451,24.371311902311277],[124.15580974576591,24.371654894454895],[124.15589864611127,24.371940847399284],[124.15590870603812,24.372244854113966],[124.15587272576528,24.372598843211804],[124.15575270260939,24.37284077883175],[124.15559681286146,24.37307282092769],[124.15552479703764,24.373216826513193],[124.15551373032933,24.373469750419293],[124.1555247024916,24.37379280849692],[124.15551373730365,24.373996793238863],[124.15547479697044,24.37412974730587],[124.15539378741414,24.3742337626723],[124.15529981711151,24.3743107942807],[124.15522875010166,24.374368749185315],[124.15497379072119,24.37456776042035],[124.15485485960158,24.374709739810587],[124.15456683060796,24.375122781959867],[124.15439278270982,24.375401795860395],[124.15397985011835,24.375864723648974],[124.15379389007482,24.376045691162982],[124.15366685226417,24.37627472186119],[124.15363597139022,24.37668170847093],[124.15365194723503,24.377175687849988],[124.15367397485113,24.377434626340982],[124.15376795033139,24.377622697246938],[124.15415793862971,24.377732706411003],[124.1541579480057,24.377871668202737],[124.15415794251966,24.37799862096368],[124.15410698775341,24.378148563236227],[124.15410690102928,24.378275606382907],[124.15416998362153,24.378333597094723],[124.15425894413922,24.378541537414677],[124.15423296049676,24.37863447753418],[124.15401696578343,24.378725545958332],[124.1540679490359,24.37879555877113],[124.15420793659875,24.378714594934372],[124.15435995398494,24.37856553667572],[124.15487993264593,24.379445425449248],[124.15491700746284,24.37964141229008],[124.1547639763453,24.3802184633232],[124.1553609908276,24.38020941674869],[124.15531091410148,24.379954392462565],[124.15576795732703,24.379910372745016],[124.15586890091019,24.379945386606533],[124.15595796649393,24.380234408457873],[124.15607198179535,24.380384351194202],[124.15618596991345,24.38051235266109],[124.1563889290617,24.38059330418846],[124.15659194217237,24.380652314041793],[124.15688385966642,24.380676191938825],[124.15713790985231,24.38078119469503],[124.1572899100188,24.381070147464495],[124.15750587905676,24.38127920991582],[124.15790494643029,24.381485180226193],[124.1583979327669,24.381762106483695],[124.15879595082416,24.382227038019696],[124.15919396472619,24.382431922777215],[124.15956791390062,24.382573989002303],[124.16005387780797,24.38269498076786],[124.16034088494989,24.38294287646383],[124.16054685282616,24.383334881195566],[124.16096094596153,24.383582813608182],[124.16119994031872,24.3838588432062],[124.15874395489043,24.384938885529653],[124.15887196383665,24.385025876670916],[124.15882399635895,24.38515694606888],[124.15883892020454,24.38544686239382],[124.15891798505977,24.385663840451077],[124.15902993396782,24.385780826830448],[124.15922104447806,24.385998853897867],[124.15922095593854,24.38605682252146],[124.15896501627039,24.386200854769104],[124.1589179930663,24.386243796518883],[124.15891703686076,24.38657779375132],[124.15894898134958,24.386824801637076],[124.15880504740394,24.386939724743314],[124.15875707173814,24.38712876256952],[124.15886806262802,24.387258752441184],[124.15899604541788,24.387259693755215],[124.15910708233262,24.38736178268135],[124.1592660549125,24.387434653328675],[124.15928204669028,24.387477705589227],[124.15913905240419,24.38756472720544],[124.15910707580316,24.3877386683047],[124.15926607405389,24.387767656234594],[124.15940902925621,24.38784063487682],[124.15961605706399,24.38791363222789],[124.15993507549999,24.38794370500305],[124.16012596925711,24.387799563458174],[124.16026998211468,24.387872630421153],[124.16028503035511,24.38800362967432],[124.16038105100823,24.388061580942797],[124.16039706251966,24.388119621828054],[124.16044406585327,24.38825058525933],[124.16053997961548,24.388351606634902],[124.16069901756852,24.38841057056027],[124.16084297455548,24.388439573767034],[124.16097000730196,24.388396541511923],[124.16404688034703,24.387420392593903],[124.16454080976101,24.387465328321948],[124.1661087690217,24.386794334222717],[124.16627776542913,24.38688325619581],[124.16644275926829,24.38695818714485],[124.16657470461034,24.3870051656544],[124.16670770041671,24.387047176659557],[124.16681367913247,24.38707224408576],[124.166900708775,24.387094173439795],[124.16699066034299,24.387112216676975],[124.16710565629832,24.38713122361073],[124.16723771760827,24.387143167445597],[124.16733570532175,24.38715117840957],[124.16743873138036,24.387157106613028],[124.16754574035063,24.387162127109207],[124.16763176490521,24.387162115860605],[124.16775470768025,24.387165130934573],[124.16801470710651,24.3871461327357],[124.16824566694878,24.387118048837785],[124.1685196228044,24.38707808510973],[124.16874365360249,24.387037096684402],[124.16884362773882,24.38701106360142],[124.16890361295937,24.386996003540176],[124.1689346484416,24.386978088489116],[124.16898962612561,24.386928000407696],[124.16903062290875,24.386880998927396],[124.16929861704759,24.386584065136354],[124.17353139599086,24.38556568749934],[124.17424633098497,24.385333752735903],[124.1750482054688,24.384430736066538],[124.17508927990556,24.384383642607055],[124.17543525771345,24.383995766694614],[124.17546416141312,24.38396674658951],[124.17584917321963,24.38352969871534],[124.17609513858399,24.383255712610392],[124.17781195516477,24.381373648975412],[124.17818989424356,24.3810056774273],[124.17857086651996,24.38093756667696],[124.17868589684296,24.380927579320254],[124.17884488361113,24.380841599173216],[124.17913287122389,24.380624529394918],[124.17924383870145,24.380392514638295],[124.17937276648411,24.379987565945058],[124.17934084474939,24.379784626928497],[124.17924584659913,24.379479646070564],[124.17905477249381,24.379246660396355],[124.17880380828208,24.379033705087476],[124.1787468053642,24.378296802557777],[124.17851474390028,24.377997773255867],[124.1780627621637,24.377810894402582],[124.17785675021999,24.377758783699075],[124.17730184765149,24.37763189662665],[124.17678390608398,24.37731200429773],[124.17676089490331,24.377309956351965],[124.17671390997668,24.377314981286776],[124.17664980614984,24.37734494859659],[124.17660285837907,24.37737597794621],[124.17654184690261,24.377408018090392],[124.17649487044112,24.377419002309797],[124.17644291602933,24.377416990486804],[124.17641291306259,24.37741504151744],[124.17585789094015,24.377259074859413],[124.17558187683778,24.37714709345067],[124.17532789755582,24.37663517415686],[124.17516984129492,24.37622823620977],[124.17458888951172,24.37566732672829],[124.17400990226244,24.375516254403387],[124.17385192769711,24.375336312841984],[124.17384089989442,24.375125401221933],[124.17382689219863,24.374992416361184],[124.17382196492984,24.374899420305404],[124.17369496084558,24.37465740923975],[124.17362789313582,24.374544444149667],[124.17362093776615,24.37451239854754],[124.17355486961006,24.3744164073508],[124.17356194831207,24.374420461886565],[124.17352086293022,24.374341505538364],[124.1735128675509,24.37420544335077],[124.17355888411709,24.37409044369309],[124.17371294782815,24.373860458615614],[124.17375385908569,24.373757474125775],[124.17382381610751,24.373612467620266],[124.17388091679815,24.373517499328646],[124.17399485856305,24.373374425204563],[124.17409586144157,24.373280486430115]],[[124.17165244229578,24.385140968291914],[124.17176541429937,24.385049906207524],[124.17194141575064,24.38497086721605],[124.17202843528625,24.384868910777637],[124.17207937041309,24.384719954955195],[124.1721324019201,24.384499935479667],[124.17204236977021,24.384422933610182],[124.1706123923364,24.383509168594454],[124.17027345757472,24.383353186181992],[124.17001145318429,24.38350419986799],[124.16977242722609,24.383811213168876],[124.1696715654731,24.384256120298023],[124.16949551365602,24.384358181619938],[124.16937054538558,24.384358150006385],[124.16924452601396,24.384243175671962],[124.16913249294059,24.38412917781279],[124.16878158325912,24.38395623110716],[124.16846852964807,24.38387831796166],[124.167802555366,24.383942311712918],[124.16737658441637,24.383997261414383],[124.16696262662037,24.383916394032706],[124.16663664131121,24.383652396887896],[124.16656164049756,24.383321468028463],[124.16634757400142,24.382965419839447],[124.16620959456795,24.38296251143243],[124.16614257875223,24.38294751080891],[124.16600462175056,24.38290044854161],[124.16591267057876,24.382843490370444],[124.16583062804251,24.38277848442303],[124.16579267710718,24.38273148569752],[124.16575867829533,24.382660554500074],[124.16570360560124,24.382455561650218],[124.16566763157847,24.382366573978942],[124.16561071013115,24.38229955212033],[124.1654846130958,24.382182588141383],[124.1653676705501,24.38204060201112],[124.16533166202998,24.38198655798005],[124.16532059430163,24.381917586423025],[124.16530863262686,24.381787667603827],[124.16501964471622,24.380659692625354],[124.1649996656128,24.380614659241477],[124.1649456137098,24.380564699286996],[124.16486863016773,24.38051169595594],[124.1647616483814,24.38046071419964],[124.16468963398323,24.380414748564405],[124.16466063980546,24.38037676903771],[124.16465359759397,24.380338764043927],[124.16465567066031,24.380307791294822],[124.16468456327016,24.380268751392652],[124.16473159318974,24.38023474681644],[124.16484865785857,24.38016373124005],[124.16492762152649,24.380115784444083],[124.16499354474055,24.380043744642286],[124.16503961269365,24.379958725761966],[124.16506856453607,24.379841672902003],[124.1651005676228,24.379695722850553],[124.16513858309541,24.37954678612875],[124.1651985131733,24.37936983316348],[124.16524056241921,24.379258814584194],[124.16524459770346,24.379174837760544],[124.16522752192598,24.379111743119648],[124.16519162114264,24.379076751403197],[124.16510658847704,24.379022765143347],[124.1650075864331,24.37897981079286],[124.16491558041245,24.378939827904208],[124.16484454523565,24.378895847715604],[124.16472761936134,24.378762802049486],[124.16468661229173,24.378677884377634],[124.16468161155184,24.37858488883839],[124.164764561195,24.37829287654819],[124.16478757446625,24.37823488195659],[124.16478556640006,24.37819181472884],[124.16477453526275,24.378149841502665],[124.16473056631197,24.378099870525844],[124.1646355987187,24.378032893501036],[124.1645505593262,24.377972947717765],[124.16447953933212,24.377939892804818],[124.16443157375802,24.377879994217448],[124.16441156497203,24.37774990585812],[124.16439253209055,24.377619996950777],[124.16432054419961,24.377468930737727],[124.16424456786972,24.377376017535855],[124.16421565456578,24.377336954390795],[124.16417759368693,24.37726602857772],[124.16416060276752,24.377204920220635],[124.16415758023346,24.377132057637418],[124.16420157297159,24.377014987476745],[124.16425060377485,24.376896015304247],[124.16430156728839,24.37676304551375],[124.16430052436789,24.376650000432228],[124.16428055953902,24.376553049389553],[124.1641975655432,24.37637806842062],[124.16399256209955,24.376034110946303],[124.16396762391715,24.37592614996355],[124.16396951479805,24.375818157881017],[124.16397356915743,24.37568605517669],[124.16397253981526,24.375521091873512],[124.1639755125682,24.375432150259],[124.16398053865014,24.375359097751915],[124.16398950263563,24.37531312844397],[124.16409549626968,24.375049170593567],[124.1641734857264,24.37481919515066],[124.16417655394174,24.37474117879886],[124.16415047105606,24.37462816278323],[124.16412549122556,24.37455026929825],[124.164120458373,24.374494203451853],[124.16413546322224,24.374405247834506],[124.16417449563801,24.374288183304962],[124.1642244863395,24.374158194179646],[124.16424953270423,24.374039249722333],[124.1642474199493,24.37391627366555],[124.16421645257488,24.373736266234523],[124.16400546815342,24.37285733248058],[124.16399340846021,24.372526333856133],[124.16419543580908,24.37203635049688],[124.16437142775239,24.37184336865201],[124.1645843654928,24.371798334826273],[124.16472235003799,24.37169532939217],[124.16493634186881,24.37146835218267],[124.16576425719029,24.370980338847403],[124.16615326328348,24.370981326478326],[124.1666802460647,24.37099415944669],[124.16691818319045,24.371040199165463],[124.16744514188916,24.371213210264244],[124.16767117991323,24.371237140947123],[124.16803518177186,24.3712041127099],[124.1683110620067,24.371056064291405],[124.16870006386702,24.370818038427906],[124.16916403405584,24.371002044138354],[124.16965300725825,24.37133500263186],[124.17029201229211,24.371986785681706],[124.1712309624994,24.372903753457976],[124.1714440774349,24.37328074027112],[124.17133106248704,24.373508686605714],[124.17120503943434,24.373736738823155],[124.17117905600175,24.374113653662594],[124.17125410338824,24.37429658710826],[124.17141702650775,24.374296570707962],[124.17234500281972,24.37449345833841],[124.1727709397905,24.37473447434129],[124.17300994571993,24.374724431329426],[124.17338595786737,24.374668441856755],[124.17359891278353,24.37469138678521],[124.1736069434744,24.375084423594085],[124.17337196715854,24.37559233956279],[124.17335901611611,24.375923370430694],[124.17358398087273,24.37639225934288],[124.17358397405735,24.376735283429674],[124.17340705007331,24.377248184514176],[124.17319407898704,24.377624244624577],[124.17285407553308,24.378148268759027],[124.17287811146386,24.378593204331747],[124.17290310171306,24.378673263999634],[124.17275312594475,24.378809247195015],[124.17245113076702,24.37895724302597],[124.17232612863229,24.379162269671827],[124.17233820460484,24.379310245482706],[124.17252613394072,24.37968825564941],[124.17270118558949,24.379984204833974],[124.17258220831752,24.380254145056554],[124.17218622744417,24.38040622675805],[124.17188425742876,24.380576162777903],[124.17138236317587,24.381042232083207],[124.17108031759271,24.381395192468958],[124.1709673391891,24.381715148560012],[124.17096734630451,24.38189718064151],[124.17116732395043,24.38228610597459],[124.17143036674558,24.382595135406152],[124.17174333705097,24.38279006317543],[124.17215729217219,24.382928073416505],[124.17244524312957,24.383020998120934],[124.17262533188654,24.383252021841813],[124.1727303175453,24.38361595845609],[124.17305335352287,24.38396996857352],[124.17342229731184,24.384416834163538],[124.17354937683184,24.38464674742804],[124.17352130372277,24.38480479549437],[124.17336038039478,24.384966797770076],[124.17322034726662,24.385008864522515],[124.172957334262,24.385019839079757],[124.17273141266269,24.385041874274716],[124.17260531894229,24.38510992810777],[124.17237937763896,24.385234807255582],[124.17199037868122,24.3854508993067],[124.17190248391094,24.385449831741845],[124.17157646380002,24.38528995419094],[124.17165244229578,24.385140968291914]]]}}]}
