{"type":"FeatureCollection","features":[{"type":"Feature","properties":{"potaRef":"JP-1546","nameEn":"Kabutoyama Forest Prefectural Park","nameJa":"","boundaryStatus":"全国都市公園GIS候補・公開前検証待ち","boundarySource":"国土交通省「都市計画決定GISデータ」都市公園・緑地を、POTA代表地点で空間照合して加工","boundaryScaleNote":"都市計画データは近似・未収録の可能性がある。POTA運用可否は公式情報で最終確認すること。","candidateMethod":"POTA representative point inside one MLIT urban-park polygon","sourceParkName":"甲山森林公園","sourceParkType":"公園","sourcePrefecture":"兵庫県","sourceCity":"西宮市"},"geometry":{"type":"Polygon","coordinates":[[[135.33578850563566,34.777911132950415],[135.33604604557152,34.77798572586511],[135.33621542707928,34.77797982321141],[135.336414221696,34.77793978313379],[135.33660761896766,34.77745392611137],[135.33698827513228,34.777085517429235],[135.33701001442623,34.77706730902791],[135.3376756798563,34.77676884487693],[135.33801339954428,34.776698448685245],[135.3383372753484,34.77705410471883],[135.3386896894691,34.77706020924698],[135.3390598264117,34.77696024503678],[135.33991559964014,34.77701402006753],[135.34018333829434,34.77657910613097],[135.34042393478185,34.77639222689885],[135.34033524904194,34.77605275039711],[135.34042934851905,34.775704910668],[135.3407274221871,34.7752855200528],[135.34090193057716,34.77524351018276],[135.34103689024735,34.77512962067809],[135.3410387996719,34.775044056517196],[135.3410981331001,34.77477538160918],[135.3410559356658,34.77467431691262],[135.34119763478526,34.77441397466519],[135.34131269118038,34.77444231941452],[135.34159233424234,34.77431370933585],[135.34178665969648,34.77412279351453],[135.3416163544791,34.77402513398018],[135.3415721942209,34.7740052169309],[135.3415636724602,34.773978243770046],[135.34149435698174,34.773884164743265],[135.3413842694829,34.773806198818285],[135.34113250318575,34.77377447868496],[135.3409161837473,34.77371992819261],[135.34073273868,34.77348481364107],[135.3406374569214,34.77349236302776],[135.34051751553923,34.7735203991744],[135.3403949523825,34.77354845689222],[135.3403459314762,34.77356004049221],[135.34028817134197,34.773526713597114],[135.3402276253182,34.77347988784352],[135.34011254433628,34.77344937875226],[135.33995906434262,34.773414499494514],[135.3397924515106,34.77340469901341],[135.3395213514798,34.773346091621484],[135.33915431427047,34.773267993512114],[135.33888201225284,34.773110234195315],[135.3389550601985,34.77280989587071],[135.33926613348288,34.77257069297144],[135.3393869958934,34.77218657436246],[135.33926557874383,34.77206588081203],[135.3392656013519,34.77185169408043],[135.33936778918496,34.771711213721915],[135.33898284611124,34.77172340883915],[135.33855308762347,34.77166151231658],[135.33824329861415,34.771546970438244],[135.33748562301543,34.771010093517496],[135.33723821155934,34.770877095472976],[135.3369466394152,34.77069677380396],[135.33670862222797,34.770446237109184],[135.33677916017524,34.77039832912244],[135.33694219133082,34.770329375803186],[135.3370764960542,34.77016158877582],[135.33742773319736,34.770289403890146],[135.33759453268695,34.770071677895984],[135.3376807450198,34.76953225479427],[135.3378715196493,34.769508234457135],[135.3379722862823,34.76992658137121],[135.3380681644147,34.77018486941277],[135.33784306400298,34.770297245839004],[135.3379169600939,34.770553551860786],[135.33783522597022,34.771002702061814],[135.33830007302822,34.7714991751905],[135.33862641109909,34.7716271021475],[135.33892194711046,34.77167433167346],[135.3394160137975,34.77163410106541],[135.340028476849,34.77103407530434],[135.33997702515865,34.77084537474779],[135.33994919553135,34.770793680846786],[135.34018844200313,34.77071282474979],[135.34021263522195,34.77068098345869],[135.3404229364897,34.77067248298739],[135.34062764051967,34.770661864965064],[135.34080222239552,34.770653659381914],[135.3407843585246,34.770532110307784],[135.34063451153511,34.770337283017575],[135.34057352266737,34.77003805263461],[135.3400386105313,34.77006041616419],[135.34002001125714,34.769878204863005],[135.34051117210117,34.76984250122024],[135.34055384452049,34.76952438397877],[135.34052611775093,34.769265353829645],[135.34054689028451,34.76895201518351],[135.34040969364966,34.76890798708913],[135.34034090580874,34.76888385612269],[135.34020630392206,34.76881059906608],[135.34010731088,34.76875498642113],[135.3398682564419,34.76863526613512],[135.33977863358265,34.768676572730264],[135.3396999880399,34.76870426663406],[135.3396234721711,34.768718420999875],[135.3395389559976,34.768721463349564],[135.33938589523217,34.76872038450884],[135.33928046162853,34.76880914799094],[135.3390381891615,34.768856312717666],[135.3388499559593,34.76887355293653],[135.3386177035859,34.76888223191507],[135.33847592286722,34.76889250731728],[135.33823602317986,34.76891918774179],[135.3380612545595,34.76893874954108],[135.33788943618362,34.768958376892144],[135.3375896500593,34.76899231112641],[135.33743675252117,34.76900475037906],[135.33727050463264,34.76902433091444],[135.33723500322955,34.769042562705124],[135.3371320511714,34.769092901723276],[135.33688756165776,34.76920074866625],[135.3367734697493,34.769251359503706],[135.33665640008127,34.769299650982155],[135.33654531059713,34.769354654013085],[135.3364990233071,34.7693753182651],[135.3363279920869,34.76946011243363],[135.33621119393965,34.769503803808384],[135.33605856887058,34.76953886571986],[135.3357752205696,34.76960439147958],[135.33568829860218,34.769625390012045],[135.33551934164578,34.769665002867825],[135.33536922967554,34.76969111878473],[135.33531753532574,34.76969830520675],[135.33520024607768,34.769701433993646],[135.3351566362802,34.76969962936912],[135.33504644288308,34.769856037832724],[135.33497385457096,34.76995128830342],[135.3349755431589,34.769955421122766],[135.33512412269636,34.770236355298856],[135.3352211005611,34.77047786945729],[135.33523506483968,34.770548609221265],[135.33525256543572,34.770640774605475],[135.33525854402666,34.77070157389055],[135.33525679507972,34.770773795157325],[135.33525466372996,34.77081437835698],[135.3352290714613,34.77094755419221],[135.3352183098184,34.77097910367947],[135.33520244329392,34.771022143707],[135.33518649395924,34.77105833332505],[135.33517049014193,34.77109001609407],[135.33515443184436,34.77111719201403],[135.33512039911258,34.77117570632698],[135.3350775641103,34.771238079189104],[135.33502783421088,34.77129942701823],[135.33497542815368,34.77135628955089],[135.33490512467216,34.77142375623323],[135.33476936541146,34.77155306055336],[135.3346479463315,34.77167575626909],[135.33462071748636,34.77170068020407],[135.3345928266828,34.77172506870199],[135.33456394403842,34.771748744183746],[135.33453407064187,34.77177179678555],[135.33450320540422,34.77179413636973],[135.33447167603052,34.77181576024064],[135.33440596619985,34.771856595819166],[135.33433759329748,34.771894027715724],[135.3343024057467,34.771911264473715],[135.33426655515106,34.77192787565189],[135.3342303637745,34.7719434078706],[135.33419350608932,34.77195804409762],[135.33415663750776,34.77197177894413],[135.33411909935464,34.77198434738725],[135.33382235713682,34.7720814396917],[135.33356114279712,34.772162373696794],[135.33337631337568,34.772217979707314],[135.3332130590851,34.772268991085824],[135.3330279286512,34.77232685269051],[135.33274778828223,34.772414791466886],[135.33256527884552,34.772472630854836],[135.33236122080544,34.77253731760752],[135.33227437632652,34.7725650740344],[135.33219534356496,34.77258834915444],[135.33214897190143,34.77260225151595],[135.3320950531521,34.77261540446523],[135.33204566039993,34.77262338194316],[135.33201294276319,34.77262806749945],[135.3319883928588,34.772630612688125],[135.33195366769823,34.77263188915231],[135.3319166170852,34.77263057045032],[135.33186937167477,34.77262636054425],[135.33181618191176,34.77261841324694],[135.33177509348587,34.772608383465986],[135.3317479633478,34.77264159937958],[135.33166587334847,34.77262875071879],[135.33152421976678,34.772650195132165],[135.3313882978481,34.77271215805364],[135.3312818998813,34.77272195475358],[135.33124923858705,34.772731327231114],[135.33105434912818,34.77287715811952],[135.33094276287642,34.77289159448857],[135.33082763059286,34.77285647955504],[135.33066163983807,34.77292544899152],[135.3307204804105,34.77304891756497],[135.33029543902995,34.773352044236866],[135.33041106081347,34.77342781146638],[135.3302989355098,34.77364273618438],[135.32995432340874,34.77360282877252],[135.3300128575963,34.773482816063115],[135.32993817513974,34.773404639949035],[135.32954621714052,34.77327028544858],[135.32935253313266,34.773080400330144],[135.32931611036577,34.7729949695455],[135.329252595417,34.77294599905673],[135.32918694510823,34.772937521527155],[135.3290477766183,34.772947674496145],[135.32876338429384,34.77290042001692],[135.32818437304772,34.77269105654497],[135.32818621245139,34.77259855176881],[135.3283288396068,34.77243972084831],[135.3283048856631,34.77200045510035],[135.3282475338997,34.7720279676137],[135.32817166509028,34.77206915331615],[135.328125455266,34.772096574720315],[135.32807413731342,34.77213530609136],[135.3280388758807,34.772173816099965],[135.32798642333643,34.77225456472112],[135.32794271389776,34.77235381195463],[135.32775179321936,34.77294014845205],[135.3277445240677,34.7729625640262],[135.32771233258066,34.773038459431206],[135.3276563393254,34.77309733136285],[135.32762554414992,34.7731257084251],[135.32757712715997,34.77316044947227],[135.32725218002443,34.77336629191854],[135.32719947978237,34.77339917472263],[135.3268904525545,34.77359352784876],[135.32684556527389,34.77362201972882],[135.3265778276599,34.773788630718165],[135.32645323133505,34.77386627130008],[135.3262986416378,34.77395722757122],[135.3262471597125,34.77398243762327],[135.3260054248738,34.774103762298694],[135.32585067880476,34.77418173826395],[135.3257610427727,34.77422303472257],[135.32564442100372,34.77428249013548],[135.3255166847776,34.774344379820036],[135.3254244816948,34.774390294398685],[135.325334764308,34.774424830262475],[135.32525313188293,34.774450285587434],[135.32520151449128,34.77446422806049],[135.32507891633335,34.774489926897914],[135.3249752199784,34.774506637336934],[135.32486495091342,34.77452186874199],[135.32481979716962,34.774528186146746],[135.32376941275166,34.77466952167791],[135.32404745736616,34.77481609014642],[135.3241414331029,34.77513768723484],[135.32464201302065,34.77588624036707],[135.32460355430493,34.7760961428456],[135.32439845002202,34.77629388026196],[135.32453586653364,34.776355953717456],[135.3246705752423,34.77643824175491],[135.32489640819512,34.77660335269084],[135.32504095241205,34.77682276228363],[135.32498238176277,34.77694051927119],[135.32502858909135,34.777131702917565],[135.32531196365753,34.77731193949571],[135.32556116366385,34.77737526428516],[135.32570534374298,34.77731765763887],[135.32577267247657,34.77746602977296],[135.3259948560371,34.77776386311392],[135.3261372757979,34.77780552094217],[135.32634432359808,34.77777002740265],[135.32654485604934,34.77784726903664],[135.3267763198414,34.77801665743896],[135.32712941315913,34.77786043713634],[135.32743042448112,34.77792558871257],[135.32790252671262,34.77809986062306],[135.32795509138015,34.77816469674939],[135.3279924903406,34.77808560367019],[135.3280309970951,34.77809881090108],[135.32799094718175,34.77820280591357],[135.32800798602548,34.778229710447036],[135.32833766206016,34.77841632244547],[135.3285890039074,34.77816627644281],[135.32883571844567,34.778022279306164],[135.32922082953596,34.77802147302865],[135.32931817876505,34.7781581489911],[135.3293382215336,34.77846222726611],[135.3295972136118,34.778439825040216],[135.3297233324563,34.77846123909],[135.33034427403788,34.77877391894881],[135.3304917820823,34.77877505448183],[135.33093343489074,34.77870608004288],[135.33091358547478,34.77863637969112],[135.3309291040359,34.778564135842515],[135.33090868279334,34.77847415736051],[135.3309551664475,34.77846926911969],[135.33102905143988,34.778698535455064],[135.3312631110013,34.77864703663422],[135.3312148656382,34.77847840870239],[135.33126651157363,34.778466717086374],[135.33132860320586,34.778641992415345],[135.33141588954294,34.77862315744543],[135.33138757613742,34.7785310802595],[135.331431054837,34.77852161903722],[135.33146232004864,34.77861385230055],[135.3315819986047,34.778590334455416],[135.3319113487138,34.77847711432767],[135.33221504480787,34.77851978567425],[135.33260052225438,34.7787938202814],[135.33270963174382,34.77876362715392],[135.33276699785014,34.77854680620114],[135.33314300420733,34.778252998185785],[135.33357669253354,34.77842071237532],[135.33373785470806,34.7784126270542],[135.33393733295526,34.778429016665235],[135.33421722218173,34.77831872096951],[135.3342651265453,34.77821438895673],[135.33489299186735,34.777742720038525],[135.33534083316314,34.777725512595524],[135.33578850563566,34.777911132950415]]]}}]}
