{"type":"FeatureCollection","features":[{"type":"Feature","properties":{"potaRef":"JP-1312","nameEn":"Kannonzaki Prefectural Park","nameJa":"","boundaryStatus":"全国都市公園GIS候補・公開前検証待ち","boundarySource":"国土交通省「都市計画決定GISデータ」都市公園・緑地を、POTA代表地点で空間照合して加工","boundaryScaleNote":"都市計画データは近似・未収録の可能性がある。POTA運用可否は公式情報で最終確認すること。","candidateMethod":"POTA representative point inside one MLIT urban-park polygon","sourceParkName":"特殊公園","sourceParkType":"公園","sourcePrefecture":"神奈川県","sourceCity":"横須賀市"},"geometry":{"type":"Polygon","coordinates":[[[139.73416324473126,35.259982498071466],[139.7342124273036,35.2599997530041],[139.73433546957452,35.26004292033181],[139.73434751307985,35.2600469607676],[139.7344787160849,35.26009097752674],[139.73460991923247,35.260134994143925],[139.73474112252413,35.260179010619524],[139.734758410587,35.26018481045678],[139.73481260486489,35.26017395077771],[139.7348750237938,35.26016144297443],[139.7349374426881,35.260148935142],[139.73499986157464,35.260136427274915],[139.73506228043695,35.26012391937661],[139.73512469928286,35.2601114114454],[139.7351871181018,35.260098903483495],[139.7352495369166,35.260086395486354],[139.73531195569598,35.260073887460145],[139.73537437446686,35.26006137939946],[139.73543679321503,35.260048871307205],[139.73549921194586,35.2600363631823],[139.73556163064922,35.26002385502671],[139.73560359440208,35.26001544584183],[139.73559659760494,35.259988788497836],[139.73559212645628,35.25997175370165],[139.73557347628883,35.25992332351683],[139.73556135559548,35.25989602800176],[139.7355373343079,35.25984193257215],[139.73551606491745,35.2597966553638],[139.73551494322595,35.25979408820654],[139.73547144980304,35.25969454693525],[139.73542795648652,35.259595005647164],[139.73540111099572,35.259533565393674],[139.735389276376,35.259499419527906],[139.73537470075271,35.2594573651333],[139.73536031570404,35.259417952508294],[139.73535484872542,35.25940732780637],[139.73534564343936,35.25938943795078],[139.7353158680653,35.259324782397485],[139.7353092384841,35.25930604662862],[139.7352806157203,35.25922515612344],[139.73527801327432,35.25921658638246],[139.73527200989759,35.25919681751772],[139.7352691575286,35.25917319783999],[139.73527567099586,35.25915086090264],[139.7352763844864,35.259148414095655],[139.73532058071328,35.259123965213085],[139.73532967663164,35.25911893344385],[139.73538873348437,35.2591161697086],[139.73546218941624,35.2591127320864],[139.7355356453421,35.25910929441969],[139.73556218615215,35.25910805232419],[139.73556258285757,35.25906762997353],[139.73556320398637,35.25900433988192],[139.73556382511404,35.25894104979153],[139.7355644462407,35.25887775969669],[139.73556506736608,35.258814469611984],[139.73556568849062,35.25875117951019],[139.7355657681163,35.25874306595953],[139.73556183958357,35.258684216127094],[139.73556140278544,35.25867767283933],[139.7355508990478,35.258655967315185],[139.73553152844937,35.2586323799791],[139.73549060810402,35.2585975712409],[139.735477706458,35.25856808451678],[139.73547715646626,35.25855082629879],[139.73547631660526,35.25852447224447],[139.73547778729872,35.25849735835403],[139.73548222255718,35.25849118885553],[139.73549218522234,35.25847733066326],[139.7355094421235,35.258465553263235],[139.73552592094694,35.258463298017205],[139.73558725308482,35.25845490425021],[139.73558924747587,35.25845153684496],[139.73561466396268,35.25840862266079],[139.73564008042598,35.258365708464986],[139.7356654968686,35.25832279426079],[139.7356909132852,35.25827988007099],[139.73571632967744,35.258236965871134],[139.7357417460407,35.25819405166959],[139.73576716238355,35.25815113745154],[139.73577282598916,35.2581415747311],[139.736007977646,35.25828856224266],[139.73598117951053,35.25832700797167],[139.73595290424262,35.25836757283212],[139.73592462894092,35.25840813769838],[139.7358963536185,35.25844870254705],[139.73588957525456,35.2584584270376],[139.73591253812637,35.258525802559255],[139.73594274163065,35.25861442271178],[139.73596282157584,35.25867333919609],[139.73604240951545,35.258696325090256],[139.73616212305632,35.25873089958733],[139.73625549136545,35.258757865209105],[139.7362693037144,35.25881897508352],[139.7362870134599,35.2588973280446],[139.73630472324118,35.25897568100923],[139.7363224330546,35.25905403396337],[139.7363401429037,35.25913238692106],[139.7363578527853,35.25921073986822],[139.73636783024565,35.25925488258221],[139.7364236058808,35.25926477184366],[139.73652260720132,35.259282325136866],[139.736621608565,35.259299878349275],[139.73666700676375,35.25930792754443],[139.73672060995892,35.259317431478514],[139.7367350599952,35.2593199934891],[139.73677342965203,35.25932719806973],[139.73680039921655,35.25935680352522],[139.7368279703052,35.25940565299262],[139.73683240476134,35.25941350979711],[139.7368562853095,35.25946335901495],[139.7368601198097,35.259495870911515],[139.73686107527467,35.25950397208841],[139.7368623924895,35.25953468481806],[139.73686500163643,35.259563682116166],[139.73686660399727,35.25958149027695],[139.73688285521652,35.25964215257434],[139.73688476050114,35.259649264584915],[139.73690485134878,35.25972402704661],[139.73691329258068,35.259755438684195],[139.73692703970545,35.25980605943802],[139.73694703576732,35.25987969040764],[139.7369503174891,35.25988898698765],[139.73698204108325,35.25997885461688],[139.73699173371313,35.2600063121813],[139.73701785510787,35.26007208337537],[139.7370366558,35.26011942166811],[139.73705982722913,35.26017037228261],[139.7370870976198,35.260230335832055],[139.7371082621101,35.260273971659636],[139.73715971222654,35.26038004857888],[139.7372111624807,35.26048612548272],[139.73722547550997,35.2605156351344],[139.73723903580725,35.2605270484904],[139.73725269094456,35.26053229613473],[139.7372683658403,35.260533130250224],[139.73735138401375,35.26053754790071],[139.73743440218388,35.260541965493545],[139.7375174203674,35.260546383028554],[139.73758331639579,35.260549889420886],[139.73759958745347,35.26056481134289],[139.7376070997895,35.26062007324769],[139.73761242861238,35.26065927286977],[139.737617494988,35.26069241421431],[139.73762172451276,35.260720081336565],[139.7376309306555,35.260767253530474],[139.7376403346821,35.260815439621986],[139.73786854425413,35.26077163060513],[139.73802190843924,35.26073822160436],[139.73806932113465,35.26072412200231],[139.73813244124776,35.260696451100195],[139.73819087855446,35.26066478145624],[139.7382389306604,35.260633800346454],[139.73848565220905,35.26046372765272],[139.7384884156526,35.2604618227198],[139.7388933296939,35.260181442838885],[139.73889388667013,35.26018106117525],[139.7390263861609,35.26009026673159],[139.73939944064364,35.259830574280755],[139.73942987124562,35.25980939066177],[139.73950083430177,35.259760152860544],[139.7395015040934,35.259759704086996],[139.73960202921685,35.25969234917356],[139.73965024385402,35.259665011250334],[139.73971328472442,35.259631423140426],[139.73975003223833,35.25961371738963],[139.7398040670715,35.25958817672957],[139.73982581348739,35.25957973390127],[139.73986651921314,35.25956393029528],[139.73990722066517,35.259548128328696],[139.73994179686468,35.259537063755005],[139.7399420394079,35.25953698613982],[139.74003016711637,35.25950937693079],[139.7400729905222,35.259494526377544],[139.74011447145557,35.25948014135511],[139.74023859670496,35.259437313529425],[139.7403098179048,35.259413258067305],[139.7403526764669,35.25939340103641],[139.74039807748528,35.25935871979844],[139.74042291890282,35.25932195966412],[139.740437956083,35.259278945379194],[139.74043928214098,35.25923353232647],[139.74044122533564,35.25916698431374],[139.7404396639602,35.25911906398316],[139.7404332661883,35.25899592515712],[139.7404266606444,35.25888058603732],[139.7404237944801,35.25876678736992],[139.740390001089,35.25872502644955],[139.7403742202833,35.25870379524353],[139.74036274427132,35.258675499967964],[139.7403620086148,35.258673074898],[139.74035415867408,35.258647197790175],[139.74035561419623,35.25862244557482],[139.74035990595218,35.258607549753094],[139.74037293375767,35.258562332826195],[139.7403752657776,35.25855637320799],[139.74039415615474,35.258508097669875],[139.74039598882862,35.25850341415416],[139.74040773762223,35.25845545990674],[139.74041042765694,35.25844448016764],[139.74041526433507,35.25840290071443],[139.74041513634108,35.25839774190574],[139.74041364260762,35.25833753680642],[139.74041210423817,35.25833145308823],[139.74040335598866,35.258296856754],[139.7403794382076,35.25824926178246],[139.7403550515652,35.258228700358636],[139.74034452867835,35.258212129894126],[139.7403363125268,35.25819919185675],[139.7403204846026,35.25816070723498],[139.740296414277,35.25812211742389],[139.7402558481301,35.25808334426373],[139.74022864327173,35.258067251846064],[139.74018792453006,35.2580374928548],[139.7401252150599,35.25800747434667],[139.74009792842554,35.25799588899144],[139.74006545218708,35.25796621713101],[139.74004659606408,35.25794346922557],[139.74003905715003,35.25790281819997],[139.74004028774112,35.25789834080279],[139.7400440657398,35.25788459488523],[139.74005078592214,35.25786014407728],[139.73995939401937,35.25789964077628],[139.73990578410036,35.257915415276436],[139.73989308102722,35.257919153099444],[139.73984090356177,35.257916293265886],[139.7398285424512,35.2579157438617],[139.73977223030144,35.25791324098563],[139.73974490920034,35.257910820428066],[139.7396844066175,35.2579054600806],[139.73965400984594,35.25789571248738],[139.73964559924946,35.25789301538791],[139.73959692381234,35.257877406195064],[139.73951245854985,35.25783361549996],[139.73943629318632,35.257787667444425],[139.73936344174632,35.257756442148384],[139.73930308670052,35.257744606805936],[139.7392427284324,35.257745743013565],[139.73917946297493,35.25776220135306],[139.73914209056878,35.25776806000222],[139.73908030165796,35.25776094698103],[139.7390113356905,35.25774439062644],[139.73894666225561,35.25774198086255],[139.73892323815997,35.25774603330153],[139.73890090221363,35.257749897482725],[139.73883254571805,35.257728825313485],[139.73882115545226,35.25772594885608],[139.73876273478342,35.25771119548709],[139.73874394071078,35.257709341015364],[139.73872048748532,35.25770702680696],[139.73866645102606,35.257701694830516],[139.73862169188214,35.25768964319224],[139.7386181792862,35.25768869740623],[139.73858742358865,35.25768041625793],[139.7385232839486,35.25767257801861],[139.7384899776142,35.25766850777562],[139.73843128033724,35.25766077530727],[139.7384132457825,35.25765839952459],[139.7383449407118,35.25763077372079],[139.73829528289625,35.25759573404409],[139.7382473615452,35.25755077991339],[139.73820974344997,35.25750076744071],[139.73819837092773,35.257469387739896],[139.73818350287416,35.25742836293506],[139.7381801634832,35.25739062732475],[139.73817891171763,35.25737648218111],[139.7381749714731,35.25732256205393],[139.7381744624428,35.25731559624381],[139.73816684258802,35.25727945219355],[139.73815023280207,35.257238434675116],[139.7381457557951,35.257227378792685],[139.73810809143814,35.25717962884235],[139.73808943539302,35.25714561290327],[139.73807926639134,35.25711632038649],[139.73806587154158,35.25707773555629],[139.7380452743136,35.25702458900566],[139.73802376914665,35.256969099643285],[139.73801186830661,35.256933339146556],[139.73798264480604,35.25684552613979],[139.73797935364144,35.25683563658486],[139.73794761863007,35.25676316479765],[139.73794334741268,35.25674943496441],[139.73793026181025,35.2567073712494],[139.73792717898434,35.256672349705795],[139.73792600758603,35.25665904236962],[139.73793610790054,35.256618963344415],[139.73793721486845,35.25661679759825],[139.73796017893488,35.25657186913277],[139.73797052606147,35.25655162529101],[139.7379858634331,35.25652917616553],[139.73800718185834,35.25649797262016],[139.73801620674104,35.25649031155063],[139.73803677614566,35.256472850524794],[139.73805439541536,35.256457893810534],[139.73806335987712,35.25645028402034],[139.73810195456443,35.25643317618129],[139.73813248687165,35.25641964213368],[139.7381452804968,35.256417291110296],[139.7381575242412,35.256415041134495],[139.73822097380662,35.25640338128177],[139.7382315142618,35.25640144430426],[139.738285469165,35.25639258078126],[139.73832109750649,35.256386727867586],[139.73835307668662,35.256384337637535],[139.73839954923457,35.256380864109715],[139.73841467255164,35.256371154474934],[139.73845825782283,35.25634317136636],[139.73848572655524,35.256325535562134],[139.7385273616324,35.25639359436641],[139.73867369352746,35.25636783393127],[139.73867926436807,35.256387687780176],[139.7386872124583,35.25641406082693],[139.7386940457145,35.2564351416058],[139.73870291444473,35.256454186739624],[139.7387097783934,35.25646774059655],[139.73871637180034,35.25647766147696],[139.738722405771,35.25648668048999],[139.73872844078528,35.25649479807302],[139.73879007712412,35.256414023880254],[139.73887949003438,35.25638562637879],[139.73894680049247,35.256501765012715],[139.73897474412658,35.25654290100569],[139.73901168069108,35.25659077767316],[139.73904573086006,35.25662574359992],[139.73910109860518,35.25668218013051],[139.739150888006,35.256725226060134],[139.73920820251394,35.25677377595],[139.73925549643934,35.25680830131852],[139.73932544916804,35.2568541272937],[139.73934503215736,35.25686503105433],[139.7394921582588,35.25694110329067],[139.73950365912754,35.25694700903664],[139.73971065613927,35.257053302566554],[139.73991765367433,35.257159595734684],[139.74012465175667,35.25726588855321],[139.74028231939158,35.257346849929974],[139.7403288455593,35.257369876310975],[139.74052407527216,35.25746649759569],[139.74071930543508,35.257563118559766],[139.74081380594137,35.25760988741858],[139.7409244866834,35.25756835783356],[139.7410490823254,35.257198023439095],[139.74118265742757,35.25678497659551],[139.74122657427068,35.25663001641344],[139.74123931017846,35.25652876792943],[139.7412573529796,35.256438845250926],[139.74126499179485,35.2563150032203],[139.74128145852177,35.25615747209332],[139.74129390291498,35.25605122945794],[139.7412997766871,35.2559437921793],[139.74130858095626,35.25586036211785],[139.74134241608613,35.2558111774745],[139.74137891681102,35.25576653795793],[139.7414151478591,35.25573766425902],[139.7415573220976,35.25566543604688],[139.7416025145651,35.25564224776565],[139.7416081355176,35.25564766040593],[139.74165335615479,35.25562894321746],[139.74218777586415,35.2553997054563],[139.74304195959752,35.25502934564248],[139.74306030257648,35.25502139232913],[139.7433652275206,35.25487826244332],[139.74345736388815,35.25483664528854],[139.7435069133047,35.25480764513043],[139.74355295422586,35.25477078200164],[139.74361280860413,35.25471324073766],[139.7440491471065,35.25430297229822],[139.74414511396267,35.25420146620854],[139.74418081440373,35.25414215897872],[139.74421712640384,35.254075911145],[139.74424000920567,35.25398842521243],[139.74424421293432,35.25392980807984],[139.74423911569752,35.25386431554225],[139.74421903195952,35.253795819779114],[139.74417694970165,35.25371167964447],[139.74412593173201,35.25363699738737],[139.74400412952127,35.253499687807846],[139.74385017653617,35.253341267405105],[139.7437095445262,35.25321951611925],[139.7436082742164,35.253140030008616],[139.74340600741098,35.252992477454264],[139.74314613489005,35.252808959788126],[139.74293924460636,35.25266068936561],[139.74275616108756,35.25253225299686],[139.74268459605457,35.25248280366406],[139.74262404147888,35.25244460297731],[139.74254421741213,35.25239066756733],[139.7424369116497,35.25233452202078],[139.74232685633814,35.2522806279933],[139.74225807495606,35.25224919099528],[139.74219114526295,35.252222983584964],[139.74202942285768,35.252165338409164],[139.7418204594964,35.25209595850078],[139.74177666093723,35.2520814229889],[139.74147325542882,35.25198238956904],[139.74141426603657,35.25196119941688],[139.74111568393909,35.25186378214736],[139.74085618864183,35.25177883230044],[139.74071205949812,35.2517232624282],[139.74063072772685,35.251683359948174],[139.740551610282,35.2516384380556],[139.7404660794148,35.251579512202845],[139.7403916355042,35.251521712162734],[139.74032531453403,35.2514621962805],[139.74026698319437,35.25140228056161],[139.7402166660281,35.25133958525672],[139.74017741312184,35.25127860173695],[139.7401176702699,35.25115259196465],[139.74008463149818,35.25106665233135],[139.74003255559134,35.25095417861805],[139.739999305033,35.250901465565605],[139.7399308284621,35.2508038894499],[139.7398067107073,35.25066950301482],[139.73977286263494,35.250640956836286],[139.73974653073535,35.25065303467767],[139.7397408762697,35.25065481256813],[139.73967830619887,35.25067931317086],[139.73938596751955,35.25079378438815],[139.73937945013117,35.250796335260624],[139.73936216993275,35.25080104537823],[139.73931226909144,35.2508102211495],[139.7392324144317,35.2508183027707],[139.73914456251106,35.25081727908226],[139.73912893095448,35.25081231141616],[139.73906692593914,35.25079260483921],[139.7389369318986,35.25074129615335],[139.7389022982567,35.250728457157244],[139.7388826373818,35.250721168202965],[139.73884523460472,35.25070730300859],[139.73876569130823,35.250694189208424],[139.73867977825364,35.250686290576034],[139.73861057102332,35.25065726906477],[139.73858100516244,35.25064487117798],[139.7383616994879,35.25055290764632],[139.73830453522575,35.25045105461571],[139.73827273303607,35.250432756789706],[139.73821226942977,35.25043270940012],[139.73809162666052,35.25043025828959],[139.73806526545346,35.25043147607055],[139.73800859473494,35.2504377702971],[139.73795447052717,35.25045861132329],[139.73786335317385,35.25059021884085],[139.73782868648027,35.25061150316724],[139.73780879118777,35.25062341012203],[139.73763215826534,35.25072857343723],[139.73753551634638,35.25079690558956],[139.73744325289982,35.25087424220949],[139.73739710672137,35.250924611915],[139.7373794999882,35.2509678038535],[139.73737505524088,35.251014606098835],[139.73739691887133,35.25108483259249],[139.73743854303663,35.25114787272375],[139.73749552179845,35.25121632619182],[139.7375116141641,35.25122743568697],[139.73755034255376,35.25125417429868],[139.73756037070368,35.25125555329283],[139.73757743200306,35.251257900204884],[139.7376293362294,35.251265038130796],[139.73772152006256,35.25125611002761],[139.73787515694062,35.251243629006474],[139.73792123364086,35.25125266604456],[139.737940950777,35.25128148588454],[139.7379420962872,35.25129241663934],[139.73794305160803,35.25130152905768],[139.7379552979867,35.2514183452463],[139.73795639812946,35.25142883330581],[139.7379626568318,35.25148852833524],[139.73796262535876,35.25151553163364],[139.73794943395484,35.251535323699365],[139.737773622133,35.25174221080796],[139.73767033845152,35.251859144347065],[139.73766913171002,35.25186152736835],[139.73765112604954,35.25187987080445],[139.737628684415,35.25193873552608],[139.73762208310092,35.25200296553933],[139.73762576158566,35.25204579302257],[139.7376396367626,35.25207176302854],[139.7376527382794,35.25209628432285],[139.73767928609507,35.25212409535097],[139.73769428268304,35.25213980409292],[139.73770950074586,35.25215081163499],[139.7377948184935,35.25218907249153],[139.73781483435624,35.252194295801296],[139.73787915507882,35.252197404936936],[139.73796027952082,35.25218217346619],[139.73803769560098,35.252147822129416],[139.73809545244697,35.252115854688064],[139.73813564496018,35.252093605745614],[139.7381538205465,35.252076163582174],[139.73824179287766,35.25199174265888],[139.7382645997155,35.25196282439568],[139.73831331398728,35.25190105587617],[139.7383858749424,35.251782296971044],[139.738469444225,35.25163294396161],[139.73854858302508,35.25151779108812],[139.73855191789846,35.25151428953367],[139.73857650972883,35.25148846687116],[139.73864965857985,35.25141165694087],[139.73870458133786,35.251361293587294],[139.73874628364996,35.251357725665024],[139.73876603018695,35.25136314172413],[139.73879271394136,35.2513721064099],[139.73880660861678,35.25137677514552],[139.73892178618527,35.251415469465094],[139.73893626957133,35.251422055505984],[139.73895233168324,35.251429361871665],[139.7390248780384,35.251462355413025],[139.73904461431079,35.25147497175535],[139.739048973082,35.25150197956839],[139.73904236918605,35.251519976102294],[139.73903602005785,35.251529914751146],[139.73903041744668,35.25153868757715],[139.7389918011997,35.251599147091284],[139.73898081709737,35.25160813965713],[139.73896763972363,35.25161712996573],[139.7389434941771,35.25162071217506],[139.73888204196743,35.25163090118115],[139.73886989012155,35.25163291641868],[139.7388030126972,35.25164400512212],[139.73874813283533,35.25165656444775],[139.7386998277963,35.251676329213524],[139.73866468275304,35.25170330511634],[139.73860096602138,35.251766262581405],[139.7385723922449,35.251804045467274],[139.73855698681672,35.251841837534265],[139.73854811800888,35.251919241229864],[139.7385395924956,35.25197820502616],[139.73854424195798,35.25204191845262],[139.7385513392621,35.252129655633055],[139.73855581994817,35.25218506325872],[139.73856955967304,35.25235491156563],[139.73858927733036,35.25238373050896],[139.73864630159957,35.252416179567625],[139.73870991680099,35.252441432305226],[139.73875818973949,35.252448671385785],[139.73899521498066,35.252445254954175],[139.73899912948946,35.25248588071992],[139.73900002228407,35.252495146612176],[139.73900822647397,35.252580281124125],[139.7389928273261,35.252612673133136],[139.73896207540454,35.252636052090416],[139.73894148639152,35.25264317918649],[139.73890499195065,35.25265580955234],[139.7388766924466,35.25266385990565],[139.738753512584,35.25269889795169],[139.73872496426847,35.25271327690945],[139.7387095899635,35.25272406679541],[139.73869857653034,35.25275826185755],[139.7386949693118,35.25278320520214],[139.7386931437243,35.25279583118547],[139.73868972850815,35.252819463026896],[139.73882125814427,35.25294738128547],[139.73884755856886,35.25297800553505],[139.7388640237471,35.252980381974794],[139.73888602158,35.25298355774457],[139.73893533061224,35.252990675970274],[139.73899896295595,35.253001526249754],[139.73911962301807,35.25304122544178],[139.73913362619444,35.25304746061492],[139.7391527840272,35.253055992429836],[139.73917194052308,35.25306452369052],[139.73917226767543,35.253064669194586],[139.73928416239715,35.25309355954109],[139.73937192982928,35.253109829549075],[139.73945140794908,35.25312174602823],[139.73946847796824,35.25312430661743],[139.73949871701555,35.253125904106106],[139.73953256106037,35.2531276925399],[139.73960673345312,35.253131613306444],[139.73962219028394,35.253147706748074],[139.739634476972,35.25316049604962],[139.7396396127266,35.25316584346054],[139.73967027120938,35.25322527443789],[139.73967024236126,35.2532504775127],[139.73966364329863,35.25326307506593],[139.73965238024365,35.253268941295296],[139.73964064873138,35.25327505199626],[139.73961533134164,35.25328824084637],[139.7395582606377,35.25329719674532],[139.73951215221211,35.25331516330293],[139.7394770025991,35.25334573987088],[139.73943523799718,35.25340331462508],[139.73942423303893,35.2534303099729],[139.73943080049244,35.25344471627609],[139.73944395053442,35.253460928995736],[139.73945707858832,35.253495142807736],[139.73947019766825,35.25353835881719],[139.73950960664874,35.25362120002706],[139.73954905836905,35.25366623551353],[139.7395821247245,35.253695997184145],[139.7395950995998,35.253707677287984],[139.7396008347925,35.253710889876814],[139.7396433520383,35.25373471678356],[139.73969382049614,35.253741956639324],[139.7397420956353,35.25374919533191],[139.73977060780228,35.253765418767706],[139.73979472240956,35.25378884024015],[139.73980784860527,35.25382485478308],[139.7398165696808,35.25387526769667],[139.73981784728645,35.25389771147404],[139.7398183601758,35.25390671627578],[139.7398208726181,35.25395088029759],[139.73981646063854,35.25397067932733],[139.73980986426884,35.25398147611773],[139.7397901019044,35.25399046253374],[139.73977035049904,35.25399044729972],[139.7397527924274,35.253990433754694],[139.7397220731549,35.253985008837226],[139.73969793997102,35.2539777887754],[139.73966723513064,35.253959763408545],[139.7396474878551,35.25395614771571],[139.73962115109418,35.25395612737079],[139.7396013990266,35.253956112108725],[139.73953555673756,35.253957861431296],[139.73948945892712,35.25396682632947],[139.73946092815916,35.25396680425216],[139.73943459139485,35.25396678386661],[139.73942362974776,35.25395597460457],[139.73941846269614,35.25394747567367],[139.7394121180251,35.25393704356416],[139.7393666757222,35.25386231845407],[139.73929873606764,35.25377945618633],[139.73920814349444,35.25369840733522],[139.73916761670782,35.253662149182475],[139.73912553543587,35.25362450167991],[139.7389610808856,35.253498358367445],[139.7386474463212,35.25332349250314],[139.73851807144553,35.2532279791758],[139.73832068632848,35.2531126111255],[139.73812547899146,35.25301164568202],[139.73810793713955,35.252999029814184],[139.73809259488522,35.25298101555771],[139.73808165794358,35.252950403210804],[139.73807511591977,35.252914393100646],[139.73806530401032,35.25289340830706],[139.7380641692666,35.25289098272922],[139.73804143133574,35.2528569933973],[139.73804007010003,35.252854958826305],[139.73801376859274,35.25282613462268],[139.7379721032627,35.25279729833594],[139.73790849851136,35.25276304356394],[139.73784706954567,35.2527449935622],[139.73777905037866,35.25273233790122],[139.73771760042845,35.25273228947874],[139.73765832406858,35.252750245501055],[139.73757047730442,35.25280238259304],[139.7374650283082,35.25289231144235],[139.7373903048241,35.25298226284277],[139.73732084415568,35.25310080610519],[139.73732039842469,35.25311135692012],[139.73731779355708,35.25317301570092],[139.73731654879788,35.25320247992193],[139.73732622726348,35.25324374583155],[139.73733191547072,35.25326799852457],[139.7373479848652,35.25329998042421],[139.73735888745526,35.253323366869665],[139.7373972138899,35.25336566791016],[139.73739745896572,35.253365892506544],[139.73739785163303,35.25336626093857],[139.73739812268408,35.25336652814716],[139.73739943794592,35.25336785710178],[139.73740100623954,35.25336935225505],[139.73740287984495,35.253371304907766],[139.73740793090738,35.2533761204534],[139.73741363345795,35.25338173842191],[139.73741921815045,35.253387187264764],[139.73742443192563,35.25339240388006],[139.73743062356994,35.25339828953646],[139.73743828122295,35.253405913861734],[139.73744561331034,35.25341300332907],[139.73744906938282,35.253416358910016],[139.73745028060208,35.25341753747191],[139.737451761092,35.25341897386605],[139.73745337610333,35.25342055752033],[139.73745486908314,35.25342200834674],[139.73745563367942,35.25342275712066],[139.73745634454286,35.253423461873204],[139.73745654571294,35.25342366008749],[139.7374567469613,35.253423847286335],[139.73745702869067,35.25342407856282],[139.73745730051226,35.253424295859645],[139.73745847782007,35.25342517832088],[139.73745989489706,35.253426264929885],[139.73746382596312,35.2534293576512],[139.73746923120132,35.25343366055649],[139.73747791251017,35.253440384004755],[139.73748659395972,35.25344697310325],[139.73749314556648,35.25345235154955],[139.7374989088882,35.253456839787496],[139.7375048056497,35.25346141170543],[139.7375098833866,35.253465311357715],[139.73751381453368,35.253468404076436],[139.73751840091327,35.253471900327995],[139.73752331478843,35.25347579982006],[139.737527409349,35.25347929570036],[139.7375325140395,35.25348391804014],[139.73754004800344,35.253490371944956],[139.7375467629572,35.25349628787079],[139.73755200396454,35.25350085929154],[139.73755793547903,35.25350602285976],[139.73756546937383,35.2535126111212],[139.73757398615948,35.25351987176119],[139.73758037368833,35.253525384435655],[139.7375872822393,35.25353134799253],[139.73759170461238,35.253534978466966],[139.7375980919936,35.2535406254716],[139.7376031693007,35.253544928086285],[139.7376077551542,35.25354896168603],[139.7376151254279,35.2535552811406],[139.73762204121115,35.25356113990961],[139.73763039406677,35.253568400422104],[139.73763809206335,35.253574854444366],[139.73764497067134,35.2535810391685],[139.7376528323105,35.25358776198456],[139.73766102168128,35.25359461937815],[139.73766598820586,35.253599133030875],[139.7376767979012,35.25360841049386],[139.73768777138926,35.25361782241039],[139.7376969434241,35.25362562089597],[139.73770943817237,35.25363658004485],[139.7377202481044,35.25364572315487],[139.7377281096061,35.253652580288126],[139.7377349884503,35.253658496326835],[139.73774088462955,35.25366360562038],[139.73774812624444,35.25366976128822],[139.7378048885575,35.25372327180177],[139.73793484929888,35.25384578694883],[139.73804413499366,35.25393523779904],[139.73809145623787,35.25397134837704],[139.7381002741339,35.25397769645281],[139.73818999452263,35.25403506761998],[139.7382331876186,35.25408063122322],[139.7382570210004,35.254132733729946],[139.73826423500572,35.25416338526878],[139.7383014759634,35.25433219518816],[139.7383114741944,35.254342803328505],[139.73834899121866,35.254387829718986],[139.73839725521864,35.25445093217979],[139.73843336104417,35.254502835532584],[139.73846482367787,35.254553125696404],[139.73849736923563,35.254608815184525],[139.73852815391484,35.254671052650096],[139.73856008831802,35.25474878956104],[139.73858163672642,35.25480836432882],[139.73858479049315,35.2548195419776],[139.7386296660046,35.254866549861234],[139.73860006402148,35.25487258435761],[139.73850691548154,35.25489031204626],[139.73848044625728,35.25489570894678],[139.73848971268572,35.254830380853015],[139.73848902245925,35.2548279364024],[139.73846883805086,35.25477222760222],[139.7384597073971,35.25475001011062],[139.73844735866325,35.254734060086605],[139.73838823870076,35.25465769598591],[139.73837614549583,35.254649414088135],[139.73836604885273,35.254659332738605],[139.73836361643606,35.25468429588926],[139.73840988941313,35.25493275963856],[139.73848284184828,35.25501909004238],[139.738334232083,35.255036322559285],[139.7383490455756,35.25494751566685],[139.73830556082217,35.25473527384204],[139.73829661908348,35.254718802532246],[139.73826519131188,35.254660908750246],[139.7382509719161,35.25464922286227],[139.73822488709138,35.254627785627626],[139.7381543264622,35.254594638751016],[139.73807169392134,35.25453501003437],[139.7379105436762,35.254347918495405],[139.73784716356855,35.25425673756529],[139.73782933553989,35.254231088638875],[139.7378058288897,35.25419727007715],[139.73775747509112,35.25414924972231],[139.737705078274,35.254107844465544],[139.73765669363,35.25408629726652],[139.7376062894075,35.25406640257975],[139.73755789403177,35.254053127763484],[139.73753771702667,35.25405807600827],[139.7375094676668,35.25406632612381],[139.73747061642524,35.25409923009216],[139.73746406535605,35.25410477861105],[139.7374577173394,35.25411015515071],[139.73745091358214,35.254115917124885],[139.73742797865256,35.25414768355376],[139.73742082576456,35.25416581870732],[139.7374019925065,35.25430079373651],[139.73741788490182,35.25441723453581],[139.7374569272036,35.25456061650979],[139.73747125889213,35.25459141773265],[139.73749000794842,35.25462493912778],[139.7375042030383,35.254647826105746],[139.73752123873095,35.2546752930103],[139.73758394228454,35.254746796701994],[139.7376106757328,35.254789923265555],[139.73760727017927,35.254828186431446],[139.73757570028545,35.25488432176702],[139.73753656304123,35.25493653041827],[139.73753576610204,35.25494619920376],[139.73753464351208,35.254959809019034],[139.7375426453752,35.255017725049434],[139.73755266274586,35.2550756426706],[139.73754859746276,35.25510211267582],[139.737540517258,35.25511203374977],[139.73751023737012,35.25513186474069],[139.7374880338086,35.25514508380088],[139.73745979376395,35.255145061474636],[139.73741140553778,35.255125168292416],[139.73737512518596,35.25510197552166],[139.73734694269444,35.25505853129942],[139.7373429089549,35.25505231310312],[139.7373376602163,35.255032852106595],[139.73732684185225,35.25499273618609],[139.73732689427513,35.25494806312586],[139.73733203344563,35.254912109124874],[139.73733598144983,35.25488448970993],[139.73733706291102,35.25487692485825],[139.73734314399738,35.25485211148267],[139.73734519164626,35.254825639886825],[139.73733715415594,35.25479916030668],[139.73731095910395,35.25477597640143],[139.73728744714418,35.2547600618472],[139.73727106773939,35.254718372676614],[139.7371966112642,35.254573303167405],[139.73713504491468,35.25447794826637],[139.73709404933072,35.254393966954616],[139.7370797246786,35.2543301978996],[139.73707835800656,35.2542652577927],[139.73708564764485,35.25418380102183],[139.73710014467662,35.25409407457808],[139.7370887072635,35.254023231477746],[139.73706574495836,35.25395945586905],[139.73702694725918,35.25390510622468],[139.73699388779053,35.25385903605679],[139.73695940371596,35.253809422174974],[139.7369205659236,35.25378106071539],[139.73688271093627,35.253747904098496],[139.73685177717013,35.25372636443012],[139.73684606724623,35.25372238853036],[139.73679688648244,35.253699906684204],[139.73673870843058,35.25368071700137],[139.73659613412227,35.25371884503011],[139.7365691307213,35.253745534617586],[139.73644407900545,35.253869132780366],[139.73630568543692,35.25385486984856],[139.7361542547761,35.2538392631268],[139.73610594385062,35.253871537394865],[139.7359899584535,35.25394902161422],[139.73594996340898,35.25399149338725],[139.73593369217903,35.25400785578517],[139.73589815465917,35.25404359237049],[139.73588911870772,35.25408180336468],[139.73585848947224,35.254211327183434],[139.7358750646331,35.25421477383508],[139.73588564589627,35.254217694688116],[139.73591257020556,35.25422512627898],[139.73608755154416,35.254315157287344],[139.73610124205712,35.25445465290271],[139.7360545657822,35.25451350941489],[139.73596086847823,35.254495225127194],[139.73594982112735,35.254493069414664],[139.73590692262093,35.254484698478215],[139.73588502306785,35.254480425162235],[139.73583826413648,35.25446553465235],[139.7357430063916,35.25443520143806],[139.7357308972763,35.254431345315055],[139.7357057571217,35.2544233385218],[139.735670406598,35.25447753751326],[139.73560068877222,35.25458416343373],[139.73555906528702,35.25464782193722],[139.73552809953193,35.2547315529931],[139.73548392815943,35.25485099154777],[139.73548481526478,35.25487910245422],[139.73548736081523,35.25495976637801],[139.73549251715508,35.2551231606399],[139.73549748214717,35.255280491403006],[139.73549839410006,35.2553093891853],[139.7355123601869,35.255378260236775],[139.73553312607436,35.255410882478465],[139.73559343940514,35.25550563176759],[139.73563021803574,35.255542560679665],[139.73567357232517,35.25558609206817],[139.73588193589958,35.25576887060315],[139.73593079323797,35.25581172855532],[139.73597588935516,35.25587400427125],[139.73598441104738,35.255885772333514],[139.7361095473103,35.25604150069799],[139.73635685534467,35.256397655651845],[139.73658765278816,35.25656257721372],[139.73669724100964,35.25658413276725],[139.73679387735604,35.256718194913056],[139.73651586477718,35.2567397436878],[139.73647863626556,35.256667204223696],[139.7363726647664,35.25659612665004],[139.73618074956937,35.256566854658],[139.736123565322,35.2563769155347],[139.73591138566874,35.256131475127376],[139.73580613572352,35.256179263190106],[139.7357115682999,35.256222986459235],[139.73523104186083,35.256010500157856],[139.73511373557082,35.256117291982456],[139.73502290164586,35.256282976635745],[139.735018692906,35.25665576892945],[139.73499667067725,35.257037110977066],[139.73495191452645,35.25714688850574],[139.73478916140382,35.25723590458199],[139.73444395737496,35.25733073672688],[139.73439541530013,35.257368360613164],[139.7346035805783,35.257573643328634],[139.73421566173093,35.257749642381874],[139.73386877681548,35.25771867697779],[139.7337346784228,35.25765143315384],[139.73352906001952,35.25761974838683],[139.73334755525204,35.257624382893496],[139.7331405238771,35.25772799084581],[139.73314030574258,35.25772810000996],[139.73290451652474,35.257802182168476],[139.73271474498077,35.25785508075812],[139.73248460402715,35.258012864371736],[139.73210013703107,35.2582380864711],[139.73151235177156,35.25859207558947],[139.73120315454267,35.2587497931646],[139.7305610922261,35.258738519411175],[139.73047869589357,35.25902417877961],[139.73048870275514,35.259083221569696],[139.7305174699591,35.25910567252545],[139.73069639876226,35.25911660787983],[139.73072326597926,35.25914717011679],[139.73062471460122,35.25930456099816],[139.7305814539908,35.259425948510845],[139.73061157069162,35.25947784124434],[139.7306830875008,35.25952983065619],[139.73073499286554,35.2595676516775],[139.730739297121,35.259580058843945],[139.7307421559946,35.25959717931766],[139.73073282007823,35.259619806657625],[139.7307186088049,35.25963884235246],[139.73070135606855,35.25965551383247],[139.73068273200545,35.25967013795157],[139.73066291177722,35.25968328275212],[139.73063954355993,35.25969487421081],[139.7306128990732,35.25970743655013],[139.730581869656,35.25971984208027],[139.73052211426065,35.25973012393628],[139.73046980804216,35.25972398776344],[139.73044829152565,35.259721996140044],[139.73044558832785,35.25972166041314],[139.7304424781979,35.2597215677414],[139.73044050977128,35.25972253968528],[139.73043868406575,35.25972363794539],[139.73042015214259,35.25973471046445],[139.73044682340938,35.25979116166999],[139.73040014806728,35.25978179391136],[139.73034817283968,35.25976546278197],[139.73029069580622,35.25974557551595],[139.7302561570231,35.2597425997088],[139.73022447315307,35.259750840007314],[139.73018775003652,35.25976379968284],[139.73015966881783,35.25977380970388],[139.7301388444116,35.25979022579003],[139.73012724415457,35.25980389102118],[139.73011909001664,35.259821543382905],[139.73011639291104,35.25984343691673],[139.73012107698764,35.25986887007727],[139.7301343149435,35.25990054811],[139.73012838056474,35.25992751405403],[139.7301088046002,35.2599475729298],[139.73008959582828,35.259954804753704],[139.730080798463,35.25995905232409],[139.73006756830847,35.25996636113775],[139.7300593512008,35.25997244809724],[139.73005663301456,35.25997541158301],[139.7300558259695,35.2599793411588],[139.73005549510245,35.25998938281835],[139.73005728743144,35.2599977134941],[139.7300610997696,35.26000786670714],[139.73008265172265,35.26003513452404],[139.73012596984418,35.26007614887179],[139.73019834265628,35.260147538035966],[139.73028001846978,35.26024204739666],[139.7303051626656,35.2602798558146],[139.73031736314485,35.26031528292924],[139.73031590203925,35.26033299483735],[139.7304859412638,35.26042693595092],[139.7306876381362,35.2605349918556],[139.7307357961479,35.26056378432051],[139.73077204945562,35.26058545923583],[139.73086979527093,35.260660852875006],[139.73098329956375,35.260745740261754],[139.7310164843317,35.260770558372684],[139.73109806620698,35.260825503343995],[139.7311768402824,35.260884926100495],[139.7313319511781,35.26098346028077],[139.73146811467672,35.26106377914879],[139.73158239381863,35.261137094195405],[139.73162042494624,35.26116435891493],[139.7316698701884,35.26118704773616],[139.73177597945346,35.26122906054355],[139.73182315042942,35.26123877513063],[139.73185853733665,35.26123880475933],[139.73188607241335,35.261229152730934],[139.73193633507714,35.26120374908856],[139.73196736839458,35.26119408181147],[139.73202570450488,35.26118895825186],[139.73213383993846,35.261182598710384],[139.7322950732682,35.261161771553425],[139.73238815624865,35.26114364279539],[139.73241158634116,35.26113907977918],[139.73243501911634,35.2611345151101],[139.73250941366078,35.26112002615821],[139.73257233877348,35.26110717929512],[139.7326942296193,35.26110566794847],[139.7327276549844,35.26110247103565],[139.7327473221285,35.26109603693904],[139.73277093804288,35.261076708030714],[139.7328280123026,35.26102676847922],[139.7328772186926,35.26097843498474],[139.7329153636735,35.260944713584344],[139.73292642122738,35.26093493878917],[139.73292915731312,35.26093317888317],[139.73293705166122,35.26092953668552],[139.73295774023023,35.26091999164302],[139.7330652032179,35.26086548366965],[139.73310742046775,35.26085285896887],[139.73314704367743,35.260842567658784],[139.73315299078442,35.26084102301924],[139.73326845015436,35.26081245910453],[139.73331806952564,35.26078647036164],[139.73336229274025,35.260739669439424],[139.73343857805844,35.26063265416195],[139.73345678986442,35.26056723346228],[139.73344239921045,35.2604735287712],[139.7333883883157,35.26034481593297],[139.73336646960288,35.26029372181988],[139.7333541703102,35.26025148387145],[139.73332974760044,35.26016761182869],[139.73330532494091,35.26008373978005],[139.73328090233167,35.2599998677255],[139.73325647977597,35.25991599567687],[139.73323882451504,35.25985536379043],[139.73325414691766,35.25985027658324],[139.73330944430214,35.25983191721841],[139.7333647416617,35.25981355782805],[139.7334200389964,35.25979519841236],[139.7334702484704,35.25977852820163],[139.73347532966415,35.25977683352326],[139.73353055485737,35.25975841481368],[139.73358578002595,35.25973999607866],[139.73362577718228,35.25972665617932],[139.73366979300886,35.259745234607024],[139.73382941899428,35.259812610162825],[139.73391525035137,35.25984883806215],[139.73406479858403,35.25994989741543],[139.7340804112771,35.259955067599826],[139.73416324473126,35.259982498071466]]]}}]}
