{"type":"FeatureCollection","features":[{"type":"Feature","properties":{"potaRef":"JP-1181","nameEn":"Sayama Inariyama Prefectural Park","nameJa":"","boundaryStatus":"全国都市公園GIS候補・公開前検証待ち","boundarySource":"国土交通省「都市計画決定GISデータ」都市公園・緑地を、POTA代表地点で空間照合して加工","boundaryScaleNote":"都市計画データは近似・未収録の可能性がある。POTA運用可否は公式情報で最終確認すること。","candidateMethod":"POTA representative point inside one MLIT urban-park polygon","sourceParkName":"","sourceParkType":"公園","sourcePrefecture":"埼玉県","sourceCity":"狭山市"},"geometry":{"type":"Polygon","coordinates":[[[139.39588719734056,35.8482223223739],[139.3962448486822,35.84837977643083],[139.396487533952,35.84852671051148],[139.39676806303564,35.848712001133464],[139.39707140054531,35.84905904622595],[139.39715925465114,35.84919566265298],[139.39726310135813,35.849406263683974],[139.39741685177654,35.84965033906571],[139.39744519190134,35.84968286040633],[139.39785499361793,35.84948128042735],[139.39955886086244,35.847623360096264],[139.39927218717344,35.84731479420665],[139.3989705856355,35.84699203377222],[139.3987015104408,35.84663363586782],[139.3985459405799,35.84634582028698],[139.39844985870033,35.84616806737657],[139.39834226919575,35.84596902496924],[139.39831411883867,35.845962632159114],[139.3982718836681,35.845883613637696],[139.39828225949668,35.84585866627122],[139.39820552717092,35.84571900813088],[139.39819573587502,35.8457067291666],[139.39780378401605,35.84521521183997],[139.39751892024694,35.845140787490195],[139.39748089256204,35.84514124491938],[139.39735526912443,35.84514275567548],[139.39713951897596,35.84514598181799],[139.3965598730806,35.845156017387076],[139.39643157770266,35.84515800107593],[139.39638355325428,35.84515728159282],[139.396125671586,35.84514932370742],[139.3957989497515,35.845146173516994],[139.395507620177,35.845136651595034],[139.39525307753394,35.845124437985504],[139.39495335860002,35.84512792192317],[139.3947177379427,35.845149304542],[139.39463803092883,35.845164629816466],[139.39424868195158,35.84524037312941],[139.39420847759285,35.84526403066088],[139.3940094780155,35.84535068256252],[139.393886110897,35.845415083160766],[139.39380707422814,35.84546848693842],[139.39373993044796,35.845525287003454],[139.39363117258856,35.8456586922524],[139.39361889429452,35.84577366321566],[139.3936187935232,35.84583445923236],[139.393603834346,35.845951167179265],[139.39356277072497,35.8461796508681],[139.3934812981434,35.84638186381001],[139.39345636132182,35.84644939038741],[139.39338706757815,35.846655289092325],[139.39340764577045,35.846715978549504],[139.39346887707933,35.846796384276104],[139.3937627528823,35.84705501140406],[139.39396553789393,35.84724064506254],[139.3943598816235,35.84770448636128],[139.39454403870334,35.84786836068286],[139.3946739339694,35.84794642903817],[139.39490869144458,35.84804457292905],[139.39495782972296,35.84792222525119],[139.39518873382022,35.84799006184849],[139.3956491096224,35.848129358148796],[139.39573388076064,35.848116686981335],[139.39588650247828,35.84794042780795],[139.3960204685038,35.84800498055476],[139.39604987144682,35.84802150947494],[139.3959406505908,35.84818477606366],[139.39588719734056,35.8482223223739]]]}}]}
