{"type":"FeatureCollection","features":[{"type":"Feature","properties":{"potaRef":"JP-1941","nameEn":"Wakayama Koutsuu Prefectural Park","nameJa":"","boundaryStatus":"全国都市公園GIS候補・公開前検証待ち","boundarySource":"国土交通省「都市計画決定GISデータ」都市公園・緑地を、POTA代表地点で空間照合して加工","boundaryScaleNote":"都市計画データは近似・未収録の可能性がある。POTA運用可否は公式情報で最終確認すること。","candidateMethod":"POTA representative point inside one MLIT urban-park polygon","sourceParkName":"和歌山交通公園","sourceParkType":"公園","sourcePrefecture":"和歌山県","sourceCity":"和歌山市"},"geometry":{"type":"Polygon","coordinates":[[[135.2176365096358,34.20284018887847],[135.21743102741874,34.20381175462372],[135.21773933855164,34.203781575116395],[135.21786263840855,34.203778033863315],[135.21847019529588,34.203753505258376],[135.2186731329701,34.203786261594416],[135.2187277865212,34.20379009873718],[135.22047613006427,34.203692335618925],[135.2204839202694,34.20365929875424],[135.2203711697623,34.203648484725036],[135.21968879021037,34.20351450597065],[135.21975018086192,34.203245965482104],[135.2193157379247,34.20314845005582],[135.21892544140022,34.20306473760919],[135.21867958622306,34.203014759912875],[135.21845960352084,34.20297143690014],[135.21822702619608,34.2029288455344],[135.21799810098958,34.20289042328761],[135.2176365096358,34.20284018887847]]]}}]}
