{"type":"FeatureCollection","features":[{"type":"Feature","properties":{"potaRef":"JP-1325","nameEn":"Tataranuma Prefectural Park","nameJa":"","boundaryStatus":"全国都市公園GIS候補・公開前検証待ち","boundarySource":"国土交通省「都市計画決定GISデータ」都市公園・緑地を、POTA代表地点で空間照合して加工","boundaryScaleNote":"都市計画データは近似・未収録の可能性がある。POTA運用可否は公式情報で最終確認すること。","candidateMethod":"POTA representative point inside one MLIT urban-park polygon","sourceParkName":"","sourceParkType":"公園","sourcePrefecture":"群馬県","sourceCity":"館林市"},"geometry":{"type":"Polygon","coordinates":[[[139.49488474409793,36.25149081431399],[139.49488223561733,36.251485805495605],[139.4948616125524,36.251492580321724],[139.49485678168398,36.25148360050613],[139.4942829016271,36.251686134133],[139.4938874427916,36.25182569716546],[139.49380010507883,36.25186027205037],[139.4937741637537,36.25187975078765],[139.4937520014272,36.251891597257384],[139.4937312717387,36.251908639863096],[139.49370678423864,36.251929853659185],[139.49367271307793,36.25196176466799],[139.49357542532323,36.25204519993933],[139.49351952235884,36.25208715504821],[139.4934599602818,36.25212528473749],[139.49342029958916,36.25214682943202],[139.49333747724668,36.25218814755552],[139.49324148940698,36.252234959029266],[139.49304211992109,36.2523309331285],[139.49296061870163,36.25236903574636],[139.49293304505923,36.25237874914848],[139.49291307647846,36.25239247549862],[139.49290025375356,36.252398477590425],[139.49288699335875,36.25240276600132],[139.49287284707003,36.252406060480254],[139.49286070879893,36.25240818900741],[139.49284322701953,36.252410843092626],[139.49281496454705,36.252410492260275],[139.49278145185,36.25241481313602],[139.49274393758054,36.25241813120015],[139.4927094382739,36.252419024378774],[139.49267572218957,36.25241892836875],[139.49263689375243,36.252417375739356],[139.4925926183597,36.25241454578877],[139.4925413385669,36.252410343945854],[139.49248850642144,36.25240487586444],[139.49243467594803,36.25239868388989],[139.49237951567534,36.25239122630752],[139.49232702716787,36.25238350593173],[139.49228299315544,36.25237635040582],[139.49222795163072,36.25236718065821],[139.4921838126314,36.25235858274684],[139.49213622923878,36.252348803329625],[139.4920955405406,36.252340034970565],[139.49145958362485,36.252216365962724],[139.4912360267142,36.25216642677822],[139.49102826279787,36.25212290133511],[139.490921091685,36.25212469577105],[139.49091107334064,36.25212554135784],[139.4907382794097,36.25216056614346],[139.49073940323322,36.25214824749688],[139.4903342856052,36.2522353972257],[139.49022950347916,36.25225946729387],[139.49016308056946,36.252277861113996],[139.49011090598142,36.25229509707899],[139.49008509267114,36.252304675700046],[139.49004162790038,36.252325154188156],[139.490013635329,36.25233942219754],[139.48998292325976,36.25235723342964],[139.48989127049754,36.25242224087409],[139.48983063600394,36.252465562447355],[139.48979582095203,36.25248773304682],[139.48975474706995,36.25250852473054],[139.48970137835096,36.25253158835413],[139.48952479050305,36.252593494452285],[139.48929258755243,36.25267040885904],[139.48923804034726,36.252688097270024],[139.48917860536667,36.252714027299156],[139.48914321037307,36.25273388876798],[139.48911256905407,36.252753250176696],[139.4890904053443,36.25277044586862],[139.4890770683208,36.252781997920756],[139.4890540718474,36.25281446958052],[139.4889034754231,36.253049341674405],[139.48880299324264,36.25324200687248],[139.48858383198817,36.253655575661725],[139.48841164145097,36.25398240531354],[139.4882710735678,36.25424872401582],[139.4881432199689,36.25449226411527],[139.48811026538925,36.25455503690498],[139.48804943054267,36.254673221277145],[139.48795843931146,36.25484669028964],[139.48792783873077,36.25490347043628],[139.48791961690918,36.2549203311548],[139.48788708696046,36.255005975647215],[139.48785690521203,36.255082506082786],[139.48783338777477,36.25514414862883],[139.48781254395047,36.25519753417804],[139.48779554464534,36.25523957473251],[139.48778467832292,36.25526357140064],[139.48777039040408,36.25529383107454],[139.48774859141812,36.255336659893445],[139.4877128167794,36.255409578033934],[139.48761991726604,36.255600850638274],[139.4876554648735,36.25566475987638],[139.48779268355034,36.25569521626827],[139.4878436831678,36.25570539478928],[139.48790617096012,36.25571719271043],[139.48798734071673,36.25573199171071],[139.48803242135924,36.25573924238577],[139.48810450606118,36.25574845300001],[139.48815362236797,36.255754365310544],[139.488205897434,36.25576003440116],[139.48825366194362,36.25576346449896],[139.48835317426173,36.25576857507661],[139.48865207486543,36.25578789541193],[139.48940221086417,36.255831315360396],[139.48939745475244,36.25608601126908],[139.48939458699698,36.25619310316685],[139.48939427026656,36.25622397896363],[139.48939499276773,36.2562539988588],[139.48939747945988,36.25628931604672],[139.48940091213447,36.25631899721665],[139.48940850490234,36.25636486523094],[139.48941101005101,36.25637667367669],[139.4894200412751,36.25641924386263],[139.48944436211008,36.256501624470594],[139.4895382576871,36.25675814290578],[139.48957897480454,36.25686937967342],[139.4895944736035,36.25691172139378],[139.4896213817574,36.25698523262418],[139.48964496006664,36.25704882304235],[139.48969022171596,36.25717414339788],[139.48970382873947,36.257213100755116],[139.48972931804155,36.257286077360426],[139.48973363322372,36.25729843183713],[139.48977062753627,36.25740604168465],[139.48981803495397,36.257544343364465],[139.48986498516834,36.25768050857173],[139.48989017146272,36.25775355376713],[139.48989469905794,36.25776668466649],[139.49000458684802,36.258017678315944],[139.48967577479954,36.2582162111747],[139.48953990428834,36.258293339599895],[139.48950542253746,36.25831248275942],[139.4894709267296,36.25835262562766],[139.48928032882225,36.258469775388285],[139.4892671272714,36.258480669910824],[139.4891895070768,36.25859225006884],[139.4891216227322,36.25866604961176],[139.48909407247953,36.258685482985314],[139.48886219561103,36.25881323847933],[139.4888534068003,36.258815159929355],[139.48884543338272,36.2588138571546],[139.48878299005128,36.25877611208468],[139.48865682797734,36.25890253129594],[139.4884227509889,36.258970429044254],[139.4883310827416,36.258996138681795],[139.48828415712072,36.258980176910164],[139.48805407864072,36.259204634045616],[139.48798397277218,36.25917082305046],[139.48771833088108,36.25956358949726],[139.48745825484042,36.259682491368835],[139.4872522724034,36.25978666011992],[139.4870659041789,36.259883233058396],[139.48703195993136,36.25985657557979],[139.4869942845839,36.25990611684791],[139.48695106868365,36.25995986105933],[139.48681979376232,36.26009547014393],[139.48686372292278,36.26027909442852],[139.48687913674746,36.26032177848023],[139.48689575855317,36.26037072990327],[139.4869008353269,36.26038734826012],[139.48691008578695,36.26041762878056],[139.48693551921514,36.26050748763494],[139.48695951655628,36.26059242135262],[139.48698595437332,36.26068671738386],[139.48701139309986,36.26077793716127],[139.48703317059204,36.26084894871872],[139.48706327857445,36.26094381414396],[139.4870960312506,36.26104969180456],[139.4871236294185,36.261138340150005],[139.48715143794067,36.261227250466625],[139.487177833695,36.26131603952165],[139.48721053623603,36.26142073632615],[139.4872480551037,36.26153864174473],[139.4872810561514,36.261641302503726],[139.48731788427125,36.26174427174191],[139.48733685971868,36.261795500406514],[139.48734553483686,36.261818920896495],[139.48739041085466,36.26196279924428],[139.48740776767747,36.26201844733032],[139.48748671365212,36.262274568184594],[139.48755428866548,36.26249512407627],[139.48756935814666,36.26254554609684],[139.4876032564041,36.26268359619137],[139.48761961194475,36.26275532198679],[139.4876430127323,36.26283780092234],[139.48773708835125,36.26316921159822],[139.4877510982151,36.263218565464435],[139.48773944055068,36.26326249632376],[139.4877124898055,36.26336405758477],[139.48760480641218,36.263731470164714],[139.48759910031987,36.263756549439464],[139.487841163092,36.26376394054138],[139.4879155483838,36.263764288144344],[139.4879479723009,36.263762516866755],[139.48798544248973,36.263759589920014],[139.48802739593333,36.263755672345546],[139.4880699128178,36.263750820456714],[139.48814620620993,36.2637411595034],[139.48822136407756,36.26373099958386],[139.48830629449589,36.26371843960339],[139.48836154950695,36.263708240575816],[139.4884066472786,36.263699172428105],[139.4884761452515,36.26368363186216],[139.48856086394412,36.26366265603031],[139.48869761044452,36.26362607800999],[139.48881477157357,36.26359258588503],[139.48900134622554,36.263535567542036],[139.48917411804914,36.263481636628676],[139.489273135531,36.263450845438726],[139.48943209793646,36.26340148897038],[139.4895772580984,36.26335765350615],[139.48965520065764,36.26333456761077],[139.49045578248015,36.26308337066109],[139.4909337372582,36.26293688520739],[139.4914794324128,36.2627674917229],[139.49204886910655,36.262591674291066],[139.4926419780793,36.26240993709038],[139.49319067554768,36.26223753669467],[139.493507627779,36.262140036167764],[139.4938228224795,36.26204415838331],[139.49432478958627,36.26189050829572],[139.49478292836395,36.26174734911137],[139.49550382586293,36.261525629520946],[139.49558958003576,36.261494252054355],[139.49572342202936,36.26145136847665],[139.49599332163055,36.261367860318046],[139.4961245923582,36.26132758274909],[139.49666808805654,36.26115444570374],[139.49674455172402,36.26112645083834],[139.49691466378576,36.26105960380862],[139.4972990475341,36.26090476288222],[139.49731911882697,36.2608955360852],[139.49734969078065,36.26087705559815],[139.49737379654002,36.26086126078123],[139.49738931665613,36.26084931734957],[139.49740651995359,36.26083413403543],[139.49742104967493,36.26081957410643],[139.49743424897352,36.26080383877564],[139.49744589219037,36.26078764843372],[139.49746639529994,36.2607555303149],[139.49749116777315,36.260713960740695],[139.49751516739084,36.260670946943335],[139.49756085133893,36.26060582252798],[139.49756921397997,36.26060206062724],[139.49759644178533,36.26058483248033],[139.49761105571332,36.2605765817233],[139.49762744751172,36.26056896685021],[139.49764450162283,36.2605626156255],[139.49765887561693,36.260558419948914],[139.49769317979303,36.260551936869476],[139.49784088572463,36.26054541139264],[139.4980638312216,36.26053666319376],[139.49813919133368,36.2605322778728],[139.49822999398188,36.260534064472175],[139.49833324486346,36.26053958111482],[139.49839043767784,36.26054163396874],[139.4984417754375,36.260533576067026],[139.49855505677894,36.26048351162707],[139.49855850740514,36.26048334102878],[139.49858544893007,36.260480982974066],[139.4985993707952,36.26047840822286],[139.49861084821933,36.26047492534965],[139.49862656680318,36.260468570247255],[139.49866782555273,36.260449218044606],[139.49881281950118,36.260347869123855],[139.49886517109985,36.26031079265903],[139.49890970193522,36.26028090454546],[139.49901337030497,36.26021449962234],[139.49906212948645,36.26018471339743],[139.49915174188192,36.260126200335556],[139.4992107967669,36.26008292361273],[139.49928056066685,36.26003363819208],[139.49933513830317,36.259996387479326],[139.4994335793817,36.25992906631069],[139.49947354173437,36.259900427023474],[139.49973742476956,36.25971171418971],[139.4998715930337,36.25961700324683],[139.50010330601575,36.25945604946154],[139.50026593464904,36.25934167931732],[139.50049230782523,36.25917989874613],[139.5007788334858,36.25897781750771],[139.50103554883273,36.25879836502513],[139.5012364612336,36.25865661084053],[139.50143290329058,36.25851917005515],[139.50170524512606,36.25832795269933],[139.50207903473114,36.258067526976326],[139.50214689220954,36.258020848292425],[139.50224202388367,36.25797100232749],[139.50228520940144,36.25794060362242],[139.50288140734764,36.258155486818296],[139.5031686896119,36.258260819182915],[139.50339251934736,36.258342055970076],[139.50366520079083,36.25843983021496],[139.50399730368596,36.25856008305831],[139.50431876419302,36.258676114767574],[139.50467713172742,36.25880449536515],[139.5046833665649,36.25880912703199],[139.50495883279476,36.259072064941854],[139.50518726736288,36.259285384091505],[139.50525480043234,36.2593508127481],[139.50552646357076,36.25960330210556],[139.50571851934458,36.25978783288629],[139.50582772955187,36.25989075128794],[139.506061984467,36.26011320558318],[139.50623270938095,36.26027359504906],[139.5064545417061,36.26048392847015],[139.50661976368718,36.26063795734713],[139.5068738073403,36.26088248224475],[139.50709082877103,36.26108580931022],[139.50726607846389,36.26125158834118],[139.5073218862202,36.26131407272011],[139.50816677510542,36.262121914299094],[139.50840948918278,36.262110733423384],[139.50843623645613,36.26211085444224],[139.50843986427336,36.26211087554224],[139.5078062194599,36.26258000849992],[139.50744952214706,36.262837586449734],[139.5070981244629,36.26309407822455],[139.5068211955598,36.26329828191369],[139.50651263201487,36.26352219056101],[139.50630736729076,36.26367410750516],[139.50603601739678,36.26387387231114],[139.50570814953065,36.26411419236638],[139.50528389373073,36.26442261803912],[139.50489913605333,36.26470361666107],[139.50463379168716,36.26489739225401],[139.50419205428267,36.26522190668172],[139.5041986373419,36.265236042327],[139.50420376493344,36.26524999593554],[139.5042118869549,36.26527879089785],[139.50421450775175,36.26529124376676],[139.50421704793138,36.26530331357528],[139.50421983015343,36.265322763116714],[139.5042213844126,36.26533797431285],[139.50422082875374,36.26536239701977],[139.50421792586866,36.26538497287434],[139.5042154778146,36.26539937349181],[139.50420995573424,36.26541726043325],[139.50420092047912,36.26544208002809],[139.50419475608555,36.26545619973241],[139.50418693596797,36.2654703707418],[139.50417671628097,36.26548640468032],[139.5041720321041,36.26549274238726],[139.50444719963605,36.26578749951719],[139.50446226186907,36.26580226731549],[139.50449100250646,36.265825217666496],[139.50457170338674,36.26588336560052],[139.504599386382,36.26589850698685],[139.50463121461388,36.26591386185143],[139.504664024719,36.26592640743417],[139.50469579601358,36.26593647978149],[139.50472743030193,36.26594663653493],[139.504753052843,36.26595936082415],[139.50534556978255,36.26628350827856],[139.50565238623977,36.26645105528139],[139.50568006963846,36.26646617261828],[139.50590187263012,36.26658729424505],[139.50648945794666,36.26689262191116],[139.50653137508633,36.266913321561034],[139.5067618158269,36.26705116016701],[139.506782661106,36.267049622689484],[139.50679516078557,36.26704669161067],[139.50680819404693,36.26704123841496],[139.5068253962025,36.26703156961267],[139.5068373897291,36.26702188659304],[139.5068457455799,36.267011788070725],[139.5071485402271,36.26673853006056],[139.5076375484117,36.26625261794091],[139.50770575119196,36.26630776957395],[139.5079320936601,36.26612012604223],[139.5079629199203,36.26609389254654],[139.50797812136616,36.26608094551428],[139.5081517129493,36.26621045159321],[139.50816360783426,36.26621932561555],[139.50817858559054,36.2662236403355],[139.5082794622528,36.26612119131146],[139.5082963682186,36.26610128346551],[139.50846810947937,36.26603352425083],[139.50852502667405,36.26597833592956],[139.50852825894188,36.265968610285654],[139.5085280818257,36.26596218425426],[139.50852281634874,36.26595508532005],[139.50844527523913,36.26589360135427],[139.5082183258739,36.265764073659945],[139.50807785374994,36.26569637204481],[139.50787134795405,36.26558019769309],[139.50785746843124,36.26557050720593],[139.50785115711008,36.265557941545445],[139.5078496130386,36.26554667587596],[139.50785202458863,36.26554056905263],[139.50811293722464,36.265275001800426],[139.50813221010904,36.26525175558027],[139.50815683807386,36.26522120108078],[139.50833323520007,36.265041052069535],[139.50837053801627,36.26500585447988],[139.50838707386734,36.2649903473857],[139.50841713877708,36.264959695428296],[139.50886520640105,36.26451570684402],[139.50907046375346,36.264673585218496],[139.50950695933142,36.26500454568908],[139.51011191150678,36.264502382228635],[139.51062054264693,36.26408550026837],[139.51075057499608,36.264161801491795],[139.5110375007122,36.264383612752034],[139.51121513837873,36.26456465279649],[139.5112634732243,36.26462824738473],[139.5112847147857,36.264658647249775],[139.51131317455196,36.264686845129965],[139.5114376698693,36.2647967264892],[139.51151156853564,36.26482706136021],[139.5116143399278,36.26486791578556],[139.51183010688393,36.26498430977932],[139.51201917908742,36.26510566278744],[139.51223729193381,36.26483160338972],[139.51229642804924,36.264758785615705],[139.5124233221561,36.26460253288649],[139.51260445114818,36.26439938942804],[139.51276954908334,36.264199445295176],[139.51276116322634,36.264148711503964],[139.51250829148663,36.263966368647296],[139.51245357470356,36.26392957601646],[139.51240631039198,36.263899247476196],[139.51234860613084,36.26386366350535],[139.5123390302953,36.2638582246571],[139.5123253629341,36.263850461916284],[139.51230731244192,36.26384020965517],[139.51224660463052,36.26380704200686],[139.51219059964285,36.26377778947693],[139.5110196031585,36.26315919248265],[139.51083162707718,36.26305749060072],[139.51078416941786,36.26303116255751],[139.51073856662686,36.26300574077324],[139.51070546074246,36.26298600367602],[139.5106797187176,36.262969855484236],[139.51065507724917,36.2629540076765],[139.51061073397238,36.26292272193288],[139.5105674774423,36.262892394457374],[139.51053773432034,36.26286953895787],[139.51049718585108,36.262838326500315],[139.51045772047954,36.26280625172693],[139.51042906987436,36.26278295752336],[139.5104025855279,36.262757911672],[139.51036152220152,36.26271661249782],[139.51032099310692,36.26267531475163],[139.51028533341264,36.2626379777304],[139.51024805585925,36.26259624711396],[139.51019620994515,36.26253299972378],[139.51014904427268,36.26247032633495],[139.51010135850552,36.26240917788175],[139.5100674898906,36.26236706740581],[139.51005318843323,36.26234900298523],[139.51003598933025,36.26232725493513],[139.51001865161393,36.26230534237328],[139.5099382749931,36.26220011128481],[139.5098888890707,36.26213549263133],[139.50986431960519,36.26210474247698],[139.5098371600966,36.262071876466436],[139.50981611791616,36.26204070659771],[139.50977884443154,36.26199025107457],[139.50974194890335,36.2619430558919],[139.50970173521213,36.2618963199923],[139.50966718199354,36.26185861426553],[139.50962802642835,36.2618184741054],[139.50942688851788,36.26164206591953],[139.5091541356539,36.26139820001147],[139.50872885204427,36.26098445301229],[139.50870200533538,36.26095833437284],[139.50858047860194,36.26084010309093],[139.5080547569715,36.26026286847512],[139.50752498868133,36.259738621267886],[139.5074936763533,36.25970637273396],[139.50745707630892,36.259661724970684],[139.50743260570712,36.25962624475218],[139.50740169229766,36.259577490248176],[139.50738498518768,36.259549202928895],[139.50731988767478,36.25939730032605],[139.507274032227,36.25929412336856],[139.50721849386278,36.25918587284522],[139.50715864861687,36.25907769166551],[139.5071286388386,36.25903120309548],[139.50709087153155,36.258979592134786],[139.50706924611293,36.25895345020593],[139.50703749872955,36.25892343221237],[139.50700573758326,36.25889405407917],[139.5069646577916,36.25885762956774],[139.50692355638438,36.258823737570715],[139.50689952329566,36.2588039160039],[139.50687235471472,36.25878343695601],[139.5068311989072,36.25875461896673],[139.50647339593797,36.25851670473803],[139.50642567409517,36.258485511951655],[139.50574908057388,36.258040904588526],[139.50553827672624,36.25790459481788],[139.5053963889474,36.25781222012778],[139.505392235405,36.257809387149074],[139.50538344253837,36.25780338985623],[139.50526546312472,36.25772292026141],[139.50515898821533,36.25764402440535],[139.50507479162363,36.25757802713561],[139.50503670014922,36.25754854998453],[139.50498887019873,36.257508717456375],[139.50486198394003,36.257397232636784],[139.50455251767434,36.25714612671642],[139.50441544373308,36.25703087386689],[139.50419604226764,36.25683730436082],[139.5041433233121,36.25679605694352],[139.50406195333133,36.25673345102982],[139.50390070621287,36.25660623197474],[139.50365857709826,36.256416787395345],[139.50336980459787,36.25619084294327],[139.50315596582095,36.25602189364166],[139.50307721954485,36.255959397755795],[139.50297319469044,36.255874750627704],[139.50284509499903,36.25577282243296],[139.50272431384803,36.25567713316518],[139.5025453266671,36.25553027033523],[139.50240626472805,36.25541569342091],[139.50223216738038,36.25527064620808],[139.50211462394864,36.25517280220795],[139.50198909733137,36.25506817637194],[139.50183684711493,36.25494121471068],[139.50158875446792,36.254742785900056],[139.5015713406606,36.254729308519316],[139.50154516565587,36.254708776844524],[139.5015205344492,36.25469158418569],[139.5014846886189,36.25466859221307],[139.50144661649793,36.254645774309054],[139.50133783836907,36.254580760485055],[139.50117300807855,36.25448188302361],[139.5011066847993,36.25450846688462],[139.5010936439901,36.254513477838586],[139.5008654882037,36.254590001050616],[139.50081911334814,36.254561805221904],[139.50074152073591,36.2545277814529],[139.49996255617248,36.254099027448326],[139.4999670578436,36.254093003550956],[139.49989894506277,36.25403969445795],[139.4998120057079,36.2539723222168],[139.4997209051773,36.253905735777266],[139.4993824551541,36.253631158843746],[139.49922007964764,36.253501971595],[139.4991986087884,36.253514716696436],[139.49889095355815,36.25344201819891],[139.4987536358596,36.25341840198798],[139.498442335391,36.252912078293946],[139.4984058181169,36.252915370208534],[139.4983507606547,36.25291813162861],[139.49810397432535,36.2529384401435],[139.49809144491223,36.25292795016997],[139.49791961998972,36.25294097810284],[139.49773280826088,36.252954359951424],[139.49770446480406,36.2529563902469],[139.49757798290563,36.252965450301666],[139.49753816770112,36.25296052952206],[139.49731372750168,36.25277113129541],[139.49705136561172,36.25254755460977],[139.49694442581222,36.252455343686854],[139.49673925874563,36.25227735135938],[139.49634500234782,36.25191151209587],[139.49735708467733,36.25153557353576],[139.49735415501144,36.25149212354951],[139.49734161150664,36.25145901129568],[139.4972937204208,36.25136514351876],[139.49728456080854,36.251347362546326],[139.49728364387155,36.251327621909766],[139.49728374536986,36.251303918496326],[139.49726441559744,36.25121851285262],[139.49721235275322,36.25111147461237],[139.49719387680477,36.251086547332505],[139.4971838455982,36.25106443775204],[139.4971832230367,36.251027934107874],[139.49720104135753,36.250946598469454],[139.4972991907077,36.250711279261154],[139.4972358328076,36.250669462068444],[139.49720121377453,36.250672519283796],[139.49716792901637,36.25067548001037],[139.49716791001168,36.250675481700846],[139.497141266106,36.25067847719387],[139.49711269844116,36.25068195695342],[139.49708702857382,36.250686940973075],[139.4969675185704,36.250719760883854],[139.49695185093208,36.25072492802496],[139.49681223305126,36.25076939742904],[139.49651068646773,36.25086717335424],[139.49637035664043,36.25091010298272],[139.49634876992516,36.250916706760705],[139.4963243408321,36.25092418006895],[139.49625100306153,36.2509480517507],[139.4962132165644,36.250963106163994],[139.49591801864727,36.251087293269556],[139.49548945764667,36.25127087127466],[139.49540477225926,36.25130666441762],[139.4953078732661,36.251345291410345],[139.49520833826463,36.25138155370225],[139.49491746634004,36.251480063516176],[139.49488474409793,36.25149081431399]]]}}]}
