{"type":"FeatureCollection","features":[{"type":"Feature","properties":{"potaRef":"JP-1613","nameEn":"Mizushima Ryokuchi Prefectural Park","nameJa":"","boundaryStatus":"全国都市公園GIS候補・公開前検証待ち","boundarySource":"国土交通省「都市計画決定GISデータ」都市公園・緑地を、POTA代表地点で空間照合して加工","boundaryScaleNote":"都市計画データは近似・未収録の可能性がある。POTA運用可否は公式情報で最終確認すること。","candidateMethod":"POTA representative point inside one MLIT urban-park polygon","sourceParkName":"倉１ 水島緑地","sourceParkType":"緑地","sourcePrefecture":"岡山県","sourceCity":"倉敷市"},"geometry":{"type":"Polygon","coordinates":[[[133.75097185140623,34.530621195512815],[133.75096415602124,34.53023617275016],[133.75063220722114,34.53022457077939],[133.75027596023463,34.53022573291983],[133.75007529543262,34.530234793443306],[133.74969520215822,34.53023809472302],[133.74940650724307,34.53024122240911],[133.74824216943057,34.53024176776862],[133.74788412226246,34.53024736694544],[133.7473285340532,34.53025146386446],[133.74726316051613,34.530253403991075],[133.74705336113996,34.53026808360829],[133.7469607235898,34.530274400323115],[133.74666470253047,34.530288585041774],[133.74668614198583,34.530683692646065],[133.74790009339318,34.53068919139288],[133.74821485654041,34.53068530146234],[133.74841211245484,34.53068488323137],[133.74872799419222,34.53068864949065],[133.74912834408633,34.530686057562505],[133.74952869334587,34.53068355447131],[133.75004159422195,34.530686501881256],[133.75016856249525,34.53068471826361],[133.75036909730355,34.53067461300517],[133.7505385853904,34.53067255955411],[133.75064018929763,34.53065109939756],[133.75076258312424,34.530624013633876],[133.75085823631048,34.53062924074467],[133.75097185140623,34.530621195512815]]]}}]}
