{"type":"FeatureCollection","features":[{"type":"Feature","properties":{"potaRef":"JP-1735","nameEn":"Minamata Koiki Prefectural Park","nameJa":"","boundaryStatus":"全国都市公園GIS候補・公開前検証待ち","boundarySource":"国土交通省「都市計画決定GISデータ」都市公園・緑地を、POTA代表地点で空間照合して加工","boundaryScaleNote":"都市計画データは近似・未収録の可能性がある。POTA運用可否は公式情報で最終確認すること。","candidateMethod":"POTA representative point inside one MLIT urban-park polygon","sourceParkName":"","sourceParkType":"公園","sourcePrefecture":"熊本県","sourceCity":"水俣市"},"geometry":{"type":"Polygon","coordinates":[[[130.38131141763114,32.202445201878135],[130.38185805156596,32.20075536357415],[130.38203768993026,32.200463137346595],[130.38220045776418,32.20031287126192],[130.38230764848382,32.20014655094595],[130.38227218688962,32.1999006210389],[130.38197181266762,32.1996173222549],[130.3818449796146,32.199551317489046],[130.38151185412934,32.199379113589266],[130.38133250624222,32.199340726115125],[130.3795503749332,32.19872949649479],[130.37936991038507,32.19912433864811],[130.37805634260124,32.20083141699577],[130.37836264668428,32.203060277251126],[130.38033873905746,32.202317038418975],[130.38131141763114,32.202445201878135]]]}}]}
