{"type":"FeatureCollection","features":[{"type":"Feature","properties":{"potaRef":"JP-1377","nameEn":"Iwase Sports Prefectural Park","nameJa":"","boundaryStatus":"全国都市公園GIS候補・公開前検証待ち","boundarySource":"国土交通省「都市計画決定GISデータ」都市公園・緑地を、POTA代表地点で空間照合して加工","boundaryScaleNote":"都市計画データは近似・未収録の可能性がある。POTA運用可否は公式情報で最終確認すること。","candidateMethod":"POTA representative point inside one MLIT urban-park polygon","sourceParkName":"富山県岩瀬スポーツ公園","sourceParkType":"公園","sourcePrefecture":"富山県","sourceCity":"富山市"},"geometry":{"type":"Polygon","coordinates":[[[137.2401434218354,36.74543517070429],[137.24010629897714,36.74513135948357],[137.24064822071028,36.7445779243905],[137.2408372168313,36.74437906820693],[137.24111486407818,36.744095945040364],[137.24148616814108,36.74371305624105],[137.24142201450962,36.743162691759295],[137.24135786571796,36.742616369329525],[137.24133339104188,36.74241090918026],[137.24132410607092,36.74233141956122],[137.2413047017101,36.742175135602004],[137.24124476736012,36.74165710536843],[137.2410722109127,36.74017301573715],[137.24099680267318,36.74017471535626],[137.24094753089446,36.74018090542866],[137.24085477429108,36.740193882813124],[137.24083219950649,36.74020516391208],[137.24006607463969,36.74031755803424],[137.23998526314477,36.740329776237886],[137.23948471687032,36.74040579798742],[137.23917210699733,36.7404519583271],[137.23884517508708,36.74049969291477],[137.23873706613298,36.74051697043078],[137.23862620816817,36.740535665666],[137.23814627752833,36.74060541423725],[137.2380399101649,36.74060355308697],[137.23780915605795,36.74062734595379],[137.23735852263766,36.74066353458546],[137.23719743001033,36.7406802760664],[137.23711688727332,36.740692589173136],[137.23707661749557,36.740700497905195],[137.2370450578472,36.74071015367311],[137.23700805775223,36.74072244094849],[137.23696671376163,36.74074612007877],[137.23692210883203,36.740775057719844],[137.2368840408668,36.7408101241875],[137.2368546901951,36.74085482260206],[137.23684165767037,36.740888122087924],[137.23682757324437,36.740961722792335],[137.23682325723377,36.74100377813646],[137.2368232947092,36.74104495481381],[137.2368244159731,36.741080874252084],[137.23686390615802,36.74141201674849],[137.23692534000622,36.74193150773189],[137.23699007083664,36.742484288480966],[137.23702422182322,36.74277457298862],[137.23702567724212,36.74277800060511],[137.23702742262117,36.742780882610624],[137.23702945739137,36.74278259564604],[137.23703284812984,36.7427848533192],[137.2370356571702,36.74278625421698],[137.23704049962956,36.74278788767206],[137.2370538419858,36.74279018505764],[137.23788804841053,36.7427315701546],[137.23790267008164,36.74284109283394],[137.23795582990962,36.743315700485304],[137.23707059339569,36.74337803834331],[137.23647467062565,36.743423516449745],[137.23645793207584,36.74342676721382],[137.23644657216576,36.74343317588987],[137.2364381272011,36.74344006920989],[137.23643219127084,36.743450173381056],[137.23642956248844,36.74346506015116],[137.2364942435703,36.74401319114075],[137.23654669082606,36.744059278734234],[137.23655960905907,36.744100264121364],[137.23675980047204,36.74406834575984],[137.23689523073628,36.74436269161414],[137.23693557314027,36.744640794770206],[137.23696134322702,36.74480667792303],[137.23700507881352,36.74509179665613],[137.23709187639955,36.74565778768559],[137.2382931067232,36.74557138670147],[137.2401434218354,36.74543517070429]]]}}]}
