{"type":"FeatureCollection","features":[{"type":"Feature","properties":{"potaRef":"JP-1022","nameEn":"South Hokkaido Shiki no Mori Prefectural Park","nameJa":"","boundaryStatus":"全国都市公園GIS候補・公開前検証待ち","boundarySource":"国土交通省「都市計画決定GISデータ」都市公園・緑地を、POTA代表地点で空間照合して加工","boundaryScaleNote":"都市計画データは近似・未収録の可能性がある。POTA運用可否は公式情報で最終確認すること。","candidateMethod":"POTA representative point inside one MLIT urban-park polygon","sourceParkName":"道南四季の杜公園","sourceParkType":"公園","sourcePrefecture":"北海道","sourceCity":"函館市"},"geometry":{"type":"Polygon","coordinates":[[[140.76671210400724,41.85416706820538],[140.76675243229047,41.854149977025635],[140.76691878119806,41.85407586286878],[140.7669699111885,41.85405265421553],[140.76716591202484,41.85397873044067],[140.76733750324507,41.85391709887172],[140.76678695697095,41.853098820289375],[140.7671143505872,41.852893916406174],[140.76740223515074,41.85271372586207],[140.76746901233722,41.852674769797055],[140.76734387039807,41.852484904234544],[140.7672719817814,41.852444222601186],[140.767208731469,41.85240842735427],[140.76739349251775,41.85240935142504],[140.76751886003265,41.85237337324179],[140.7675395149821,41.85211095997956],[140.76754119668485,41.852089540345744],[140.76760280339823,41.851947149100624],[140.7676728152943,41.851785297837],[140.76769794954149,41.8517271973659],[140.76776621141516,41.85156940583786],[140.76777073927684,41.85155893152579],[140.7678100600248,41.85146803673561],[140.7678268830672,41.851429152698636],[140.7678685867193,41.85134255117495],[140.7678830160507,41.85131297028319],[140.76791663726613,41.85124407146664],[140.76801078465854,41.85105278446226],[140.76809727560556,41.851037753696204],[140.76817004486614,41.85102510782702],[140.76837264661384,41.850989906043225],[140.76840723332697,41.85098389728234],[140.76854041326018,41.85095980441142],[140.76864609313213,41.8509423995808],[140.76871526645309,41.850930381886776],[140.76883172576703,41.85091014592699],[140.76896122113118,41.85088764494905],[140.76999229846723,41.85070849144044],[140.77004312989195,41.85121616269679],[140.7702278649827,41.85115787963853],[140.7703885025368,41.851331167952026],[140.77048040436253,41.85144123356086],[140.77064013672472,41.85137531043811],[140.77075195691137,41.85132952155754],[140.77076871689465,41.85132312464645],[140.77089409680866,41.85127283510304],[140.77101562333823,41.85122409361449],[140.77115611088146,41.851168638910714],[140.7712087861237,41.85114784338823],[140.77136782589255,41.851084299539664],[140.7713839471403,41.8510778604181],[140.77152878186013,41.85102537503678],[140.77154434206042,41.85101806504299],[140.77158109725556,41.851001807725005],[140.7717452063664,41.850948577336005],[140.77190657188032,41.85090008638536],[140.77196441684225,41.85088269769905],[140.772100452184,41.850839670005016],[140.77223663149255,41.8507965964749],[140.7722875260273,41.85078049979516],[140.77230102738707,41.8507762244717],[140.77252537502184,41.85083697376968],[140.77274043221027,41.85102260837247],[140.7727799764076,41.851007256418214],[140.77334681936455,41.85092110878638],[140.77380551831453,41.8507453009934],[140.7741292274711,41.850753802050356],[140.77432587935576,41.850766087349605],[140.77456448610604,41.850781008176014],[140.77488593568037,41.85083712271198],[140.77505589226726,41.85073358134427],[140.7753311934903,41.85056612359558],[140.77553247232643,41.85038176056825],[140.77530237662202,41.85010450995895],[140.77541798080276,41.85003318140885],[140.77538197336276,41.8499773397526],[140.7752658899615,41.84981068894129],[140.77524394583074,41.84977362880399],[140.77520977799347,41.8497159238149],[140.7751692847869,41.84964755070182],[140.77516790882657,41.84963834567159],[140.7751568117034,41.84956407554177],[140.77514126815032,41.84946004876833],[140.7751218128707,41.849329792559274],[140.77510870235403,41.84924198927108],[140.7750960506668,41.849157272331546],[140.77499027974574,41.84905413489565],[140.77468515943124,41.84882465983495],[140.77452089634568,41.84860480608967],[140.77448950197575,41.84851205278769],[140.7742989262818,41.84795460639709],[140.77424981165788,41.84781094292684],[140.7742373756753,41.84777455955322],[140.77421958541805,41.84772104755123],[140.77409467115186,41.847563403948016],[140.774008061277,41.84745409134566],[140.77394094428155,41.847369379408605],[140.77388008163925,41.847292562643375],[140.7737111102486,41.84707932021078],[140.77361414696878,41.846937747310214],[140.77341649597645,41.84665107954767],[140.77330894233597,41.84666074454508],[140.77328208644548,41.846561595220074],[140.77323704118405,41.846395285127414],[140.7732015313735,41.84626415614245],[140.77315879318678,41.84603664278695],[140.77314017463544,41.84593750995187],[140.77313291996964,41.845916175938434],[140.77310589194062,41.845854917126594],[140.77302425004507,41.84567949010437],[140.7731188787751,41.84563704578136],[140.77309956709524,41.845613857737256],[140.77293764208488,41.845496035830216],[140.77263910123222,41.845321910187955],[140.7725052456428,41.84528667287211],[140.77247876895387,41.845279697886575],[140.7718146219573,41.84510485415308],[140.7716745285878,41.84511095558064],[140.77159788529107,41.84511429278355],[140.7714965714659,41.845143205818246],[140.77101026640526,41.84528159955054],[140.77088733672912,41.84529415017243],[140.7698359592643,41.84568150740638],[140.76958017524888,41.84581657458549],[140.7687281178218,41.84509243852207],[140.76791420237717,41.84551474177092],[140.76761033316225,41.845077171454044],[140.76702306921874,41.84422938089558],[140.7667569726596,41.84388284077926],[140.7666687561015,41.84376782931717],[140.76637054058378,41.84338593757739],[140.76629501947195,41.84324580984927],[140.76592117044564,41.842569978225676],[140.76565003666593,41.84263756481654],[140.76540552139895,41.842707588711505],[140.76495778591018,41.8417903553885],[140.76505713813629,41.84153111819058],[140.76501904368598,41.84153609706287],[140.76496874022806,41.84154267031978],[140.76475608355702,41.841567015389224],[140.76436677453344,41.841458364394605],[140.76388576785916,41.84199774674461],[140.76352069572687,41.842305190252254],[140.76320795029383,41.842379358969474],[140.76316077825172,41.842369574685065],[140.7629698733719,41.84243857986178],[140.7626210327428,41.842564673729875],[140.76270774248974,41.842730182423296],[140.7626690648745,41.842817390406175],[140.76252280818713,41.84297524837427],[140.76268423006883,41.84326196409624],[140.76343574018546,41.84459961929438],[140.76348473998797,41.84504629066693],[140.7635209446348,41.84537631498102],[140.76375196649468,41.84570064261193],[140.76393329556632,41.84595766896598],[140.76414489616369,41.84626079644363],[140.76470514991706,41.847058416081055],[140.76482030118498,41.84722234502763],[140.76499865093027,41.84747624029189],[140.76501339066172,41.84749722618462],[140.76498871947916,41.84825606143557],[140.76498499137048,41.84830015391587],[140.7649551300324,41.848654370605665],[140.76492979170985,41.84895554101936],[140.7648662607415,41.84913909799366],[140.76482507789143,41.84925786835161],[140.7649017529083,41.84960264853028],[140.7653909192911,41.85017113586895],[140.76571644326793,41.850549447439846],[140.76575520558362,41.85083371968323],[140.76578229636422,41.85149864879711],[140.7655983029306,41.85172307668485],[140.76556683026556,41.85176146788979],[140.76548128740848,41.85185413607277],[140.7647421799849,41.85275806956749],[140.7645560240182,41.852978172780375],[140.76459561540833,41.8531469316457],[140.76460130172066,41.853171181411085],[140.76465704235795,41.85326477317816],[140.76471039771502,41.85327572636457],[140.76476840950988,41.853287640119184],[140.76510010781755,41.85317843682018],[140.765420365039,41.85316527729302],[140.76554522724354,41.85332378468641],[140.76559341524546,41.8534694359048],[140.76566346304506,41.85357475839611],[140.76585941380267,41.853683252380144],[140.76591390655227,41.85378312498596],[140.76602126926525,41.85386793928139],[140.76603763670852,41.85393085888109],[140.7661213746213,41.853960799772274],[140.76615712694309,41.85405150915299],[140.76617184359208,41.85408886432944],[140.76626526778904,41.85414462154044],[140.76623514939058,41.854227189948844],[140.7662709340109,41.8543592732508],[140.7664399518969,41.854303885430156],[140.76671210400724,41.85416706820538]]]}}]}
