{"type":"FeatureCollection","features":[{"type":"Feature","properties":{"potaRef":"JP-1476","nameEn":"Hokusei Central Prefectural Park","nameJa":"","boundaryStatus":"全国都市公園GIS候補・公開前検証待ち","boundarySource":"国土交通省「都市計画決定GISデータ」都市公園・緑地を、POTA代表地点で空間照合して加工","boundaryScaleNote":"都市計画データは近似・未収録の可能性がある。POTA運用可否は公式情報で最終確認すること。","candidateMethod":"POTA representative point inside one MLIT urban-park polygon","sourceParkName":"９・６・１北勢中央公園","sourceParkType":"公園","sourcePrefecture":"三重県","sourceCity":"四日市市"},"geometry":{"type":"Polygon","coordinates":[[[136.5394969290997,35.06351328702955],[136.53946476910497,35.06354110459419],[136.53944070778414,35.06356672265216],[136.53943248601698,35.06357755038101],[136.5394157077718,35.06359964662848],[136.5394040927342,35.06362827364098],[136.53940406281833,35.0636283473731],[136.53917062133087,35.06373137079485],[136.5389314569828,35.06380322650743],[136.53886435595157,35.063835601946586],[136.53868758405184,35.06397797032544],[136.53857581349632,35.0640488109332],[136.53813703873791,35.06427087682415],[136.53792954921204,35.064365299125164],[136.5379094980665,35.06437396631221],[136.53785137986034,35.06449703476898],[136.53776717371284,35.06455459438109],[136.5375961673897,35.064626976561364],[136.5375421052777,35.064683557092565],[136.53745018667834,35.06477974400035],[136.53742343159487,35.06480768088448],[136.53730940227587,35.06478746330804],[136.5372724499421,35.06485937213451],[136.53715044135694,35.06503539989951],[136.53688947955325,35.06522246217493],[136.5368580826708,35.06524795461973],[136.5367604564574,35.06535564571605],[136.53681694142486,35.065420386783316],[136.53680697406045,35.06543864019243],[136.5367855034779,35.06550850746625],[136.53677964654912,35.065540070051],[136.5367273677196,35.06558009819813],[136.5367126369612,35.06559347394392],[136.53669718276237,35.06560755715116],[136.53662348697625,35.06567457688263],[136.536603770868,35.065711426462386],[136.5365198988865,35.065865889506455],[136.53651586162533,35.065870733132606],[136.53638957017668,35.066022248507906],[136.53622306259328,35.06617276675617],[136.53612747053583,35.06625214770881],[136.53607166897515,35.066318424972245],[136.53603942614438,35.066362298115784],[136.5360189565335,35.06639761597113],[136.53597821934935,35.06655100629796],[136.53624439866007,35.06656358398848],[136.5362507123853,35.06656470817811],[136.53625493539545,35.06656756987501],[136.53656147376853,35.066926922153705],[136.53697408083698,35.06693740022229],[136.53735492618625,35.066951180997634],[136.53839253282553,35.066976509266276],[136.53889472548866,35.06699976279147],[136.53877711361457,35.06712507838688],[136.53873461995306,35.06717597391679],[136.5387030043212,35.06721379229392],[136.5386445442984,35.0672595473303],[136.53862711726075,35.06727321700178],[136.5384768829765,35.06732677486673],[136.53833660336656,35.067409162802456],[136.53824190966392,35.06748281852869],[136.53809904640946,35.06759724295974],[136.53827509076535,35.06793460024769],[136.53820066867948,35.06799549712696],[136.53814452151863,35.06804138250377],[136.53805781271097,35.06814867397562],[136.53801635709806,35.06823379151061],[136.53798412593687,35.0683604191688],[136.53794503088747,35.06850489500002],[136.53782547651363,35.06865860188627],[136.53779882444874,35.06872189206869],[136.53777035804868,35.06878934541651],[136.53773501295154,35.068885422116146],[136.5376986536241,35.06891847236941],[136.53754314592825,35.068991278754716],[136.53744908558892,35.069049022803945],[136.53741205842732,35.069071723370406],[136.53737259973093,35.06909591365669],[136.53733228814096,35.06912067112088],[136.53723553995337,35.06918004672815],[136.5372119928876,35.06919451804395],[136.53717304617368,35.069218424292835],[136.5371337153673,35.06924254351058],[136.53711460164035,35.06925382598531],[136.53709992498395,35.069262483024325],[136.53705568177827,35.0692885959282],[136.53699944944492,35.06932173413306],[136.53688254802333,35.069390706316305],[136.53687402202706,35.06939680073008],[136.5368592297862,35.06940743017134],[136.536763995404,35.06947567233152],[136.53669519136105,35.0695249936088],[136.53660254263986,35.06959568908154],[136.53650608791727,35.06961453144228],[136.5364449098454,35.069613835319664],[136.53633235473978,35.06961207715996],[136.53625761987172,35.06961504560294],[136.5362423586721,35.0696199492907],[136.53619896306918,35.06964531824484],[136.53614912316755,35.06967200534414],[136.53609575620516,35.06969903045385],[136.53606583859775,35.069714022683414],[136.536015117109,35.06972588295028],[136.53591917001222,35.06975051724818],[136.53586251676876,35.069763975255846],[136.53581790370885,35.06977394352672],[136.53576819097884,35.0697890505531],[136.53571618677864,35.069815719796615],[136.5356668619104,35.06984996537586],[136.5355984326262,35.069896255675935],[136.5355218896663,35.06994984990043],[136.53547380939142,35.06997849271983],[136.53544368707307,35.069998542974915],[136.53541541467595,35.07003072723949],[136.53539325353285,35.070052289938026],[136.535444907569,35.07007072192026],[136.5354569971405,35.0700750856512],[136.53550459382686,35.070093445375164],[136.53557085692995,35.07011586932409],[136.53563027567418,35.07013120201062],[136.53569156485102,35.07014751800134],[136.53574864991435,35.07015808325364],[136.53579599127602,35.07016454042205],[136.53580242449115,35.07016541788481],[136.5358250457155,35.07016558147037],[136.5359107600697,35.07016620127596],[136.53601219994312,35.070152050981044],[136.53603553209936,35.07014861250114],[136.53612865143984,35.07013639192626],[136.53620710925063,35.07012892363763],[136.53628685917496,35.07011784378642],[136.53636639863765,35.070108116988045],[136.5364553514477,35.07009591458829],[136.53660839695775,35.070076036687794],[136.53671797495204,35.07006563588606],[136.53686098041862,35.07005301369307],[136.53697768985663,35.07004330224991],[136.5370204116006,35.07003716353094],[136.53722816685126,35.070016772163804],[136.53731627418702,35.07000944070631],[136.53736942731518,35.070005599420654],[136.5374138036959,35.07000098569659],[136.53747055966008,35.069994784633685],[136.53756535574868,35.06998751349954],[136.53765347011375,35.06998126350568],[136.53789598061527,35.069960536633786],[136.53796336949029,35.06995392760419],[136.53817851885876,35.069940893700746],[136.53819112126018,35.06993984618565],[136.5384816946482,35.06992494457456],[136.53872137951416,35.06990810483187],[136.5389730218402,35.06989220307452],[136.53902454024148,35.06988990079263],[136.5390837348082,35.06988774466082],[136.53912517082497,35.06988620830861],[136.5391638693318,35.06988522498131],[136.53922329325513,35.06988460022599],[136.53932241432415,35.0698847905224],[136.53953877537282,35.06988932708512],[136.53988679365017,35.06990634830181],[136.54005425534845,35.06991128189145],[136.54010813382658,35.06991771270058],[136.5401332485235,35.06991859245288],[136.5401919114925,35.06991896220609],[136.540282167581,35.06992162511436],[136.54038581790226,35.06992693262737],[136.5407182767374,35.06994546309866],[136.54076150270367,35.069949326904165],[136.54080627556414,35.06995498669565],[136.54083422879944,35.06995960371706],[136.54084985247087,35.06996218426774],[136.54090792898467,35.0699733736828],[136.54105514664522,35.07000102255158],[136.54108467802217,35.07000656994092],[136.5411932479862,35.07002627800593],[136.54144259854596,35.0700784407806],[136.54166299058943,35.07012874918377],[136.54203107976724,35.070229329100854],[136.5422055517868,35.07028281650512],[136.54224428236992,35.07029465237122],[136.54226224388967,35.070300141313425],[136.5423224523486,35.07031862225614],[136.5426055068513,35.07039352873203],[136.54281599622848,35.07044984570221],[136.54282090518495,35.07045115910075],[136.54286059785088,35.070451251882574],[136.5428939264296,35.070450651978796],[136.54291112375333,35.07045128969851],[136.54291344830972,35.070451375898664],[136.54292310109906,35.07045196370383],[136.54294297220784,35.07045575098318],[136.54298973412622,35.070469466854725],[136.54306799290924,35.07049242111061],[136.54312171242208,35.07050786578165],[136.5431744487479,35.0705238557015],[136.54323924706412,35.070539971863006],[136.54333048560358,35.07055840345975],[136.54343826958953,35.07057513824584],[136.54356786131382,35.07059006244832],[136.54368392747747,35.07059909757876],[136.54380675568422,35.070602693584135],[136.5439263797171,35.07060260789309],[136.54411748591318,35.07060139011412],[136.54422679986232,35.07060080951046],[136.54434205251255,35.07060290650241],[136.54438332729168,35.070604996520544],[136.54444998120496,35.07060837162405],[136.5445490551341,35.07061784278238],[136.54466234381198,35.07062139060621],[136.54487380735452,35.07056192709904],[136.54503875755378,35.07053838893332],[136.54510694161976,35.070534844989275],[136.54513937840437,35.07053315903707],[136.5454581324293,35.07050188795798],[136.54567633731625,35.07047016701473],[136.54597838165736,35.0704159827951],[136.54616668715258,35.07038944367692],[136.5462844633076,35.07037462802857],[136.5463145858721,35.070370838742136],[136.54635094265842,35.07036793531433],[136.54648565286723,35.070357177353614],[136.54659045485016,35.07035418103817],[136.54662841913924,35.07035279866431],[136.54662864643913,35.07034986903918],[136.5466383308648,35.07022223170027],[136.54666369646637,35.070127464495904],[136.54669301236478,35.070066272695115],[136.54673075369465,35.06995835033813],[136.54674940789877,35.069884811796676],[136.54675855552034,35.0698244158628],[136.54676148725218,35.069782429045944],[136.54676090848514,35.06969580833737],[136.546756942513,35.06958300465049],[136.5467596116793,35.069501721606905],[136.546765660035,35.06945183306079],[136.54677186601683,35.06942553633433],[136.54697425819214,35.06904404291785],[136.54717428637593,35.06917391961948],[136.54737483612834,35.069061389678595],[136.54756638238396,35.06895397068134],[136.5476354650702,35.06891520622864],[136.54781241742577,35.06881595167286],[136.54813212970961,35.06863470975453],[136.54822581685016,35.068580649752626],[136.54836388646413,35.0685009796078],[136.5484685637613,35.06843719334166],[136.54852149982847,35.068404980551406],[136.54858172933868,35.068368227483965],[136.548599602303,35.068357371465304],[136.54863704200744,35.06833276430291],[136.54865158329767,35.06832326144454],[136.54866569771514,35.068313971793536],[136.54880449795806,35.068222846435454],[136.54882046941012,35.068209463670726],[136.54883529109821,35.068197072068855],[136.54885654352518,35.06817922856969],[136.54890756729574,35.06813653083863],[136.54898574339762,35.0679594789107],[136.54899831543455,35.067930970016214],[136.5490473693542,35.067850040038465],[136.54906821084177,35.067815648340115],[136.5492337925266,35.067669187369084],[136.54928760939373,35.06762154698831],[136.54930945125693,35.06760222178217],[136.54936808584685,35.067583222742776],[136.54951428817196,35.06753593803134],[136.54976540832996,35.06745465453959],[136.54980113603008,35.06744308347548],[136.54984432200357,35.06741964704778],[136.54987542882412,35.06737689836952],[136.55012338999242,35.06670454584375],[136.55044256025485,35.066839510680325],[136.55050295133722,35.06685254674324],[136.55150617758702,35.06671213286499],[136.551522602367,35.06669621230301],[136.5515420056327,35.0666773907232],[136.5515547285812,35.06666507872151],[136.55159247197435,35.0666285671982],[136.551619960284,35.06660196195987],[136.5516514054556,35.06657146528018],[136.5517147221106,35.06651018824688],[136.55217807419876,35.06656519252707],[136.55264540669884,35.06653721531963],[136.552689213267,35.066529761619336],[136.55270986057056,35.06651762460883],[136.552730763408,35.06650527515106],[136.5527544886291,35.06648594065617],[136.5527906515235,35.066456478511796],[136.55284044505794,35.066415967725305],[136.55287805594858,35.06638530170369],[136.55295493936464,35.06632269437018],[136.55301682918216,35.06627226866954],[136.55302956517602,35.06626192835756],[136.55304268376088,35.0662511637424],[136.55306977414148,35.06622913763086],[136.55311513713846,35.06619216823166],[136.55312416709594,35.066184802714446],[136.55315977631082,35.06615583595031],[136.55319687589966,35.06612559470281],[136.5532369572072,35.06609294534592],[136.5532722679818,35.066064191183656],[136.55328560016758,35.0660533551363],[136.55334659498212,35.0660036375852],[136.5533842483407,35.065972971185914],[136.5534039608217,35.06595562679755],[136.5534195861395,35.06594189279676],[136.55343525427966,35.065928158597885],[136.55346646206323,35.06590069078022],[136.55349541378166,35.065875275611546],[136.55352060913802,35.065896076965885],[136.5535421004102,35.06591379650408],[136.55355794989003,35.06592689371361],[136.55357741686652,35.06594293227617],[136.5537161856079,35.0660575147663],[136.5537926761711,35.0661206188222],[136.5538693824125,35.066183933128364],[136.55388807432345,35.066199341359095],[136.55392593260206,35.06623064862482],[136.55395506982205,35.06625467994218],[136.5542009375586,35.06624544024682],[136.55470246899822,35.06623422290964],[136.5546903910027,35.06606976325139],[136.55467512951472,35.06583996290686],[136.55466997652948,35.06578907327905],[136.55466718080763,35.06576146338275],[136.55465230349463,35.06556234098054],[136.55464201848372,35.06540291035197],[136.55463490709454,35.06517349365939],[136.55462117944353,35.06498656550209],[136.5546194152443,35.06485463836745],[136.55461815716396,35.064688773760835],[136.55461903440698,35.06466676822958],[136.5546604580147,35.06434297302431],[136.55469355873925,35.06410909063475],[136.55469485314245,35.064089082266634],[136.55470432277644,35.06401635458978],[136.55436632961758,35.063990887766025],[136.55420228281213,35.06393188781721],[136.55409856791482,35.063899940662935],[136.55407380531182,35.063893068367534],[136.55404906848713,35.06389000627763],[136.55396442699143,35.06388892010365],[136.55396604992663,35.063860563292074],[136.55396723464682,35.06383943009875],[136.55396792264074,35.06382717284269],[136.5539692215493,35.063803926349436],[136.55396990859012,35.06379152824576],[136.55396927105258,35.06373526085812],[136.5539610031603,35.06372860822076],[136.55394721020576,35.0637219104326],[136.5539335338648,35.063719789793836],[136.55389709637805,35.06372742162148],[136.55379843285857,35.063748085130996],[136.55368078060616,35.063772708808266],[136.55354294235528,35.063801579772196],[136.55199355844078,35.06416455917926],[136.5518195782149,35.06423110844432],[136.55174251254303,35.06425553601198],[136.5516222166373,35.064301156528636],[136.55153207051836,35.06434663960991],[136.5514419205074,35.06439074973602],[136.5513492929443,35.064446661462426],[136.55126151615403,35.06451427304815],[136.55119801414614,35.06455421178469],[136.55116496915647,35.06456964456726],[136.55111542196107,35.0645894484074],[136.55104415543533,35.06460843551724],[136.5510018836944,35.06462109320421],[136.55082860905895,35.064673151357105],[136.5506020099328,35.06473108574656],[136.55022026842087,35.06486909437468],[136.54980672996558,35.06505327185212],[136.54957082097403,35.06464084932837],[136.5494701103508,35.064464782843686],[136.54943978146076,35.06441176045367],[136.54951745626448,35.064385844536936],[136.54966534985962,35.064330336983176],[136.54986940934438,35.06424985908431],[136.54976351199278,35.06425514662427],[136.5497411652099,35.064258042402216],[136.54967313753303,35.06426664404056],[136.54953552368534,35.064280338609535],[136.54949659985635,35.0642830824508],[136.54948259719777,35.064284634909114],[136.54944893866883,35.06428469723693],[136.54942634239623,35.06428308683788],[136.54940998806777,35.06428036642193],[136.54938713628988,35.064273348473805],[136.54937342576696,35.06426735596625],[136.54934733068572,35.06425595048854],[136.54929138824073,35.06423556063806],[136.549245556381,35.064218730779025],[136.54920377076476,35.064200350117126],[136.54910982389578,35.064153178902735],[136.54905350197345,35.06412521848054],[136.54900534435671,35.064104883403054],[136.54896730694927,35.0640895506233],[136.54890808532556,35.06407061775547],[136.5487725608778,35.064036074433105],[136.54866721500088,35.064005721412485],[136.54863678229202,35.063996303698545],[136.54861238612452,35.0639878502691],[136.54859656497635,35.06398287370654],[136.54859304702163,35.06398144729765],[136.54858820500957,35.063978764847114],[136.54858456837465,35.06397598679985],[136.54857905227334,35.06397087348285],[136.54854383764942,35.06393497474431],[136.54850948927825,35.0638974494681],[136.5484730789882,35.06386308858011],[136.5484450726851,35.063839416936574],[136.54841377133963,35.06381485873433],[136.54833909507184,35.0637637235514],[136.5482542331065,35.0636977604364],[136.5482309719272,35.063678664689256],[136.5482189633474,35.063669974899845],[136.54820872639286,35.063663891307215],[136.5481928872524,35.063656210422685],[136.5481414127779,35.063631653173665],[136.5480937688982,35.06360608699851],[136.54801287159378,35.063559126391674],[136.54799272303174,35.06354641683034],[136.54796770901768,35.06352750924071],[136.54794388653187,35.063506432783136],[136.54791297035467,35.063488079543355],[136.54788631791646,35.063472257438576],[136.54785995220777,35.063447947231474],[136.54781762340022,35.06339738677321],[136.54779445253138,35.063366226728725],[136.54778321717654,35.06335111748107],[136.54740025953913,35.0630584852637],[136.54735305052785,35.06301165442876],[136.54733470634605,35.06299032799161],[136.54732655417425,35.06294325015154],[136.54732893723195,35.06290894213475],[136.54734401066784,35.062825419709874],[136.5473670210627,35.06276320033901],[136.54740051014807,35.06271170869222],[136.54746514708793,35.062642892346545],[136.5475402334039,35.062574028699046],[136.54760242971577,35.06253092863616],[136.5477268212926,35.062441989266134],[136.54762577022265,35.06244695277602],[136.54750378173537,35.0624523712891],[136.54737374733483,35.062451425691634],[136.5473151602499,35.06244519961822],[136.5472755570434,35.062441502071614],[136.54721070768622,35.06243332101133],[136.54719812192178,35.06243102494622],[136.54718370440742,35.06242839470675],[136.54716316704273,35.06242307864915],[136.5471008863444,35.0624055108606],[136.54708508784304,35.06240386936145],[136.54707436986317,35.062403613868476],[136.54706918812894,35.06240349034705],[136.54706327519222,35.06240459875527],[136.54704607973267,35.06240720036755],[136.54702461822666,35.062411263536674],[136.5469934132571,35.06241744397605],[136.54693582713375,35.06242978308023],[136.5468224884819,35.062458521206956],[136.54672985489773,35.06249297410247],[136.546689688952,35.062501131337555],[136.54653785958197,35.062514410131904],[136.546404790588,35.06251668967072],[136.54634508870234,35.062521576637664],[136.5463047787772,35.062525116751004],[136.54624776281315,35.062524534338515],[136.5461105669439,35.06252893109703],[136.54602750749538,35.06253602214436],[136.5459754720097,35.062542133725515],[136.54592601441396,35.06255201173829],[136.54581596436142,35.06259224885162],[136.54579763412892,35.06263883561997],[136.54577548735995,35.062763625228044],[136.5457302940078,35.06287791509568],[136.54570622388906,35.062951311291094],[136.54570008171626,35.06298388127709],[136.54569982780055,35.06299515054715],[136.54570174075604,35.06300253383281],[136.5457053096091,35.063011622424064],[136.54574300082928,35.06309041988685],[136.54574741631524,35.06311140381016],[136.54574706192471,35.06314052224599],[136.54574115806724,35.063159479262914],[136.54572685190087,35.06318454205878],[136.54571731165026,35.063200602534415],[136.545695411477,35.063221163981034],[136.54567926248833,35.06323277519413],[136.54566975975624,35.063238136499876],[136.54563869578965,35.0632490936435],[136.54560227236175,35.063261967932014],[136.54551772225344,35.063291915781654],[136.5454957490221,35.063298115269305],[136.5454101040603,35.06332227893665],[136.54538419394765,35.063284513131855],[136.54531748220933,35.063184953238235],[136.54528983166836,35.06313489680612],[136.54528024871718,35.06310297537062],[136.54527399219802,35.06304292636921],[136.54526684354758,35.063024771755515],[136.5452521356056,35.06301472650026],[136.54523980544215,35.06300996702834],[136.54522808335417,35.06300857530201],[136.5451824239679,35.06300955816907],[136.545135586938,35.0630116949798],[136.54509691657253,35.06300898004437],[136.54507755894187,35.06300425217496],[136.54506695357796,35.06299466993192],[136.54504792824454,35.06295190218009],[136.5450477859085,35.06293053120799],[136.54506099546262,35.06289147037103],[136.54507013081815,35.06285620433781],[136.54508995393766,35.06275348039376],[136.54510028986905,35.06272261796084],[136.54511129357024,35.0627040858179],[136.54513513405018,35.06267845908184],[136.54514497290793,35.06266089517705],[136.54515419529713,35.062638704726446],[136.54515351820325,35.06262137382477],[136.54513425384638,35.062582076856835],[136.54514483054493,35.06247598734529],[136.5451420775402,35.06241436790455],[136.545139401514,35.062364304095325],[136.54514101477753,35.062342739539915],[136.54514788504332,35.062319115187556],[136.54516228930987,35.062295010049596],[136.54518437448237,35.06227324319858],[136.54521180063395,35.06225482279542],[136.54531101298747,35.062214072874376],[136.54531797339712,35.062199974188346],[136.54532551661612,35.06216151050072],[136.54533247679947,35.06210261138095],[136.54533214131902,35.06205226396204],[136.54533856551612,35.06202087331356],[136.54530939248727,35.06197086621313],[136.54524289464692,35.06187325962534],[136.54496745736995,35.06173158213437],[136.54469898625712,35.061591093479244],[136.54456866670176,35.06153329687704],[136.54419664145036,35.061366864187875],[136.54416947006234,35.06135747887131],[136.54403850133056,35.061311445764794],[136.5438488599723,35.06127814120515],[136.54361871771687,35.06123382052292],[136.54358870712537,35.06122895502239],[136.54322510643422,35.06120206404097],[136.54292803637057,35.061281638291845],[136.54280359284888,35.06131084033731],[136.54238202038258,35.0614889239763],[136.5421299244621,35.06161463141815],[136.54204034130854,35.061637736485466],[136.5419958601893,35.06165941917872],[136.5419869754601,35.061695235161494],[136.5419807766686,35.06173568721711],[136.54197948224157,35.06180534396734],[136.54197269122974,35.06202791937288],[136.541969570408,35.0620481454955],[136.54192973296506,35.06213086259584],[136.54190690456562,35.06218230502589],[136.54188671880343,35.062238313294884],[136.54187176161537,35.06230781989053],[136.54186290513803,35.06234145254181],[136.54185163160128,35.062359320663525],[136.541806944889,35.062408255114356],[136.54179769343514,35.06245056319369],[136.54179048133824,35.06255027200086],[136.54179845491916,35.06280089701158],[136.5417954527153,35.06282155711852],[136.54179163160236,35.06283705922399],[136.5417159308043,35.06295969133545],[136.54161292946264,35.063107434102406],[136.54158806137022,35.06314432221033],[136.54157430705774,35.06317426452005],[136.5414778337906,35.06349054914909],[136.5411407736722,35.06365734463458],[136.54099990847402,35.06372762492643],[136.54085282822703,35.06383603308398],[136.5407768771615,35.06391102342646],[136.54071229164288,35.06395610250899],[136.54059778840616,35.06401055972693],[136.54026864856053,35.06416526763917],[136.5402546750562,35.06414338697101],[136.54015401158287,35.06398022642579],[136.5401424361241,35.063956704316155],[136.54013476037775,35.06393634600538],[136.54013425935463,35.063919895420476],[136.5401376351867,35.06389633024402],[136.5401640700345,35.06378857544819],[136.54017904790442,35.06373998738549],[136.5401846575997,35.06370625741933],[136.54018932417435,35.06368594458898],[136.54018893152755,35.06364912900019],[136.54018698762036,35.0635990652162],[136.54016819132445,35.0634832391877],[136.5401598095178,35.0634539229797],[136.54014854394805,35.06341346456963],[136.5401434885963,35.063395309105395],[136.54011705448917,35.06339363243761],[136.54011390275738,35.06339171086746],[136.54011271933874,35.06338432727036],[136.54010996360054,35.06338208593918],[136.54009074784202,35.0633776643919],[136.5400690490826,35.063373199836285],[136.53991722009673,35.06337645762749],[136.53989016690943,35.063379217247366],[136.53983486078135,35.06339213868841],[136.53971329096635,35.06342055685569],[136.53960272686325,35.06346296621059],[136.53955441097875,35.06348481595129],[136.53951026945077,35.063506679487446],[136.5394969290997,35.06351328702955]]]}}]}
