{"type":"FeatureCollection","features":[{"type":"Feature","properties":{"potaRef":"JP-1162","nameEn":"Kumagaya Sports & Culture Prefectural Park","nameJa":"","boundaryStatus":"全国都市公園GIS候補・公開前検証待ち","boundarySource":"国土交通省「都市計画決定GISデータ」都市公園・緑地を、POTA代表地点で空間照合して加工","boundaryScaleNote":"都市計画データは近似・未収録の可能性がある。POTA運用可否は公式情報で最終確認すること。","candidateMethod":"POTA representative point inside one MLIT urban-park polygon","sourceParkName":"北武蔵公園","sourceParkType":"公園","sourcePrefecture":"埼玉県","sourceCity":"熊谷市"},"geometry":{"type":"Polygon","coordinates":[[[139.39691213941305,36.17102853390933],[139.39689278718149,36.1710644879341],[139.3968682033155,36.17110172074177],[139.39683352529676,36.17114510860708],[139.39689683074897,36.17117536152894],[139.3968997067067,36.171856109149964],[139.39692810923353,36.17184444490736],[139.39697729493219,36.1718244091823],[139.39700815424743,36.17181174855184],[139.39703593014772,36.17180031991913],[139.39706912926482,36.17178650016542],[139.39709811017738,36.17177513673024],[139.39712753465685,36.17176338763487],[139.3971552899108,36.171752117037606],[139.39718963561035,36.17173878066043],[139.39719456025313,36.17174614642877],[139.39720542968305,36.17174218249381],[139.39723049952397,36.171732766379506],[139.39725330797262,36.17172413220028],[139.39727011049084,36.17171789118223],[139.39728467909262,36.171712441811394],[139.3972990970838,36.171706898513236],[139.39731538704876,36.17170074334525],[139.39733501286898,36.171693344768386],[139.39736178500837,36.17168347176687],[139.39739870474457,36.171670089845534],[139.39743102153915,36.17165839934523],[139.39745452608173,36.17164953707635],[139.3974745432314,36.17164199160599],[139.39748936698345,36.17163641510335],[139.39751317177732,36.17162772500768],[139.39753503519256,36.17161980005946],[139.39755388916757,36.171612976000176],[139.39756773120166,36.171607708809965],[139.39758843840767,36.17160009190801],[139.39761348558235,36.17159090668652],[139.3976383869269,36.17158198308361],[139.39765336621994,36.17157654333278],[139.39767564653607,36.171568354603956],[139.39769032278087,36.171562681454155],[139.3977070298994,36.171554144345556],[139.39772866013345,36.171542266325176],[139.39775719847484,36.171531635822795],[139.39778980806395,36.17151928707147],[139.39782191996926,36.1715072464833],[139.39784855073356,36.17149746438154],[139.3978677386428,36.17149034781197],[139.39790004709482,36.17147844788498],[139.39793038259774,36.17146710598184],[139.3979548768047,36.1714583515047],[139.39798179962455,36.171448247299374],[139.3980000226691,36.171441677814634],[139.3980174499695,36.17143512880998],[139.39803848628983,36.171427333413725],[139.39805734866758,36.17142056928079],[139.3980792119249,36.17141227536346],[139.39809940536938,36.17140485162153],[139.39811995866395,36.17139734250544],[139.39813944171686,36.17138999971401],[139.39816170546007,36.17138187687032],[139.39817646103833,36.17137658916171],[139.39818785379387,36.1713724482703],[139.39819949874865,36.17136815518525],[139.39820807662463,36.17136505971643],[139.39822052057835,36.17136062583848],[139.39823715768958,36.171354589875925],[139.39825235940825,36.17134882481025],[139.3982686455985,36.17134276040477],[139.39828008227443,36.17133865810345],[139.39828724274668,36.17133605501788],[139.3982999836328,36.171331454691455],[139.39831413006283,36.171326345013135],[139.39832793808185,36.171321293210944],[139.39833696117037,36.17131788832856],[139.39834798353664,36.17131385657342],[139.3983598195365,36.17130938494952],[139.39837099030512,36.17130528187802],[139.3983868303305,36.17129959997598],[139.39839442350237,36.17129669683295],[139.398406958751,36.17129180810561],[139.3984243671983,36.17128546286629],[139.3984362207913,36.171280907119055],[139.3984511052672,36.17127615837435],[139.39846877212491,36.17127051030341],[139.3984927834565,36.17126265387613],[139.39850993677075,36.17125689571753],[139.39853161247913,36.17124981971531],[139.3985490757699,36.17124397871293],[139.3985657678156,36.17123851882614],[139.39858177891196,36.17123252508564],[139.3985893418776,36.17122973860554],[139.39860149472952,36.17122515762112],[139.39861828008821,36.171218691224865],[139.39863172942995,36.17121378681507],[139.3986427268463,36.17120975327829],[139.39864733310017,36.17120782557494],[139.39865993440324,36.171202630839204],[139.39867155026624,36.171198141259566],[139.39868417565998,36.17119328605487],[139.39868783952483,36.17119188506482],[139.39869907371192,36.171187576447856],[139.39870154110838,36.17118663063837],[139.39870311621914,36.1711859788152],[139.3987104442574,36.17118330885319],[139.3987238763921,36.17117813219081],[139.39873488816505,36.17117347119805],[139.3987520624213,36.17116692202856],[139.39876536555363,36.171161735448905],[139.39889446283777,36.171116922484316],[139.3988982004739,36.17111611952992],[139.39898165529743,36.171096515305905],[139.39906240495674,36.17107722259748],[139.39919319695682,36.171047005052856],[139.39923922900397,36.17103602979673],[139.39929073107143,36.171025561799176],[139.3993184140381,36.17102024821113],[139.39935619169782,36.17101433437999],[139.39937140257592,36.171012903529245],[139.3993895458417,36.17101199711985],[139.39942584753157,36.17101234200849],[139.39960356516104,36.171014054604264],[139.39967506979625,36.171014546874936],[139.39967926236068,36.171014575737146],[139.39974383611371,36.17101502025349],[139.39984220737037,36.171015375102805],[139.39996401524553,36.17101598905755],[139.40006136011218,36.171017650277015],[139.40019554656814,36.17101998965797],[139.40032634306036,36.17102174761745],[139.40045506965765,36.17102263129668],[139.4005400949083,36.1710233230912],[139.40054589989828,36.17102299278004],[139.40055121945036,36.17102222123836],[139.4005560528715,36.171021052580734],[139.40055911417497,36.171019928456786],[139.40057225642855,36.1710053340125],[139.40055769990198,36.170872710990636],[139.40054861181963,36.17069416781469],[139.40053484986637,36.17052150312673],[139.4005286529239,36.17046694759214],[139.40053422712063,36.1703254173462],[139.40054808461448,36.170284395721126],[139.40069338639648,36.17018997580799],[139.40074204124528,36.17019190374969],[139.4007859410773,36.170193647658515],[139.40084687684933,36.17019523572719],[139.40092611593465,36.170198050575095],[139.40096947558413,36.17019999966397],[139.40099873936273,36.17019005475473],[139.40103372623915,36.17017763259094],[139.4010717680309,36.170164222223356],[139.40110186325612,36.170153704211266],[139.401146174542,36.17013865369542],[139.40119219020275,36.17012294886896],[139.4012539226801,36.17010111607139],[139.40131852586276,36.170079114470916],[139.40137175022218,36.170059721391176],[139.40162156436924,36.16997581308196],[139.40178009025274,36.169920965079235],[139.4018693627834,36.16988959564364],[139.40188742829895,36.16988324157848],[139.4019685655004,36.16985558624325],[139.40210102466474,36.16981025928029],[139.40222843180297,36.169766329164304],[139.40238970305634,36.16970964250459],[139.40250114881368,36.16967173328037],[139.4025970227439,36.16963853558296],[139.40274581565646,36.16958689088893],[139.40285409812003,36.169549177683486],[139.40303694080885,36.16948594814487],[139.40321834148745,36.16942355116902],[139.40323838950331,36.16941662640267],[139.40340752669087,36.1693582046749],[139.40347530757248,36.169333795994305],[139.40357250011974,36.169300840602496],[139.403679828923,36.169263581452],[139.4038715322385,36.1691968299035],[139.40402105686016,36.16914514667105],[139.40413382118874,36.16910624762727],[139.4041700957274,36.169093459966106],[139.40440504005002,36.16901260780418],[139.4046547054605,36.16892609566814],[139.40480179752512,36.16887510553302],[139.40482082829394,36.16884211859013],[139.40481743151173,36.16883573917217],[139.40489396773197,36.1688089468276],[139.40512528713285,36.16872919099339],[139.4053242370465,36.16866063441482],[139.4055006141423,36.16859964798092],[139.4056841658091,36.16853601368009],[139.40587888583096,36.168468527105325],[139.40600586624896,36.168428511604844],[139.40609974443308,36.168400941745745],[139.40624520497997,36.16835808228946],[139.40629652127114,36.16834357928144],[139.40630059169425,36.168341793734655],[139.40637307519998,36.16830164065099],[139.40639705508903,36.16825972893294],[139.40639619145355,36.16823472303298],[139.40639231335683,36.16818011646136],[139.4063795098604,36.16815560387325],[139.40631728877716,36.16803574416312],[139.4062757981365,36.167959806446135],[139.40627095663172,36.16795082765264],[139.40624517127324,36.16790299441672],[139.4062153691479,36.1678471184555],[139.40616559074118,36.167756399208656],[139.40611832311566,36.16767333564189],[139.4060419407117,36.16754059671937],[139.40596656307926,36.16740773016712],[139.4059467673629,36.1673725220694],[139.40591823159298,36.16732176911186],[139.40588023250564,36.167252268926674],[139.405831890206,36.16716280765682],[139.40580015325006,36.167104723855935],[139.40576587611417,36.16703954681392],[139.40571760873163,36.166949480353054],[139.4056862281555,36.16688975392956],[139.4056146405469,36.166752100155946],[139.40556192701456,36.16665241385324],[139.40549059301728,36.16651572510165],[139.40546003692583,36.16645815372623],[139.40544651458123,36.16643254523765],[139.40541474004883,36.16637237085675],[139.40539708042954,36.16633875416437],[139.4053317290077,36.166214351514846],[139.40529914121765,36.16615231739628],[139.4052332517695,36.1660240909149],[139.40521686004263,36.165991076122644],[139.40519809978895,36.165948088299615],[139.40517233405214,36.165883737098284],[139.40515515682125,36.16583451249549],[139.4051458122354,36.16580686587948],[139.40513277994094,36.165762572514986],[139.40512402548134,36.16573201776508],[139.4051151171781,36.16569649630334],[139.40510379121238,36.165649622583075],[139.40509529025243,36.16560677247114],[139.40508743811026,36.16555143609068],[139.40507921997764,36.165493378169124],[139.40507009725076,36.16542640626399],[139.40505322108922,36.165308213901746],[139.4050460497517,36.16523467709414],[139.40502563540974,36.16509214370045],[139.40501194592733,36.16509157610283],[139.40501182861635,36.165089605768465],[139.40497203263595,36.165090608025466],[139.40483814555392,36.165093979858305],[139.40472738777262,36.165098150603704],[139.40465409025674,36.1650999749397],[139.40456469270117,36.16510080350391],[139.4045089255563,36.16510050553806],[139.40446742657468,36.165098543153874],[139.40441963324992,36.165094376033544],[139.40437770462574,36.16508914863168],[139.40434251780917,36.16508392435928],[139.4042904278673,36.16507494363637],[139.40422119109255,36.1650621703463],[139.4041872731418,36.165056678706485],[139.40416871573484,36.16505380169134],[139.40414903365465,36.165052008418016],[139.4041254335518,36.16505056366109],[139.4040976853382,36.165050645016954],[139.40405733750296,36.16505159699938],[139.40402778674533,36.16505393811945],[139.40399307955764,36.16505807366023],[139.40397006588654,36.165061093043214],[139.4039162036289,36.16506932944583],[139.4038650732413,36.165077586625976],[139.40379183421902,36.16508956045354],[139.40371707127096,36.165101465549235],[139.40360532973125,36.16511871402115],[139.40352150210958,36.165132032120965],[139.40341415388346,36.1651498813606],[139.40336122350362,36.165158580113605],[139.4033312284316,36.16516461626004],[139.4033019778421,36.16517095724411],[139.40327141909762,36.16517812374319],[139.4032615668423,36.16518124808098],[139.40322085589884,36.1651941582834],[139.4031783243864,36.16520784778215],[139.40312923823276,36.16522660729744],[139.40306775968736,36.1652506155727],[139.40296820650673,36.16528978902406],[139.40288256260604,36.16532475945425],[139.40283521876657,36.16534249993284],[139.4028234972006,36.16534638662277],[139.4028005979812,36.16535322642615],[139.402751703284,36.16536653605433],[139.40271825997863,36.16537480348771],[139.40267975423697,36.165382867587425],[139.4026416242684,36.165389687352544],[139.40262063267585,36.165392800732214],[139.4025961405323,36.16539641821288],[139.40257051055198,36.165398981559],[139.40253664687114,36.16540157689944],[139.40248886197705,36.1654029634395],[139.40243511554357,36.16540276902727],[139.402371246822,36.1654006303193],[139.4023284966489,36.165397140217244],[139.4022905687728,36.16539264414797],[139.40225299500435,36.16538704762836],[139.40221449802607,36.16537979431497],[139.40215395508284,36.165367520904255],[139.4020779897148,36.165352694854434],[139.40203760695601,36.165344720411916],[139.4020143379592,36.16534038753542],[139.4019598773901,36.16533090259827],[139.4019217819714,36.16532501592368],[139.40189715235908,36.16532169409241],[139.40188689991442,36.16532068490127],[139.40187208607435,36.16532009664139],[139.4018471923974,36.16531981206478],[139.40182922657746,36.16532018449444],[139.4018143426129,36.16532144288618],[139.40180053508828,36.16532328835881],[139.4017870828529,36.16532600997012],[139.4017738674797,36.16532926704423],[139.4017625889361,36.16533280266306],[139.40175050534614,36.16533752192304],[139.40173571120846,36.165344272685],[139.40172478536428,36.16535062620054],[139.40171220051462,36.165359231875314],[139.40170159903107,36.165367164293606],[139.40168321861748,36.1653804599278],[139.40165013711768,36.165405061230835],[139.4016296623333,36.16542064938429],[139.4015811480095,36.16545804478847],[139.40157318257613,36.165464190942885],[139.40150202444212,36.16551909672461],[139.40141481444778,36.1655861677208],[139.40137078731678,36.165620022826594],[139.4013195433147,36.16565971882543],[139.40126330434452,36.165703486615215],[139.4012083371478,36.16574662012351],[139.4011494222132,36.16579226499656],[139.4011123051595,36.16582122583859],[139.40106782970236,36.1658558837652],[139.40100719477968,36.16590251865716],[139.4009633544298,36.1659365453489],[139.40087329648762,36.16600667031756],[139.40081611458876,36.16605081978652],[139.40074570778296,36.166105733367516],[139.4006737579481,36.16616251014888],[139.40059422457853,36.16622496875284],[139.4005304529494,36.16627417394528],[139.40045360081794,36.166334205491324],[139.40040930715253,36.16636869621029],[139.40033804680994,36.166424819581835],[139.4002501523515,36.16649346475437],[139.40018557712625,36.16654431802958],[139.4001663283303,36.166559486741804],[139.40012133662967,36.16659343162698],[139.40010457436807,36.16660504127288],[139.40009110782944,36.166613818364674],[139.4000796248021,36.16662130265968],[139.40004169345727,36.166645318197865],[139.40001185567647,36.16666341039036],[139.3999947444774,36.166673206528664],[139.39996245597024,36.166690825888466],[139.39992950020653,36.16670816908652],[139.39989869907484,36.16672300738904],[139.39985841269234,36.16674112127875],[139.3997975282555,36.16676472977382],[139.39970129869226,36.16680267617691],[139.39963262529938,36.16683222687337],[139.3996051480581,36.16684552618439],[139.39957848665617,36.166858877141884],[139.39954301177048,36.16687762443039],[139.39951814754102,36.16689109196205],[139.39946327062106,36.16692094713781],[139.39937446320408,36.16696962056007],[139.39927124653553,36.16702713218135],[139.39923033122008,36.16704807486392],[139.3992054809993,36.16705976093985],[139.39918035566492,36.167070615612765],[139.3991375386157,36.167087488992216],[139.39910197153213,36.16709936242579],[139.3990707399617,36.167107966367624],[139.39902950191757,36.16711747884618],[139.398991729815,36.16712368229138],[139.39895512370566,36.16712832937666],[139.39892930006218,36.167130650863456],[139.3988960258855,36.16713226564015],[139.39885496522203,36.16713226856544],[139.39880487976473,36.16713270129549],[139.39878740656158,36.16713285225608],[139.3987244107575,36.16713128062116],[139.3985929115217,36.167131229148666],[139.39853421036202,36.16713135486492],[139.39850024369167,36.167131647713546],[139.39849296029186,36.1671321195348],[139.39848721418906,36.1671327632093],[139.39848125789743,36.16713431993606],[139.3984738578512,36.16713736681824],[139.39846748088007,36.16714083286962],[139.39846223184904,36.16714430304357],[139.39845749182965,36.1671484397033],[139.39845377825824,36.1671524139847],[139.39845047113033,36.16715705432485],[139.3984474265288,36.167161822517954],[139.3984424892876,36.167170997670155],[139.39842802044387,36.167197543509744],[139.3984015854313,36.16724482272549],[139.39836931508844,36.16730300813814],[139.39834701074554,36.16734496927939],[139.3983084479398,36.16741515772387],[139.39827665868737,36.16747476122306],[139.39825574705702,36.167512307036546],[139.39824352865628,36.16753412382472],[139.39823088963396,36.16755291168944],[139.39821778463693,36.167571208076005],[139.39820194528892,36.16759173838196],[139.39818626589218,36.16760946218795],[139.39816229613314,36.16763423340694],[139.39815257815565,36.16764371174931],[139.39814114836534,36.16765253369533],[139.39813088105456,36.167659440772695],[139.39811981511554,36.167666113410284],[139.39811421874072,36.167670198635584],[139.39811031477916,36.16767380303254],[139.39810790331777,36.167676731120196],[139.39810528459685,36.16768083236785],[139.39810403997222,36.16768350246048],[139.39810285653442,36.16768680218456],[139.39810187080906,36.16768947322466],[139.39810114398344,36.16769214521232],[139.39810080156334,36.1676954297428],[139.39810090675692,36.16769983546083],[139.3981017857484,36.16770476846786],[139.39810318282954,36.167709650932835],[139.39810548261352,36.1677158725403],[139.39810765835995,36.167720443225825],[139.3981113118132,36.16772701212204],[139.39812146355794,36.16774165065758],[139.3982218681834,36.167884671804885],[139.39831813610988,36.16801883906436],[139.39839018461598,36.16812075312414],[139.39845747920907,36.16821720957516],[139.3984940208674,36.16826983556648],[139.39860603058338,36.168429628387265],[139.39866116240614,36.16850736776887],[139.39873179162342,36.168609330031984],[139.39878904558213,36.1686915249987],[139.39877943907624,36.16871475273335],[139.398778343577,36.16871628986443],[139.3987772510955,36.168717239934686],[139.3987756161571,36.168718041253015],[139.39870427170547,36.16873930778987],[139.39861213194405,36.16876614823179],[139.39849142461713,36.16880207128333],[139.39842687864157,36.1688212047335],[139.39833432626324,36.16886118276039],[139.3982243003915,36.168908680487554],[139.39808688018402,36.16895797995127],[139.39808739351818,36.16893314803381],[139.39808786339557,36.168922550565725],[139.39808654068807,36.168910477477795],[139.3980748587365,36.16888221560596],[139.39805877386863,36.168852144158514],[139.3980396719355,36.16882091710118],[139.3975761243841,36.16831107433867],[139.3975553125254,36.16828786369837],[139.3975281595065,36.16826855234288],[139.39750518994762,36.16827844304933],[139.3971076485401,36.16845021701661],[139.39692632926193,36.16853589704869],[139.396705214188,36.16864216257276],[139.3965791951522,36.16869731328295],[139.3964978111028,36.16874109012557],[139.39645325856554,36.16875760161401],[139.39638522834204,36.16877853384784],[139.3963234339941,36.16879741581402],[139.3962573468133,36.16880871103938],[139.39619127563452,36.16881712208915],[139.39613430672824,36.16882772952941],[139.39610109487626,36.16884365141989],[139.39607721608658,36.16888024744871],[139.39605954465628,36.1689199306284],[139.39604341428597,36.168962323371616],[139.39602409860387,36.16899785449781],[139.396005176415,36.169042580427025],[139.3959922688493,36.169085075075586],[139.3959803941829,36.169121714980115],[139.39597060325795,36.1691834189403],[139.39596274923696,36.16931660391381],[139.39595706628498,36.16939914317046],[139.395950469565,36.169486095502435],[139.39593656384164,36.16958816310198],[139.39592103489775,36.169682293221086],[139.39590818579214,36.16971424271897],[139.39589104185413,36.169738966011735],[139.39586732143272,36.16976700007804],[139.39578860687683,36.16985017264903],[139.39568260478208,36.16996325555737],[139.39564876556506,36.16999197256668],[139.39560934769813,36.17002445450667],[139.39555203284925,36.17005714126519],[139.3954489082692,36.17011237239962],[139.39540918886746,36.17013908498337],[139.39537734218692,36.170169251261335],[139.39534458671992,36.17020292918771],[139.39532568267515,36.170213043074476],[139.39549666085765,36.170480178966415],[139.39564698812922,36.170411871864175],[139.3957743662004,36.17035276372943],[139.39584948005088,36.17031752830951],[139.39602377694393,36.17023623992162],[139.39607302454277,36.17021321383408],[139.39615261918902,36.170176689772155],[139.3970181800592,36.16977175336301],[139.3972247961002,36.16967481022271],[139.39726926230773,36.16965388282272],[139.39728575563544,36.16964619210524],[139.39734961205164,36.16961632274525],[139.39743829270233,36.17002142054714],[139.39748523572948,36.170039395478426],[139.39750352899526,36.170053394999385],[139.39752270018914,36.17007430869764],[139.3975394496989,36.17009476586285],[139.3975501408018,36.170111702160185],[139.39757354716852,36.17016813782744],[139.3976003466959,36.17025062230595],[139.3976043086597,36.170289932980424],[139.3976149424603,36.170352926803965],[139.397594380437,36.17036395684172],[139.397563885502,36.17037558814037],[139.39745804901844,36.1704176687558],[139.39739434568548,36.170439521927435],[139.39727738237823,36.17048596309745],[139.3971078842466,36.170553263317025],[139.39709069481745,36.17058545243169],[139.39704136491704,36.17068324292965],[139.39700253754762,36.17077536651333],[139.39696327077243,36.170872544719025],[139.39692775757044,36.170978379963984],[139.39691213941305,36.17102853390933]]]}}]}
