{"type":"FeatureCollection","features":[{"type":"Feature","properties":{"potaRef":"JP-1330","nameEn":"Sone Kyuryo Prefectural Park","nameJa":"","boundaryStatus":"全国都市公園GIS候補・公開前検証待ち","boundarySource":"国土交通省「都市計画決定GISデータ」都市公園・緑地を、POTA代表地点で空間照合して加工","boundaryScaleNote":"都市計画データは近似・未収録の可能性がある。POTA運用可否は公式情報で最終確認すること。","candidateMethod":"POTA representative point inside one MLIT urban-park polygon","sourceParkName":"曽根丘陵公園","sourceParkType":"公園","sourcePrefecture":"山梨県","sourceCity":"甲府市"},"geometry":{"type":"Polygon","coordinates":[[[138.5868177204043,35.586800682307],[138.5868115411332,35.58680086703486],[138.58680988708664,35.58680194988895],[138.58680779203885,35.58680339361488],[138.5868020619407,35.58681078910395],[138.58680063150757,35.58681457595382],[138.58677070350703,35.58689482082508],[138.586753547405,35.586948736035524],[138.58673824745955,35.586984351779144],[138.5867202974986,35.58701843707174],[138.58668856695104,35.587064520702256],[138.58667049465515,35.587087519031996],[138.58665297098125,35.587107632530596],[138.58662750796722,35.587133069908035],[138.58659685585914,35.58715598712861],[138.58658594857496,35.587171949489715],[138.58658606367825,35.58717636619646],[138.5865943620124,35.58719700196501],[138.58643317329373,35.58732763829479],[138.5864274391523,35.5873313380875],[138.58638421329783,35.587359942997885],[138.58638211832465,35.58736147685481],[138.58637142324486,35.58736959698945],[138.58633580984284,35.58739675421014],[138.58628123533907,35.58744150201337],[138.58623294059,35.58747687088917],[138.58618122315724,35.58751052956023],[138.58613258810584,35.58753733547611],[138.58607269794183,35.58756460010302],[138.58601644403797,35.58758699462321],[138.5859816975015,35.587599458535536],[138.58591507240405,35.587623392761685],[138.5857896539702,35.58766855137258],[138.58567063130818,35.58770964907203],[138.58558404659527,35.587746487113144],[138.58551290730202,35.58778015928544],[138.58548169569892,35.58779631622593],[138.58544145040483,35.58782654117643],[138.58538036432455,35.58787111290776],[138.58532093484806,35.58791703551343],[138.58527165351168,35.587959255229855],[138.5851911716432,35.588028268131495],[138.5851472972887,35.58807048397458],[138.58512625166702,35.58809988400669],[138.5851229469098,35.58810529465351],[138.58510619898408,35.58812910305679],[138.58510409493465,35.58813252980722],[138.5850603812803,35.58810768242596],[138.5849682938823,35.58805474591304],[138.58490866908144,35.588020535283],[138.58488117327332,35.58800270721703],[138.58487631001015,35.58799522914229],[138.584859370935,35.58794251001821],[138.5848354759902,35.58788610010684],[138.58482443128804,35.5878768236095],[138.58480566567027,35.58787088767024],[138.58471825894665,35.58786121417507],[138.58468956145074,35.5878548345055],[138.5846692489685,35.587847006722285],[138.58463315107673,35.58783396198482],[138.58461162580923,35.58782712656751],[138.5845910940657,35.58782065100326],[138.5845703446607,35.587817060021905],[138.58452211333605,35.58780871096867],[138.584384923624,35.58778410913219],[138.58426075431876,35.587758686790735],[138.58419486147864,35.587744851500304],[138.58414685395175,35.587739386574114],[138.5841154026303,35.587737605756395],[138.5840835134958,35.587739250500896],[138.58403993387586,35.58774712294894],[138.5840138936991,35.587749214289445],[138.583984754809,35.58774274462099],[138.58395140742246,35.58772167543117],[138.58394014280557,35.58771302997552],[138.5839281214583,35.587719438184195],[138.58390816232532,35.58773288272507],[138.58389702489214,35.58774037197792],[138.5838502759602,35.58777781200882],[138.58377320072663,35.58783420219915],[138.58371355031662,35.58788075513656],[138.58370682446346,35.58788598784378],[138.5836700040624,35.587920806890295],[138.58364929161195,35.5879527303137],[138.58362804567653,35.58800223112075],[138.58362353241665,35.58801287060099],[138.5836116435587,35.588040641522085],[138.5835560014418,35.588121804801936],[138.58351666061517,35.58817375187159],[138.58348965446555,35.58820216422383],[138.58347389169705,35.58821876063411],[138.5834662816003,35.58822264186182],[138.5834380398743,35.58823014291519],[138.58343340594035,35.58823086723139],[138.58335621766872,35.58828536432009],[138.58324043179962,35.588363955013044],[138.58323359412617,35.58836783569253],[138.5831994039772,35.588385526452996],[138.58319749511236,35.58838570804773],[138.58319090788277,35.58838634356432],[138.5831490769253,35.5883782599604],[138.583127885948,35.588374578897195],[138.58311022672407,35.58837143622626],[138.58310261342837,35.58837225272262],[138.583074489787,35.588387325246984],[138.58300616995388,35.58848138681797],[138.58286300633114,35.588657075206434],[138.58283678152443,35.58869450072718],[138.58273540835233,35.58883942298807],[138.58268096512467,35.58890742480484],[138.5826582533959,35.58892736099926],[138.58265565816652,35.588925424800514],[138.58264113572486,35.58891439278808],[138.58262921110838,35.588907820850494],[138.58258383150283,35.58888297371611],[138.58256204630666,35.58887027910719],[138.58251247081665,35.588918176619444],[138.58242812537975,35.588989173360005],[138.58238096572484,35.589025621571146],[138.58231130849583,35.58906499660452],[138.58234990646744,35.58913775710523],[138.58233934825938,35.58915085243364],[138.58232027758666,35.58917042552208],[138.5822902826274,35.58919045675914],[138.58226250011177,35.58921580465208],[138.58226062599002,35.58921760870184],[138.5822405626768,35.58923772328614],[138.58222337760319,35.5892667596182],[138.5822078534036,35.58930129326526],[138.58219673521893,35.58932798185327],[138.58217943644308,35.5893537732691],[138.58216158553202,35.58937920450462],[138.58214901977271,35.589393184541954],[138.582136343842,35.58940734493011],[138.582102177147,35.58937301641517],[138.5818603992304,35.58954804961564],[138.58186161908267,35.58962981344511],[138.5818556212827,35.58963504555318],[138.58181428101022,35.589675906374524],[138.58180612471435,35.58968546659451],[138.581775483366,35.58972127238261],[138.58175719798706,35.589753734656526],[138.58174232919015,35.589781958099756],[138.58173020186206,35.58979314350099],[138.58172160047334,35.58979909847594],[138.58169755661638,35.58981173416948],[138.5816959352973,35.58981257355672],[138.58166754726187,35.58987230956725],[138.58164124218652,35.58988595633305],[138.5815857336511,35.58988446156513],[138.58157911473478,35.58988662936991],[138.58153600042803,35.58991946896653],[138.58149399654775,35.58995915832444],[138.58144814555217,35.590013903400326],[138.58141111444945,35.590060530034314],[138.58140328939672,35.590070360418295],[138.5813599757378,35.590124472776345],[138.58132492367204,35.59016397710412],[138.5813076181485,35.59018354883831],[138.5812824895396,35.59021493399194],[138.58127632019642,35.59022521394342],[138.58126629498764,35.590241896329275],[138.58125164472057,35.590268226653635],[138.58124734881,35.5902759814621],[138.58124681999783,35.590298696724886],[138.58115253608594,35.5902780734551],[138.58101815409054,35.590316130205366],[138.5808405340451,35.59027556995833],[138.58080569975152,35.59029051124231],[138.5806745873336,35.590287885904615],[138.5806751559449,35.59026068171936],[138.5806750095112,35.590224716548605],[138.58066974573072,35.59014774177654],[138.5806649411811,35.59008852398447],[138.58066691413737,35.59007518216296],[138.58066436286438,35.5900180450619],[138.58059300092285,35.59002080597034],[138.5805471509915,35.590044209538846],[138.58052419753517,35.59004399952999],[138.58049142297028,35.590044021422294],[138.5804605282145,35.5900478639241],[138.58033419341214,35.59011047728769],[138.5802118848297,35.59011632761285],[138.58021640671348,35.590158013668955],[138.57998085708,35.59019973308017],[138.5799782221974,35.59020228574873],[138.57994073826166,35.5902383660239],[138.5798878064802,35.590275988882205],[138.57984723823978,35.59031774989882],[138.57980268984255,35.590352032039995],[138.57975748063313,35.59038766667958],[138.57972263487622,35.59041355948775],[138.57970493778748,35.590428200673465],[138.57965082106,35.59047299022225],[138.57958431733564,35.59050122046727],[138.57956224616794,35.59051175420372],[138.57954186560858,35.59051337212127],[138.5794924279477,35.59051376529185],[138.57948635854825,35.590513769294745],[138.57946461576708,35.59051044850699],[138.57939694828335,35.59048894999701],[138.5793532090182,35.59047121250103],[138.57926407547916,35.59041357348846],[138.57906355541678,35.5904153457147],[138.5790548137844,35.59036871378001],[138.57902713072656,35.59035074028641],[138.57899919826255,35.59033723782036],[138.57899686740114,35.59032353829334],[138.5789965343957,35.5903215554642],[138.57899498016394,35.590312091938465],[138.57913103808048,35.590137034806645],[138.57906981898876,35.5901077889786],[138.57902864901703,35.58998675994508],[138.57902896607683,35.589972517850484],[138.57904447865846,35.58992464412182],[138.57905615265554,35.58990093003327],[138.57907378759535,35.58987919508041],[138.5790933009889,35.58985998277092],[138.57913001798872,35.589829311571975],[138.57920544569245,35.589775539466146],[138.57922661652466,35.58975857950873],[138.5792620115176,35.58973025273981],[138.5793104238856,35.58969777102302],[138.57932707559564,35.58968622233305],[138.5793854118078,35.589645892002025],[138.57946790201794,35.589592475632706],[138.57950595152488,35.58957045673827],[138.57953550885696,35.589553401055106],[138.57962385864883,35.589511248027776],[138.5796570627062,35.58949941794023],[138.57969710621234,35.589485239719444],[138.57979572656018,35.58945119224181],[138.57989655259487,35.589415881281816],[138.57992159416756,35.589407662073064],[138.5799722288742,35.589391042996894],[138.58005021808407,35.5893617863402],[138.58009732105063,35.58934471886434],[138.58012930697586,35.589328743083485],[138.58011704237953,35.589313067131975],[138.58018167790812,35.589282737603206],[138.58020064767712,35.5892720886351],[138.58024939556978,35.58924474421223],[138.58029274091325,35.58922209057247],[138.58036784819757,35.58918030637316],[138.58038869217057,35.589167943493415],[138.58041405781807,35.5891528734373],[138.5804924645816,35.589100180195764],[138.58055434455022,35.58907336770939],[138.58060618970123,35.589053682846966],[138.58067821200137,35.58901703841301],[138.580731928893,35.5889932148846],[138.58060525591685,35.58874960111228],[138.58042679605913,35.58858284684497],[138.58033750928993,35.58844781575501],[138.57996755640124,35.588054706163874],[138.57990925155957,35.58809183684704],[138.5798153495467,35.588208448211496],[138.57979760247338,35.58829454227641],[138.57977131218001,35.588311767128104],[138.57973430969705,35.58833180236981],[138.57972087048518,35.588299812075114],[138.57968815771758,35.588261254409],[138.57963386857546,35.58826419275141],[138.57955124103825,35.58830000527737],[138.57942167768704,35.58841001468022],[138.57930487897798,35.588316059054605],[138.5792768177791,35.588339207066234],[138.57928392991818,35.5883448991443],[138.57929742517993,35.58835556267041],[138.57926118606736,35.588388919741845],[138.57937664114556,35.58854139423696],[138.57930836131976,35.588613405798284],[138.57929237983942,35.58863297637703],[138.5792436295041,35.58865779653799],[138.57914316488083,35.58868964539849],[138.5790686741598,35.58876386028099],[138.57899896389173,35.58875066464012],[138.57885162941162,35.58891366850317],[138.57889703672814,35.58894542163731],[138.57869300144404,35.58914024525217],[138.5786670547487,35.58912569580257],[138.57859256188965,35.58919858535091],[138.57861852154005,35.5892263761587],[138.57834969282092,35.58947289982319],[138.5783076367882,35.589551068247026],[138.57826077918284,35.5897073808635],[138.5783288796069,35.589732503302194],[138.5781947529963,35.59014712845495],[138.5780537518934,35.590165761344444],[138.5778968449899,35.5901803030473],[138.57780924151237,35.590162908816254],[138.57776377515145,35.59033283124262],[138.57774142359347,35.59047587746197],[138.577745225698,35.59058478036451],[138.57769765920267,35.59069443749907],[138.57774631865058,35.59072222286586],[138.5777187929413,35.59075269842196],[138.57782576277617,35.59074600421628],[138.5780150559793,35.59084165400625],[138.57809500123835,35.59091536257511],[138.57808854793157,35.59094052441446],[138.57815986210224,35.59094445329713],[138.5782197631181,35.59086627336252],[138.578349448206,35.5908754643813],[138.5785926231016,35.590909738967284],[138.57858171218336,35.591014469001294],[138.5786193988432,35.591060586326094],[138.57861002478106,35.59110057788226],[138.57868721155714,35.59111744651179],[138.57865308162692,35.59121020328417],[138.5786512274912,35.59121000618943],[138.5785949387471,35.591201479750715],[138.57855432261098,35.59119537681147],[138.57844196614656,35.59117859408882],[138.57836227931645,35.591166837781174],[138.57832133759777,35.591166323562405],[138.57829165335255,35.59116724423363],[138.57826814873386,35.591167980607715],[138.57819444426178,35.59118010700813],[138.57812162802597,35.5911978213751],[138.5780403295707,35.59123104501353],[138.57802235923356,35.59124890407205],[138.5780125472834,35.5912587355205],[138.57798653859265,35.591294627477254],[138.57796528042505,35.59133601480399],[138.5779522901279,35.59136847306774],[138.5779520282719,35.59143986293129],[138.57795204085477,35.59145284286744],[138.5779519430836,35.59146582287496],[138.57795059409383,35.591519987972944],[138.57794019242857,35.59152487119278],[138.5779352289398,35.59152739828046],[138.57792684587073,35.591531369794986],[138.57790070460663,35.59154445677677],[138.57785040231923,35.59156431974911],[138.57783240835371,35.591569288988126],[138.5778759644971,35.59167114439861],[138.57780472709538,35.591690182588756],[138.57770830414736,35.591717917315194],[138.5777033654638,35.59174613384919],[138.57769755221537,35.59178291410391],[138.577703871861,35.591813376841706],[138.57770631149117,35.59184845717165],[138.5776635350494,35.59191391627769],[138.57764130136994,35.592031101631555],[138.57764887081325,35.59215587547044],[138.57766760896573,35.59226998773994],[138.57767202148426,35.5923139364239],[138.5776978716872,35.59234195283193],[138.57773145714634,35.592380690725804],[138.57776823762475,35.59241392810071],[138.57782268136214,35.5924537341698],[138.57786883758408,35.59248227825793],[138.57803551722492,35.59252642844941],[138.5780965542254,35.592537115393945],[138.57824817934636,35.59253359178617],[138.57829993115715,35.59252851042064],[138.57837361893334,35.59252064751891],[138.5783737805999,35.59268651123907],[138.57847247298866,35.59266514729728],[138.57858794556452,35.59267267974584],[138.5785750032667,35.592765512793655],[138.57859825014353,35.59278286732103],[138.57864937716388,35.59281582465218],[138.5789607661839,35.593004461161776],[138.57928485050826,35.59309526122142],[138.57926461129352,35.59326331969331],[138.57957930775285,35.59330049273889],[138.57959412002216,35.59321374270426],[138.57977917318402,35.59322119198301],[138.5797781230013,35.593241627070256],[138.5797769970173,35.59326352245086],[138.57977634802486,35.59327677323605],[138.57977322790362,35.59335762951139],[138.57976909006337,35.59341378851806],[138.57976858406494,35.593459939750126],[138.57977135237377,35.59346940245727],[138.5797768897089,35.59348904897862],[138.579790388034,35.593524103907754],[138.57981316216606,35.593565011693265],[138.5798211226279,35.59357987926872],[138.5798401286327,35.59360465475849],[138.57984963329557,35.59361871006276],[138.5798597899872,35.59362257928731],[138.5798733662242,35.593624913890864],[138.57990736199875,35.59363075035645],[138.5799613289892,35.59363314830221],[138.5800123194833,35.59363870304627],[138.580120702008,35.593650619460355],[138.58022598818204,35.593656138006914],[138.58020815206513,35.59369797412704],[138.580175006217,35.59376983653896],[138.58013216054707,35.59385342339093],[138.58011652591634,35.5938896694477],[138.58011533165478,35.59390941056515],[138.58012004633454,35.59398936024778],[138.58011993034935,35.59409446177121],[138.58012280315086,35.59409797526138],[138.5801349468927,35.59410238397213],[138.5802179719006,35.594138474262465],[138.58029647582632,35.5941780829075],[138.5803434143755,35.594203542782054],[138.58037753535964,35.594234996380806],[138.58039252586468,35.59432719802488],[138.58039752847583,35.59436370076287],[138.58040219794424,35.594398130538195],[138.58041177681105,35.59448618941853],[138.58041200059242,35.5944892539767],[138.58041645116106,35.59452548666586],[138.58041512911623,35.594527741009344],[138.58041848097415,35.5945688419078],[138.5804199232952,35.59457650271394],[138.58042235225952,35.59457758275457],[138.5804311798409,35.59457649520223],[138.58061258392763,35.59455149578957],[138.58077380257916,35.59453669527926],[138.5809388936898,35.59453180718262],[138.58107970878905,35.59452972948597],[138.58121423992648,35.594534055689685],[138.58123984431106,35.59453530037147],[138.58139015979646,35.59454268044533],[138.58152767969278,35.59455592798758],[138.58155847257316,35.594558791583864],[138.58170482631647,35.59457708069888],[138.581809787871,35.59458764583354],[138.58195404225071,35.5946033220557],[138.58215414464013,35.594625450017055],[138.58231638803048,35.59464156423381],[138.58262807583694,35.5946761443871],[138.58266814169008,35.5946817054954],[138.58286758333992,35.594704824247835],[138.5831539948665,35.594734913494776],[138.58343665834445,35.59476879047047],[138.58358886358377,35.59478869573733],[138.5839548608017,35.594834592222504],[138.5840784755754,35.59484703529247],[138.58429580011207,35.59487392501801],[138.58461411355597,35.59491074885927],[138.58481576283683,35.59493323186709],[138.58495692970277,35.59495016860429],[138.58517965752108,35.59497245586554],[138.58523351874138,35.59497818664644],[138.58541176596438,35.59499473606735],[138.58564541706332,35.5950146711262],[138.58581060397108,35.5950265240107],[138.58596127139788,35.59502120663856],[138.58606498684767,35.59500067119184],[138.5860588974284,35.59498228729785],[138.5860209894754,35.59493102558622],[138.58601546391915,35.59492390859288],[138.58591912968646,35.59493236018381],[138.58582288674128,35.5949229642208],[138.58568202286605,35.59487979799506],[138.5856082726431,35.59485109624021],[138.58556089990813,35.59482399820876],[138.58554598087522,35.59480462903341],[138.58552615410414,35.594736408300776],[138.58549257502582,35.59470812865272],[138.58551171671385,35.59465105743509],[138.5854896354986,35.594538309899946],[138.5854208007337,35.59446156074721],[138.58535090203816,35.5944220394884],[138.58528980853046,35.59436033789841],[138.58528638379977,35.59435691506075],[138.58518790399194,35.59431876600546],[138.58504998098206,35.59413326833554],[138.58505825075093,35.59412659225359],[138.58503176268954,35.59402015742634],[138.58514737709314,35.59387783731206],[138.58516558843766,35.59388007790602],[138.58521223796504,35.59385020910194],[138.58527494120432,35.5937652543219],[138.58525828622027,35.593669629195986],[138.58524883677666,35.59360446577081],[138.58526698038546,35.59354288836436],[138.5852813293881,35.593441292160534],[138.58531093759268,35.59336798863213],[138.58534123993218,35.593324880991105],[138.5853410187427,35.59311648100478],[138.58537346751402,35.593016314180815],[138.58537832289818,35.592912110665445],[138.58537132625588,35.592870471646194],[138.5853782328345,35.59282729042393],[138.58537233277156,35.592779070518525],[138.58535264284046,35.59273518702594],[138.58531638723974,35.59267968739384],[138.5852998946165,35.592632917197186],[138.58528947204553,35.592586593394905],[138.58528644674584,35.592543509342306],[138.58529466689853,35.59249023168306],[138.58529759160953,35.592438490124806],[138.58529676079542,35.59238350623859],[138.58528843481653,35.592337000673496],[138.58527038574218,35.59227932481489],[138.58525079659702,35.59222624710513],[138.58524026757468,35.59218352891014],[138.58523568683756,35.59213053071991],[138.58523802492374,35.592045889026906],[138.5852368504783,35.59197900709916],[138.5852351011395,35.59189031206266],[138.58524269915935,35.59177069291146],[138.58525430374127,35.591682979950086],[138.58525919380023,35.59161140652688],[138.58524729234747,35.59152316935881],[138.58521673880819,35.59143278205367],[138.58517658932777,35.59134690844628],[138.58512662694415,35.591269064081935],[138.58507502813973,35.59120897813553],[138.58500718971342,35.5911321378601],[138.58494223079452,35.59106494033587],[138.58491505595438,35.59103854890336],[138.58490809636012,35.59103161314173],[138.58487661328908,35.59100098822572],[138.584825110459,35.59092693063358],[138.5847875259091,35.59086584317285],[138.5847542423372,35.59080204852013],[138.58471921396722,35.590757995417164],[138.58464938753693,35.59067890286876],[138.58460938894146,35.59063061671359],[138.58453426399728,35.5905498151844],[138.58446919057357,35.59047784013732],[138.58441526911963,35.590411806385816],[138.58436985577052,35.590356132583004],[138.5843106333121,35.59028604626073],[138.584286659161,35.59025965244381],[138.58424711203352,35.59022055997769],[138.58424435303712,35.59022038162912],[138.58423883003982,35.59021524759401],[138.58418680456688,35.59016796122351],[138.5841453713596,35.590119135080855],[138.58408162813544,35.59005220664725],[138.5840522436763,35.590022751847144],[138.58421912388704,35.58994394442615],[138.5842541978548,35.589926793594],[138.5843108760152,35.58988601134855],[138.5843078921684,35.589881867063816],[138.58439996537825,35.58981455928702],[138.58438681772438,35.589799515359864],[138.58430566025737,35.58975288040013],[138.58431315670433,35.58974575421301],[138.58426843623255,35.58971901434694],[138.58422626293995,35.58970092598242],[138.5841756805861,35.589661480645994],[138.58422728224284,35.58962052170641],[138.5842466786068,35.58959617074844],[138.5842645313616,35.58957308280583],[138.5842760056415,35.58957091145863],[138.584276203862,35.58954945835089],[138.58427686200278,35.5895456720726],[138.5842848989475,35.58952781902446],[138.58430936075376,35.58949327886018],[138.58434166324503,35.589464231654475],[138.5843719900774,35.589445371476614],[138.58440374805542,35.58942326530188],[138.58444257246666,35.589404939986295],[138.58451206510384,35.589377669443685],[138.58454482622162,35.58936511721222],[138.5846029608775,35.58934569663566],[138.58464818329102,35.5893252034378],[138.5846819480615,35.58932265584083],[138.5847581945698,35.589316833380586],[138.5847762879627,35.58931285456022],[138.5848349099377,35.58930566532734],[138.58485664378992,35.589331997519764],[138.5848725386077,35.58935693667281],[138.58487520645997,35.58935442894304],[138.58501381899202,35.589260857598255],[138.58513639885683,35.58934604212314],[138.5851900318942,35.58927535364788],[138.58519359678542,35.5892758739316],[138.58530010223512,35.58929157284508],[138.58541312887326,35.58931709214288],[138.58542758840488,35.58932041702069],[138.58545264413056,35.589326077986385],[138.5855491146515,35.58934827376786],[138.5856451168065,35.58938655051812],[138.58568468429252,35.589299502660666],[138.5856954818845,35.589283720741506],[138.58570947465537,35.58926324934573],[138.5857450551681,35.58920427344021],[138.5857705107521,35.58917099421044],[138.58578164311237,35.589158727447725],[138.58579156305257,35.58914781362492],[138.58580688469772,35.589131758059516],[138.58581779798064,35.58912102380439],[138.58585751117673,35.58910873668119],[138.58596922191307,35.589162749185256],[138.586074358431,35.589012945033794],[138.58620998700087,35.5889479123001],[138.58634185588278,35.58881417851532],[138.58637825711543,35.58884185200526],[138.58644113875965,35.58888657873404],[138.58653069438057,35.588943572164666],[138.5865580744129,35.58895572120664],[138.58660865426037,35.58888970346525],[138.58661852129364,35.588870785310164],[138.586632330866,35.58884443690525],[138.5866496214989,35.58881251543463],[138.58666469704932,35.58877311405566],[138.58666579307268,35.588766172600316],[138.58667515788707,35.588752284531665],[138.58669464450765,35.588710175820275],[138.5867559014251,35.58872175961463],[138.586802366075,35.588728396412336],[138.58685103306505,35.588730704955424],[138.58687873175688,35.588731406101296],[138.5869205578145,35.58873444065544],[138.58695775189338,35.588740002416],[138.58698335880908,35.58874521197374],[138.58700687759614,35.58875830114146],[138.58707573965242,35.58867993003766],[138.58716513941317,35.588603103439375],[138.58720762333107,35.58859210284789],[138.5871156599379,35.58836003557047],[138.58719139940186,35.5883252053545],[138.58716228277513,35.58827861577381],[138.58714270957552,35.588240501323114],[138.58713132120516,35.5882198678299],[138.5871221376828,35.58819724969386],[138.58711604121726,35.58817210544656],[138.58710905590667,35.588141373251474],[138.5871048216237,35.58810351812262],[138.58710136447613,35.588069989082],[138.58709746007708,35.58803105205149],[138.58709662681514,35.58797489633887],[138.58709525205862,35.58792820556455],[138.5870847171585,35.587880439745966],[138.58701222054157,35.58788301598351],[138.58695329422667,35.58788314864742],[138.58693972128896,35.58788315843852],[138.5868927127726,35.58788337261433],[138.5868972994183,35.587838931002835],[138.5869125708158,35.587776814530805],[138.58693225507227,35.58771370334948],[138.58696029071683,35.58761813626027],[138.58696711138103,35.58759875155021],[138.58700264528363,35.58749822141836],[138.58701453406042,35.58747153182385],[138.58704789083188,35.58739867578512],[138.58709148543653,35.58730318756133],[138.5871435628772,35.587194893512205],[138.5871500588638,35.58718145817013],[138.58718143557718,35.587114552667735],[138.58719720000227,35.58710038951014],[138.58720734351598,35.5870925401167],[138.58715894391776,35.58707132045277],[138.58723262880252,35.58695429433534],[138.58700715451093,35.58687229600768],[138.58695173375068,35.58684808872741],[138.5868177204043,35.586800682307]]]}}]}
