{"type":"FeatureCollection","features":[{"type":"Feature","properties":{"potaRef":"JP-1490","nameEn":"Kasugayama Prefectural Park","nameJa":"","boundaryStatus":"全国都市公園GIS候補・公開前検証待ち","boundarySource":"国土交通省「都市計画決定GISデータ」都市公園・緑地を、POTA代表地点で空間照合して加工","boundaryScaleNote":"都市計画データは近似・未収録の可能性がある。POTA運用可否は公式情報で最終確認すること。","candidateMethod":"POTA representative point inside one MLIT urban-park polygon","sourceParkName":"春日山公園","sourceParkType":"公園","sourcePrefecture":"滋賀県","sourceCity":"大津市"},"geometry":{"type":"Polygon","coordinates":[[[135.90130354723487,35.12416662284397],[135.90132446188062,35.12416497218123],[135.90161279393516,35.12414792568298],[135.90215588563868,35.12411191949176],[135.90310844754947,35.124051800443404],[135.90347313040797,35.12402760790485],[135.90386406136795,35.123991256436916],[135.9042097944825,35.12396760555187],[135.9044662511583,35.12395096878192],[135.90511173748462,35.12390921562191],[135.90546651993225,35.12389665612866],[135.90556919407976,35.12388854193944],[135.90595922265084,35.12384360115954],[135.90633539961712,35.12379305940123],[135.907257074664,35.1236696287858],[135.9072889200758,35.123665371237784],[135.90731540855822,35.1236053095328],[135.90734918099884,35.123546452324305],[135.90737993868046,35.123504711429284],[135.907406882014,35.1234789053338],[135.9074285881892,35.123465922934784],[135.90745328862786,35.123453880331134],[135.90749426617475,35.123436738897084],[135.90754005148636,35.12341775313423],[135.90756888611142,35.123407651788334],[135.90759298044088,35.12339792543279],[135.9076128746242,35.12338633887414],[135.90764542361887,35.12336130323421],[135.90768882957352,35.12332142889296],[135.90772232046453,35.12329784529173],[135.90774824444128,35.123280701324504],[135.9077831893975,35.123261698203656],[135.90782055075448,35.12325012489846],[135.90786391893488,35.12324366739698],[135.9079096842175,35.12324230492122],[135.9079566621445,35.12324559485617],[135.90802168937302,35.123258165426755],[135.9080859287875,35.12327859605148],[135.90816179006669,35.12330649048004],[135.90822065909197,35.12333155945661],[135.90825957231306,35.12334501157809],[135.90829448492752,35.12335478272453],[135.90832520103095,35.123359448452554],[135.9083661367057,35.12336969289015],[135.9084191222027,35.123387365392304],[135.9084900176189,35.123411505810836],[135.90853938918258,35.123423144798934],[135.908575513961,35.123428274286546],[135.9086098450505,35.123428300176556],[135.90864538088456,35.12342043923494],[135.9086785174973,35.12340932222329],[135.9087080552085,35.12338846677959],[135.9087212331935,35.12336814889721],[135.9087369232108,35.12333846678875],[135.90874658186814,35.123315757398174],[135.90875805555586,35.123288857607875],[135.9087628980877,35.12326565780469],[135.90876053092086,35.12323366338933],[135.90875635797624,35.1231877221074],[135.90877925095026,35.123182673162034],[135.90882189895504,35.12317255486879],[135.9088598751522,35.12316044083248],[135.90894371888933,35.12314373678632],[135.90903041317236,35.1231289278768],[135.90906015564215,35.123121107537656],[135.90911470833376,35.123100865719294],[135.9091784052992,35.123076357832105],[135.90929033316175,35.12303329801513],[135.90936416326704,35.12301307952371],[135.90941610042432,35.12300643856811],[135.90947756346188,35.1230076203189],[135.90946791922644,35.122977847074544],[135.90950672947818,35.122548729410525],[135.90957345808795,35.12247098364446],[135.90950481391866,35.122455373301364],[135.90945453022948,35.12227691075887],[135.90936509991792,35.12214769245808],[135.9090352856541,35.12177598280278],[135.9089163443837,35.12161572294018],[135.908854118872,35.12103922263295],[135.90881957413296,35.12071982909383],[135.908694193889,35.12068796743106],[135.90854500720627,35.12079200910149],[135.90847303027206,35.12096188809845],[135.90842580554227,35.1210724429548],[135.90841805223477,35.12109862437046],[135.90842111127094,35.121120054271536],[135.9084652470052,35.12125026675153],[135.90816016186878,35.121374896534014],[135.9080349838838,35.121425986248056],[135.90801256977053,35.12143489364606],[135.90780835199305,35.121456607795864],[135.90771874683531,35.12146606799165],[135.9076584921536,35.12147435154904],[135.90761445086173,35.12148502727661],[135.9073943991905,35.121537206856935],[135.90729550802214,35.12155974877304],[135.90721594176742,35.12156920725973],[135.9071834938496,35.1215733561547],[135.90713187312693,35.12161117773042],[135.90701901239578,35.121693817742596],[135.90694947198776,35.12174372301958],[135.90687525142206,35.12179901536194],[135.9067958482048,35.12185773821704],[135.90673942058473,35.121896376251364],[135.90666081038788,35.12195225102911],[135.9063080449964,35.12183012017377],[135.90638238264765,35.12164408122441],[135.90645438585153,35.12146514388822],[135.90647684087173,35.12141100179191],[135.90647995119204,35.12139672514241],[135.9064792015479,35.12138065161903],[135.9064684250159,35.12134434170564],[135.90644614962105,35.12126057933218],[135.9064085176525,35.121125674560226],[135.906332845049,35.12110776729549],[135.9062743662988,35.121098283856305],[135.9062172227287,35.12108216671188],[135.9061600833194,35.12107200816243],[135.90612069804925,35.121069597823286],[135.90602646718355,35.12106595504246],[135.90598243820477,35.121065920899845],[135.905956486247,35.121059969192636],[135.90589627412015,35.12103135534729],[135.90587234439337,35.12102241236078],[135.9058491751522,35.12102001452487],[135.90582676776057,35.12102297192021],[135.90579972899,35.121027115633076],[135.90577501482198,35.1210324510678],[135.905733290574,35.12104135204708],[135.90570097312187,35.1210561738764],[135.90565615006062,35.12107875650778],[135.905625237588,35.12109302050813],[135.90561364747074,35.121096581246135],[135.90558661072458,35.12109894003173],[135.90555802698248,35.12110129760596],[135.90554412254195,35.12110426157368],[135.90551707617357,35.121114949782],[135.90545072353171,35.12114980238717],[135.9054691329763,35.121255061634564],[135.9054791018801,35.12131577339771],[135.9054844668963,35.12135386406051],[135.90548056513444,35.12139777089723],[135.90547743332382,35.121430500290444],[135.9054720167111,35.12144656901113],[135.90545344300986,35.12147393171669],[135.905415573692,35.121526709412535],[135.90537226427097,35.1215778512155],[135.9053274132879,35.121624241130185],[135.90527948542848,35.12167473925865],[135.9052832516958,35.12175746873379],[135.90521141942082,35.12175800754207],[135.90516897225388,35.1217276223485],[135.90510799817312,35.121684133509675],[135.9050763505098,35.1216698206669],[135.90504700889323,35.12166325312146],[135.90501457672485,35.12165370834534],[135.90497056056995,35.1216423605837],[135.9049330257892,35.12163350590561],[135.90490908492956,35.12163408208673],[135.90487740005585,35.12164238667074],[135.90482564037762,35.12165722906404],[135.90474992468162,35.12167621733502],[135.90469011035637,35.121692252275835],[135.90450731752978,35.121461182657036],[135.90438610775396,35.12150384312117],[135.9043929101456,35.121635334725774],[135.904178961503,35.121626836338194],[135.90408680419836,35.1216883148029],[135.9039837767653,35.121756626630535],[135.90390029722926,35.12180923249333],[135.90382896531452,35.12173873622091],[135.90375377401944,35.12166609137835],[135.90373794295414,35.12166518636644],[135.90371477114422,35.12166487048187],[135.90368425858927,35.12166514372044],[135.90365182389075,35.12166720030451],[135.90361975627061,35.121674314334705],[135.90358759062215,35.12168081528897],[135.9035470284642,35.12169000490421],[135.90351921571917,35.12169891618902],[135.9034948679221,35.12170960609262],[135.90348095242607,35.12172179169966],[135.90347129102534,35.121727147663655],[135.9034600875414,35.12172832866176],[135.90343459963816,35.121728903319436],[135.90340679741345,35.12172888116717],[135.90337319292914,35.12172736698244],[135.9033403699055,35.12172376203582],[135.90331295801843,35.12171838553028],[135.9032841671564,35.121710087203866],[135.90325288580541,35.12170172378095],[135.90323512900173,35.121696354963774],[135.90320965729376,35.121683245499284],[135.90318997934878,35.121669536682084],[135.903174551669,35.121652261494816],[135.90315421227223,35.12162268653419],[135.90314496164186,35.12160542529275],[135.90313962696825,35.12158895144579],[135.9031350240012,35.12155681089406],[135.90312967726993,35.12151345564635],[135.90313053339395,35.121457566115076],[135.9031371426886,35.12141680759744],[135.90313949046268,35.12138913480198],[135.90313797028097,35.12137574697892],[135.903132953738,35.12136859443105],[135.9031086422707,35.12134864382767],[135.90308973847576,35.121339100334936],[135.90307351602664,35.12133522012146],[135.90306309404278,35.121334319346616],[135.9030495826438,35.12132954885745],[135.90302375963532,35.12131673655245],[135.903000603796,35.12130303393576],[135.90298208928377,35.121279806649035],[135.9029713104737,35.12125599059155],[135.90296826093743,35.12121849663181],[135.9029713979762,35.12118219754496],[135.9029814744002,35.121150654680825],[135.90299151450716,35.12111272046967],[135.90304558321924,35.121112168769216],[135.9031614368864,35.121117625039716],[135.90330871858257,35.121127847927696],[135.90343460920397,35.121135087809776],[135.90351142670315,35.12113990866601],[135.90354309923597,35.121142025249966],[135.90356896710526,35.12114472315372],[135.90358324616545,35.12114979167597],[135.90360601805332,35.12116349387639],[135.90361565588037,35.121178087084616],[135.9036206605514,35.121195344915364],[135.90362179854392,35.121207254042545],[135.90361947757862,35.12121230936039],[135.90360634472748,35.121221475730536],[135.90358933568808,35.12123336141073],[135.90357310386463,35.12124674412232],[135.90356497751048,35.12125298474141],[135.90356227148214,35.12125893219234],[135.90356072551202,35.12126736858232],[135.90356225568075,35.121281648848885],[135.90357075026887,35.121288795131534],[135.9035815552076,35.12129058860793],[135.9036016346674,35.12128941465769],[135.90364167010569,35.12128943747605],[135.9036849230182,35.12128709201084],[135.90371581838863,35.121287711516615],[135.90372740301518,35.12128891063898],[135.90374052624114,35.121297250506686],[135.90375440907485,35.12131273951516],[135.90376365489223,35.121334174444364],[135.9037744423498,35.121350841899094],[135.90378447905516,35.12136216312807],[135.90379682751012,35.121366932612325],[135.90380841634556,35.121364561968036],[135.90382696889387,35.12135564326933],[135.90385556906574,35.12133008266186],[135.9039126604287,35.12126894617345],[135.9039752971924,35.121213051505],[135.9040209188205,35.121164877816966],[135.9040294343706,35.12115417527235],[135.9040340569469,35.12114181096759],[135.90404336772522,35.12110789658141],[135.90405885480203,35.12107458204348],[135.90406970228148,35.12104007391078],[135.90407746055368,35.121001479740364],[135.9040852215166,35.120969943965356],[135.90409528980413,35.12094495457987],[135.90411538940035,35.12092651769363],[135.90414089447373,35.1209110688956],[135.9041960944779,35.120890613445994],[135.90422276391362,35.12087396661548],[135.90423435928182,35.12086594381133],[135.9042463449182,35.12085256667049],[135.9042540877017,35.12083649984064],[135.90426414477335,35.12082103881309],[135.90427497700387,35.120808841664655],[135.9042869553181,35.12080171159844],[135.90429738177082,35.120798745028814],[135.9043128293663,35.12079905470453],[135.90433638215566,35.12080175061702],[135.90435915453352,35.12080567188825],[135.9044008589891,35.120813736752936],[135.9044302026705,35.12081823111009],[135.90444293543305,35.120822703351706],[135.90445412523232,35.12083312398009],[135.90446492650443,35.12084742055852],[135.90446992453056,35.1208611085875],[135.90447146422733,35.12086735688544],[135.9044699092391,35.120874206719385],[135.90446643458515,35.120880748545595],[135.90445523099297,35.12089153013365],[135.90443976287207,35.120908780806936],[135.90442892197728,35.12092840595377],[135.9044234968531,35.12095161414711],[135.904427346338,35.120962326469886],[135.90443813734564,35.12097602808192],[135.9044589804153,35.12098794372067],[135.9045499910688,35.121033818359024],[135.90456158955033,35.12102311820437],[135.90458015373372,35.121004085071895],[135.90459869721525,35.120993390380576],[135.90461879241406,35.1209880515512],[135.90464968017406,35.120985696010834],[135.90468367011604,35.12098572274371],[135.9047322583663,35.120989934678974],[135.9047608400154,35.12098936217902],[135.9047886482204,35.120984029381454],[135.90481182918558,35.120976313102176],[135.90484506160024,35.12095788640735],[135.90493519888358,35.12091517407044],[135.90499779123147,35.12088725098947],[135.9050387392612,35.12087596981331],[135.9050673243197,35.12087242244157],[135.90513915650774,35.120871288757485],[135.905194776174,35.120867167549356],[135.9052133133417,35.120861827402635],[135.90523031794453,35.12085350223815],[135.90525041995713,35.120842213704854],[135.90526510133748,35.12083150687769],[135.90528135030584,35.12081248084211],[135.90529527675136,35.12079046917297],[135.90531450163473,35.120759681467305],[135.90533075751267,35.120725177444115],[135.90534625776755,35.120679954525855],[135.90536022382952,35.12061416821346],[135.9053680131697,35.12055763502209],[135.9053642035098,35.12051239702338],[135.9053642551259,35.12046776601393],[135.9053581105197,35.12043978905969],[135.90534116110658,35.12040049040416],[135.90531737834883,35.12035008047954],[135.90528269230785,35.12028815946104],[135.90525493127495,35.12024350671389],[135.90525108861462,35.120226835801915],[135.905248051798,35.12018696206029],[135.90524656713885,35.12015209260859],[135.90523503710295,35.120103873765075],[135.905225029238,35.12007708370314],[135.90521422999137,35.1200610113252],[135.90519648445306,35.12004611442012],[135.90517024501216,35.120023476381014],[135.90515173492642,35.120005613083165],[135.90513167174274,35.11998357482874],[135.905100964738,35.11994393183023],[135.9050747329481,35.11991474921033],[135.90504540992094,35.119892703689445],[135.9050214799297,35.119884355493944],[135.90499831172673,35.1198813625355],[135.9049735889543,35.11988491291974],[135.9049172012536,35.11988962838564],[135.90488707370963,35.119889604749375],[135.90486468378992,35.11988720733662],[135.90485078990778,35.11988124682595],[135.90483998731162,35.11986814019967],[135.9048338364036,35.11985520850108],[135.90483156226756,35.1198200950298],[135.90483389108584,35.11980818863296],[135.90484086495331,35.11979272513408],[135.90485400476325,35.11977725746024],[135.90486560925174,35.11976120263396],[135.90487181849534,35.11974282683222],[135.90487337732674,35.11972318534317],[135.90487263353532,35.11970236114048],[135.90486568805096,35.11969342226687],[135.90483791004064,35.119673171803846],[135.90481012444167,35.11965945687994],[135.90478850327727,35.11965646509623],[135.90475914450957,35.119655847071535],[135.90470979370423,35.11965706130863],[135.90469825157118,35.11961956070538],[135.90469133856558,35.1195921780701],[135.90468674827642,35.1195487243111],[135.9046770358747,35.11948512801012],[135.904663249194,35.11945314254446],[135.90463937637566,35.11938646113844],[135.90462168657433,35.119323958330874],[135.90460553404964,35.119269786178116],[135.90459636425533,35.11923961626251],[135.9045724844755,35.119188412825544],[135.90454472768272,35.119140776094056],[135.90451625939713,35.11911056392936],[135.9044676370065,35.11908017361375],[135.90442440906523,35.11905276233502],[135.90439816443546,35.119044412190526],[135.90435645567678,35.11904080050988],[135.90429082056187,35.11903539405832],[135.90407479835173,35.119023333102454],[135.90399525164648,35.11901791548102],[135.90395739712943,35.11902086029684],[135.90391490152803,35.11903332980627],[135.90388418020214,35.119053389877934],[135.90383315290913,35.11909977436195],[135.90379756642523,35.11914259230151],[135.90376893549643,35.119194944136304],[135.90373795970987,35.11926335803744],[135.90371098210767,35.1193184876531],[135.90368929103036,35.11937500970403],[135.90367843263098,35.1194095268181],[135.90367067516266,35.119438087775166],[135.90365752398725,35.11946306566685],[135.90362966599665,35.11950173398738],[135.90359486520845,35.11953860288347],[135.90356344152008,35.119558599211466],[135.90352093295334,35.11958177786095],[135.90347921385762,35.11959603271588],[135.90342126947507,35.11960907569427],[135.9033756879948,35.11961439401334],[135.903178982339,35.119623152447176],[135.90292898758779,35.11963270625217],[135.9028192846206,35.11963261835062],[135.9027239750312,35.11962423048302],[135.90260288841012,35.11961101707412],[135.90250040004065,35.119596385191194],[135.90243926227257,35.11959148616966],[135.9023835015377,35.11959491188061],[135.90227018842344,35.11960452023449],[135.90215237618244,35.119614818971314],[135.9020462511294,35.11963205021565],[135.90191811848626,35.11965752089244],[135.9018038814653,35.119687221502254],[135.90174991761882,35.119701727263426],[135.90169863342,35.11972316736522],[135.90166719900702,35.119742514144036],[135.90161860206672,35.11977365605107],[135.90158096313905,35.11979767632454],[135.9015530456001,35.119830214220265],[135.9015377232232,35.11986277135556],[135.90153409874745,35.119884250091474],[135.9015358788842,35.119900189267405],[135.90154753441834,35.11993345342107],[135.9015564783358,35.11996811262694],[135.90156181820265,35.12001639890923],[135.90156087519995,35.12005242931135],[135.9015554280655,35.120093305884716],[135.90154190079437,35.12012932606523],[135.90152746955116,35.12015980155973],[135.90148794046075,35.120222654959846],[135.90145732554376,35.120262816950316],[135.90142399647027,35.1203064383137],[135.90140868313003,35.120331378140534],[135.90139874177063,35.12036878044668],[135.9013897210414,35.12039788109804],[135.9013879223554,35.1204246618697],[135.9013896874405,35.120453077174446],[135.90139324851907,35.12048426140759],[135.90139317587912,35.120544541658866],[135.90138864498934,35.12057156360013],[135.90137961828182,35.12059649952183],[135.90136613896556,35.120619908360354],[135.90133732607126,35.12067586527904],[135.90131029107997,35.12072226821288],[135.90126887821324,35.12076380960124],[135.90121306561318,35.12080949494874],[135.90115840758202,35.120843931051176],[135.90110891263123,35.12087299866833],[135.90107203227944,35.120886129819446],[135.9010360498249,35.1208916443963],[135.9010137665933,35.120891617186665],[135.90096791804305,35.12088118595876],[135.90089240067365,35.120863104148356],[135.90084476289104,35.12084435999433],[135.90081331662955,35.1208277024187],[135.9007531795401,35.12078407685189],[135.90066333495977,35.120719567239945],[135.90048265943875,35.12083358833557],[135.9003989659387,35.120889644191465],[135.90037286038242,35.12091110441391],[135.90036473636613,35.12093327353298],[135.90036382319659,35.12094436068065],[135.9003682989843,35.12096288926279],[135.9003835410431,35.120996859605164],[135.9003897990911,35.121029425307476],[135.9003834516355,35.12107030108117],[135.90037623487865,35.121095238413226],[135.90035919116002,35.12111721990887],[135.90032858295018,35.12114213800713],[135.9002988929651,35.121160818783444],[135.90026199799829,35.12117672615696],[135.90022602717988,35.12118154638208],[135.90014537494358,35.12118147996789],[135.9001058181198,35.121175903425765],[135.90004917686556,35.12116268647409],[135.8999556820656,35.12114044256205],[135.89979585319523,35.12110012367132],[135.89960976021356,35.12105839457936],[135.8995944359922,35.12109163656591],[135.8995808873616,35.12113528281327],[135.8995745700255,35.12116022084226],[135.8995727315623,35.12119209477146],[135.89957988310235,35.12122050554655],[135.8995942497864,35.121243387363656],[135.8996211958193,35.121270435304844],[135.89964807128183,35.121292417003914],[135.89966333427674,35.121318067021754],[135.89967498507545,35.12134578739457],[135.89968574037266,35.12137905998827],[135.89968749646755,35.12140539294419],[135.89968835452302,35.12143934245206],[135.89968563164962,35.121467745047646],[135.89968016011662,35.12150083293445],[135.8996774373079,35.121520229993656],[135.89968280562857,35.121544483577495],[135.89969357115456,35.12156943574785],[135.89970162583728,35.121595079794446],[135.89973208132278,35.12164136766389],[135.89977068690413,35.12168920375293],[135.89979761447475,35.12173149524223],[135.89980478394443,35.121745365547014],[135.89980565580547,35.12176808293413],[135.89980287801217,35.121832399452956],[135.89979654207846,35.1218635755439],[135.89979921056974,35.12188852100969],[135.8998099651935,35.12191348217391],[135.8998261450076,35.12192526854881],[135.89986388500975,35.12194539316443],[135.89992398213775,35.121977146969265],[135.8999644034409,35.12201182325061],[135.8999850588605,35.12203332196787],[135.89998864149638,35.12204648616662],[135.89999311787574,35.12206450994492],[135.90000478329037,35.12208044827839],[135.90003263618885,35.122101952924794],[135.90006409120844,35.1221206930679],[135.9000937511514,35.122126946572],[135.90014230609808,35.12213183641053],[135.9002016226783,35.122138078258466],[135.90024118335873,35.12214087829072],[135.90026727076264,35.12213466168992],[135.90030415603488,35.12211806018939],[135.90034195362506,35.12210008020156],[135.9003797284177,35.122091799838664],[135.90042019719974,35.12208766837009],[135.90045257558555,35.12208700986008],[135.90050898376288,35.122093979347554],[135.90057730474126,35.12211204647692],[135.90063842745346,35.12213080178759],[135.90066899724425,35.122137759031666],[135.9007220463963,35.12213710837278],[135.90077562735024,35.122132203258545],[135.90086646642183,35.122119810463694],[135.90093482273164,35.122108778453914],[135.90096810081434,35.12210811152694],[135.90104901317156,35.12212065374368],[135.9012222672173,35.12214846972364],[135.9013148705084,35.12216517699694],[135.90136431938785,35.12217491690152],[135.9014443146655,35.12220200759122],[135.9015009393511,35.122229773359145],[135.90151621632535,35.12223532070608],[135.90155813362665,35.122240114438725],[135.90158690591662,35.12224561864894],[135.90156979276742,35.12226154247701],[135.90154549742843,35.122282995402465],[135.90148516799633,35.12234323569152],[135.90133855785928,35.12248418512732],[135.90126743284475,35.12255271891776],[135.90122332665982,35.12258871413561],[135.90111718909833,35.122667414754],[135.9008778869683,35.1228361609554],[135.90101630086588,35.12285081453409],[135.90116737368135,35.122858564118424],[135.9012357163576,35.12285930493022],[135.90126897790853,35.122863496749254],[135.90132731036547,35.12288567496647],[135.90142439292583,35.12291901764328],[135.90151428388782,35.122947495557405],[135.90157090813915,35.122966949875575],[135.90164971561134,35.12300623614643],[135.90170992122398,35.12304024278661],[135.90176294698875,35.12306869061605],[135.9018105762914,35.12309575482488],[135.90184383066403,35.12311518106701],[135.9019085498594,35.12313671512822],[135.90203676646465,35.12317396777576],[135.90214733740962,35.12320454429232],[135.90218328498415,35.12321981690853],[135.9022165394851,35.12323925206275],[135.90223900347755,35.12325381966381],[135.9022560635188,35.123273232729915],[135.9022964641041,35.123326622412606],[135.9024257851706,35.12349618205794],[135.90226557441648,35.123614540196655],[135.9022106626107,35.12365814434668],[135.9021872673356,35.123669907483155],[135.9021613553641,35.12367593533145],[135.90208218494047,35.123700814653],[135.90204800338606,35.123713263168554],[135.90203540179124,35.123718102810784],[135.90201649418574,35.12373887507401],[135.90195279523869,35.12381775494064],[135.90188805389568,35.12381423195262],[135.9018314021979,35.12380795703072],[135.90179993463565,35.12380793154065],[135.901774749847,35.12381137272017],[135.90161279729676,35.12388052717877],[135.90161372782643,35.12385489056187],[135.90161374698053,35.12383896187248],[135.90160207171064,35.12382162643518],[135.90158610735548,35.123803503248716],[135.90156454386397,35.12378824213911],[135.90152139675394,35.12376534619906],[135.90148106692877,35.123744552923],[135.90139459770745,35.12386227569891],[135.90139181009317,35.12393571494654],[135.9013872940494,35.12395026075143],[135.901378317667,35.12396954457876],[135.90134134771208,35.124064960515476],[135.90130354723487,35.12416662284397]]]}}]}
