{"type":"FeatureCollection","features":[{"type":"Feature","properties":{"potaRef":"JP-1085","nameEn":"Shonai Kuko Kansho Ryokuchi Prefectural Park","nameJa":"","boundaryStatus":"全国都市公園GIS候補・公開前検証待ち","boundarySource":"国土交通省「都市計画決定GISデータ」都市公園・緑地を、POTA代表地点で空間照合して加工","boundaryScaleNote":"都市計画データは近似・未収録の可能性がある。POTA運用可否は公式情報で最終確認すること。","candidateMethod":"POTA representative point inside one MLIT urban-park polygon","sourceParkName":"","sourceParkType":"公園","sourcePrefecture":"山形県","sourceCity":"酒田市"},"geometry":{"type":"Polygon","coordinates":[[[139.78934907753282,38.81560731726928],[139.78904144541167,38.81698079187127],[139.7878334534123,38.81680946475306],[139.78767327629134,38.8172504756274],[139.78776168436832,38.81756927144201],[139.78800830072504,38.81786480056799],[139.78985277182554,38.81753086948255],[139.7905734409889,38.817280519357546],[139.79096849442408,38.817096038846],[139.7915129265177,38.81678409867767],[139.79280438154606,38.816234574777724],[139.79288928036962,38.816042576389385],[139.7942553232983,38.81579085358677],[139.7946240254575,38.81569351706426],[139.79528197237562,38.81568395746774],[139.79593909935946,38.815721571404495],[139.79847724256786,38.81597093018788],[139.79844711852593,38.81616732541147],[139.7955717881451,38.81588565770429],[139.79486818775658,38.81591798410022],[139.79377815282797,38.81604390411786],[139.79341991161925,38.81617633037556],[139.79291613902842,38.816382800977834],[139.79291765662836,38.81694034123058],[139.79336275668052,38.81811963092781],[139.79374617122028,38.81824358984104],[139.79484674432723,38.81805749085783],[139.79561649885036,38.82041325568654],[139.7967672677552,38.81969559687543],[139.79647344840689,38.81864460128396],[139.79774940418503,38.81704562568543],[139.79865171404862,38.816849915826346],[139.79854777414485,38.81650461636717],[139.79873484271405,38.816452499500166],[139.7987706623396,38.81602265592069],[139.80232504511307,38.81636827320367],[139.8025327556261,38.81465231960481],[139.80196768742434,38.81456920966403],[139.80193392290363,38.81488110258864],[139.8017271490263,38.81484280474806],[139.8013755211803,38.81543318893524],[139.80071823372123,38.81525804770503],[139.79873602213738,38.81549271888429],[139.78934907753282,38.81560731726928]]]}}]}
