{"type":"FeatureCollection","features":[{"type":"Feature","properties":{"potaRef":"JP-1136","nameEn":"Tochigi Sports Prefectural Park","nameJa":"","boundaryStatus":"全国都市公園GIS候補・公開前検証待ち","boundarySource":"国土交通省「都市計画決定GISデータ」都市公園・緑地を、POTA代表地点で空間照合して加工","boundaryScaleNote":"都市計画データは近似・未収録の可能性がある。POTA運用可否は公式情報で最終確認すること。","candidateMethod":"POTA representative point inside one MLIT urban-park polygon","sourceParkName":"栃木県総合運動公園","sourceParkType":"公園","sourcePrefecture":"栃木県","sourceCity":"宇都宮市"},"geometry":{"type":"Polygon","coordinates":[[[139.86568008848138,36.51063296224501],[139.86643532232796,36.510662661935264],[139.8665032670989,36.510611616817805],[139.86654233119518,36.509786622234614],[139.8665813944692,36.50896162752468],[139.8665076954034,36.508895303007925],[139.86627523859238,36.50888809402277],[139.86499650753217,36.508848429701814],[139.86412138797596,36.50882127688116],[139.86307682722412,36.50878885828486],[139.86258193849486,36.508773495900904],[139.86219790534275,36.508761573287615],[139.86207643726723,36.50876642140744],[139.86035270558273,36.50883476170842],[139.8603415977247,36.50869038935073],[139.86205989325975,36.50862267917007],[139.86205805944422,36.50860348570879],[139.8619779160543,36.50775281859165],[139.86185412222096,36.50749725491831],[139.86181646714752,36.50741110479853],[139.86180942780516,36.50739506430039],[139.86177803329184,36.507331984576645],[139.8617425102445,36.50727458368835],[139.86173480326548,36.507264401449014],[139.86172374871688,36.50725863612032],[139.86168912338317,36.5072134018306],[139.86162948334749,36.50714843620612],[139.86156538273474,36.50709681006574],[139.86131970477786,36.50690724606016],[139.86122646040988,36.50683877330424],[139.86115733718847,36.50678895061811],[139.8610575100634,36.50673066336353],[139.86099285860618,36.506697332350186],[139.86093546667757,36.50667202070616],[139.86084982760568,36.506640136499634],[139.86078640823686,36.50661762004902],[139.86072734400906,36.50659834704563],[139.8603823504728,36.50652082900465],[139.8599421215012,36.50642089036099],[139.85986597749155,36.50640351338619],[139.85981037562718,36.50638757376532],[139.85976694292333,36.50637298327227],[139.85970776640517,36.50635055542442],[139.85960448667058,36.50631128402673],[139.85954196206572,36.50629174082922],[139.85948680755297,36.506277693576564],[139.85939045657094,36.50625869851606],[139.85931654912343,36.50625159491174],[139.85926809632824,36.50624727955255],[139.8588745660812,36.50623898352871],[139.85885882601107,36.50624205116362],[139.85884431568732,36.50625025563839],[139.85876786820052,36.50632588670144],[139.85873336412132,36.50630309256656],[139.85839044623248,36.50607713295764],[139.8583886303885,36.5059870086543],[139.85802678864331,36.50626683174274],[139.85813820215483,36.50625995896369],[139.8582754358627,36.506350380937626],[139.85827521518857,36.50635762532071],[139.85825765309878,36.506934156589686],[139.85822974289795,36.50693353159238],[139.85818888586982,36.506943363770915],[139.8581902686422,36.50707548625115],[139.85818759659634,36.50709792785572],[139.8581771584724,36.507269887918845],[139.85844850498637,36.50745251334142],[139.85889605156024,36.507389510502406],[139.85935492730962,36.507485393281584],[139.85949418217382,36.50759855916729],[139.8595817306841,36.50766252829846],[139.85963666726713,36.50768919300498],[139.85966044998634,36.50769838043393],[139.85967898424153,36.50770369366576],[139.85969930407146,36.507707023754485],[139.85972576416333,36.50771035247104],[139.8597686192285,36.50770909818502],[139.8597724358565,36.50772683487026],[139.85977456225413,36.50774188521387],[139.85979581474055,36.50785913264899],[139.85978587907036,36.507860306490024],[139.8598516782827,36.50830370507957],[139.85978692829653,36.508310478914474],[139.85984723077758,36.50867691213772],[139.85987322696536,36.50884539136286],[139.85975477706774,36.5088550436309],[139.85958626455283,36.508866714155594],[139.85944701932274,36.50888561784785],[139.85910258083229,36.50894109997076],[139.85875874089479,36.50899734147073],[139.85818977669268,36.50908645040959],[139.85735992447414,36.50921926645217],[139.85657435162364,36.509344812382366],[139.856105975182,36.509421238577325],[139.8556271068619,36.50949645978941],[139.8553472851878,36.50954070584276],[139.85524315680505,36.50959409398381],[139.85518739584128,36.50963397818002],[139.85519813697172,36.50978395453848],[139.85527448672153,36.50985577921365],[139.85534420121917,36.50994834607362],[139.85538966948727,36.51003748098533],[139.8554392336906,36.5102097340437],[139.85556364702342,36.51064218277032],[139.85560362184498,36.510781130332056],[139.8556705481906,36.5110137569254],[139.85573340384184,36.511232233044225],[139.85564598073867,36.51127846671562],[139.85558803744664,36.511306803377245],[139.85554323981415,36.51132902380113],[139.85550304070685,36.511208387724565],[139.85542878182193,36.51095027278371],[139.85529375283835,36.510480923755104],[139.85521724888852,36.51021500006302],[139.85517457225598,36.51006927656885],[139.8551385938074,36.51000891263048],[139.85508208721896,36.509942302936494],[139.85500307603635,36.50987752894548],[139.85494596737044,36.509842832544166],[139.8548881499558,36.509812059463684],[139.8548344945483,36.5097906950689],[139.85465680316122,36.50972048902522],[139.85459310313465,36.50969200178085],[139.85452116147002,36.50964904925416],[139.85448693498253,36.50962743918343],[139.85441898038462,36.509573972574884],[139.85438634662424,36.50954556267853],[139.8543358787072,36.509498093618134],[139.85427099248108,36.50948975208998],[139.85412860358858,36.509566101415125],[139.85403671560874,36.509611116167854],[139.8539093710169,36.50967350046014],[139.85385713714564,36.50969908901735],[139.8537904570503,36.50972534672704],[139.85353270236226,36.50982684648005],[139.8528827381906,36.510065009316584],[139.85253743135252,36.510167808595526],[139.85242278717223,36.51021384957943],[139.85247177653295,36.51031071734357],[139.85289765196507,36.51017093676232],[139.85325658029555,36.51009345477707],[139.8533786342304,36.51007400543311],[139.85361164945772,36.51002421760511],[139.8546897706921,36.509826683636234],[139.85450340905146,36.51008501460919],[139.85447740592505,36.51012106910395],[139.8543795312904,36.51025681421904],[139.85434289827867,36.51030762144153],[139.8539833407869,36.51039189077438],[139.85367633930483,36.51047449817121],[139.85366607088253,36.510485405014855],[139.85365691963335,36.510499015403106],[139.85363884077074,36.51058869915564],[139.85367428022008,36.51070620884568],[139.85369451357627,36.51080128679888],[139.85370145610926,36.51087762112608],[139.85369858331896,36.51098928598151],[139.85362234661724,36.511054278926245],[139.85355090679192,36.51110512144122],[139.8534789059596,36.51114587005558],[139.85339283905023,36.51119193836653],[139.85331011491382,36.5112133119147],[139.85319626969303,36.51129055866194],[139.8532074326387,36.511335988793064],[139.85332984875305,36.5115320792065],[139.85337728111503,36.511614717580144],[139.85339262310256,36.51164147979392],[139.85340883358575,36.511669679642246],[139.85359993573206,36.511583854797614],[139.8539632523721,36.51165129520738],[139.85385749425262,36.511958007545765],[139.85381919714027,36.51195017335638],[139.85378182493528,36.51205995155608],[139.8537429717272,36.5120602286497],[139.85362390807026,36.51229962000979],[139.85353340979802,36.51247979452291],[139.85344503481966,36.512519197164245],[139.85338605499942,36.51295680498973],[139.85343149083664,36.512922882175374],[139.8535127471543,36.51286221534291],[139.8535950956895,36.51280464643729],[139.85363539700222,36.51277342946029],[139.85402115374995,36.51248595089157],[139.8540767164265,36.51244430878742],[139.85410588779212,36.51242244593453],[139.8542790091405,36.51229269752514],[139.85435436142387,36.512238394696425],[139.85440163808866,36.512203603239385],[139.85453658193697,36.51210409671837],[139.85472833122444,36.511959430778184],[139.85496270007155,36.51176745309903],[139.85499067888836,36.511746627423236],[139.85502239308684,36.5117249645331],[139.85505489096855,36.51170667185759],[139.85508108589173,36.511692398104906],[139.85509379505015,36.51168547475934],[139.85510283796256,36.511680675416585],[139.85514236802126,36.511662823765505],[139.85517470677996,36.51165007922678],[139.85521057708522,36.511638720973764],[139.85522609637798,36.51163380681959],[139.85529708356168,36.51161491592652],[139.85538806023126,36.51159422240758],[139.85544752020033,36.511580677164545],[139.85548548581124,36.511572081072],[139.85555459257628,36.511542283533],[139.85566225154054,36.511485348431385],[139.85570762770215,36.51146135133806],[139.85576345901717,36.51143182501343],[139.85584939124152,36.51138637976344],[139.85588901455358,36.51141984337065],[139.85590935632044,36.51143449429634],[139.85594703748066,36.51145891658942],[139.85603377629627,36.51150585171776],[139.85615864403167,36.511551555853224],[139.85632281547987,36.51159755744865],[139.856499920367,36.51164261009679],[139.85658607946328,36.51167405450346],[139.8566577461211,36.51170569727335],[139.85670983948987,36.51173610851008],[139.85674371810296,36.5117653029002],[139.85679565715148,36.51181475920959],[139.85687556370092,36.51193413741252],[139.85699834659084,36.512137923408154],[139.85706728204573,36.51225233687078],[139.85719893465094,36.51254574336555],[139.85723717413921,36.51253578479527],[139.85733334028546,36.51245411956731],[139.85737464375094,36.512434283776656],[139.85739551951266,36.51242670906896],[139.85740156187148,36.51246897625874],[139.85750428329527,36.51318850976187],[139.85751088530702,36.513234832431024],[139.85744694126424,36.513269928989175],[139.8574210360062,36.51326083163438],[139.85732537265216,36.51324679496035],[139.85721005303006,36.51324105815845],[139.85709931545244,36.51324251073723],[139.85698661330946,36.51324901822471],[139.8569119185656,36.5132588604841],[139.85685844249056,36.51327049712035],[139.85677773229168,36.51329606040732],[139.85653059812068,36.513394628647106],[139.8564803338092,36.51342026810972],[139.85638797553997,36.51333656020729],[139.8563522478493,36.513336026358985],[139.85619352699925,36.513483500786144],[139.85611160117153,36.51356661137105],[139.85594441335448,36.513746507841965],[139.85581021924875,36.51389228533439],[139.85577395181252,36.51393391353979],[139.85573783192024,36.51402661673197],[139.8556818324271,36.5142284186298],[139.85567431049856,36.51441431271028],[139.8557061971357,36.5146576793677],[139.85578258369142,36.514838036073215],[139.85583935554993,36.51495124763891],[139.8561755727312,36.51551896047302],[139.85623926541462,36.515629178944465],[139.85556447913027,36.515738368236455],[139.85496498110413,36.51583575201023],[139.85464018880828,36.51588847886177],[139.85463027614418,36.5159076939273],[139.85488730141444,36.5162683521835],[139.8551926439961,36.516696804265365],[139.85555142986982,36.51720024008693],[139.85561647120687,36.51732868501433],[139.85565680778086,36.51741164858548],[139.85570956645552,36.51760632550293],[139.85574267798594,36.51777609349497],[139.85579902847098,36.51796640100521],[139.85581188518117,36.51800982070033],[139.855841524846,36.51807678002385],[139.85590876898158,36.51817454221606],[139.85661040713677,36.517886060654156],[139.85690976092977,36.51775647465782],[139.8569698840823,36.517730291154336],[139.85713960196242,36.517661136013274],[139.85743125042862,36.51754312355028],[139.85745193219364,36.51753478681789],[139.85748165486015,36.517553093864315],[139.85758106338167,36.51761171246642],[139.85765360129452,36.5176515567976],[139.85770120624125,36.517675708759306],[139.85774815969805,36.51769710044209],[139.8577981147455,36.51771930365548],[139.85782940309758,36.5177302078677],[139.85786519764213,36.51774268250605],[139.85789095203356,36.517749570892214],[139.8579482874266,36.5177637023636],[139.85803357959176,36.517784378167796],[139.8581276894439,36.51780184143775],[139.8581851327079,36.517810921855954],[139.85829044048765,36.51782575011879],[139.8583746776503,36.51783449392198],[139.8584213849377,36.51783737299441],[139.85858757614704,36.517842885723766],[139.8585639937097,36.517771331806],[139.85855343081306,36.51773587002134],[139.85859897502957,36.51773227768259],[139.8586968465717,36.51772083387227],[139.85879875684824,36.51770150173169],[139.85892281870468,36.517668423234305],[139.85904305760707,36.51762829194529],[139.85915034819442,36.517581291372565],[139.85924686257437,36.51753421485732],[139.85933928178434,36.51747825140012],[139.8594058711194,36.51743669847755],[139.85949639934117,36.517366832110355],[139.8595678363844,36.517302467473094],[139.8596355853068,36.517228009652925],[139.85969428825962,36.51714805619345],[139.8597333431296,36.51707729976128],[139.85976313391163,36.51701609857408],[139.85979135980713,36.51694994087389],[139.85982816832865,36.516840791834],[139.85984957918484,36.516762739186426],[139.85986330914994,36.51666479604945],[139.85986849685435,36.51657698820714],[139.85985165939556,36.51643970632677],[139.85983503271262,36.51634285196277],[139.8598193624465,36.516291258184],[139.85978182977124,36.51619276173047],[139.85970226386138,36.51604797349669],[139.8596114157362,36.51588502067754],[139.85938841637562,36.51550382563596],[139.85912560459113,36.515054120223944],[139.85888344056136,36.51463593713788],[139.85887597803523,36.514623037575106],[139.85898924255204,36.51459173555068],[139.85925941874328,36.51453886411083],[139.85932271871368,36.514521726659],[139.85936526246297,36.51453667806923],[139.85940958471133,36.51452801642537],[139.85937384921695,36.51436773593344],[139.8592822553209,36.513956916790036],[139.85926887918149,36.51389692143598],[139.85926143532058,36.5138900565065],[139.85923823883005,36.513776943500304],[139.8592198208738,36.5136931077513],[139.85917243999228,36.51351325234074],[139.85955616412397,36.51350053466698],[139.86000129515912,36.513456905072935],[139.86039852715032,36.513410490915525],[139.86060049885933,36.5134052173526],[139.86152780319253,36.51325710582689],[139.8616442462886,36.51323851239345],[139.86166467685965,36.513235263024455],[139.86172646519984,36.51335998060173],[139.86178744043087,36.51339953064479],[139.86304076842984,36.51356586325454],[139.86307704634285,36.51354485513429],[139.8630821725275,36.51351997947339],[139.86318086864145,36.51322921286751],[139.86326495178983,36.51297350830895],[139.863270639017,36.51295602270909],[139.86331546823214,36.512819652925465],[139.8634206230772,36.51249058151547],[139.86364834949723,36.51183865250427],[139.86370822567787,36.51164180511008],[139.86400559465545,36.5106631558366],[139.86442984621104,36.510661242786625],[139.86545533520945,36.51068774156868],[139.86546819593457,36.51062462867411],[139.8655685761023,36.510628576596055],[139.86555921377294,36.51076092791403],[139.8654690570656,36.51119818134511],[139.86538676422217,36.51159729123868],[139.86530132991126,36.51197754699634],[139.86528459480442,36.5120571810342],[139.86523155170656,36.51232455316162],[139.8651807481833,36.51258949740753],[139.8651298810261,36.51285728012253],[139.86505784150174,36.51326059748149],[139.8653893249834,36.51338747425053],[139.86581545106128,36.51355054962635],[139.86647528519677,36.51380373353338],[139.86660527184904,36.513202878867226],[139.8666568108614,36.51295784311607],[139.86667036802322,36.51288615125331],[139.86741173462818,36.51298870381103],[139.86779327360833,36.51121651232627],[139.86788848537998,36.510697809007695],[139.86771365332356,36.51067308353227],[139.86777591065294,36.51032987080038],[139.86778375467492,36.510143742325745],[139.86672557521626,36.510101072484524],[139.8666975175198,36.5107997268459],[139.86610184167534,36.510780671083985],[139.86567377690423,36.51076509642685],[139.86568008848138,36.51063296224501]]]}}]}
