{"type":"FeatureCollection","features":[{"type":"Feature","properties":{"potaRef":"JP-1874","nameEn":"Hisanohama Bosai Ryokuchi Prefectural Park","nameJa":"","boundaryStatus":"全国都市公園GIS候補・公開前検証待ち","boundarySource":"国土交通省「都市計画決定GISデータ」都市公園・緑地を、POTA代表地点で空間照合して加工","boundaryScaleNote":"都市計画データは近似・未収録の可能性がある。POTA運用可否は公式情報で最終確認すること。","candidateMethod":"POTA representative point inside one MLIT urban-park polygon","sourceParkName":"久之浜防災緑地","sourceParkType":"緑地","sourcePrefecture":"福島県","sourceCity":"いわき市"},"geometry":{"type":"Polygon","coordinates":[[[140.9995878704445,37.142123826099905],[140.9996936417201,37.142105558400644],[140.99974142631234,37.14213369810693],[140.99979081074778,37.142236923233106],[140.99972812894688,37.142256851869035],[140.99966342439575,37.14226142251613],[140.99965135612806,37.14225740283557],[141.00036506814686,37.14375904912273],[141.00037453880904,37.14378659438536],[141.00037884005496,37.14381497263364],[141.0003780164033,37.143843549294154],[141.0003720808308,37.14387173850245],[141.0003611575874,37.143898952747605],[141.00034547099196,37.14392463378208],[141.00032534533153,37.14394824602308],[141.00030097913668,37.14396911762864],[141.00022645778543,37.14402405044938],[141.00004496462532,37.144159288440314],[141.00011139509914,37.144216515684015],[141.00039649418952,37.14445547697599],[141.0007465825019,37.144252722357976],[141.00093486317712,37.14411051573969],[141.0009667787953,37.14413141652048],[141.0009910165995,37.144112748744014],[141.00105253129112,37.143970806891936],[141.00104877119705,37.143867224655985],[141.00102934373058,37.143826886395324],[141.00101532877508,37.14379459941922],[141.0010080329443,37.14378457714784],[141.00099087020078,37.143745899762536],[141.0009656759034,37.14367983536782],[141.00093791631082,37.1436111904307],[141.0006907821547,37.143143661926224],[141.00062627539566,37.14301286629485],[141.00050840825037,37.142759389453325],[141.00039166777756,37.14250575096559],[141.00036533350428,37.14245686586858],[141.00034515579694,37.14241152861951],[141.00025958430763,37.142215583576615],[141.000209955739,37.14211542000996],[140.99997625636058,37.14160920211938],[140.99967106163126,37.14096998139271],[140.99924733308612,37.140080289540606],[140.9991598969572,37.13992658721787],[140.99897034833697,37.13963478581983],[140.99890150020713,37.13951175007871],[140.99886090299054,37.139382459343544],[140.9987462296495,37.13897881090983],[140.99848959593135,37.13812838211828],[140.99847010795474,37.137960061694706],[140.9984899057048,37.13771186378866],[140.99846474562756,37.137623867356844],[140.99845736365023,37.1375957262535],[140.99841568653616,37.1374511738324],[140.9983333283635,37.13714538230464],[140.99830840565104,37.13703187338076],[140.9982689746632,37.1368721022172],[140.99822837619354,37.13669551349076],[140.99819092320377,37.13653191284913],[140.99808984249313,37.135999308923],[140.9980192164538,37.13505275941531],[140.9980505104327,37.13505313760883],[140.99800552786243,37.134197348043486],[140.99798763137238,37.13389200195232],[140.99794102986894,37.13389587533052],[140.99790151359804,37.13369419045315],[140.99788541677597,37.13353400865819],[140.9978983441666,37.133365482723924],[140.99791781141892,37.133288492420235],[140.9979007504563,37.13319824445101],[140.99788433663204,37.13308376130826],[140.99787167494253,37.13291632051766],[140.9978424758032,37.13291035735665],[140.99783818743248,37.132800402050655],[140.99782582544069,37.13270595454287],[140.99753338428752,37.132719233390404],[140.99750128936105,37.13272788201171],[140.99739251672628,37.13271894988691],[140.9973758925025,37.13271953036099],[140.99714183409756,37.132709478474574],[140.99709123724585,37.13270810801856],[140.99710863902033,37.13280880440393],[140.9971422766581,37.13297556727293],[140.99716073617003,37.13307842858821],[140.99718078552388,37.133202472498375],[140.99718116145135,37.133204995454705],[140.99718222422857,37.133212177220024],[140.9971832774242,37.13321936127938],[140.99718432100448,37.1332265454331],[140.99718535637675,37.13323373186739],[140.99718638281206,37.133240917839416],[140.99718739963208,37.13324810390582],[140.99718790761645,37.13325171399282],[140.99719128510492,37.133278387724644],[140.99720558911676,37.13338974260545],[140.99720587587848,37.1333920051926],[140.99720669305512,37.1333992075187],[140.99720741137725,37.13340551708407],[140.99720827782576,37.13341315561728],[140.99725789001056,37.13385072773123],[140.99725853877723,37.13385585935337],[140.99731658994926,37.13431571601848],[140.99738344696297,37.13484532696655],[140.99741557657757,37.135099848005474],[140.9974392378146,37.135299856498285],[140.99749213279614,37.1357470060656],[140.99755878971555,37.13631049416858],[140.9975625863756,37.13634258114199],[140.9976534700027,37.136929725393244],[140.99767933093264,37.13709679481576],[140.99772130673873,37.13736797762773],[140.9977217741081,37.13737099577139],[140.99772301765947,37.13737898313292],[140.99772427220938,37.137386970936376],[140.99772553362817,37.13739495867235],[140.99772680394275,37.13740294412091],[140.997728085909,37.13741092780504],[140.99772937406576,37.13741891197828],[140.99773067389106,37.137426895486904],[140.99773198056,37.13743487727829],[140.99773329543785,37.137442856789065],[140.9977346199658,37.13745083840494],[140.99773595336433,37.13745881608375],[140.9977372984735,37.137466795847395],[140.99773864970578,37.13747477170098],[140.99774000989282,37.1374827491165],[140.99774137895884,37.13749072314487],[140.9977427576666,37.13749869872842],[140.99774414456644,37.1375066709315],[140.99774554107427,37.137514642490245],[140.99774694652004,37.137522614511084],[140.99774836086166,37.137530584244566],[140.99774978413285,37.13753855389031],[140.99775121630827,37.13754652179854],[140.9977526574133,37.13755448961903],[140.99775410742254,37.13756245570207],[140.99775556703983,37.13757042114067],[140.99775703485764,37.13757838374872],[140.99775851024816,37.137586347382324],[140.99775999591674,37.13759430926501],[140.9977614911764,37.137602269403416],[140.99776299536566,37.137610229454076],[140.99776450642392,37.137618189437205],[140.99776602841334,37.13762614546301],[140.99776755729707,37.13763410307101],[140.99776909712037,37.13764205727157],[140.99777064449955,37.13765001139787],[140.99777220218203,37.1376579654229],[140.9977737673951,37.137665917723986],[140.99777534288623,37.13767386827404],[140.99777692592477,37.137681818199944],[140.99777851786766,37.1376897663884],[140.99778012080074,37.13769771446876],[140.99778173057754,37.137705660831955],[140.99778334925867,37.13771360545763],[140.9977849768694,37.13772154999562],[140.99778661337604,37.13772949224613],[140.99778825949917,37.13773743440216],[140.99778991383977,37.137745374827475],[140.9977915777716,37.13775331350854],[140.997793250633,37.137761252101825],[140.99779493239035,37.137769188407724],[140.9977966223989,37.13777712518251],[140.99779832199022,37.13778505966318],[140.9978000284253,37.13779299242658],[140.9978017465375,37.13780092507522],[140.9978034728672,37.13780885599313],[140.9978052080928,37.137816784623666],[140.99780695088273,37.13782471372983],[140.99780870394238,37.13783264053505],[140.99781046453265,37.13784056561634],[140.99781223405256,37.13784849060982],[140.997814014529,37.13785641329569],[140.99781580119608,37.137864336470635],[140.99781759742072,37.13787225570179],[140.9978194026003,37.137880176494825],[140.99782121940643,37.1378880938737],[140.99782304239477,37.13789601119181],[140.99782487427908,37.13790392622247],[140.99782671575463,37.1379118395089],[140.997828565473,37.13791975271428],[140.99783042478268,37.13792766417551],[140.9978322929967,37.13793557389915],[140.99783416807983,37.137943483555325],[140.99783605411955,37.13795139090382],[140.99783794906364,37.13795929651482],[140.99783985087686,37.137967202058284],[140.9978417636551,37.137975105844035],[140.99784368324342,37.13798300571289],[140.99784561454263,37.137990907666584],[140.99784755199036,37.13799880735988],[140.9978494990294,37.13800670530893],[140.99785145634658,37.138014601507],[140.99785342118602,37.13802249543115],[140.9978553949636,37.138030389817416],[140.99785737763725,37.13803828191628],[140.9978593692153,37.13804617227765],[140.9978613697146,37.13805406200132],[140.9978633791268,37.1380619505374],[140.99786539537445,37.13806983680632],[140.997867423274,37.13807772131075],[140.9978694593911,37.138085604084424],[140.99787150306423,37.13809348678375],[140.9978735570071,37.138101367182244],[140.99787561848916,37.1381092464066],[140.99787769095312,37.13811712497306],[140.99787977023567,37.1381250001725],[140.99788185843948,37.13813287473426],[140.99788395555623,37.13814074810841],[140.99788606156903,37.138148619195164],[140.9978881765116,37.138156490194135],[140.9978903010455,37.138164359448815],[140.99789243378856,37.13817222642287],[140.9978945760977,37.138180090002905],[140.99789672461444,37.13818795517191],[140.9978988847578,37.13819581692668],[140.99790105108352,37.138203678620606],[140.99790322905275,37.138211538000185],[140.9979054138743,37.138219396212335],[140.9979076096441,37.13822725156696],[140.9979098122915,37.13823510740395],[140.997912024505,37.13824295984692],[140.99791424495297,37.13825081165899],[140.99791647430547,37.138258661733516],[140.99791871324933,37.13826651006377],[140.9979209604024,37.138274356113406],[140.99792321509466,37.13828220098886],[140.99792548008207,37.13829004521314],[140.9979277525665,37.138297885513765],[140.9979300360498,37.13830572625625],[140.99793232637705,37.138313565281514],[140.99793462560038,37.13832140201931],[140.9979369337282,37.138329237019605],[140.99793925283808,37.138337071361924],[140.9979415767144,37.1383449029074],[140.99794391223423,37.13835273213847],[140.9979462559971,37.1383605612885],[140.99794860934293,37.13836838814433],[140.99795096885424,37.13837621383956],[140.9979533400092,37.13838403722034],[140.99795571800806,37.13839185888387],[140.99795810422458,37.13839967881661],[140.99796050208474,37.1384074964349],[140.99796290681414,37.138415313985675],[140.99796532042276,37.13842312814919],[140.99796774090066,37.1384309422451],[140.99797017299687,37.13843875237693],[140.9979726133361,37.13844656242768],[140.99797506051928,37.13845437076113],[140.9979775193545,37.138462177330084],[140.99797998431305,37.13846997998883],[140.997982460949,37.13847778253284],[140.9979849444289,37.13848558335955],[140.99798743615185,37.138493384105146],[140.9979899374325,37.138501180906864],[140.99799244762613,37.13850897652096],[140.99799496464692,37.13851676931796],[140.9979974926413,37.13852456090711],[140.99800002749657,37.13853235187876],[140.99800257397862,37.138540139436145],[140.99800512664305,37.138547926932766],[140.9980076881784,37.13855571049217],[140.99801025931365,37.138563492857195],[140.99801283868348,37.13857127459126],[140.99801542761108,37.138579052381424],[140.9980180227295,37.1385868306607],[140.9980206294663,37.13859460497577],[140.99802324513303,37.13860237920303],[140.99802586763536,37.13861015116307],[140.99802849902542,37.1386179202858],[140.99803113930324,37.138625686571146],[140.9980337885194,37.13863345331858],[140.99803644664019,37.13864121832849],[140.9980391115713,37.13864897942146],[140.9980417881798,37.13865674039963],[140.99804447298078,37.13866449799729],[140.99804716532952,37.13867225497067],[140.9980498658707,37.13868000856358],[140.99805257600346,37.1386877604122],[140.9980552943708,37.13869551162979],[140.9980580223044,37.13870325945343],[140.99806048130762,37.13871022453682],[140.9981925573675,37.13908366528498],[140.99859865270042,37.140394500945504],[140.99875265209252,37.14036644048301],[140.9995878704445,37.142123826099905]]]}}]}
