{"type":"FeatureCollection","features":[{"type":"Feature","properties":{"potaRef":"JP-1019","nameEn":"Sunpillar Prefectural Park","nameJa":"","boundaryStatus":"全国都市公園GIS候補・公開前検証待ち","boundarySource":"国土交通省「都市計画決定GISデータ」都市公園・緑地を、POTA代表地点で空間照合して加工","boundaryScaleNote":"都市計画データは近似・未収録の可能性がある。POTA運用可否は公式情報で最終確認すること。","candidateMethod":"POTA representative point inside one MLIT urban-park polygon","sourceParkName":"サンピラパーク","sourceParkType":"公園","sourcePrefecture":"北海道","sourceCity":"名寄市"},"geometry":{"type":"Polygon","coordinates":[[[142.47080964798963,44.37653288705927],[142.47108614927546,44.37653349524293],[142.47122314717225,44.37653436402321],[142.47624303997662,44.376542594942705],[142.47629006933428,44.376535211611774],[142.47628649124334,44.37651847830744],[142.4787918910581,44.37652332470799],[142.4799199183215,44.37652547880696],[142.48104945145872,44.376527618719955],[142.4833405050757,44.37653198870129],[142.48334044642607,44.3765488192158],[142.4834315510119,44.376548993077805],[142.48343160963543,44.37653216256331],[142.48570686430799,44.376536427364805],[142.48576383585254,44.376536489792],[142.48799817174313,44.37654133341525],[142.48800420364583,44.376475277298375],[142.49026702011443,44.3764794141795],[142.4903582500757,44.376479582253076],[142.49052650469991,44.37647988509353],[142.49054749887753,44.37647992188544],[142.49057063980314,44.37652922130726],[142.49058011576653,44.37654495171856],[142.49071272784946,44.37674943612959],[142.4907885178477,44.37687077922966],[142.4917816695319,44.376544682739706],[142.49181618050744,44.37653295441129],[142.4917638075217,44.37645193737194],[142.49171391071877,44.37637492916171],[142.49160695823298,44.376222376849384],[142.49156562112748,44.37616700497451],[142.49147683224305,44.376055356083576],[142.49141174384644,44.375982393945165],[142.49136964656486,44.375940442919585],[142.49132223134873,44.37589607305623],[142.4913029980719,44.37587559320538],[142.49125531294249,44.375823528702604],[142.49122582444684,44.37579007419187],[142.49098773093795,44.37550633205526],[142.49094273713644,44.3754494556269],[142.4908946007065,44.375434067788404],[142.49065480094535,44.37524158169856],[142.49062820105271,44.37522082924499],[142.49059999163663,44.37519926115602],[142.49057115655583,44.37517811738774],[142.49054172094392,44.375157406886984],[142.49051170989753,44.37513712960042],[142.49048112345343,44.375117294527755],[142.49044996168516,44.37509791966878],[142.49041826223757,44.375079004943835],[142.49038602518397,44.37506056835271],[142.4903532630725,44.37504260986857],[142.49032000099936,44.37502512943815],[142.49028625158618,44.375008145034926],[142.4902520148693,44.37499166565856],[142.490217315908,44.37497568225576],[142.49018215481223,44.374960221826484],[142.49014656922623,44.374945284291165],[142.49011057173448,44.374930878623175],[142.49008713155035,44.37492172067565],[142.4900829828923,44.374919839350724],[142.48994035742246,44.37485521149761],[142.48973585076445,44.37475540552045],[142.48969175082087,44.37473264652631],[142.48956299728258,44.374666198047244],[142.48951351182555,44.37463976919128],[142.4891545140749,44.374448033815305],[142.48915292977955,44.37444724511351],[142.4889371676346,44.37434066610213],[142.4883965790617,44.37406628106143],[142.48738376867394,44.373552201038514],[142.48726619037453,44.373492521894065],[142.48714482945292,44.37343138344598],[142.48611855259307,44.37291435003072],[142.48457582752877,44.37213730878854],[142.48451879421276,44.372108121189605],[142.48323669141664,44.37145203831807],[142.48313295081547,44.371405457959874],[142.48299338581566,44.37134278619253],[142.48297353120745,44.37133538350834],[142.48274611124904,44.37126399837638],[142.48263645111288,44.37123699610431],[142.48245356896754,44.37121778394686],[142.48208115868488,44.37121211505537],[142.4819372119942,44.37121197542306],[142.48164029204193,44.37122638427758],[142.48151888104329,44.37123585565062],[142.48128152022943,44.37131297337034],[142.48119080823878,44.371327602358726],[142.48106728551804,44.371339390582065],[142.4810028577643,44.371343687997005],[142.48090778265973,44.37134645429495],[142.4804365012821,44.37134204189386],[142.4793069798281,44.37133342472674],[142.47914196922716,44.3713310558004],[142.4790639026121,44.37133227440551],[142.47868088583,44.3713579904622],[142.4786787781935,44.37135808468389],[142.47853492131298,44.371364996756135],[142.47831771061323,44.371387985681345],[142.47775800230073,44.37146359789115],[142.47765202897784,44.37147764248315],[142.47758569452574,44.37148542485543],[142.47747690207,44.37149730584899],[142.477367776717,44.3715074773599],[142.47725836863162,44.37151593028721],[142.47714871543127,44.37152265555509],[142.4769842544549,44.37152950764337],[142.4767970171947,44.37153253462583],[142.47676421785872,44.37153260874525],[142.47670888143924,44.371532304577755],[142.47658752839132,44.37153114133505],[142.4764372338002,44.37152826229695],[142.47597388959562,44.37150965840423],[142.47549291738756,44.37148809035986],[142.47525206791747,44.37147904333703],[142.4747804044578,44.3714733213215],[142.47459973986278,44.37147244367313],[142.47431890120194,44.37146997146416],[142.4741406933356,44.37146840424845],[142.47404237241633,44.37146907414995],[142.47399294027517,44.371526520492466],[142.47398033013613,44.371546345701994],[142.47351951287655,44.372271135949504],[142.47348075855734,44.37233208925258],[142.47296009322733,44.373150965483156],[142.47269976766518,44.37356039815088],[142.47243942597032,44.37396983922783],[142.4721790806565,44.374379279689364],[142.4720943064272,44.374512602726405],[142.47108827544477,44.3760947128116],[142.47091244189366,44.376371242508824],[142.47087199806074,44.3764348442131],[142.47080964798963,44.37653288705927]]]}}]}
