{"type":"FeatureCollection","features":[{"type":"Feature","properties":{"potaRef":"JP-1504","nameEn":"Kizugawa Undo Prefectural Park","nameJa":"","boundaryStatus":"全国都市公園GIS候補・公開前検証待ち","boundarySource":"国土交通省「都市計画決定GISデータ」都市公園・緑地を、POTA代表地点で空間照合して加工","boundaryScaleNote":"都市計画データは近似・未収録の可能性がある。POTA運用可否は公式情報で最終確認すること。","candidateMethod":"POTA representative point inside one MLIT urban-park polygon","sourceParkName":"木津川運動公園","sourceParkType":"公園","sourcePrefecture":"京都府","sourceCity":"城陽市"},"geometry":{"type":"Polygon","coordinates":[[[135.7952778304536,34.84385306996629],[135.79530646015368,34.84387808247043],[135.79531862823382,34.84392968310789],[135.79532865084047,34.84397144114353],[135.7953285112615,34.84399259993464],[135.79531924091327,34.844027021436595],[135.79530832612002,34.84406315301049],[135.79529049525655,34.84411027118011],[135.79522167205957,34.8443046077537],[135.79520549469478,34.84434631972408],[135.79519130319977,34.84438091322742],[135.7951714133699,34.84442045535435],[135.79515230503205,34.8444535080319],[135.79513200011687,34.84448403450564],[135.79511257800567,34.844511317081896],[135.795091292066,34.844540579803464],[135.79506847458134,34.844570110389235],[135.79504654124386,34.84459585618255],[135.79500335207007,34.84463869454976],[135.79500072170197,34.84464112415237],[135.79497704860538,34.84466290042408],[135.79494834060353,34.84468665149174],[135.79488216177907,34.844740178843985],[135.79485728557825,34.84476204321253],[135.7948301041203,34.8447875096662],[135.79479842306696,34.84481954943386],[135.79477137215224,34.84484634758517],[135.7947300082937,34.84489272551306],[135.7946864728475,34.84494277513785],[135.79465203380488,34.84498454635301],[135.79461638249643,34.8450301017886],[135.7945796150472,34.84508476042396],[135.7945395447095,34.845148428414674],[135.794506049752,34.84520624778535],[135.79446123183527,34.845288208068084],[135.79442099770932,34.84537369190912],[135.79437825230116,34.84545763894953],[135.79429561011625,34.84562319391302],[135.7942139443321,34.84579172539904],[135.79415316876666,34.84591440611119],[135.7940999782942,34.846020962879386],[135.79414398593408,34.84609267421513],[135.7942738101059,34.8461240662669],[135.7944760363983,34.84616073939736],[135.79455060383452,34.84617022313871],[135.7947316043007,34.84617855219306],[135.79492078431758,34.846178799256734],[135.79537883608674,34.846163057904874],[135.7956575601113,34.84615601765973],[135.79566300396655,34.846430964421344],[135.79539088876422,34.84643783772859],[135.79498054798336,34.84645193951962],[135.7948871311123,34.84645514969414],[135.79445313210996,34.84647006267831],[135.79425884157058,34.84647030421055],[135.7942712661097,34.84648561249626],[135.79434620329587,34.846569204804965],[135.7944587190213,34.846694715507844],[135.79452445495536,34.84678666607626],[135.79447446927577,34.84678778180854],[135.7944663862017,34.846787962229186],[135.79443167255835,34.84678873705933],[135.79436608570978,34.84679020097159],[135.79425357165493,34.84679248259306],[135.79409187368327,34.84679482269878],[135.7938850861081,34.84679781503131],[135.79378632389248,34.84679797946265],[135.79378162661152,34.84680541033418],[135.79373972221748,34.84687331772494],[135.79371071181336,34.84690457438851],[135.79392493089998,34.84724074892099],[135.79394705065056,34.847384521146],[135.79395598066537,34.84763235941516],[135.79363939070114,34.8476590140724],[135.79366334885182,34.84800019911318],[135.79369257148468,34.84821253219923],[135.79371836988142,34.84831304886614],[135.79373062167735,34.84833095870391],[135.79387606695437,34.84830794949576],[135.79400559615155,34.84828610576281],[135.79402960163046,34.84843583804285],[135.79406491452497,34.84859686704032],[135.79409496190638,34.848704556955056],[135.79415628255197,34.848827737471204],[135.79416824374704,34.84890432288289],[135.79417050383364,34.84904243023502],[135.79418616143462,34.849087000484545],[135.79420863836629,34.8491235321941],[135.7942309567848,34.849223748675264],[135.79426828405457,34.849222380694364],[135.79436032871644,34.84920750954219],[135.7944372935999,34.84932284517173],[135.79447929080064,34.849363345412016],[135.79459593107373,34.849464019316784],[135.79469399249498,34.849532115006284],[135.79489632432478,34.849670846695886],[135.79520286032738,34.84973457122488],[135.79520043890176,34.849968251657955],[135.79470067739175,34.84996664636254],[135.79439112379154,34.84995476464044],[135.79425255037435,34.84991928189537],[135.79401554838915,34.8498780161839],[135.79399772221566,34.84987154593299],[135.79386162750498,34.84982762630377],[135.79379972686607,34.84982084279655],[135.7933442380841,34.84982635873404],[135.7931841946135,34.85038444376451],[135.793257616085,34.85045425405951],[135.7934115097978,34.85061696473155],[135.79319857028727,34.850757776780284],[135.79311779105595,34.85075691849983],[135.7932397114581,34.85088393865482],[135.7933112307287,34.850966826352725],[135.7933163703947,34.85096685311672],[135.7933497264583,34.85087838311143],[135.7934217975507,34.85087616165935],[135.7935033631125,34.85085247179433],[135.79368724927573,34.850776714652],[135.79379936798594,34.85071858647372],[135.79380346523013,34.85078224261577],[135.7938053551395,34.85081370795172],[135.79380964484125,34.85094617334921],[135.7938101115035,34.85096058379027],[135.79394035173772,34.850938782808996],[135.79394368601797,34.85094700286343],[135.793990373054,34.85110809176431],[135.7940948269418,34.85110322959996],[135.7942137909732,34.85108851840219],[135.79438948594233,34.85106186270577],[135.79470475136574,34.851003857654945],[135.79543600703732,34.85084766609403],[135.79559579761886,34.85081692704956],[135.79578803031438,34.850771453985715],[135.7959241256574,34.8507282716452],[135.79609092815687,34.850669875310885],[135.79620678494507,34.85062045718217],[135.79627282057172,34.850593376449],[135.7966158274166,34.85041792221287],[135.7967183541795,34.85037659100737],[135.79678840377858,34.850364304986584],[135.79696783645505,34.850360258007015],[135.79698287680904,34.85034841034185],[135.79681783800316,34.85016065745253],[135.796871186902,34.85011542762084],[135.79704218459233,34.849997406792355],[135.79715116025213,34.84992173899071],[135.79730911101475,34.84979492642143],[135.79737266132037,34.84973844722276],[135.79742138499537,34.849691301273985],[135.7974724349638,34.849639388763585],[135.79750670008295,34.849588879412636],[135.79750546125126,34.84953641352928],[135.79748099209777,34.84945335681346],[135.79750882405338,34.84934613250153],[135.79753355675706,34.849255472082],[135.79753594618725,34.84922494539968],[135.79773977684331,34.84893094987493],[135.7978233711042,34.848821846332555],[135.79793428221276,34.84866365283001],[135.7979766758357,34.84860170784238],[135.79802367417733,34.84854978835975],[135.79810962000306,34.84847411899832],[135.79827812393208,34.84837847564161],[135.79845516685282,34.848282272384075],[135.79863393019193,34.84819248973911],[135.79871382877272,34.848151171562996],[135.79917525418796,34.847954416984955],[135.7992073699329,34.84795352038532],[135.79925473091646,34.84795945841197],[135.7994439268262,34.847981596690595],[135.79960768696048,34.84798138956127],[135.79978802662924,34.847968806419786],[135.79997727058208,34.847959099904365],[135.8000467124627,34.84795778295703],[135.80010658579502,34.84796503699541],[135.8002512145983,34.84797958584913],[135.80029749824638,34.84798323966245],[135.80030167621416,34.8463612730618],[135.80020790750189,34.84637597961242],[135.7999891321072,34.84640717236899],[135.79979498204347,34.84642939032144],[135.79958441304183,34.84645834212019],[135.79946956312526,34.84647167524493],[135.7992131989438,34.84649945920103],[135.79921190195853,34.84615718609286],[135.7990438062195,34.84618024059409],[135.79859534796557,34.84623133478584],[135.79805942616838,34.8462755209351],[135.79781060120607,34.84629764493461],[135.79742232796815,34.84633080493798],[135.79711063225676,34.846350569042514],[135.79645714708423,34.846399059443314],[135.79580337950665,34.84642741846321],[135.79579160554482,34.84615263159985],[135.79579527548765,34.84615253889303],[135.79643339525578,34.84612475517311],[135.79708289376416,34.84607656056287],[135.79739235160815,34.84605693836214],[135.79777553658164,34.846024212905114],[135.79802495008312,34.84600203657118],[135.79855591071586,34.84595825947451],[135.79890236355283,34.84591901768172],[135.79914309323988,34.84588380746639],[135.79916364251181,34.845862891006014],[135.7991732418866,34.84584067832528],[135.79917571375256,34.84464565478547],[135.79917534205828,34.84461860932861],[135.79917406668108,34.84460346211073],[135.7991719189359,34.844587321808156],[135.79916890079429,34.84456937707885],[135.79916402791395,34.84454971644698],[135.79914870195626,34.84451182835997],[135.79913214778819,34.84448439558217],[135.79909419754966,34.844442142949525],[135.79881339921536,34.84421036344144],[135.79870668063023,34.84412354505253],[135.79854831657332,34.84399250100378],[135.79832473392966,34.8438078444913],[135.79802234234018,34.84356005835229],[135.7980115386646,34.84355120554792],[135.79781488875904,34.843384372223056],[135.79768276105148,34.84327227751156],[135.79753740508727,34.84315429660914],[135.79742969132172,34.84306685637202],[135.7973787004925,34.843036841810836],[135.79733937713837,34.84302009864398],[135.79730386827944,34.84300850034225],[135.79727348450066,34.843002680139676],[135.79722942596356,34.84299954161955],[135.79719147969539,34.84300092074948],[135.79715604349641,34.84300428734234],[135.7970978493645,34.8430133855329],[135.79697913714537,34.84304284663874],[135.79688711701482,34.843067484129215],[135.79685167390875,34.84307364525611],[135.79679994235863,34.843078156472615],[135.796774793197,34.84307802430825],[135.7967482256512,34.84307662767569],[135.7967229749026,34.84307334009852],[135.79669608752576,34.84306860738877],[135.79666996955848,34.84306225326829],[135.79664101527428,34.84305318991552],[135.79660802276794,34.843041054720736],[135.79629621595973,34.842933345197864],[135.79614654118527,34.84288125849039],[135.79604941564438,34.84284783051524],[135.79600800242193,34.842836221935364],[135.79597565504184,34.84282859512577],[135.7959433029954,34.84282286143918],[135.79591466266837,34.84281956800799],[135.7958818632355,34.84281789028184],[135.79585004434566,34.84281765658447],[135.79581297467965,34.84281831555976],[135.7957809290843,34.84282132684569],[135.7957462531983,34.842826767742885],[135.79570303927963,34.842835890419934],[135.795669773503,34.84284593128798],[135.79563694220093,34.84285714482031],[135.79560224489575,34.842871239992036],[135.79556830697464,34.842887770466476],[135.79553830255847,34.8429054794867],[135.79551628788997,34.8429201368482],[135.79549087170213,34.842939566410095],[135.79546818801174,34.84295945130866],[135.79544780345495,34.84297816812581],[135.79534313954048,34.84307472248061],[135.7952885786333,34.8431249843791],[135.79501138988957,34.84338148347059],[135.79484114527668,34.843520452762704],[135.79482487874301,34.84354666263475],[135.7948224626929,34.84359265563084],[135.79485229079575,34.84361771308917],[135.7950253382235,34.84371889919558],[135.7951205825044,34.843764617164744],[135.7951946213082,34.84380422732224],[135.7952778304536,34.84385306996629]]]}}]}
