{"type":"FeatureCollection","features":[{"type":"Feature","properties":{"potaRef":"JP-1077","nameEn":"Nishizao Prefectural Park","nameJa":"","boundaryStatus":"全国都市公園GIS候補・公開前検証待ち","boundarySource":"国土交通省「都市計画決定GISデータ」都市公園・緑地を、POTA代表地点で空間照合して加工","boundaryScaleNote":"都市計画データは近似・未収録の可能性がある。POTA運用可否は公式情報で最終確認すること。","candidateMethod":"POTA representative point inside one MLIT urban-park polygon","sourceParkName":"西蔵王公園","sourceParkType":"公園","sourcePrefecture":"山形県","sourceCity":"山形市"},"geometry":{"type":"Polygon","coordinates":[[[140.3556431086236,38.191851853704776],[140.35559274121906,38.19191640690539],[140.35411929937553,38.19245366675217],[140.35392620823487,38.19253467082297],[140.35376164986212,38.19261001920007],[140.35365161354207,38.19268798333765],[140.3534962699553,38.19282010272336],[140.35339898657801,38.19296611475416],[140.35329061214506,38.19317120832325],[140.3532353433852,38.193438461480184],[140.3531136103588,38.19405457340284],[140.3531196731231,38.19421790122808],[140.35316511954744,38.19435323442606],[140.35322146136448,38.19446608760269],[140.3534637445634,38.1950583476141],[140.35337890895292,38.195087564326386],[140.3531911527135,38.1954348009804],[140.35296976282905,38.19580329802918],[140.35276369758824,38.19613328407028],[140.35259191264677,38.196349942691526],[140.35185185445317,38.19658904900328],[140.3514192620144,38.196744523671775],[140.35101153329424,38.19673398037148],[140.35095477824436,38.1967516260621],[140.3508521236092,38.19685847739663],[140.3507382397044,38.1969503599729],[140.3506124183763,38.19713454398075],[140.35050516512058,38.197363571732765],[140.3503826803716,38.19761632826906],[140.35031800826326,38.197684621295465],[140.3488609178509,38.19876627136719],[140.34884165857164,38.198825741131444],[140.34878865204405,38.19884945470034],[140.34864772354177,38.19903061782811],[140.34857505795316,38.1991672951401],[140.34858359968536,38.19958755370867],[140.3484437613743,38.19961076779333],[140.34845098191934,38.19965852146408],[140.3483791249001,38.19967314717725],[140.34834078246334,38.199765339370124],[140.3482255467432,38.20005979384739],[140.34819043544377,38.200229568180234],[140.34853658657354,38.20041569916747],[140.34847554333402,38.20050779765259],[140.34839202670454,38.2005789680924],[140.34853301035653,38.20095500604404],[140.3485024212019,38.20101456972164],[140.34849827461645,38.20106818912464],[140.3485167254044,38.201130770875665],[140.34864757233822,38.20133403185359],[140.34846491898605,38.20154486740428],[140.3483884987998,38.201675616341724],[140.34838032934462,38.20177088948465],[140.3484060847399,38.20187531256306],[140.3484768713787,38.2020156792922],[140.34858563729503,38.202132270490615],[140.34874720842578,38.202249220331744],[140.3489467786636,38.20233943808652],[140.34960600820787,38.20257753734805],[140.34997860125424,38.202766870112264],[140.35005744744507,38.202835612929626],[140.35016621617348,38.20295234344683],[140.3502333398982,38.20308072787708],[140.35028186783072,38.20316145271009],[140.35034202560556,38.20320337057279],[140.35042866483099,38.20323357195961],[140.35067398674397,38.20325837229304],[140.35105095655706,38.20334635930746],[140.35118634824642,38.20343025612953],[140.35123454885067,38.203567572075016],[140.3512295982481,38.20374338376291],[140.35119001860247,38.204023369904085],[140.35117305215823,38.204303308112664],[140.35117911518876,38.2045268888229],[140.3513035722065,38.205126270387304],[140.35140323174394,38.205475387127755],[140.35149672883904,38.20561598597668],[140.35159055651266,38.205699711717045],[140.35171341468248,38.205797915854575],[140.35197728148313,38.20655708853716],[140.35204318633467,38.206648019880305],[140.3521599613618,38.20680335453721],[140.35223515894097,38.20685138651672],[140.35229556359315,38.20685642049526],[140.3523833663518,38.20682580903387],[140.35244713366583,38.20678073968277],[140.35252303703828,38.206721501405426],[140.35257454475317,38.20670256651358],[140.35264084470288,38.20672677028699],[140.35266467474713,38.20677923733592],[140.3526371535081,38.20682684845118],[140.3525702729123,38.206890910208536],[140.35252751946808,38.206962250427935],[140.35251500901893,38.207026534811334],[140.35252373364827,38.20707668756904],[140.35256254491642,38.20714357536292],[140.3526583655204,38.20727742542167],[140.35294633422012,38.20758859761782],[140.35408793780223,38.20765520582591],[140.354575446358,38.20794325613666],[140.35527966023466,38.208365644742166],[140.35557674442742,38.20867670680809],[140.35584315531122,38.209047333285774],[140.35622280564525,38.20966632968163],[140.35636053235726,38.20985989613189],[140.35647406772728,38.21005589816003],[140.35653953261158,38.210208767526716],[140.35669984560798,38.21055066463544],[140.35672911826646,38.21059681791866],[140.35674866142082,38.210664329966924],[140.3567839108478,38.210683196548764],[140.35688525345407,38.2107040207142],[140.3568949161404,38.21067238485813],[140.356949264638,38.210655852820295],[140.35701062874793,38.21065793193155],[140.3571781071171,38.21072210226401],[140.3572532064635,38.21073155741887],[140.35730986638623,38.21072995706608],[140.35736661555762,38.21070780344554],[140.35765824809675,38.210502323221846],[140.35777612836256,38.21044944589953],[140.35802674984393,38.210417941129656],[140.35816397909812,38.210387103138885],[140.35824445232802,38.21035209352796],[140.35833461608345,38.21027418574674],[140.35948048062866,38.210770976750176],[140.35945599486976,38.21069485773576],[140.3594423420767,38.21059907350995],[140.3594609689308,38.21047807952327],[140.35953647046645,38.210391101832805],[140.35966902906256,38.210309985442315],[140.35974440246514,38.21024271603448],[140.35980198869387,38.21016692814436],[140.35989576896313,38.210012450444076],[140.36012042067955,38.21003024958453],[140.36016393349314,38.20992343359475],[140.36024314775273,38.209813945901004],[140.3603188217281,38.2096931816358],[140.36035652657785,38.20938094685731],[140.36037220274744,38.20916421166787],[140.36041305726204,38.208916606704655],[140.36051067610578,38.208719910488306],[140.3607835038175,38.20846760829907],[140.36080906417587,38.208377613153864],[140.36083112901497,38.208276341679095],[140.36082484796663,38.20814398491532],[140.36079733948,38.2079833870724],[140.36075823440817,38.207960705156395],[140.36063702425392,38.207943183014166],[140.3606379164709,38.207805223989],[140.36067399939586,38.207743426867765],[140.3608171291902,38.20768206063575],[140.36082466607783,38.2076201485682],[140.36082148007594,38.20756100890571],[140.3606308170645,38.20724771377309],[140.36053589593536,38.207027717548534],[140.3604371157347,38.20685275472145],[140.3601256932123,38.2064601364484],[140.35978518021184,38.20611765781922],[140.3597076673064,38.20599951376485],[140.3596084342887,38.20589493750378],[140.35936711499664,38.20569124285726],[140.35928912732035,38.20561209217357],[140.3592549433676,38.20538107783982],[140.3592557102909,38.2052628272189],[140.359284912508,38.20516158480557],[140.35918917627612,38.205068284558415],[140.35890456864976,38.20493761879393],[140.3586910313342,38.20485228872962],[140.35861280758212,38.204809738978746],[140.35855950567506,38.204775736657666],[140.35849575560403,38.2047022741455],[140.35843949026648,38.204575205361664],[140.35799556763112,38.20425243442355],[140.35757272736438,38.20398042740874],[140.3574343799566,38.20385598181831],[140.35725687629906,38.203717299461466],[140.35719669648844,38.20364385071395],[140.35702285354603,38.2034911050202],[140.35689133208783,38.203414551089196],[140.3564794409319,38.20312006002946],[140.35632292632482,38.203046219508444],[140.3561556161494,38.202986412728805],[140.3560773407335,38.20295230777034],[140.35600270692203,38.20290695530342],[140.35593533789412,38.20284192337108],[140.35585011065112,38.20277963433654],[140.3557578579395,38.20270042326799],[140.35572962675764,38.202652443809406],[140.35571577790256,38.20258762946048],[140.35568403400117,38.202531189002706],[140.35555214674054,38.202511084170986],[140.35541722627403,38.20240917466004],[140.35527853569405,38.20233822086513],[140.35515058610812,38.202261679523005],[140.35507963205285,38.202199448059915],[140.35500529437752,38.20210904710977],[140.35494358458055,38.20201095476145],[140.35492093474895,38.20191442933534],[140.3548926859908,38.20186926516556],[140.35477560732278,38.2017674276183],[140.35476172261252,38.201708244135496],[140.35486232505218,38.20160166266614],[140.35493028156304,38.20157659950267],[140.35488079119528,38.20150600867494],[140.35485259789837,38.20145239802049],[140.35484239166854,38.20137633613866],[140.3548251601945,38.201283352225055],[140.35476008815422,38.20120847448682],[140.35469754471515,38.20115613155065],[140.35452317814878,38.20108503140682],[140.35433803443044,38.2010251493004],[140.35423201213572,38.20086986054931],[140.35412600874344,38.20071175621028],[140.35394186322605,38.20049983696393],[140.35363735344114,38.20014383180413],[140.3535380446376,38.20005332787365],[140.35343877304058,38.19995719287708],[140.3533430880339,38.19985825689201],[140.35328650164024,38.19978200523407],[140.3532441682275,38.19970862739816],[140.35320904452456,38.19962401676273],[140.35318460590096,38.199542265381254],[140.3531315877405,38.19946602823828],[140.35301444897613,38.199381082064995],[140.3528653035451,38.199273480260565],[140.35275172562666,38.19918291726206],[140.35269151703338,38.199115097185796],[140.3526597769547,38.199058655902434],[140.3526637334663,38.1989995451921],[140.35268214300356,38.198858560647366],[140.35271858306055,38.19879704890214],[140.35273725483145,38.198670424810004],[140.35273180245738,38.198414326643906],[140.35268959993905,38.19832124015838],[140.3526224601909,38.19822242042179],[140.35253742627987,38.1981319740711],[140.3524737805995,38.198044430825895],[140.35242810345807,38.19793725217322],[140.35233643470636,38.19777075817155],[140.3521492527908,38.19747998770335],[140.35190584166065,38.19705947025097],[140.35186748675002,38.19692416571014],[140.35187161061754,38.19683971558042],[140.35189712209552,38.19675816871937],[140.351998717616,38.1966967835484],[140.3521227188603,38.196639431917646],[140.35244431841286,38.19653643277606],[140.35310646808654,38.19633050935065],[140.35335263714245,38.19621607766399],[140.35353290595756,38.1960789924008],[140.35365658652762,38.19593421442187],[140.3537095457672,38.19577436569424],[140.35373918336754,38.19557331437166],[140.35373550697565,38.195413093485804],[140.35369066814235,38.195273258100386],[140.35363118218285,38.19509563422729],[140.35360338011714,38.194982897870844],[140.35355121452466,38.19477714816789],[140.3534580699189,38.194536740231904],[140.3533509464427,38.194245172483605],[140.3533104260631,38.194018353485006],[140.35337954948506,38.193841677519],[140.35341531046166,38.193740463189194],[140.3534249727761,38.19362041863538],[140.3535032223486,38.19339169184271],[140.3535112995509,38.19324813078757],[140.3534906149031,38.19313823902739],[140.35358126386578,38.192963481002266],[140.35375894945352,38.19281779725078],[140.35394259694047,38.192694521350575],[140.35413975942376,38.19261156297313],[140.35568104502647,38.19205191356345],[140.3557707360015,38.19206382224233],[140.3556431086236,38.191851853704776]]]}}]}
