{"type":"FeatureCollection","features":[{"type":"Feature","properties":{"potaRef":"JP-1058","nameEn":"Miyagi Sports Prefectural Park","nameJa":"","boundaryStatus":"全国都市公園GIS候補・公開前検証待ち","boundarySource":"国土交通省「都市計画決定GISデータ」都市公園・緑地を、POTA代表地点で空間照合して加工","boundaryScaleNote":"都市計画データは近似・未収録の可能性がある。POTA運用可否は公式情報で最終確認すること。","candidateMethod":"POTA representative point inside one MLIT urban-park polygon","sourceParkName":"都市計画公園・緑地","sourceParkType":"緑地","sourcePrefecture":"宮城県","sourceCity":"利府町"},"geometry":{"type":"Polygon","coordinates":[[[140.94772116308712,38.325534782915476],[140.947289527671,38.32589217530249],[140.94704289819325,38.32608387329374],[140.9467886699128,38.32628163172242],[140.94665218448625,38.32645239007797],[140.94660676066744,38.32656012677688],[140.9465347205278,38.32665297000405],[140.9459014109045,38.32737477361274],[140.94501432951387,38.32860249423115],[140.9441840068064,38.32970754146722],[140.94416921488917,38.32997080942391],[140.94418452745768,38.33005159290099],[140.9442036351679,38.33012337301378],[140.9442152975724,38.3302939774756],[140.94423850621897,38.3305663624192],[140.94426923668465,38.330790728530125],[140.94431508634491,38.330967219981666],[140.9443647085745,38.331119769111474],[140.9444370620098,38.33123641111917],[140.9444980794291,38.33138303903817],[140.94454769088972,38.33153558808953],[140.94454401105364,38.33161330008614],[140.94450614620092,38.33169414382172],[140.94451394582356,38.331828858198605],[140.94450655083236,38.3319604867448],[140.94452565936598,38.332032266780445],[140.94455997164388,38.33211304117432],[140.94458672109062,38.33221479816981],[140.9446248286752,38.33228655926089],[140.9446211536118,38.33236736156588],[140.9445604805676,38.33244822785032],[140.9445263487043,38.332487118968075],[140.94447323390654,38.332544038417616],[140.94443541878746,38.33265782146209],[140.94439383823183,38.332777716621166],[140.94437972332605,38.33284591524568],[140.94436724969574,38.33291854507638],[140.9443628699952,38.33297179643093],[140.94436663841924,38.33304341981766],[140.9443743617872,38.33308251451535],[140.94437839614974,38.33310278247477],[140.94439114677428,38.3331381784422],[140.94440617215642,38.33316510225393],[140.94442462617522,38.33319013168419],[140.94443952087005,38.33320561422322],[140.94447285347695,38.33323630564741],[140.94451535668745,38.333279240631484],[140.9445497119722,38.33330470544988],[140.94458749631923,38.333328544362026],[140.94462069637504,38.3333465322215],[140.94464874306007,38.33336128147838],[140.94469945194328,38.333383756634305],[140.94472922159238,38.33340318926889],[140.9447544128961,38.333419922440896],[140.94478762817567,38.33344854165965],[140.94480825918782,38.33347510060479],[140.94482671770336,38.333502922966545],[140.94484747855398,38.333540292494845],[140.94486319809127,38.33357217181035],[140.94493766712023,38.33372364286433],[140.94498756022114,38.33381134874321],[140.94501965557208,38.33385537551056],[140.9450603464643,38.333909484019244],[140.94510068841424,38.333960530456174],[140.94513587952932,38.33400851759762],[140.94516866829187,38.334057048500625],[140.94518611525248,38.334095593284395],[140.9452012818315,38.33413963524311],[140.94521564731747,38.334183408574404],[140.94523068222895,38.334216189457884],[140.94525063738996,38.33425004680536],[140.9452787212835,38.33428867061868],[140.94530370144327,38.3343165767728],[140.9453424296315,38.334359335760084],[140.94537921875263,38.33440488868588],[140.94539584505398,38.334431090961886],[140.94541076029978,38.33446035816094],[140.94542500270506,38.334498364487175],[140.94543559380176,38.33454223149289],[140.9454434375662,38.334584749672025],[140.9454484432083,38.33464123556321],[140.94545047089858,38.33469592236514],[140.94544573276335,38.33473881295762],[140.94543915483067,38.334776209405284],[140.9454290242531,38.334809284603125],[140.94540337833908,38.33486913336762],[140.94537090051415,38.334950071296355],[140.94535222778626,38.335007120386706],[140.945346219946,38.335042624250875],[140.9453447675611,38.335065870603614],[140.94534685315338,38.33508316719062],[140.94535100048256,38.33510226374359],[140.94535984169516,38.33512396861892],[140.94537785022982,38.335156295252816],[140.9453950586624,38.33518826316218],[140.94540333448657,38.33521420312201],[140.9454085668182,38.33523962342844],[140.9453703003756,38.33532026055468],[140.94529816461826,38.33535017940288],[140.94501707912664,38.3353923982722],[140.94477016988066,38.335425583332096],[140.94460680764513,38.33544066027028],[140.94451566718647,38.33546763248365],[140.94451193362687,38.33550958417344],[140.94455759824842,38.33555445410898],[140.94462223272137,38.33558718711175],[140.94469826854868,38.33561710724352],[140.94473251962083,38.335655924435876],[140.94477075651827,38.33581158341179],[140.94477472253212,38.33592222746635],[140.94486601596998,38.336002947556075],[140.94490036957947,38.33610174110497],[140.94486245580939,38.336158647136],[140.94480173281713,38.33619460842171],[140.94476384178523,38.33626644252855],[140.9447753827473,38.33635623999954],[140.94483629369975,38.33643685382802],[140.94490099363165,38.33651167980824],[140.94491632439323,38.336595428164706],[140.9448936206351,38.33665823818349],[140.94485567463917,38.336694312970316],[140.94479489948026,38.336703237168194],[140.9447264409675,38.3366614892159],[140.944581879204,38.336538870525914],[140.94445251801272,38.336422292655634],[140.94430808853537,38.33638653577073],[140.94420929895284,38.336386630111264],[140.94412580517914,38.33644062381208],[140.94391694635428,38.33651557510765],[140.94365112681973,38.33661155504811],[140.94362081870418,38.33666846252853],[140.94358292310653,38.3367314217241],[140.94350711204652,38.33685115044925],[140.94341611780317,38.3369769487777],[140.9433706328378,38.33705174472667],[140.94324918015624,38.33713562245633],[140.94317328592714,38.33719257163173],[140.9430479921628,38.337255613374346],[140.94292268554992,38.337309510176176],[140.94281259032252,38.337369438135276],[140.9426152636308,38.33754024826753],[140.942535591965,38.33761212146593],[140.94244451536127,38.33768399531032],[140.94212181857347,38.337860833326765],[140.9421370794696,38.337899813031605],[140.94215993779463,38.33794765931062],[140.9421981812937,38.33811823907764],[140.94222504041304,38.33829474965363],[140.94221762716677,38.338417368258085],[140.942217685529,38.338456362062544],[140.94227860242955,38.33853402291432],[140.9423052723525,38.33859086628039],[140.9423774496585,38.33857883434715],[140.9424229857864,38.33853684206697],[140.94251789976306,38.33848297500993],[140.9426394791011,38.33848286085353],[140.94282189825228,38.33851562824414],[140.94292836293266,38.338566351454695],[140.9430044325714,38.33861709398674],[140.94301210837173,38.338671009690565],[140.94297801909002,38.33873987545438],[140.94289829241094,38.33877585350622],[140.94279194648246,38.33881184824326],[140.9427198533954,38.33888075930611],[140.94268572218274,38.33892274016418],[140.9427085757735,38.338958613380484],[140.94277323300614,38.33899741086916],[140.94285684676672,38.33902126159548],[140.94296321873503,38.339009196461696],[140.9430467743593,38.33897927829335],[140.94314551968793,38.33895511113145],[140.94348367183673,38.33895183613279],[140.9436167205115,38.33899365921627],[140.94365099522537,38.33904739579276],[140.94377262328294,38.339071219109854],[140.94381826006432,38.33910411457817],[140.94385636717232,38.33917292156237],[140.94386026397248,38.33923879659898],[140.94383375278923,38.33929569962989],[140.9437882441423,38.33935556671082],[140.94374652657942,38.33940347437218],[140.94376565223732,38.3394932647536],[140.94379608747235,38.33952012995433],[140.94409282542233,38.339756206142944],[140.94427921863584,38.33990271457857],[140.94435158763295,38.34001640127281],[140.94445440506925,38.340171854926346],[140.94456866146908,38.34034237081126],[140.94462953912253,38.34039918117814],[140.94469040423684,38.34044699086608],[140.94481962152193,38.340464742376646],[140.94491460490164,38.3404556423731],[140.9449487391536,38.3404167592997],[140.94494104575878,38.34035988948612],[140.94489539407007,38.34031811905229],[140.94483073771127,38.34028214276915],[140.94477747652843,38.3402313788643],[140.9447659670541,38.34016254782362],[140.94479628499911,38.340111694568996],[140.94485703062924,38.34008165263923],[140.94487215927612,38.340039833387586],[140.9448568621425,38.33997100505502],[140.9447958758043,38.33984239685144],[140.94478053759707,38.339746683692155],[140.94481843825048,38.33968667930852],[140.94490574475347,38.33963281756139],[140.94509189089695,38.339608708832365],[140.94534264777604,38.339599458127985],[140.94550227319516,38.339626188611156],[140.94555933919844,38.33967399337946],[140.94565817723847,38.339709801385354],[140.9458292823344,38.33978452394488],[140.94604979834605,38.3398829933091],[140.94639963186077,38.34005623412556],[140.9465783679222,38.34015178759291],[140.94668482263847,38.34019363286224],[140.94677222627473,38.340202557116235],[140.94690522286928,38.340208346843546],[140.94698125762977,38.34024121163076],[140.94702714619552,38.34030937935121],[140.94716665624463,38.340361687493115],[140.94716956800463,38.34039484024586],[140.9471847407742,38.340441225307856],[140.94720506755354,38.34049156961705],[140.9472311115857,38.34054028572846],[140.9472239376894,38.340561375318764],[140.9472126469506,38.34058409064657],[140.9471910680935,38.34061159198716],[140.9474636224759,38.34050005495023],[140.94736792673365,38.34046248853119],[140.94734982829036,38.340447190593686],[140.94732616307084,38.34038351524542],[140.94732328173498,38.34036982335041],[140.9473800181527,38.34036679409699],[140.9474357164047,38.34035755005608],[140.9474862589501,38.34034326559317],[140.94754457057167,38.34032275597035],[140.94759088628786,38.34029834871146],[140.94772972528708,38.340198664632844],[140.947767171106,38.34016434631086],[140.94782458657616,38.340111717954244],[140.94797633573992,38.3399650175342],[140.9480826220249,38.33989902497405],[140.94814722067127,38.33990488110035],[140.94818147583177,38.33994384050445],[140.94824989693274,38.33995869348976],[140.9483068743907,38.339955681571084],[140.94837532984195,38.3399915089584],[140.9484476436034,38.34006619031825],[140.9485617851628,38.340164904375555],[140.94868366972923,38.34035623820232],[140.94876359167478,38.340431056033246],[140.94907092738768,38.340164398499354],[140.949158417789,38.340221189257285],[140.94937497105917,38.340211964608216],[140.94949280500063,38.3402357758293],[140.94957644326198,38.340265532976574],[140.94964114181198,38.34033431080189],[140.94970586633707,38.340412098232875],[140.9497591790753,38.34049284401933],[140.9498201909162,38.34062441377735],[140.9499094611136,38.340619693201056],[140.95009917844177,38.34051080191452],[140.95013519229803,38.34039673969367],[140.9501921350055,38.34035768912255],[140.9502757047794,38.34035169457475],[140.95043908942594,38.34035153063558],[140.9506671984956,38.34042915426942],[140.9508572126865,38.340449793453296],[140.95100167665754,38.340500606371045],[140.9510853545866,38.34055430018657],[140.9511158319292,38.34060522826084],[140.95110452243424,38.34066507282126],[140.95111221200742,38.34071587962327],[140.9511693069623,38.340778753893524],[140.95124157414705,38.34082950478991],[140.95132899418692,38.34084138080033],[140.95142397447563,38.340838330024845],[140.9515189282256,38.34081120446734],[140.9518150989497,38.340685327971855],[140.95200115479693,38.34061334090871],[140.9521150939843,38.34058324048396],[140.95222148394694,38.34058313267654],[140.95235076226848,38.34063692350496],[140.95243441690505,38.34067568736072],[140.95254466375553,38.3407114698577],[140.9527348169328,38.34081601198613],[140.9528338412554,38.340956552024636],[140.95285298999238,38.34104634897846],[140.95285692441442,38.341130098830476],[140.95289882164712,38.34119594381326],[140.95297487643887,38.34123175985683],[140.9530395051649,38.341255632588215],[140.9531040922655,38.3412465560752],[140.95318007175086,38.341243514271824],[140.95322566960974,38.34124938701479],[140.953362527474,38.34128514062899],[140.95367409534666,38.34128481951955],[140.95386025166286,38.34126675226486],[140.95399698047635,38.341230707239674],[140.9540653191426,38.34120065273467],[140.95418689944427,38.34119151693673],[140.95434267745617,38.341191355396624],[140.9544148504119,38.34117636089367],[140.95449837218263,38.34113432562173],[140.9547376893935,38.341095217622005],[140.95479464273976,38.34107122897349],[140.95485538525304,38.34104131701984],[140.95498456718548,38.341035136697876],[140.955037802528,38.34105901113709],[140.95508345957705,38.34110091185207],[140.95519750746698,38.34113668790507],[140.95536472216895,38.34114847795935],[140.95553191532915,38.34115422231142],[140.95575241317133,38.34111539403115],[140.95582816295146,38.34127567708234],[140.9558325342915,38.34129008798215],[140.95583977995972,38.34131305506201],[140.95584369970453,38.341331700075166],[140.95584670587976,38.341350617233495],[140.95584627575894,38.341366925178455],[140.9558437908997,38.341385848073045],[140.95604617197495,38.34132175704321],[140.95598870299762,38.34129830283683],[140.95596537449796,38.34123543976377],[140.9558887186394,38.3410732386882],[140.9560484294576,38.34101008419348],[140.95615470994125,38.34094409424949],[140.95623054362935,38.34085434158965],[140.9562833870366,38.34064481144229],[140.95636629430106,38.34023773979368],[140.95645691912827,38.33989640440722],[140.95649486006727,38.33986651553628],[140.9567376713564,38.33965073009172],[140.95705649431736,38.339452883307885],[140.9570257563611,38.339249495423815],[140.95707877838228,38.33914766626326],[140.95738005630062,38.33860916435819],[140.9574650546007,38.33827337500077],[140.95739665886546,38.33819307210268],[140.9574722347596,38.337960848944526],[140.957577633208,38.337876740164944],[140.95805192430365,38.33741232644242],[140.9580924264568,38.33721596400102],[140.95814369684064,38.33689363436255],[140.95814986469898,38.33685058758811],[140.95806265225815,38.33679453399827],[140.95791050966164,38.33669305849084],[140.95776606138972,38.33665717315013],[140.95764446472472,38.33664533815885],[140.9575455738297,38.336585610600984],[140.95724877319444,38.33632267273064],[140.9577270042444,38.3360289267937],[140.95771921423088,38.33592110817605],[140.95768877032228,38.335891291410356],[140.95768870897106,38.33585539693267],[140.95772665850777,38.33582537249001],[140.95774161740084,38.335681760429296],[140.95739173837268,38.3354846236718],[140.95727014235533,38.335478697733926],[140.95702677097412,38.33535324447701],[140.9568671368467,38.335311608743325],[140.95686692454728,38.335185896965974],[140.9574158093482,38.334651106636876],[140.95634692914945,38.33463382164836],[140.9561888506165,38.33462052708006],[140.95480080261788,38.33450378555043],[140.95438659699232,38.334452235907264],[140.95410411994519,38.334409784795355],[140.9539509240907,38.334381620039665],[140.95368560074158,38.33432097980945],[140.95345798254507,38.334250729912135],[140.9532623225257,38.33418044963066],[140.9530351439377,38.334089034488926],[140.95280167036915,38.33397339270566],[140.9526561029959,38.33389221571795],[140.95254666027154,38.33382778372268],[140.95242997921758,38.33374954047742],[140.95224041695573,38.33360678315437],[140.95201563000393,38.333408061555254],[140.95191660418706,38.33331245103021],[140.95181253436198,38.333197116447145],[140.95174545836588,38.333107147521524],[140.9517010219147,38.3330549679746],[140.95158835505316,38.33289490637012],[140.95153493786384,38.33280467738875],[140.95134302768156,38.332451618601965],[140.95094883156705,38.33171300954955],[140.95054527392224,38.330929815227925],[140.94947082492965,38.32890862677203],[140.94861788718498,38.32728385914591],[140.94825871480393,38.32657378528297],[140.9481613978716,38.32638567997694],[140.94786270660003,38.32580836439586],[140.9478087474836,38.32570406942688],[140.94772116308712,38.325534782915476]]]}}]}
