{"type":"FeatureCollection","features":[{"type":"Feature","properties":{"potaRef":"JP-1395","nameEn":"Awazu Prefectural Park","nameJa":"","boundaryStatus":"全国都市公園GIS候補・公開前検証待ち","boundarySource":"国土交通省「都市計画決定GISデータ」都市公園・緑地を、POTA代表地点で空間照合して加工","boundaryScaleNote":"都市計画データは近似・未収録の可能性がある。POTA運用可否は公式情報で最終確認すること。","candidateMethod":"POTA representative point inside one MLIT urban-park polygon","sourceParkName":"5･4･2号 粟津公園","sourceParkType":"公園","sourcePrefecture":"石川県","sourceCity":"小松市"},"geometry":{"type":"Polygon","coordinates":[[[136.42036561317528,36.3540863624443],[136.4192998141998,36.35439892666515],[136.4187241592602,36.35458365867751],[136.41862651868527,36.35462921584281],[136.41833657232473,36.35481097012908],[136.41820568260562,36.35489301847189],[136.41844938692526,36.35528643597368],[136.41889258945366,36.35598585467544],[136.4193181558806,36.35683959291549],[136.41945132753068,36.35715501128466],[136.4195973587395,36.3575557075937],[136.4197210949333,36.35792969355158],[136.41977161452039,36.35793360462791],[136.41989029800845,36.35807560122002],[136.41993748632524,36.35806125754758],[136.4204592929561,36.35790264415179],[136.42098723680363,36.35774298939768],[136.42150663950682,36.35757948800204],[136.4219868572807,36.3574334683555],[136.4219985965761,36.357408584743425],[136.42182278032368,36.35708048592833],[136.42178875630862,36.357010403791016],[136.42162276612493,36.356659390614396],[136.42147644733768,36.356344923763],[136.42127544648483,36.355922649394124],[136.421265555954,36.35589915079802],[136.42109425826632,36.35550249442357],[136.42090741569183,36.35506932201603],[136.42070491653047,36.35465235367115],[136.42059357105163,36.354319596754316],[136.42036561317528,36.3540863624443]]]}}]}
