{"type":"FeatureCollection","features":[{"type":"Feature","properties":{"potaRef":"JP-1069","nameEn":"Koizumigata Prefectural Park","nameJa":"","boundaryStatus":"全国都市公園GIS候補・公開前検証待ち","boundarySource":"国土交通省「都市計画決定GISデータ」都市公園・緑地を、POTA代表地点で空間照合して加工","boundaryScaleNote":"都市計画データは近似・未収録の可能性がある。POTA運用可否は公式情報で最終確認すること。","candidateMethod":"POTA representative point inside one MLIT urban-park polygon","sourceParkName":"9･6･1 県立小泉潟公園","sourceParkType":"公園","sourcePrefecture":"秋田県","sourceCity":"秋田市"},"geometry":{"type":"Polygon","coordinates":[[[140.07549779475832,39.80836922324319],[140.07546733954547,39.80837986380861],[140.075428785578,39.808379612143476],[140.07528368094532,39.808405758728554],[140.07491263321998,39.80867015352996],[140.0748946245069,39.80866036297066],[140.0748800009403,39.80863841308442],[140.07485831283137,39.80858300905845],[140.07483802491774,39.808505848995324],[140.07479494792534,39.808431137731645],[140.07474599621156,39.808364313567154],[140.07468527476541,39.80830777443479],[140.07458123670045,39.808245376664175],[140.07447684761183,39.80821383544303],[140.07437055062346,39.808183749841966],[140.07433085423654,39.80816145852262],[140.07431610140154,39.80811286688299],[140.0742652285193,39.808064039085295],[140.0741520492278,39.807981251732805],[140.07408622342777,39.80790734888996],[140.0740473381162,39.80780716782689],[140.07402378680789,39.807713383127755],[140.0740264182626,39.80764727789969],[140.07405185491612,39.807585726380076],[140.074101907627,39.80753609033649],[140.07411941113654,39.807502409487924],[140.07411421822405,39.80745429466931],[140.07412607595938,39.807414695144665],[140.07414180635558,39.80737658012232],[140.07378948576837,39.8070486084481],[140.0736760831087,39.806971457719676],[140.07360980555987,39.80693869689943],[140.07355288815188,39.806919219985254],[140.07350341826955,39.80691595985407],[140.07345032618804,39.80691286514667],[140.07331551453257,39.80692073777377],[140.0730560848169,39.806963129796],[140.072936098764,39.80700651569331],[140.07284791564487,39.80706030603337],[140.07278112436146,39.80707310019793],[140.0726918803014,39.80705046570561],[140.07251231661496,39.80695979277584],[140.07235733544968,39.80685443670252],[140.07223275232644,39.806786290620366],[140.07215889877125,39.806749065739155],[140.07210752560866,39.80674579253464],[140.07205961880823,39.806773400978756],[140.07201553523257,39.80679955728005],[140.0719717110292,39.80680221527182],[140.0719053255402,39.80677826189174],[140.07182976689245,39.806767498014665],[140.07174589314386,39.80677576596879],[140.07169832693984,39.80677251755627],[140.07163394233658,39.806739768027725],[140.071541249188,39.80668478289436],[140.07143118135352,39.80665173348654],[140.0713784821335,39.80664270461238],[140.07133456068857,39.806654170845384],[140.07123304078584,39.80670787242292],[140.07118721579968,39.806719326104364],[140.07112630910697,39.80671745806687],[140.07100851838513,39.806693175682796],[140.07093104087303,39.806683812764085],[140.0708698788938,39.80670398372921],[140.07080087098055,39.80674614394314],[140.0707145899379,39.80679995416036],[140.0706590241161,39.806823089139115],[140.07063071612873,39.80680821230004],[140.07062347592571,39.80677436942242],[140.07064332314098,39.80670102742862],[140.07063085996882,39.806623068611884],[140.0706070309328,39.80656435573836],[140.0706099743692,39.806470330065956],[140.07062043938166,39.80638258684372],[140.0706559157989,39.8062740840164],[140.07070642489043,39.80618330717197],[140.0707220410695,39.80614404793513],[140.07071861584538,39.8061084466775],[140.07068072194556,39.80609234494281],[140.07057244518288,39.806069592801],[140.07051015590451,39.8060386218416],[140.0704385325204,39.80597202876932],[140.07037066746054,39.80590986491146],[140.07032713640785,39.80588606982672],[140.07028152681582,39.805881257419706],[140.07027156696782,39.80591803173663],[140.0702803365018,39.805985680008895],[140.07025502258668,39.80603694520261],[140.0702106623716,39.806088085198475],[140.07020465930884,39.806114500122185],[140.0702055583961,39.806208451965865],[140.07016242418197,39.80617411190341],[140.07009244431853,39.80613103842499],[140.0700146230401,39.80610848597721],[140.0699365416218,39.80610944076841],[140.0698203096652,39.80611749455821],[140.06972313320588,39.80612272818625],[140.06957684205076,39.80614964342421],[140.06943557660995,39.80618251833577],[140.06932280958702,39.806221453365985],[140.06916426600063,39.80630540261218],[140.06898028167984,39.80641293634351],[140.06881760485473,39.8065188446672],[140.06876353501312,39.806586088228045],[140.06874752533776,39.80665651879608],[140.06872982393492,39.80670783378084],[140.06867040191696,39.80674270591546],[140.06858311314127,39.80675348914188],[140.06848763901345,39.80677783738332],[140.068439567849,39.80682013411682],[140.06839077948143,39.80692708935685],[140.06835798495874,39.80696507314267],[140.0682949138093,39.80698670736034],[140.0682265386093,39.80699903809927],[140.06818798444954,39.80704140645229],[140.06817771720716,39.80710892940008],[140.0681825310571,39.8071897834324],[140.06816295817887,39.8072381496176],[140.06803021148554,39.807373455667],[140.06795159047843,39.807422900743326],[140.06785409754943,39.80745752145891],[140.06775883877089,39.8074613068997],[140.06767754598948,39.807447367974035],[140.0676226475757,39.80741761516025],[140.0675680055968,39.80736582320393],[140.06752164217167,39.80726580682219],[140.0674914498334,39.80707044697256],[140.067483286697,39.80694842557217],[140.06745880438157,39.806916171136514],[140.06742233102324,39.80695095982575],[140.06734722334605,39.807026873042204],[140.06727258869861,39.80706018490584],[140.0671967334465,39.80707300611651],[140.0671186998582,39.80706955476455],[140.06705239276582,39.80703972638513],[140.0669845623788,39.80697462441994],[140.06689953554465,39.806915281635824],[140.0668085207422,39.80688088544308],[140.06674761406236,39.80687901510687],[140.06667309018027,39.8069065536516],[140.0667562332862,39.80695988531607],[140.06679750090623,39.80701600291739],[140.06679871848303,39.80707772882314],[140.06677486419719,39.80716867092666],[140.0666926041361,39.8074056946918],[140.06666611099908,39.80756275076839],[140.06662497418586,39.8078425693786],[140.06660227140912,39.80800111864582],[140.06648832228169,39.807977901890844],[140.06649037128858,39.808142334241275],[140.06649371277274,39.80831037172939],[140.0664818529941,39.808508974954464],[140.06648579165324,39.80859337300959],[140.0665047303576,39.80870742661098],[140.0665171476771,39.80876832394117],[140.06657604229008,39.80891318329501],[140.06663523639602,39.809006753574806],[140.0666915426534,39.80905502428843],[140.0667673267373,39.80907003452372],[140.0670142792732,39.80907582982339],[140.06736144190853,39.80906705900725],[140.06769409103,39.80905270600823],[140.06784422060275,39.80902413953203],[140.06812355564367,39.80887908589322],[140.0681910275369,39.80882686596305],[140.0682283142438,39.80878429832368],[140.06827596094197,39.80871860251009],[140.06842403886313,39.80880511400914],[140.06840770634003,39.80886761325981],[140.06825471426694,39.80912193702799],[140.06816700596121,39.80920814857608],[140.06797984857027,39.80936050062468],[140.0678894901067,39.80940289662203],[140.06774749346104,39.80945193897684],[140.0675896976458,39.809496308461206],[140.06741271518067,39.80952711590307],[140.0672119188203,39.80955319833965],[140.067031714852,39.809591686960395],[140.0669608915718,39.809610923771565],[140.0669092912709,39.80963727258468],[140.06687434851085,39.80967573624147],[140.06685571042888,39.80972254648645],[140.06685455051655,39.80978518981321],[140.0668846577067,39.80983482949963],[140.06694672146637,39.80988803895063],[140.0670056530081,39.80991475982329],[140.06708691182183,39.809938942062686],[140.0671617003349,39.80994431669428],[140.06713474085237,39.80998766821655],[140.06699677553715,39.81008787053483],[140.06686941070018,39.81017391658682],[140.06682774905636,39.810171149216146],[140.066735725948,39.81014376118737],[140.0666483124275,39.810109148169495],[140.0665372343982,39.810045986964674],[140.06642703698455,39.80997150122269],[140.06625097385665,39.80991435875017],[140.0661675729587,39.80990313044099],[140.0661327475187,39.81011051522479],[140.06609437849107,39.810187617012595],[140.06604739604376,39.81023353543134],[140.0660085877426,39.81025762829401],[140.06592589303324,39.810258157166885],[140.06588628140537,39.81023552576203],[140.06583161260576,39.810222266849024],[140.06577686461185,39.81021801375754],[140.06547995024312,39.810736777808614],[140.06526973652922,39.810737447226224],[140.06511914343977,39.81074460151131],[140.06491022099775,39.810764804783354],[140.06480796825565,39.810795554303134],[140.06470685366614,39.810806648396195],[140.06449157237907,39.81081294842586],[140.0643657811698,39.81083571345004],[140.0642857583247,39.81085694764985],[140.06419642588997,39.81090069143691],[140.0641000474011,39.81097488528412],[140.06387836003313,39.81111636427197],[140.0640292502988,39.81123874891862],[140.0636702663344,39.811483573162896],[140.06368613187163,39.81154487463304],[140.06334551965801,39.81188379608895],[140.06322233432388,39.811986966121694],[140.06304543663444,39.81211346966837],[140.06293684138595,39.81203079555455],[140.062974511117,39.81198554530588],[140.0628976141879,39.81192430981824],[140.06277758963492,39.81200188368149],[140.0628266967956,39.81209714982304],[140.06285097181492,39.81216976990112],[140.0625677733155,39.81234407041734],[140.06254335391822,39.81269867213819],[140.06225296019267,39.81268820477289],[140.06226196472858,39.81255873106983],[140.06219614575832,39.81258941398359],[140.0620551369351,39.812510141017135],[140.06183294973667,39.81250861958125],[140.06168426587112,39.81263305755898],[140.06183086096271,39.81281222266186],[140.06224029429364,39.81287040070838],[140.06225052549874,39.81272325299194],[140.06254083308912,39.81273287130804],[140.06252049732717,39.81303057058379],[140.062692750977,39.81307242788952],[140.06287347786449,39.81315541791186],[140.06288242702823,39.81324320717939],[140.06292982207867,39.813304785528054],[140.06312468867665,39.81338950921059],[140.06325528495404,39.813537766861245],[140.06346085607828,39.81344056736594],[140.06355861307344,39.81355106371173],[140.06312936147552,39.81376888572806],[140.06311093723895,39.81385864339664],[140.06303579721728,39.813951921301715],[140.0629503295036,39.81395081644779],[140.0629106287085,39.81400097926733],[140.06286764387187,39.814043685681135],[140.06282292873726,39.81405413638637],[140.06277496877703,39.814043070599176],[140.06274717222365,39.814004999740135],[140.06274724110745,39.81388972791553],[140.06249101097973,39.81397219706397],[140.06257440070556,39.814148748194576],[140.0625813119244,39.814255198702675],[140.06254753387995,39.814362588741616],[140.06293534816217,39.8147199464663],[140.06284145087753,39.814961152155625],[140.06275855985757,39.81508272608042],[140.062632596805,39.81516744902587],[140.06253352833392,39.8151775396738],[140.06281238804533,39.815259602302596],[140.06291556282326,39.81529784732337],[140.0630210524269,39.815337999137085],[140.0630872163314,39.81536446912478],[140.0632112329335,39.81541906523361],[140.0633138616536,39.81547487044063],[140.06340949808282,39.81552927809488],[140.0634710630152,39.815576012528346],[140.0635582471211,39.81565978893523],[140.06358202284244,39.81568534706274],[140.06361070101408,39.81572165633248],[140.0636436584802,39.815772225441634],[140.0636835050968,39.81584391720822],[140.0637349283366,39.81593765892093],[140.06409834220938,39.81670498756848],[140.06438323476354,39.81729518490725],[140.06437599092249,39.81736060798315],[140.06438954090305,39.81743479774109],[140.06440995944624,39.81760226351086],[140.06444036588852,39.81766867634907],[140.06443595229578,39.81773095211861],[140.06443875278467,39.81776262577195],[140.0644477218097,39.81790594109747],[140.0644598607943,39.81808571987414],[140.0644639034977,39.81811692526823],[140.0644858063924,39.81826140260884],[140.06450751561874,39.81839225068053],[140.0644960892851,39.818429153398945],[140.0645274191229,39.81850748982238],[140.06456758977941,39.81858323574707],[140.06461248230897,39.81864532099385],[140.06467889633973,39.81872177387984],[140.06471623256732,39.81875915799638],[140.06475112083544,39.818775563307526],[140.06494346190533,39.81893356819136],[140.06496825599132,39.81889682686686],[140.06508637383763,39.818766804308844],[140.0651735162512,39.81874373599913],[140.0653009739991,39.81874995302298],[140.06539384281513,39.81879624587818],[140.0654262584417,39.818851454102685],[140.06544691873214,39.81887362431113],[140.0655246842902,39.81889939681022],[140.0656390396064,39.818893703881464],[140.06578543285315,39.81888190857816],[140.06589091021817,39.81888214472753],[140.06608678427145,39.818924997994706],[140.0661376587433,39.81893545566441],[140.06620452421768,39.8189387636356],[140.0662566232682,39.818933017184584],[140.06634051598954,39.818909209548416],[140.0664530513542,39.81886519413012],[140.06691025323192,39.81884686531173],[140.0669582183737,39.818664905707465],[140.06693644354837,39.81864197990541],[140.0669126411103,39.81863102036506],[140.06695696631158,39.81842500716293],[140.06698923159357,39.818357337861016],[140.06703968600158,39.818321807610886],[140.06724634338784,39.81831046497501],[140.06729067064285,39.818280974081034],[140.06732692593422,39.81820602162088],[140.06736906062494,39.81817663782703],[140.06742545985998,39.818150487156544],[140.06747160533493,39.81810177769178],[140.0674925251753,39.81801639628589],[140.06752934711872,39.81790701184696],[140.06759990376653,39.81778087032534],[140.06773985265147,39.817628115980135],[140.0677440009159,39.81750605174313],[140.06759071605694,39.81745042617375],[140.06760377469777,39.8173966930331],[140.06790038638087,39.81698110312085],[140.06799041107618,39.81698535358792],[140.06813655985079,39.817044648892434],[140.06819737455115,39.81709066878782],[140.06832633594237,39.8171727110007],[140.068376157237,39.81719073315231],[140.06841414461408,39.81719122214291],[140.06844371396542,39.81715949163469],[140.06847195544034,39.81712647874367],[140.06858999528197,39.81711402830588],[140.06866027183915,39.81712273286034],[140.06865987274713,39.8171587160365],[140.0686428277192,39.81718176503279],[140.06855324281514,39.81727220138234],[140.0685322607405,39.817312685899424],[140.06849722171702,39.81742335784734],[140.06848108153042,39.817456749510534],[140.0684049800439,39.81754844191196],[140.06839828795017,39.81758637422426],[140.06841442832396,39.81763445773729],[140.06841319720576,39.81768488577266],[140.06835294005685,39.81779793876038],[140.06831925054914,39.81783336479081],[140.0682679492452,39.817858045282804],[140.06825312669454,39.817898252379905],[140.06840603520652,39.81796982825092],[140.06861340995118,39.81804512692089],[140.06869481226286,39.8180928800505],[140.06871045281042,39.818172999945915],[140.0687382309431,39.818199276024636],[140.0687835721646,39.81821637317299],[140.068855844349,39.81823018435782],[140.06888118955885,39.81828616112785],[140.06957643212343,39.818189410850714],[140.06996389473815,39.81807412900053],[140.0700980575388,39.81806768190353],[140.07016044898867,39.81806241929769],[140.07018383724588,39.81808497229703],[140.0701964249248,39.81831346922032],[140.07018585527123,39.81838342036757],[140.07020025311735,39.81839784556075],[140.07032087113348,39.81842089621424],[140.0703670284909,39.81844820513406],[140.07039511184323,39.81847683822099],[140.07040185276506,39.81851842129487],[140.07042683665813,39.81852790078659],[140.07064339766498,39.818515649801626],[140.07076741099078,39.818487221494685],[140.071176517685,39.818363888368296],[140.0712692797133,39.8183605557427],[140.07131590660023,39.818366445404116],[140.07147730116074,39.818415035968755],[140.0715781127729,39.818445387225154],[140.07177519141328,39.8184917020926],[140.07191321417795,39.81850238480609],[140.07206383589946,39.818499297708904],[140.07220631885443,39.818475870007205],[140.0728896544604,39.81838648251703],[140.07319847506784,39.818427824361805],[140.07344060937612,39.81845229335939],[140.0735756012328,39.818434144536134],[140.07370183833203,39.81840412975322],[140.07380918758687,39.818349749123215],[140.0739338293028,39.81822552932479],[140.0740092085934,39.81812552927435],[140.07410858412294,39.81802277405756],[140.0742484348859,39.81792922942127],[140.07439390743252,39.817847537990986],[140.0745034082726,39.81779037221884],[140.07452345910113,39.81777317150451],[140.07452469649823,39.817708289480954],[140.07451255451963,39.81769068378924],[140.07454239744277,39.817610407973724],[140.07454394066505,39.81753938679604],[140.07453049684628,39.81743110279905],[140.07452716028737,39.81731664913404],[140.07457782417717,39.817199256255286],[140.07469689664893,39.81707068922871],[140.0747955049958,39.816938698016],[140.0748361558938,39.81687013191426],[140.07484561070254,39.81681304981017],[140.07472070292823,39.81672266725476],[140.07453414023414,39.816791444361584],[140.07437405378963,39.81671032605479],[140.07448865343656,39.816563290318896],[140.07410316265435,39.816471158482656],[140.0741392562874,39.816302248923165],[140.0742993373791,39.81628878585329],[140.07442464173906,39.81630089023409],[140.07457054951152,39.81634053644111],[140.07468418174602,39.816409767583984],[140.07483254864573,39.81649325797359],[140.07498660086154,39.81655284040157],[140.07526963205137,39.81659795524486],[140.0753459909807,39.81657265251475],[140.07540214459297,39.81653593892885],[140.07545167820373,39.816491322361024],[140.07545725656004,39.81644872559681],[140.07543712026464,39.81638397153032],[140.07541519209272,39.816350152018],[140.07542159381524,39.816317233530505],[140.07544600313335,39.8162626224114],[140.07551051034434,39.8161739256361],[140.0755911028563,39.815995363850014],[140.07563442707712,39.81592914327814],[140.07573378664736,39.81582902923803],[140.07580754629547,39.81577550208318],[140.07585704236507,39.81574996337573],[140.07607216330192,39.81569705294128],[140.07619467107997,39.81574517883471],[140.07627272621917,39.81575952031556],[140.07632314833202,39.815773450077685],[140.07636859709677,39.81577163061377],[140.07640174583213,39.81575680010782],[140.0764444597608,39.81574874867089],[140.0765963782636,39.81579093913953],[140.07663929816232,39.815817013899185],[140.0766366841054,39.81584883844488],[140.07654876963818,39.816001558240956],[140.07654780078443,39.81604225935881],[140.07665782482317,39.81601798765901],[140.0767428481995,39.81598576074361],[140.07720041345857,39.815915924339926],[140.07724814116386,39.815900785018556],[140.0773063190235,39.815869994250214],[140.07735833549623,39.815829087804175],[140.07745640497757,39.815687450285296],[140.07756956377455,39.81558373061766],[140.07772879047442,39.815473121975565],[140.07786922384545,39.81540820448089],[140.07793978439977,39.815392004672034],[140.07802709205671,39.81538975163958],[140.0781911470287,39.815394982900415],[140.0782751956292,39.81539329125302],[140.0783471691301,39.81538596623823],[140.07847797255636,39.8153624548357],[140.07860994666044,39.8153115886188],[140.07871090254716,39.815272074259745],[140.07880528347798,39.81524420581183],[140.07896073256777,39.815220908979555],[140.07903015646122,39.81521610972446],[140.07956832480423,39.815230621849985],[140.0797212329853,39.81521535909729],[140.07988387253027,39.81519061970014],[140.07998656710512,39.81513535188904],[140.07997598643803,39.815078990505114],[140.0798801880359,39.81498150285883],[140.07981972716178,39.814886527834574],[140.07973695724758,39.81477663064532],[140.07965823392425,39.81464714363524],[140.07964944349175,39.814574705956815],[140.07968074989088,39.81448382047561],[140.0797298585262,39.814409305060224],[140.07973831082316,39.81435783834322],[140.07968569547836,39.81419869503716],[140.0795069808056,39.81389150467758],[140.0793446246988,39.813988003623614],[140.07920804334756,39.81405160407674],[140.07896377216485,39.81412811916961],[140.07887617941796,39.81406637621498],[140.0787622068874,39.81413343773475],[140.07895996281107,39.81426663162357],[140.07913956710485,39.8144108807781],[140.07910560913075,39.81445741330601],[140.07906468769912,39.81445567026092],[140.07889190616302,39.81438844775457],[140.07883668900968,39.81447888489437],[140.0786712452366,39.81444162468791],[140.07850277529496,39.814511062689434],[140.07853381295894,39.81455806444832],[140.07851277245484,39.81458443964704],[140.07847630905448,39.81460522103123],[140.07843640659908,39.81459233249059],[140.07832395269145,39.81450522963341],[140.07824746336777,39.81442660043169],[140.07819094899307,39.814390436168374],[140.07812021982187,39.814362732713704],[140.0779989188408,39.81436713898233],[140.07798996170916,39.81433662803275],[140.07799354294212,39.8142906593188],[140.07801908756275,39.81424890838512],[140.07807214030967,39.8142086793833],[140.07815526644112,39.814190411142185],[140.07839183149275,39.81423963866287],[140.07853017187853,39.81412278883063],[140.07859497150488,39.814072773898744],[140.07858843884412,39.8140471751055],[140.07850126047612,39.81399243050898],[140.07845529658798,39.813955638706176],[140.0784183695431,39.8139196910804],[140.07839028219246,39.813868456140156],[140.07835259515468,39.81383130918741],[140.0783012901223,39.81380733055941],[140.078245651244,39.81379738497055],[140.07820539510845,39.81380745267986],[140.07804916751755,39.81391499114615],[140.07795186185544,39.813971366884694],[140.07770333490433,39.81405456925053],[140.07766692226238,39.81407072277808],[140.07763458101343,39.81405439015848],[140.07761445172093,39.81402595649255],[140.07760999762968,39.813987324146986],[140.07760121914183,39.81396174040462],[140.0775424739084,39.81393842908857],[140.07750680646183,39.81390770007976],[140.07746649043688,39.813834888558844],[140.07748897057047,39.81381837597143],[140.07753443956793,39.81380254987234],[140.07768458937085,39.813756840771596],[140.07773023494312,39.813724893633285],[140.0777958530773,39.813576640383154],[140.07779174280213,39.81353135300577],[140.07772509466992,39.81348028399025],[140.07766802032017,39.81344596682079],[140.0775390224398,39.81338444605106],[140.07741182432332,39.813340746030256],[140.07732270910938,39.81332625313681],[140.07728831091293,39.813324566357494],[140.0770323189815,39.81351677960588],[140.07699503871146,39.81352728511927],[140.07694725923943,39.813520883128916],[140.07694334933444,39.81349613720565],[140.07696140679525,39.813459353869504],[140.07698567037568,39.813431984826465],[140.07698182635355,39.81338717654168],[140.07692363888702,39.81334129813152],[140.0768678725497,39.81328659753485],[140.07669064912182,39.81310414524645],[140.07666672349978,39.813068998775435],[140.07663857484434,39.81300934391695],[140.07661435752888,39.812974282003495],[140.0765716292721,39.812931011800224],[140.07653590678402,39.81292124024866],[140.07647020389803,39.81293944167924],[140.0764220676176,39.81294441242886],[140.07639360856734,39.81291305722939],[140.0763498293846,39.81281030779307],[140.07625679197008,39.81276527638406],[140.07617946886506,39.81273829076637],[140.07615582376226,39.81270571309097],[140.0761822543588,39.812660863525196],[140.07625068152953,39.81261312356517],[140.07628910138322,39.81259399765436],[140.0763516501793,39.81252454330688],[140.07640159188864,39.81251382240475],[140.07643953348386,39.81251591355339],[140.07645599590592,39.81252325371443],[140.0765334079193,39.81259012121835],[140.07656648783313,39.812608981895686],[140.07660906328007,39.81262241632509],[140.07671561636053,39.81265733930489],[140.07680548959218,39.81268025759731],[140.07690818991844,39.81269131575313],[140.07692477096342,39.81267613844485],[140.0769456931239,39.8126270130918],[140.07704225955123,39.81218258662295],[140.0771203842435,39.81213293852043],[140.0771685393968,39.81208731508245],[140.07719195877218,39.812032925880196],[140.0771916424155,39.81200521835335],[140.07718605510607,39.811985178615366],[140.0771462023947,39.811944375522124],[140.0770981929545,39.81192379015037],[140.07687270300454,39.811916728559694],[140.07679315029898,39.81190832883892],[140.07671701804514,39.81189624846524],[140.07668095228465,39.81187374114237],[140.0766926020531,39.81159884848119],[140.0771726927108,39.81146326789572],[140.07747351590402,39.81140266403828],[140.0775892936923,39.81136123217289],[140.07769315322344,39.811300017411256],[140.07769085150645,39.8112168553928],[140.07769394208566,39.81113966876535],[140.07771640154039,39.811082642172934],[140.07771662105216,39.81103606879264],[140.0776812929112,39.810995713262095],[140.07761443585233,39.810960526239164],[140.0774891385767,39.81094860462983],[140.07737947454876,39.81087549108222],[140.07731480675807,39.81079947556106],[140.0772376050608,39.81075497409319],[140.07720486953406,39.81074737493933],[140.07706177240362,39.810754612510145],[140.0770005571199,39.81074507766895],[140.07694361588187,39.81072697229732],[140.07689865570657,39.81069658517767],[140.07678989102135,39.81057650670504],[140.07674166049037,39.81060182351301],[140.07666614313862,39.81062569334376],[140.0765691261396,39.81065076687536],[140.07642922682146,39.81066248401124],[140.07629416757007,39.81071471572628],[140.07623424949577,39.81077213999917],[140.07616781280012,39.81086799088952],[140.07612028087334,39.81090261200082],[140.0760876779036,39.810910280723675],[140.07605549571642,39.81090792168322],[140.07600593164702,39.81088084769025],[140.07597413164942,39.81083858620074],[140.07597878578088,39.810807327997786],[140.07601340987677,39.81076120873228],[140.07609676265878,39.810673788277946],[140.07653014792757,39.81027305129944],[140.07679119187503,39.8101092763618],[140.07696588601019,39.80986104096262],[140.07695531069558,39.809815770861206],[140.07681083920883,39.8096958263677],[140.07675859611464,39.80971531005368],[140.07666905343137,39.809648566288324],[140.0765370370309,39.80958122764839],[140.0764054603457,39.809532693510945],[140.07633499902732,39.80958973566307],[140.07624733307017,39.809612948653466],[140.07621021150624,39.8096326901246],[140.07610627257452,39.80967603893645],[140.07606590153807,39.80968612588768],[140.0759955849526,39.80971761243476],[140.07596387413415,39.80973757286856],[140.0758737977844,39.80982517816605],[140.07578764695268,39.80989541866069],[140.0757129015224,39.809912425766974],[140.07561722430876,39.809903740783476],[140.0755501958068,39.8098983772412],[140.0754965277133,39.809904967951454],[140.07544408174138,39.80992182229629],[140.07536385738305,39.80997231217892],[140.07533336809098,39.80998503045832],[140.07530678814356,39.80998008036555],[140.0752887720414,39.80995679422937],[140.0752853239285,39.80990073296393],[140.07529423284143,39.809872040814234],[140.0753264816068,39.80979976172489],[140.0753624872775,39.809736001912206],[140.0754237122274,39.80957813748912],[140.07553299021345,39.809451756350896],[140.07553681142642,39.809384069105775],[140.0754843300414,39.80934073483128],[140.07542387040655,39.80930487132804],[140.07536666407944,39.80934939103494],[140.07533833196257,39.80935936717516],[140.07528952946612,39.80936173542194],[140.0752192225915,39.80935536489011],[140.0749801956811,39.80930987179131],[140.07487770803635,39.809315113760924],[140.0748010818024,39.8093130909086],[140.07482250369435,39.809170998800965],[140.0748264462465,39.809092340611684],[140.07485871827734,39.80902825572575],[140.0748894233385,39.80899153189998],[140.07489506156617,39.80897861176887],[140.07489327585623,39.808953973313],[140.07487698197684,39.80893299340777],[140.0747605182704,39.8088363374422],[140.07484081062873,39.80877692583362],[140.07491761355342,39.80872788757064],[140.07502787867853,39.80864020682953],[140.0750928648901,39.808623434562044],[140.07514467775695,39.80860066475875],[140.07525632329742,39.808522933200365],[140.07531293174512,39.80847601189848],[140.07547100483816,39.80844273960461],[140.0755297050564,39.808427359116635],[140.07555970861193,39.8084447516345],[140.07555902701594,39.80842217675374],[140.07553841106684,39.808369488345924],[140.0755379964955,39.80836948564009],[140.07552627824785,39.8083337403431],[140.07549738018707,39.80836922053721],[140.07549779475832,39.80836922324319]],[[140.06661641077616,39.817800978505176],[140.06626801990956,39.81765781167927],[140.06609340507865,39.817901845278406],[140.06589334277965,39.81781283726884],[140.0660639171666,39.81756319456628],[140.06602047161195,39.817542844655264],[140.06583281657348,39.81757226581119],[140.06556524146472,39.81744182695639],[140.06567013106826,39.81720637908989],[140.06549928907938,39.81713243189454],[140.0655308606482,39.817092515166436],[140.06539872533008,39.81703682661768],[140.06543648800192,39.81698333639556],[140.06548830235656,39.81700302580044],[140.06561889683226,39.81682166632614],[140.06575384769297,39.81688525549371],[140.06579095492356,39.81684203089721],[140.06613480427293,39.816984862901506],[140.0660795417898,39.81706624216786],[140.06614981742655,39.8170970394396],[140.06620193375088,39.817027994608004],[140.06634991595445,39.81683194667059],[140.0664317871076,39.81686437323029],[140.0664727099665,39.816819144284274],[140.06661620350965,39.81687705575898],[140.0665850564953,39.8169205586779],[140.06666052093314,39.81695468927009],[140.06640569380951,39.817316785005005],[140.06657915879208,39.81739089951333],[140.06657110170585,39.81740517684749],[140.06681611584412,39.81750952712712],[140.06667821422226,39.81771078264927],[140.06661641077616,39.817800978505176]]]}}]}
