{"type":"FeatureCollection","features":[{"type":"Feature","properties":{"potaRef":"JP-1542","nameEn":"Akashi Prefectural Park","nameJa":"","boundaryStatus":"全国都市公園GIS候補・公開前検証待ち","boundarySource":"国土交通省「都市計画決定GISデータ」都市公園・緑地を、POTA代表地点で空間照合して加工","boundaryScaleNote":"都市計画データは近似・未収録の可能性がある。POTA運用可否は公式情報で最終確認すること。","candidateMethod":"POTA representative point inside one MLIT urban-park polygon","sourceParkName":"明石公園","sourceParkType":"公園","sourcePrefecture":"兵庫県","sourceCity":"明石市"},"geometry":{"type":"Polygon","coordinates":[[[134.99529450470828,34.654156415714105],[134.99520867096155,34.653878055641286],[134.99519559569964,34.6537579291448],[134.99502118008587,34.65316537986555],[134.99502022494332,34.65304518756188],[134.9950596167605,34.65304497379044],[134.99503899999186,34.652929891531635],[134.99505730266526,34.65291714410852],[134.99500094486245,34.65276470816865],[134.99500060911222,34.65272245651012],[134.9953724879901,34.652587096542725],[134.99535403564715,34.65242595376657],[134.99533885632988,34.65230051079326],[134.99532493889959,34.65225145439634],[134.99528670665663,34.65220811030766],[134.99524847445366,34.65216476620624],[134.99519268409313,34.652124870993205],[134.9951368937143,34.652084966739096],[134.99506365851553,34.65206414280268],[134.99499043433312,34.65204332777728],[134.99490757047968,34.65184039812273],[134.99482471787445,34.65163745932671],[134.99474739972294,34.65159285764203],[134.99472542657568,34.65149781407339],[134.9944561508484,34.65155061500729],[134.9943781549137,34.65126806478501],[134.99442908430566,34.65125917931051],[134.99442633700212,34.65125528167808],[134.99442181598118,34.651247823706136],[134.99441729488947,34.65124035671937],[134.99440454774972,34.65120533027726],[134.9943938511912,34.651171635957574],[134.99438965007576,34.65115637824025],[134.99435223571666,34.65092734662438],[134.99426289862768,34.650359315359374],[134.99423544693357,34.6501745295886],[134.9942209340807,34.65008193361805],[134.9941979582071,34.6499195169356],[134.99419521530444,34.649896922075605],[134.99413319783991,34.64949681900214],[134.9940867040015,34.649444531278995],[134.99157613826912,34.64971848200647],[134.99134708527876,34.65000710884233],[134.98953097066544,34.650201118049154],[134.98810312353342,34.65037346234603],[134.9880812941422,34.650419177660936],[134.98824692525184,34.651530248833616],[134.9882670675114,34.65169165416643],[134.9882943571112,34.65188102182395],[134.98829663498384,34.65190016655496],[134.98830464743634,34.65195490793247],[134.98832398448374,34.65208603604033],[134.98834273188496,34.652217086174055],[134.9883647767789,34.65237345987147],[134.98837491435754,34.65244594044142],[134.9883827549908,34.65249962797147],[134.98841174017898,34.65269506260392],[134.9884241158821,34.65278577758562],[134.9884364806341,34.65287648360836],[134.98845723083858,34.6530304842553],[134.98846744195538,34.653108130032315],[134.988478629373,34.65319338827139],[134.98848979492624,34.653278637610576],[134.98850101476455,34.65336385059555],[134.98851223469816,34.653449072592736],[134.9885353459,34.65362025220593],[134.98854817011173,34.653713858577646],[134.98857332303444,34.653906023231904],[134.98859848684762,34.65409816978568],[134.9886298973901,34.654335484162665],[134.98865351268046,34.6545165865747],[134.98867426399033,34.65465121381481],[134.98869500446182,34.65478584110629],[134.9887012605642,34.65482527531879],[134.98870663289134,34.654859152002274],[134.98871027173456,34.65488208473121],[134.98882240724495,34.654863587098916],[134.98886019766056,34.65504368469763],[134.98902367662416,34.65502277426944],[134.98905500761305,34.65515281898668],[134.98972837250105,34.65522933053232],[134.98989845853916,34.655661641382004],[134.98999653632202,34.65580134210164],[134.99004502776498,34.655801080935184],[134.9901897589724,34.656093289988746],[134.99030627158353,34.65626294725706],[134.99049018059358,34.65652739487061],[134.99075705980047,34.65693413889756],[134.9909687902831,34.65726605749356],[134.99093253696952,34.65728127207356],[134.99104116040445,34.65742273605359],[134.99118496316538,34.657591118330195],[134.9912510627618,34.65766383752706],[134.9913564901976,34.65774175346322],[134.99167910544554,34.65794841240582],[134.99183643959623,34.6579637988385],[134.99185834372662,34.65783376491002],[134.99215410091907,34.65774962552247],[134.99224229734827,34.65771937227414],[134.9923206857736,34.65769188549777],[134.99243528999094,34.65768856151878],[134.99249099325147,34.65769096489696],[134.99254026856212,34.657709648090595],[134.99258316961752,34.65775001082087],[134.99264259588995,34.657809233773385],[134.9927085359309,34.657863003435565],[134.99277434745287,34.65790053768478],[134.99285147466134,34.65792042236372],[134.99296295638837,34.65793605535765],[134.99314982200596,34.65795669835562],[134.99338917189783,34.657987893015566],[134.99351700750924,34.65800073245766],[134.99361541951646,34.65801914012993],[134.99369926448622,34.658060641993565],[134.99376162106537,34.65807654031442],[134.99387965977016,34.658092136950216],[134.9940566750147,34.658110127410474],[134.99415168553784,34.6581123170117],[134.99421385978337,34.65810385747725],[134.99455867638412,34.658011323795904],[134.9949526480813,34.65812827511287],[134.9951596990029,34.65842350244339],[134.99527173073534,34.65850679713944],[134.99528842875506,34.65854730115793],[134.99530899170756,34.65866086902677],[134.99545969594274,34.65866545971659],[134.99557771426134,34.658678350302054],[134.9957024291295,34.658710153982724],[134.99588464613873,34.65876465142612],[134.9959634760253,34.65879128614258],[134.99609836552858,34.65886634231194],[134.99621288486998,34.658852179171625],[134.99632741515208,34.658838024879465],[134.99644701642012,34.65884414474232],[134.99655191115778,34.658854401248824],[134.99661099597486,34.65887031590041],[134.99673918940843,34.65892645819533],[134.99714007033887,34.65908666396085],[134.99719822741184,34.65898620839569],[134.9972225582755,34.65895765153377],[134.99727150088785,34.65893302642283],[134.99734012396917,34.65891371214362],[134.99739231782726,34.65888636476969],[134.99741828515704,34.65885644670177],[134.9974310744174,34.6588184868833],[134.9974307290161,34.65877518958991],[134.99744675882124,34.65873179408746],[134.99746945328351,34.65870190285039],[134.99750858772478,34.65868003557868],[134.99756081362796,34.65865809697449],[134.99762280428143,34.658627991621934],[134.99769776770444,34.658581579486246],[134.9977515220522,34.658544748662365],[134.99794404997644,34.65845438746919],[134.99812025622717,34.65837223750676],[134.99813638296533,34.65833966843258],[134.99818478586394,34.658160113639326],[134.99815337947481,34.658022562316745],[134.99828916041056,34.65748111852169],[134.99777057647617,34.65714568373707],[134.9973312348617,34.65677745122868],[134.9972493151582,34.656765384462396],[134.99715249725435,34.65677441278875],[134.9969573987336,34.6566623542244],[134.99668168952905,34.656505244087306],[134.99661806790016,34.65650165063631],[134.99652703734125,34.65644829902738],[134.99649905599995,34.656419810467646],[134.9963193461863,34.65651378683914],[134.99614621437397,34.656333670238276],[134.99617115211578,34.65616762203091],[134.99616438818413,34.65609363637593],[134.99614712040383,34.65601855389588],[134.9961335261555,34.65600064280602],[134.99610082887693,34.65596763621057],[134.99605536039482,34.65592416946495],[134.9960012896893,34.65588138952148],[134.99585736385248,34.65584644508383],[134.99579384369625,34.655821259645116],[134.9956991343988,34.655759245915284],[134.99565695137267,34.65569948903577],[134.99559956168045,34.655586409683146],[134.99545299240546,34.65559211888914],[134.99525080871038,34.65562427344215],[134.9951381579199,34.65562318109745],[134.9951180140254,34.65561435653469],[134.99509134267473,34.65517547817739],[134.9944990310327,34.655247250768525],[134.99439313145174,34.65526784735575],[134.99412712353475,34.65535318317634],[134.99395453885376,34.655006002813465],[134.995499788509,34.65480533013044],[134.99539499866563,34.654444035685174],[134.99547665702897,34.65442356086141],[134.99538414086572,34.654136348393266],[134.99529450470828,34.654156415714105]]]}}]}
