{"type":"FeatureCollection","features":[{"type":"Feature","properties":{"potaRef":"JP-1781","nameEn":"Onoyama Prefectural Park","nameJa":"","boundaryStatus":"全国都市公園GIS候補・公開前検証待ち","boundarySource":"国土交通省「都市計画決定GISデータ」都市公園・緑地を、POTA代表地点で空間照合して加工","boundaryScaleNote":"都市計画データは近似・未収録の可能性がある。POTA運用可否は公式情報で最終確認すること。","candidateMethod":"POTA representative point inside one MLIT urban-park polygon","sourceParkName":"奥武山公園(運)","sourceParkType":"公園","sourcePrefecture":"沖縄県","sourceCity":"那覇市"},"geometry":{"type":"Polygon","coordinates":[[[127.67112722785807,26.203950741380652],[127.67114274720944,26.20402546541258],[127.67117666649028,26.20409186282412],[127.67123686515217,26.20413232182303],[127.67213607940099,26.204420649982712],[127.67230350060775,26.204496004430013],[127.67282155691933,26.20477693098881],[127.6731488640185,26.205108635885118],[127.67342875558002,26.205382444694933],[127.67355065465998,26.205259441970632],[127.67360354278689,26.20529512454726],[127.67391961417617,26.20499929327334],[127.67393840475695,26.204849875859498],[127.674202557801,26.205036773449184],[127.67409890905236,26.205184849333175],[127.67414057455797,26.20521025466511],[127.67426254681891,26.20520423947434],[127.67444585086659,26.205393581520596],[127.67418477798685,26.205730690396567],[127.67431233230664,26.20597850393846],[127.6744500507746,26.20606300898862],[127.67433586146048,26.20612182208528],[127.67481759279744,26.20639439038398],[127.67501391879871,26.20618915146075],[127.67504471411111,26.20623903256304],[127.6750202383837,26.20626632348899],[127.67502378326256,26.20629475380809],[127.6752392546922,26.206445781737937],[127.67528029899375,26.20645683477053],[127.675483052684,26.206267655202055],[127.67556679361256,26.206390679476904],[127.67557252725166,26.206477240134358],[127.67564646324197,26.206534560735196],[127.67535762747353,26.206841646119493],[127.67467982405607,26.207483468717022],[127.67455355875505,26.207497703927338],[127.67448848038028,26.20747503519309],[127.67458694540575,26.207942958697135],[127.67483871252459,26.20787170169048],[127.67501002454043,26.207800812973673],[127.67506992987302,26.20784370794581],[127.67542682125072,26.20774072787867],[127.67574954864314,26.20761115942508],[127.67582009991172,26.207613059105707],[127.67591995123433,26.20753503515462],[127.67593310930222,26.207434550043416],[127.6759105525436,26.207407045693415],[127.67604062369625,26.207262095615423],[127.67633933916977,26.206937574915518],[127.67639241033466,26.206894451684644],[127.6764205578459,26.20691328331162],[127.6764687938351,26.206915390583912],[127.67651058940362,26.2068935845484],[127.67652745499034,26.206863143309455],[127.67655078713896,26.206873946910065],[127.67660539912448,26.20685727042771],[127.67664761446458,26.206782115056455],[127.67674084098469,26.20662520385396],[127.67685801866466,26.206425385521623],[127.67701614898888,26.206110063063118],[127.67705017932182,26.206048819016903],[127.67707341097694,26.205993275183697],[127.6770873836309,26.205968975707695],[127.67709611372841,26.205918865844794],[127.67707752566614,26.20586887988534],[127.67721223615017,26.205617767053386],[127.67800136733094,26.20594880078836],[127.6778608341737,26.20625254817663],[127.67774210625615,26.206616387402242],[127.67739009207261,26.207226677062696],[127.67780166537904,26.20656287473769],[127.67811794242871,26.20594667055868],[127.6785062378662,26.205181974575545],[127.67867437478124,26.2048050746025],[127.67878917165041,26.204556693070884],[127.67874249217225,26.20459033103783],[127.6786689572165,26.204664803797215],[127.67860893466117,26.20474160672573],[127.67856019883877,26.20480485531489],[127.67853264187288,26.204845059086466],[127.67851699165784,26.204884525925756],[127.67851214844183,26.2049238890823],[127.67850668956285,26.20501885851025],[127.67805166476542,26.205859101741616],[127.67728198183833,26.205484986146985],[127.67740353658141,26.205269455200998],[127.67743744888683,26.205196656812024],[127.6775114891185,26.2050587251756],[127.6775232698334,26.205040837436602],[127.67757486400814,26.204750559924825],[127.6775938110328,26.20464140168841],[127.6776023293177,26.204583799747102],[127.67762800008674,26.20455334749912],[127.67773647902678,26.204492282127386],[127.67781776231946,26.204445964093736],[127.67788582718805,26.20432744740948],[127.67788195273165,26.204214255260993],[127.67783802485235,26.204149045314416],[127.67781380991828,26.20408381098544],[127.67782499389229,26.204002555333407],[127.67781934621082,26.20397358606408],[127.67786245641592,26.20396170756323],[127.67790706814124,26.20395018826709],[127.67797845317224,26.20390956931119],[127.67806679514582,26.203833363462014],[127.67822836839714,26.203286315562973],[127.6782041433955,26.2032144916891],[127.67812367563091,26.203138494839983],[127.67814207494357,26.203064451715115],[127.67814981560079,26.202956390485767],[127.67819330284493,26.202929526813158],[127.67826861977501,26.202908671686465],[127.67833108076084,26.202922224837213],[127.6783871224206,26.20286014074468],[127.67839568256211,26.2028303414546],[127.67845302169681,26.20270046392568],[127.67847197680308,26.202597353540632],[127.67847050338601,26.202484158403696],[127.67843139366443,26.202362976040497],[127.67843136449441,26.20234383910918],[127.67840784455453,26.202274993252956],[127.67840358353949,26.202236724602223],[127.67839612928844,26.20220423710932],[127.6783213717848,26.20213220509949],[127.67817165289965,26.20205123904756],[127.67825896384255,26.201890362283955],[127.6783380712691,26.201730759397645],[127.67654356217639,26.201287677363382],[127.67570485505374,26.201103111737037],[127.67486157225004,26.20073403745423],[127.67483887354003,26.200744445950413],[127.67456727725416,26.201255402179726],[127.67447988130539,26.20137089556223],[127.6742408751169,26.20160290511741],[127.6732186207918,26.202275648862834],[127.67296098515146,26.20243104056027],[127.67275886462721,26.202505123274843],[127.67204421767542,26.20278590314007],[127.67179516965768,26.20293090157325],[127.67158236648329,26.20315917437746],[127.67127932642856,26.20360808082861],[127.67113325081348,26.20389530922291],[127.67112722785807,26.203950741380652]]]}}]}
