{"type":"FeatureCollection","features":[{"type":"Feature","properties":{"potaRef":"JP-2053","nameEn":"Aomori Prefectural Sport Prefectural Park","nameJa":"","boundaryStatus":"全国都市公園GIS候補・公開前検証待ち","boundarySource":"国土交通省「都市計画決定GISデータ」都市公園・緑地を、POTA代表地点で空間照合して加工","boundaryScaleNote":"都市計画データは近似・未収録の可能性がある。POTA運用可否は公式情報で最終確認すること。","candidateMethod":"POTA representative point inside one MLIT urban-park polygon","sourceParkName":"青森県総合運動公園","sourceParkType":"公園","sourcePrefecture":"青森県","sourceCity":"青森市"},"geometry":{"type":"Polygon","coordinates":[[[140.7092270513466,40.808239743794026],[140.70975542217366,40.80824972900571],[140.70987201404387,40.8082328951276],[140.71004398530854,40.80821991865297],[140.7100721282977,40.80819891088759],[140.71015554997007,40.80823635895782],[140.7102009981089,40.80824646792625],[140.7103943168731,40.8083135113312],[140.71047037411637,40.80831485736465],[140.7105720896709,40.80829927367975],[140.7105410460319,40.808267439030125],[140.71037497107613,40.80810818392236],[140.71025160336762,40.80797064384845],[140.71020186218126,40.807909731291865],[140.71007030384763,40.807676142554406],[140.7099759389783,40.80737863649325],[140.7099540954418,40.807241765519905],[140.70994825334256,40.807108499655726],[140.70994615904712,40.807020408130896],[140.70994796598376,40.80693830120955],[140.7099533963341,40.80684339277713],[140.70995200266276,40.80680835258645],[140.70994609248126,40.80673700246255],[140.7099316528958,40.806646224318904],[140.70992018740353,40.80659337274024],[140.70990109575519,40.80652714495246],[140.7098254070956,40.8063715018347],[140.70981376259996,40.80635291483476],[140.70974833021282,40.8062719332374],[140.70968615222458,40.80620875582867],[140.70951464505828,40.80606173601513],[140.70866335547976,40.805446811886846],[140.70778276204797,40.8048022278506],[140.70721329856386,40.80438656880516],[140.70710372875567,40.80429843177233],[140.7070080934483,40.80425379147393],[140.70693467263504,40.80422577977571],[140.7068365059065,40.80419781166677],[140.7067008562703,40.80416656644528],[140.70659144895592,40.804139711718925],[140.70647528034323,40.80411390495027],[140.70639358758805,40.804102418294434],[140.70630137230268,40.80409781534063],[140.70621514961687,40.80410081757878],[140.70613939633722,40.804112696344234],[140.70608089478972,40.80412747852068],[140.70598486328905,40.80415755810199],[140.70594267876882,40.80417981599193],[140.7058835439772,40.804210990999636],[140.7057551794891,40.80429858876524],[140.7056448037235,40.80437881831502],[140.70556593641274,40.8044573231653],[140.70554280818612,40.80448290856139],[140.705094576802,40.804212873671766],[140.70500227431552,40.804265682427875],[140.70479982597968,40.8043748684276],[140.7047004018777,40.80417071851341],[140.70467140762852,40.80397269678444],[140.70451301578916,40.80398356898666],[140.70432019337878,40.80403485939082],[140.70398466541982,40.80415487323396],[140.70362854788254,40.804279647675244],[140.70293341694114,40.803704114042255],[140.70291410341457,40.803719923272006],[140.70289089476307,40.80373889430707],[140.7028425946015,40.803786754861775],[140.70279222844718,40.80384938844954],[140.7027208670768,40.80394724837433],[140.70266711528876,40.804030563625375],[140.70258565903646,40.80415296742594],[140.70247730465704,40.80432811022648],[140.70240506240086,40.804443840093114],[140.7023202262808,40.80457763803352],[140.7022227975166,40.8047347105713],[140.70211030190518,40.80488409701276],[140.70204986901877,40.80495621739683],[140.7020003717864,40.805005835195004],[140.70195171793762,40.80505031772325],[140.70190391869133,40.80508396593114],[140.70184608897097,40.80510937086792],[140.7014212594312,40.805261923213365],[140.70111375026002,40.80536619972411],[140.70085480985364,40.8054689825031],[140.70053640109006,40.8055821806705],[140.70003111360148,40.805762357812775],[140.6997587936145,40.805857453726354],[140.6993926061882,40.80599127959245],[140.69931866859358,40.80602538927668],[140.69925023565287,40.80607343625756],[140.6991868175309,40.80612571047277],[140.6991364618406,40.80618060291135],[140.6990991729928,40.806230163055616],[140.6990699053001,40.80629127123042],[140.6990487142961,40.806336276512475],[140.69903654541116,40.80639008699355],[140.69894722717228,40.8068317670391],[140.69892181840112,40.80697104817069],[140.69888929974758,40.807152043856696],[140.69886295362303,40.80725656666578],[140.69882155836478,40.80735044798701],[140.6987761725731,40.807431378690026],[140.69870161980796,40.807522899967324],[140.69862813990227,40.80758163525562],[140.6985456053415,40.80764183759173],[140.69839768258453,40.80773714379784],[140.69826887577227,40.80782367704724],[140.6980917627154,40.8079349205561],[140.6980789346195,40.80794215266674],[140.69823486037794,40.80792516539828],[140.69836291912475,40.80791117118038],[140.69855216472578,40.807890563282214],[140.69878531219032,40.80786508048246],[140.6989005427441,40.807852548437005],[140.6993347100468,40.80782215925214],[140.69967552494998,40.807826630075006],[140.70007820710364,40.80786634977876],[140.70064381468734,40.807995538313094],[140.70159219494525,40.80824933911283],[140.70181401726353,40.80830869012777],[140.70205437765478,40.808382625797734],[140.70222210981774,40.80844240782709],[140.70231033571451,40.80847733428878],[140.70239621238036,40.80851795711594],[140.70253350670583,40.80858755485256],[140.70262470005682,40.808638244765106],[140.7027115224588,40.8086926587417],[140.7027903563901,40.80874206826491],[140.70283911102223,40.808777442781576],[140.7029308740768,40.80884487848528],[140.70306876397436,40.808965838180406],[140.7031404915393,40.80903296997112],[140.70320943669373,40.80910242046317],[140.70326769793203,40.8091660192551],[140.703333379036,40.80924742704009],[140.70339724986118,40.809176505992774],[140.70348079858533,40.80909948553988],[140.70354390065995,40.8090487565265],[140.7037943150713,40.80872749439313],[140.7038033264136,40.80870055694951],[140.70383736803694,40.80862925080952],[140.7038736387982,40.80856040968271],[140.7038983570246,40.80851575919136],[140.70392723638267,40.80846217772806],[140.70393884482502,40.80841505016549],[140.7039388885685,40.808392465035595],[140.70393478233837,40.80836706096298],[140.70391730514496,40.80830674412901],[140.70390970603015,40.80826796801709],[140.7039079189786,40.808198592251024],[140.70391119530353,40.80816243144558],[140.70393980476683,40.80808675700711],[140.70399401412283,40.808001119911175],[140.70404276665477,40.80792997067306],[140.70406232567984,40.8079074071045],[140.7040943854497,40.80786698620117],[140.70412609359656,40.80784077738155],[140.7041465983196,40.80782595431222],[140.70417285290475,40.807812615121776],[140.70423558268143,40.807785947999854],[140.70434026396248,40.807739204475794],[140.70441036039543,40.80770987174215],[140.70453136098433,40.80765167753114],[140.70461939317985,40.80761300668448],[140.70471221605084,40.80757497426431],[140.70478295324205,40.80754332016133],[140.7048271260813,40.80752366820551],[140.70488507303085,40.80749798049265],[140.7049186864386,40.80747993516286],[140.70495870666807,40.80745880106268],[140.70499013788339,40.80744391946523],[140.7050208044698,40.80742938881476],[140.70505568140123,40.80742239116711],[140.70511390490913,40.80741534873234],[140.70516284012044,40.80741104009029],[140.70521594685536,40.807404343793735],[140.70525178203704,40.80739861359453],[140.7053372135522,40.80737577008129],[140.70542009881788,40.80735278300317],[140.7054873051248,40.807327175460436],[140.7055676391106,40.80730059718613],[140.70563739285257,40.80728048032553],[140.70567514814329,40.807275385317894],[140.70572362575254,40.8072742420851],[140.70578697887788,40.80727213002026],[140.70582172402982,40.807267383478205],[140.70582797617524,40.80726647562463],[140.7058678420622,40.80725322122583],[140.70588791920107,40.8072438150034],[140.70592865448424,40.80722380707971],[140.70596596279694,40.80720421756505],[140.70602046700265,40.80717472614522],[140.7060321437869,40.80716981372603],[140.7060853026252,40.80714777885035],[140.7061059525452,40.80714146900146],[140.7061369225686,40.80713151170375],[140.70616902951087,40.807126269676495],[140.70619769772,40.80712763763804],[140.70624353387345,40.80713985949964],[140.70632943850262,40.8071782983243],[140.706373541311,40.807201212801345],[140.70642277381103,40.80723524952446],[140.7064731439795,40.80727364970971],[140.7065303839884,40.80732113360977],[140.70657158158463,40.807356287307876],[140.70662194948207,40.807402075108236],[140.70665740161024,40.807445665620186],[140.70669798774622,40.80750424811457],[140.70672541362958,40.80755655442114],[140.70674708347974,40.807616734688786],[140.70676816408826,40.807682472665306],[140.70680347363947,40.8078075385427],[140.7068250950041,40.80788727850643],[140.7068512897895,40.80798468348258],[140.7068689295201,40.808052176692435],[140.7068871368411,40.80812558065678],[140.70689908566882,40.80817266364333],[140.70692587462895,40.80824980589159],[140.70695725039866,40.80833145605375],[140.70696868566455,40.80835025421717],[140.7069824046735,40.8083672255149],[140.7070047205818,40.808392086283746],[140.7070276119337,40.808412585420285],[140.707047652525,40.8084225980062],[140.7070677086889,40.808430499839766],[140.70709005191944,40.808434815835284],[140.70717948444593,40.808432801511096],[140.70728612952092,40.808424403001275],[140.7075068643117,40.80840655830602],[140.70768402206647,40.80839323973697],[140.70790074343424,40.80837363100437],[140.7080647178967,40.80835987556555],[140.70827743080758,40.80834202080377],[140.70850849076223,40.808323763062376],[140.7087297876241,40.80830830881919],[140.70890501094985,40.808295478820845],[140.70915852400978,40.808322272692976],[140.70918065245755,40.808280362190914],[140.70921961049996,40.80824494248853],[140.7092270513466,40.808239743794026]]]}}]}
