{"type":"FeatureCollection","features":[{"type":"Feature","properties":{"potaRef":"JP-2048","nameEn":"Koutougawa Prefectural Park","nameJa":"","boundaryStatus":"全国都市公園GIS候補・公開前検証待ち","boundarySource":"国土交通省「都市計画決定GISデータ」都市公園・緑地を、POTA代表地点で空間照合して加工","boundaryScaleNote":"都市計画データは近似・未収録の可能性がある。POTA運用可否は公式情報で最終確認すること。","candidateMethod":"POTA representative point inside one MLIT urban-park polygon","sourceParkName":"香東川緑地","sourceParkType":"緑地","sourcePrefecture":"香川県","sourceCity":"高松市"},"geometry":{"type":"Polygon","coordinates":[[[134.00636447893916,34.30689796221147],[134.00640360086473,34.30731585539229],[134.00645043236133,34.30771487398536],[134.00650765449927,34.3082158163603],[134.0065326305215,34.30843082604467],[134.00660786139073,34.30890906460855],[134.00673017947224,34.309593205592975],[134.00679919691527,34.30997725632409],[134.00678927209026,34.31004329178722],[134.00689955371078,34.31065851270922],[134.00691343552242,34.31072661340653],[134.00690978675357,34.310788385553984],[134.00710665190115,34.31183518650817],[134.0071642925863,34.31213354538027],[134.0071859258972,34.31224389721506],[134.00721430124636,34.3123732440946],[134.00724536362904,34.31249771139979],[134.0072929354768,34.312711545315054],[134.00732245423714,34.312832232423496],[134.0073850095475,34.313188721553615],[134.00744401404972,34.31349672128673],[134.00746753994395,34.31357839552227],[134.00751050698082,34.31369487966216],[134.00765492136065,34.314148488271954],[134.00766885323696,34.314224702691675],[134.00767110626404,34.31429213020533],[134.00766651046015,34.314358955011045],[134.00765266168935,34.314458995653396],[134.00760798797523,34.31470891351267],[134.0075968315047,34.31480497611281],[134.00758751570635,34.31488191796619],[134.0075667890281,34.31506682408548],[134.00756387185623,34.315123724740694],[134.007566667426,34.315209091083425],[134.00760206382247,34.31560202544189],[134.00766655133665,34.31620670624227],[134.0077288666173,34.31661287203512],[134.00776103494889,34.31719127088901],[134.0077506072747,34.31744447265357],[134.00773490106369,34.317813546964196],[134.00771837262846,34.31820849947796],[134.0076975532577,34.31870291199009],[134.00764579799105,34.319058341750384],[134.0076045194735,34.319258929949484],[134.0075845737758,34.319339071269034],[134.00754406040826,34.31946825260383],[134.00750953463782,34.31958127116315],[134.00747701957417,34.31975757099014],[134.00746863321862,34.31984460641217],[134.00747054433202,34.320089913341],[134.00746773088213,34.32020018594992],[134.00747067553604,34.32027419193385],[134.00748279776565,34.32039260686208],[134.00755798629734,34.32087904821975],[134.00758956605165,34.321070769569964],[134.00762742120605,34.32123992586642],[134.0076667775017,34.321441802592894],[134.00771643039803,34.32171143401],[134.0077198004374,34.3217297217297],[134.00776749465396,34.32196275785284],[134.0078030339459,34.32212615367769],[134.00783256342243,34.322247922288305],[134.007864171679,34.322372026327436],[134.00789664878252,34.322496036596235],[134.0079354022811,34.322633724549796],[134.00797946784576,34.32278734808305],[134.00801428044576,34.322902152702504],[134.00804354864022,34.32299849831083],[134.0081255330666,34.32324130915897],[134.0081881161576,34.32347428327777],[134.00824249482582,34.32364409199111],[134.0082879855416,34.323799602746305],[134.00840595062772,34.3241702856534],[134.00844163815177,34.32430383895018],[134.0084468307376,34.32431797189539],[134.00853806066357,34.324561825892246],[134.0085912291352,34.32472893475737],[134.00860030034383,34.3247915555481],[134.00860206757474,34.32492236465076],[134.00860140055818,34.325190040751664],[134.00860981577125,34.325450106014564],[134.00861695218285,34.325498219707534],[134.00862895680348,34.325542706939345],[134.00864891362596,34.32559040675949],[134.00868433326724,34.32566139276643],[134.0087168309563,34.32573437433251],[134.00874900426047,34.3258616311749],[134.00883378956559,34.32604555788339],[134.0090290341252,34.32625589195431],[134.00950132498284,34.326743565382635],[134.00961231961398,34.326840472063104],[134.00977219061474,34.32702300373133],[134.00985089672312,34.32713555142275],[134.0099596836692,34.327352374470834],[134.01016214580696,34.32785649504173],[134.0102183462112,34.32811068115479],[134.01027153081927,34.328243619975844],[134.01034556912055,34.328410550834896],[134.01049243978784,34.328724583109526],[134.01068056168572,34.32915663766955],[134.0107967524421,34.329410843737286],[134.01082239673494,34.32946419926668],[134.01085618488793,34.329534379985766],[134.01089679758866,34.3296188670237],[134.01095084796657,34.32971501825744],[134.0109888159214,34.329757593768015],[134.01106366526676,34.32993236432399],[134.0111444880377,34.33010647880325],[134.01118968535016,34.33021213324979],[134.01124931895026,34.330350724492405],[134.01125198231122,34.33035981912575],[134.01130473405829,34.33047463789347],[134.01144361488082,34.330778154000264],[134.01158593320338,34.33107489387279],[134.01172346489625,34.33137066184764],[134.01202496341762,34.3319839946409],[134.01213896646928,34.33221666115943],[134.01222940254522,34.33239821757372],[134.01230581880577,34.33252600947921],[134.01232964017885,34.33256521780259],[134.01247793404227,34.33287852021173],[134.01250033557355,34.33293441328622],[134.0125298012432,34.33304391956173],[134.01258116116563,34.333465363805075],[134.01261615736522,34.333608565209246],[134.01265066430497,34.3337070513172],[134.01277660914673,34.33402621683068],[134.01288921027316,34.33429558187179],[134.01290034907043,34.33432222136303],[134.01308178608224,34.3346874942058],[134.0131180131197,34.334800578206995],[134.0131513657981,34.33492350123215],[134.01322018453502,34.335123719511145],[134.0132755272849,34.335252590772],[134.01343269061877,34.33555756032938],[134.01351543113262,34.33572364112116],[134.01375806457065,34.33619630230451],[134.01390167784714,34.336613391781746],[134.01392825776486,34.33671254182769],[134.01394003724508,34.336790657516346],[134.0139348282763,34.33723740163451],[134.013938662791,34.33733150824757],[134.01394587337467,34.33740892185702],[134.0139651505264,34.33750458645406],[134.0139981705042,34.337608217229196],[134.01402640803477,34.3377117779139],[134.0140900123542,34.338000730827765],[134.0141240319342,34.338285931214806],[134.01411001030854,34.338410405137395],[134.0140930682056,34.338554996068],[134.01406207903463,34.338695228331815],[134.01404667945616,34.33877201559216],[134.0140319198468,34.33884681673494],[134.01402420755153,34.338918793460316],[134.01403118097844,34.33897511157643],[134.01404068305268,34.339018346481595],[134.01405158843875,34.33904219199227],[134.01407680196203,34.3390953682294],[134.01419031621612,34.339298824062446],[134.01420211040696,34.33932582127949],[134.0142261467516,34.33938197756804],[134.01425827606252,34.3394641548926],[134.0142825207751,34.33953662849585],[134.01432094039072,34.339634376336846],[134.0143517874084,34.339702314400476],[134.01437939016958,34.33975511990797],[134.01441691459158,34.339813022606975],[134.014488375038,34.339910721728515],[134.0145461036511,34.33998449706742],[134.0145802576324,34.340024382715484],[134.01469927561354,34.34014983013409],[134.01471490562253,34.34016418935999],[134.01474419721657,34.34019093265305],[134.01480114082625,34.340242893462396],[134.014903297606,34.340330275661934],[134.01501252064944,34.34043565921216],[134.01511172464677,34.34051998835557],[134.01520807987524,34.34060054286003],[134.01531506267145,34.34069493655186],[134.0155314984063,34.34087875467859],[134.0156517576182,34.34102898875629],[134.01577924903066,34.34118874875816],[134.01588179489758,34.341321566991944],[134.01607815238404,34.34158065863127],[134.01614497079717,34.341665213563886],[134.01633622311527,34.34190683606832],[134.01647418869726,34.342072681732674],[134.01661522128546,34.34224230083584],[134.0167397428101,34.342413431944976],[134.01674675852743,34.342423139158036],[134.01675377369335,34.342432756217235],[134.0167607888609,34.34244237327601],[134.01676780458308,34.342452080487774],[134.01677492899435,34.342461787240374],[134.01678205451333,34.34247167429939],[134.01678939851507,34.34248174074731],[134.01679685175912,34.34249189688943],[134.0168044153517,34.342502323032576],[134.0168119794992,34.34251283932865],[134.01681976157678,34.3425234448601],[134.01682765400312,34.3425343203925],[134.01683565567217,34.342545285619],[134.01684376769026,34.34255652084642],[134.01684990563416,34.34256487942213],[134.0168519889512,34.342567845767874],[134.0168601037393,34.34257953176124],[134.01686843756428,34.34259148729665],[134.01687699097954,34.34260380252749],[134.01688576343207,34.342616387300296],[134.01689475492208,34.34262924161501],[134.0169039660029,34.34264245562498],[134.0169133961216,34.34265593917676],[134.01692304638476,34.34266987257712],[134.01693302437397,34.3426840750603],[134.01694311326716,34.342698637697396],[134.01695352988693,34.34271346941717],[134.01696416665214,34.342728750985295],[134.016975570875,34.34274511118104],[134.0169914705859,34.34276785345236],[134.01700759100092,34.34279113572408],[134.0170273291112,34.3428194514392],[134.01704618943123,34.342846418521475],[134.01706071354243,34.34285753650024],[134.01710121717903,34.34288675622157],[134.01711534639813,34.342904367075555],[134.01713385745722,34.34292754907728],[134.0171522587316,34.34295055122827],[134.01716978331618,34.34297238505468],[134.0171869857199,34.34299485132961],[134.01720353046886,34.343016418822565],[134.017215583032,34.343032145165814],[134.0172361780434,34.343058383643545],[134.0172520623847,34.34307860158323],[134.01725852647235,34.34308695875955],[134.0172584963909,34.343099761002776],[134.01725814097452,34.34314808598474],[134.01727108798497,34.343167865551926],[134.0172838154104,34.34318728542239],[134.0172973075358,34.34320733315082],[134.01731058007633,34.34322702118248],[134.01732385262306,34.34324670921255],[134.0173370164876,34.34326639770032],[134.01734985041713,34.34328545649046],[134.01735028904682,34.3432860857273],[134.0173632361004,34.3433058652839],[134.01737618371382,34.34332573499244],[134.01738913077966,34.34334551454608],[134.0173987872925,34.34336043959338],[134.01740207785164,34.34336529409823],[134.01741546079174,34.34338525211846],[134.01742895242683,34.34340520967777],[134.01744233593348,34.34342525784821],[134.01745593737772,34.34344539525178],[134.01746932089728,34.34346544341902],[134.01748281255817,34.3434854009719],[134.01748522641736,34.343489087155106],[134.0174960862941,34.34350526928854],[134.01750935948252,34.343525047450235],[134.01752263323104,34.343544915763765],[134.01753590587813,34.34356460376893],[134.01754906984257,34.34358429223198],[134.01756234250215,34.34360398023403],[134.01756684029047,34.34361072290153],[134.01757507283114,34.343623850838604],[134.01758769503115,34.34364381205461],[134.01760020910214,34.34366386388206],[134.0176056967307,34.34367249563401],[134.0176134828943,34.343683732184886],[134.01762718978694,34.343703328187964],[134.01764078744293,34.343722834495516],[134.01764320020794,34.34372634036855],[134.01765460192945,34.343742249728976],[134.01766841586834,34.34376157480738],[134.01767345933538,34.3437686757865],[134.0176838562723,34.34378026191705],[134.01770005362883,34.34379831473396],[134.0177162515464,34.343816457701976],[134.01773244891686,34.34383451051434],[134.01773474801288,34.343837205464524],[134.0177440951996,34.343854836462846],[134.01775498232556,34.34387543608761],[134.01776587001103,34.34389612586468],[134.01777070886098,34.34390530128672],[134.0177784917435,34.34391599690595],[134.01779263125349,34.343935230436955],[134.01779931838158,34.34394448819706],[134.0178055785121,34.34395500994286],[134.01781755034338,34.34397524435126],[134.01782952218048,34.343995478758394],[134.01784149402334,34.34401571316424],[134.01784489886552,34.344021468730375],[134.0179255655069,34.344147976637764],[134.01802044023324,34.344287136333136],[134.01808546493993,34.34437981175386],[134.01809807019544,34.34437930763595],[134.0181189347738,34.344378588254315],[134.01819022092477,34.34437594252074],[134.01911802732798,34.34434153960248],[134.01905929608205,34.344247305407364],[134.01903402970123,34.34420395746136],[134.01896915649073,34.3441007336844],[134.01889374652154,34.34398087571695],[134.0187451221097,34.34374457624827],[134.01867354664412,34.34368249171323],[134.01862377521485,34.34364871383504],[134.01855720293779,34.343587148971906],[134.01849339340808,34.34351529461822],[134.01845736951392,34.34345468219908],[134.01843436777747,34.343390678867785],[134.01840391724474,34.34321130772384],[134.0183151140704,34.34273394839738],[134.01828093052185,34.3426367248918],[134.01822859680564,34.34255733887996],[134.01810881603186,34.34239763902499],[134.01773664846283,34.34195348323058],[134.01758427582794,34.34177823354409],[134.01749542550147,34.34166375065517],[134.01732552034895,34.341447463701364],[134.0171696930823,34.34118721117582],[134.0170285453023,34.341016421140445],[134.01681268400623,34.34078509115948],[134.01656529156304,34.3405162086923],[134.0164381474967,34.340377724795644],[134.01629097258441,34.34021615518567],[134.01622737043547,34.34019514658414],[134.01618340983333,34.34016909657956],[134.01606645297937,34.340043371460496],[134.0154771258417,34.33938194653513],[134.01535298343788,34.33914725257838],[134.0150952491987,34.33867853509257],[134.0150017851228,34.33841269807974],[134.01486120614862,34.337888852788325],[134.01483369518309,34.337726507642984],[134.01482213528334,34.33754218755333],[134.014822352694,34.337417681420966],[134.014767070211,34.336836769244],[134.0147687683188,34.33677671830751],[134.01482946796744,34.33655440924599],[134.01495438660817,34.336241223457954],[134.01504912646465,34.33598721656269],[134.01512640946754,34.335704433147875],[134.0151554088955,34.3354347451027],[134.01516200403546,34.335183795532764],[134.01514192853216,34.33502522368035],[134.01510718523826,34.334853081953575],[134.0150721439237,34.33472106083235],[134.0150122667034,34.33454415636906],[134.01498769834163,34.33448971538587],[134.0149190581457,34.33433709965571],[134.01483790549793,34.33418210228045],[134.01465283247026,34.3338809481654],[134.0146130445638,34.33380790879255],[134.01457820110693,34.333743683906114],[134.0143879467822,34.33332336502699],[134.014279334602,34.333049296478784],[134.01402132730445,34.332478250328016],[134.01394233073108,34.33231981732041],[134.01369907600102,34.33185049453156],[134.01345280815138,34.33140345236111],[134.0132981281432,34.33114805794654],[134.01296486546954,34.3304949222071],[134.01267401659098,34.3299710718758],[134.01239896255154,34.32952423806032],[134.01223415348343,34.32924616526696],[134.01214224770055,34.329215626156945],[134.01211813149823,34.329181377582536],[134.01213233767592,34.32908701502009],[134.01188777637623,34.32866773032962],[134.01150375242645,34.327776429954504],[134.01140080535242,34.3275377661749],[134.01124294715513,34.327168244701696],[134.011225463881,34.32699116112039],[134.01123119794073,34.32689737492807],[134.01105228930263,34.326156317899745],[134.01064175161525,34.32481335305132],[134.01051161504842,34.324623756481806],[134.01016115301124,34.32372428735729],[134.01010568206158,34.323572154656205],[134.00971106132164,34.32216123215818],[134.00968713253334,34.321995714997826],[134.00953932782076,34.32156060558511],[134.00940411887788,34.32112373060164],[134.00942072486464,34.32085075898259],[134.00926816413488,34.32040124394797],[134.0091951686491,34.32011755565971],[134.0092766711955,34.31959692576803],[134.00938019428926,34.319322059991016],[134.00940272344647,34.31922018001302],[134.00942836740518,34.31913027784047],[134.009468148208,34.319042210136956],[134.00959824059086,34.31843527870797],[134.0096244520057,34.31768425904703],[134.00956955246593,34.317068450397606],[134.0094478128598,34.316683629341256],[134.00935999036543,34.31642722980309],[134.00932198017867,34.31625059159799],[134.00931020130758,34.316153362056994],[134.0093136524724,34.31605913449459],[134.00937647919596,34.315685265993956],[134.0094306660139,34.315536012452355],[134.00946772607537,34.31533958827756],[134.00948592432002,34.31516848627972],[134.00948335496483,34.31501297752648],[134.00953463602394,34.314742566077456],[134.00956061534012,34.31461849322284],[134.0095844625901,34.314447277534974],[134.009585086592,34.31420890192469],[134.00959347875198,34.314141249852504],[134.0096341113611,34.31406868536051],[134.00968917321606,34.31399254472054],[134.00969332169004,34.313851973921146],[134.00967515901456,34.31363333051771],[134.00963701548167,34.313434514451984],[134.0096307972122,34.313358448473316],[134.0096185574767,34.3131489763343],[134.00959470689145,34.31303187246938],[134.0095679201608,34.31295030236611],[134.0095424585538,34.31290821517175],[134.00937660555965,34.312630141923684],[134.0091451540422,34.312284363315136],[134.00903505687938,34.311990821390594],[134.00897068044088,34.3118556742217],[134.0087965657957,34.31154021960508],[134.00876534492906,34.311479854438446],[134.00869817407983,34.31129558355776],[134.00856403499566,34.310708231569464],[134.00841888956586,34.31000696751906],[134.00842101913273,34.309819523776774],[134.00837947064556,34.30966787304224],[134.0082439442106,34.30861504933101],[134.00817566942249,34.30821089141844],[134.00810856959484,34.30789345893519],[134.0080443262626,34.307671399929774],[134.00796826567796,34.30745344691908],[134.0079345957536,34.307310778927224],[134.00792589448602,34.30720091445226],[134.0079302095836,34.30710560132822],[134.0080255089468,34.306837982796374],[134.0082667363795,34.30644741665411],[134.00830853875888,34.30638909237034],[134.00849368206656,34.30592284683541],[134.00856787788754,34.30570535221153],[134.00865191134346,34.305515855311626],[134.0086786695127,34.30543108739741],[134.0087160802121,34.30532923569072],[134.00875435732075,34.305244960860456],[134.00899455616016,34.304649201638405],[134.0090540613642,34.30451813751279],[134.00922645538654,34.30419087469593],[134.00938433563195,34.30394309973083],[134.00978370903115,34.30336948647181],[134.01016231954048,34.30283057839767],[134.01042121373928,34.30245462977854],[134.01049660697498,34.302364519877656],[134.01125875233132,34.30120670877118],[134.0113094672909,34.30113193777804],[134.01165879962525,34.30058719684929],[134.01169832423838,34.30053032339401],[134.01171692608995,34.300516541923535],[134.01180762967203,34.30037200294147],[134.0118431574268,34.30030099158098],[134.012041990295,34.300037264630184],[134.01209422443006,34.29998033792341],[134.01209875038825,34.299938486432694],[134.0120947011792,34.29991569378787],[134.01208416629433,34.29989824748054],[134.01206474268616,34.29988399379958],[134.01207451639436,34.29984761991545],[134.01210983965177,34.299707188894],[134.01215493886554,34.2995844778048],[134.01229232440383,34.299256184831435],[134.01233348536238,34.29918271554107],[134.0123618327076,34.29914590333037],[134.01241822825622,34.29907669780459],[134.01259506435503,34.29889447317416],[134.01262254243957,34.29885766453944],[134.01269419816583,34.2987791089207],[134.01272041094208,34.29874861650824],[134.01286014994986,34.29862938576483],[134.01291559063307,34.298564060731294],[134.01303179799933,34.29832673323614],[134.01333823918162,34.29769949353381],[134.01352030660064,34.29734234214746],[134.01363744440596,34.297115648607054],[134.01387303453225,34.29671788218676],[134.01396155609746,34.296555229265124],[134.0140194469014,34.29648232030091],[134.0142119224611,34.29621185467978],[134.01431199820775,34.296073675557665],[134.01432342263328,34.296058841940706],[134.0144523575421,34.295843457781714],[134.01451187458625,34.2957167183489],[134.0146010143159,34.295548923435874],[134.0147150163408,34.29536109943023],[134.0147581690424,34.29527644152964],[134.014893623351,34.29500828796809],[134.0150165754675,34.29473865414381],[134.0150372547298,34.29469177600916],[134.01530452507717,34.294111847647464],[134.0154505577941,34.2937621474892],[134.01553369518766,34.293501515939774],[134.01555328458497,34.293418579704245],[134.0155748206244,34.29329867111451],[134.01556948991123,34.293279580371475],[134.01559922433816,34.29318587281355],[134.01576434086311,34.29256436026414],[134.0161449100136,34.29111637687185],[134.01618588344041,34.29099566500203],[134.01620983689108,34.29088052437203],[134.0162262276291,34.29084313051736],[134.01629530639983,34.29052251334148],[134.01645467764502,34.28995782246609],[134.01656834301255,34.289539377630774],[134.0167329309692,34.288975746206674],[134.01680730386573,34.28873976333148],[134.01682382990862,34.288671354964826],[134.01683165182405,34.28863607076247],[134.01679452407555,34.288603951319196],[134.0166331006236,34.28861959803994],[134.0146076773686,34.28880275456681],[134.01456905944582,34.288828971996296],[134.0146408250943,34.289072994848794],[134.0146251619185,34.28924760371692],[134.0146077431974,34.28956187244032],[134.01459947218956,34.289844367624795],[134.01458301974418,34.29004990347401],[134.01456079636623,34.29018189581773],[134.01452621916997,34.290354330160056],[134.01450145943937,34.29048011233758],[134.01447972508012,34.29060326726518],[134.01444958692122,34.29073772703819],[134.0144481383889,34.29076739461778],[134.0144425045657,34.29078761333452],[134.01443176390777,34.2908075830229],[134.0143858912565,34.29098033520458],[134.01436073456827,34.29111233980939],[134.01430378720326,34.2913572636608],[134.01424097584407,34.29170949834285],[134.01422575842966,34.29179701402921],[134.01417567194858,34.29209843713468],[134.01415985240297,34.29215845759979],[134.01411428536107,34.29227459007947],[134.01393014934638,34.29253961130694],[134.01393042807715,34.29254970766626],[134.01380639084348,34.292766062555856],[134.0137754864726,34.29281063930703],[134.01369699024815,34.29294223630707],[134.01364655327515,34.29304369351201],[134.01360896288614,34.29314987513741],[134.01355289586405,34.29332582516763],[134.01339445265882,34.29385083934213],[134.01336847030709,34.2939189262042],[134.01333414846232,34.29399110504313],[134.01327477192342,34.29408746061791],[134.01321844363164,34.29411348133653],[134.01299437651656,34.29438687261119],[134.01290664828204,34.294519138834126],[134.0128966038857,34.29456443943606],[134.01261897592534,34.294729776292904],[134.01252559117788,34.294807250768294],[134.01231729459798,34.295030808445794],[134.01221084486153,34.294978241515935],[134.0119683710809,34.29524458549241],[134.01178598086045,34.2956384297356],[134.01158639636043,34.296260441341865],[134.01148936265866,34.29652491475579],[134.0113643602264,34.29694250032858],[134.01117592454844,34.29752299266488],[134.0111297140973,34.29764165103235],[134.01110158857767,34.29780477121817],[134.01101182269227,34.2979783361927],[134.0108308561507,34.29848342599098],[134.01067599149857,34.29890402027514],[134.01057451508484,34.29915336511899],[134.01047333888698,34.29939856142528],[134.01032010748852,34.29973052465031],[134.01028986405555,34.299795292777404],[134.01015585064602,34.300053878568455],[134.00974052952108,34.30077199018179],[134.0094931832558,34.30120694187178],[134.00943766541081,34.301314188396255],[134.00933567854892,34.30148004944732],[134.00857456385478,34.30241714156528],[134.008511103803,34.30250476653719],[134.00843556603525,34.30262534868294],[134.00829741163219,34.3028654674991],[134.0081411960119,34.30315533723667],[134.00804285012413,34.30336734214709],[134.0080002722172,34.30344099616229],[134.00775763997717,34.30386772046232],[134.00739901657025,34.30453591270761],[134.00726237546363,34.30477575357408],[134.00712962267698,34.30503000320293],[134.00712448440285,34.30504273652038],[134.0070764851184,34.305172670210986],[134.00698881692924,34.30525684241563],[134.00678887039615,34.3054917517135],[134.00672238332055,34.305636817853],[134.00664693955034,34.30584629263042],[134.0066011698217,34.30593158951113],[134.00656091521233,34.30606690033948],[134.00652098122774,34.30628638880311],[134.00636447893916,34.30689796221147]],[[134.0081351432212,34.30543316283732],[134.00800541859635,34.305414227095476],[134.00698881692924,34.30525684241563],[134.0081351432212,34.30543316283732]]]}}]}
