{"type":"FeatureCollection","features":[{"type":"Feature","properties":{"potaRef":"JP-2115","nameEn":"Handa Ryokuchi Prefectural Park","nameJa":"","boundaryStatus":"全国都市公園GIS候補・公開前検証待ち","boundarySource":"国土交通省「都市計画決定GISデータ」都市公園・緑地を、POTA代表地点で空間照合して加工","boundaryScaleNote":"都市計画データは近似・未収録の可能性がある。POTA運用可否は公式情報で最終確認すること。","candidateMethod":"POTA representative point inside one MLIT urban-park polygon","sourceParkName":"その他緑地","sourceParkType":"緑地","sourcePrefecture":"愛知県","sourceCity":"半田市"},"geometry":{"type":"Polygon","coordinates":[[[136.95959672935683,34.87678095451634],[136.96103051003615,34.87796560164733],[136.96114143282202,34.87796578920108],[136.96247608331583,34.8768754322703],[136.96356746719914,34.87598730929519],[136.9635920448856,34.875912526670305],[136.9631415875696,34.87515524296248],[136.96308399430993,34.87513324033281],[136.9627777216707,34.87526055844511],[136.96249811047954,34.87535510631252],[136.9615571556606,34.87575008813602],[136.9611375427851,34.87592480951998],[136.960897804499,34.87603943416177],[136.9607446874894,34.87611598188565],[136.96051379038548,34.87623792280678],[136.96026285590483,34.87636722148988],[136.96005433642372,34.87646377750061],[136.95963472128122,34.87663669068156],[136.95959672935683,34.87678095451634]]]}}]}
