{"type":"FeatureCollection","features":[{"type":"Feature","properties":{"potaRef":"JP-2047","nameEn":"Sanuki Airport Prefectural Park","nameJa":"","boundaryStatus":"全国都市公園GIS候補・公開前検証待ち","boundarySource":"国土交通省「都市計画決定GISデータ」都市公園・緑地を、POTA代表地点で空間照合して加工","boundaryScaleNote":"都市計画データは近似・未収録の可能性がある。POTA運用可否は公式情報で最終確認すること。","candidateMethod":"POTA representative point inside one MLIT urban-park polygon","sourceParkName":"香川中央広域公園","sourceParkType":"公園","sourcePrefecture":"香川県","sourceCity":"高松市"},"geometry":{"type":"Polygon","coordinates":[[[134.00452806443747,34.21702930667607],[134.0048136376981,34.2172642004108],[134.00513604327645,34.21772024272823],[134.0052446317987,34.218059139791144],[134.00572600157892,34.218366991568104],[134.00588805716808,34.2187351761202],[134.00615428557774,34.21870456910737],[134.00634911801902,34.21861523911854],[134.00668356210096,34.21811222086768],[134.00684198802242,34.217875497531104],[134.00721539529033,34.21794772984201],[134.00753516220925,34.21796115679818],[134.00767866234744,34.21819663161227],[134.00832006993477,34.21853331016556],[134.0089779958036,34.218663374706686],[134.00941997556876,34.21832403469379],[134.00959246563116,34.218212667687645],[134.00984415260436,34.217979249447694],[134.00976216700016,34.21763655852812],[134.0098807127582,34.2174147558441],[134.01041351386056,34.21741253969352],[134.01065467302672,34.217643908091055],[134.01028457772406,34.21812126428181],[134.01003303579142,34.218376816506186],[134.00984795202652,34.218609967282156],[134.00969037721435,34.21898684089554],[134.01081214773944,34.21945799863723],[134.0110246094816,34.21934645413192],[134.01115693858765,34.21920205625086],[134.01123572305585,34.21901361405521],[134.01135413308884,34.21876967688184],[134.01144631083676,34.218592241037186],[134.01159236660249,34.21851417749164],[134.01171264815412,34.218580067759255],[134.0116204040551,34.21874643272579],[134.01144965423146,34.21914550621763],[134.01116191476927,34.21988220236883],[134.01186153896194,34.21992907847525],[134.01229142348419,34.2199770776027],[134.01259183270008,34.220092008467994],[134.01258385853282,34.22042401097624],[134.0128374813255,34.2210619784692],[134.01315020572326,34.22155861955021],[134.01366388363436,34.22224244181011],[134.01403209331016,34.22272172718033],[134.0142352791106,34.222865596230484],[134.01438766178921,34.22297232577297],[134.0148438005434,34.22312446387495],[134.01529414827598,34.223248612662644],[134.01554181971503,34.22331292694003],[134.0163915161339,34.22349141613594],[134.0169263949907,34.22365255518666],[134.0167335238974,34.22335926522402],[134.01716485190587,34.22312869946392],[134.0172660340781,34.223132942897095],[134.0173728953678,34.22314649358979],[134.01750725664874,34.22306189989829],[134.01757461394195,34.22304761418744],[134.01776590536414,34.223084149963356],[134.0178381134012,34.222943803443485],[134.01789992333462,34.22294354243769],[134.01797814219336,34.22286851660759],[134.01798296415572,34.222737785894644],[134.01800509849153,34.22268166853262],[134.01799899071068,34.22260233769508],[134.01787986833273,34.222420776711274],[134.0177329220845,34.22228601662678],[134.01774362343588,34.22219727448977],[134.01848593774895,34.22227817426489],[134.01852390791888,34.22205393625999],[134.01859079564633,34.221964956481116],[134.01876907767982,34.22171211305797],[134.0188528307511,34.221623061792656],[134.01889695460775,34.22148749458603],[134.01894678617677,34.22136591368805],[134.0190912415488,34.22109454129027],[134.01928093596405,34.22086966074236],[134.01976413849354,34.22085361239512],[134.021510119669,34.22118793343865],[134.0224415994266,34.21847795404975],[134.02349890282818,34.21890560677124],[134.02353799979844,34.21894309868401],[134.02406384236795,34.21913724302409],[134.02461586167396,34.21940610386183],[134.02525007242912,34.219740848932375],[134.02537249100115,34.219799341691505],[134.02547121917945,34.219856421185355],[134.02571636588576,34.220024857692636],[134.02577510995738,34.220095731122505],[134.02603831932524,34.220301072141645],[134.02600214453508,34.220582094938],[134.0258821605161,34.22082481757818],[134.02568840868622,34.220926570514074],[134.02559206895322,34.221034099535174],[134.02545372057511,34.22104107551055],[134.02530745033027,34.22100976832868],[134.0252000182377,34.22104216222406],[134.02509246719126,34.22105539806824],[134.02498483686048,34.22105585884122],[134.02492349068723,34.22108166304335],[134.02492400566595,34.221164686871695],[134.02492467907274,34.22127325163719],[134.0250559273776,34.22136210799914],[134.02522573671197,34.221469948531336],[134.0252879551083,34.22158463284756],[134.02531177133312,34.221705873789894],[134.02525855579472,34.22180190305552],[134.0251131165062,34.22190471035812],[134.02497512320255,34.22196915967168],[134.0248444682342,34.221976111049635],[134.02466760773999,34.221970475638486],[134.02459852635164,34.22198993863605],[134.02459908059825,34.22207934543658],[134.02468444099492,34.22220670637069],[134.0247543146085,34.2223149750446],[134.02475475022638,34.22238522388362],[134.02467822195948,34.22244303571583],[134.02463245178419,34.222500706910104],[134.0245790261761,34.22256480299742],[134.02457161912048,34.22260953475409],[134.02461810201532,34.22266681130835],[134.0246875691429,34.2227112232153],[134.02477991249708,34.222723603420725],[134.02485674697525,34.22271688245308],[134.02492594778957,34.222716586275936],[134.0249953755175,34.222754615027206],[134.02500349550803,34.222824830963646],[134.02501174522666,34.22291420480433],[134.02496597502983,34.22297187611892],[134.02492015432273,34.22302316448409],[134.02484375521988,34.223100125307965],[134.0248286532693,34.2231448990224],[134.02476758279388,34.22321541105052],[134.02646794151173,34.22341249235865],[134.02671077530192,34.223447990479144],[134.02662756572676,34.223255338757795],[134.02631243124657,34.223131796470696],[134.02616123226284,34.222996199313776],[134.02644727141478,34.22283602418129],[134.0267608501016,34.22270978256954],[134.02691014082947,34.2225388428222],[134.02703180867164,34.22232260027233],[134.0269495892454,34.2222888920852],[134.0267857159605,34.222312297743265],[134.0265268774152,34.222449655240716],[134.0264314175498,34.22248412652945],[134.02630847690028,34.22249600501644],[134.02615805560833,34.22248529963388],[134.02613016233718,34.22239459467116],[134.02612938584522,34.22226970286484],[134.02615544372497,34.22206522212404],[134.0263459498214,34.22192815869187],[134.02653623257794,34.22175704344556],[134.0267821115702,34.22173327689423],[134.0268637648867,34.221676153979836],[134.02886086398286,34.221928699283396],[134.0287365767295,34.22172486625426],[134.02869452025627,34.22155474011743],[134.02873537085063,34.2215318623581],[134.0291210964925,34.221286088447144],[134.02913206336154,34.22095185444679],[134.02922583913008,34.22065721189653],[134.02928091247264,34.22061611486513],[134.02932387582266,34.220603163145114],[134.02952368593367,34.22060144410867],[134.02967719500094,34.22057013669462],[134.02981004821262,34.2205125292306],[134.02989608638305,34.22050620712706],[134.0302438503284,34.22040425963029],[134.03046145550746,34.22036382965413],[134.030934804326,34.22010141562988],[134.03098248725883,34.220079643529374],[134.03123508076004,34.22052656917677],[134.03135994541213,34.220683407121065],[134.03151400176955,34.220848196530945],[134.03202534820716,34.22074472352178],[134.03219856634286,34.22091535228167],[134.03232071396644,34.22100221178669],[134.03267303610346,34.22075553491772],[134.0328058629333,34.220802624183534],[134.0328623057344,34.2208706912619],[134.03287986005145,34.22086966833644],[134.03294030679518,34.22082726608802],[134.03297423624247,34.22088097870428],[134.03317987743824,34.220933025316675],[134.03320141517875,34.22093548313636],[134.03322132333741,34.2208084999721],[134.0332572485385,34.220727634822474],[134.03350753682415,34.2207447040071],[134.03359497992122,34.2207443235889],[134.03373116271786,34.22073834860649],[134.03376931051378,34.220720863338165],[134.03378001470134,34.22068516849537],[134.03376107665397,34.22057176072093],[134.03374081286225,34.22053552447371],[134.03373808293824,34.22039178029687],[134.03364405236894,34.2201391625799],[134.03354628027,34.219990197055964],[134.03339255170442,34.219865736196056],[134.03335628026042,34.21984164158194],[134.0332096252304,34.219740770981254],[134.0331491013266,34.2196484604146],[134.03305166415757,34.21943182082389],[134.0330306962972,34.21939743573798],[134.03300114018415,34.21934010683246],[134.03300701355693,34.21929731060214],[134.033002580638,34.21920348495275],[134.03304512427047,34.21900347502572],[134.03300112381476,34.2188498035012],[134.03298323553034,34.21881668525587],[134.03294873760225,34.218707032372876],[134.03281377955642,34.21851225649701],[134.03276423023271,34.21845972961561],[134.03266232125773,34.21834094799465],[134.0325359203421,34.21822092928599],[134.0325129541971,34.21824662471548],[134.0325142976495,34.21824798026052],[134.03249266170718,34.21834710318647],[134.03248654060033,34.21838160598628],[134.03236661105282,34.21837590575215],[134.0323324136193,34.218344931821285],[134.03231272922977,34.218331610838625],[134.03235628575646,34.21829071567863],[134.03237094633988,34.21824038022505],[134.03242445043804,34.21822290985609],[134.032512204337,34.21824646568777],[134.03253561323208,34.218220416721785],[134.03241816070263,34.218106390569446],[134.03231133697747,34.21798427612168],[134.03226366191458,34.217932849832934],[134.03217282525188,34.21785736746176],[134.03205769117537,34.217747712547094],[134.032027520113,34.217713213932484],[134.0319199494735,34.217995332542046],[134.03188471533875,34.21807911544223],[134.0319125957614,34.21809104858684],[134.03190191272031,34.21812500315258],[134.03190832299444,34.21816583472908],[134.03189849612974,34.218192690186136],[134.03188491450223,34.21823169712455],[134.03188340950337,34.21823744668372],[134.03183646032042,34.21822552409698],[134.03180537715502,34.21829460231628],[134.03175784548222,34.218279797185524],[134.03177493140484,34.2182181275043],[134.03173555884314,34.21819084525324],[134.03174143961607,34.21814740892241],[134.0317909895932,34.21808271344397],[134.03180858559625,34.218071142066314],[134.0318331498161,34.21806657275489],[134.031871101863,34.21799043245428],[134.031919252747,34.21799499296526],[134.0320268236151,34.217712910418285],[134.03187089324038,34.217480565637395],[134.03180959909213,34.217389537937045],[134.03176371816508,34.217302275072264],[134.0317535865105,34.217280609071295],[134.03169262942248,34.21699613788809],[134.03166507224245,34.21689219754426],[134.03159736637417,34.2167565064381],[134.03158475369284,34.21670612698882],[134.03139789787357,34.216321973110006],[134.03125515040662,34.21610744859278],[134.03104448685926,34.21584788676787],[134.03099553747592,34.21576254821097],[134.03093711136964,34.215637031379046],[134.03087323745382,34.2154994119067],[134.0308312735014,34.215425538128756],[134.03081109005717,34.21539306057636],[134.03079572427978,34.21539504743113],[134.0307851096632,34.21541743440623],[134.0307584976862,34.21546224066257],[134.03072861146413,34.2154764165329],[134.03068936747405,34.215467651728396],[134.03064448055298,34.215417411808545],[134.03059734214682,34.21537675634278],[134.0305795624162,34.21535895501679],[134.03054870157325,34.21534057015473],[134.03051484959022,34.21533497354672],[134.0304849261973,34.21534148612745],[134.03044678201786,34.215386982313845],[134.03043070051962,34.215395986475215],[134.03041152384108,34.215401181339914],[134.03037223703552,34.21538730468586],[134.03032356859114,34.21534665573015],[134.0303134764125,34.21532946124387],[134.030280334929,34.21531427775185],[134.03023963400128,34.215318925528734],[134.03018998045758,34.215367022850664],[134.0301677764797,34.21537924502057],[134.0301409374115,34.21538957588101],[134.03011557829416,34.215388414267736],[134.02987810142545,34.215386888985954],[134.02975906561323,34.215400169495105],[134.02969238273351,34.2154272703502],[134.0296080024088,34.21545316735077],[134.02958954423445,34.21545005547456],[134.02950912517835,34.215371875460455],[134.0293910234912,34.21528811500818],[134.02935788624558,34.21527358038196],[134.0292499075965,34.21521020580169],[134.02907129040514,34.21520778483893],[134.0288911005225,34.21570226472696],[134.02898195469604,34.21586127145655],[134.0293613506926,34.215940343597865],[134.0295393793276,34.21605660859691],[134.02977465481635,34.21612053304949],[134.03001665618763,34.216149284576225],[134.03014608243538,34.21620064693295],[134.0303103935166,34.21625781773558],[134.03039314251836,34.216219161000176],[134.03035551597245,34.2161498843765],[134.03032388097284,34.21611710465081],[134.0302607394412,34.21606857537708],[134.03017301680234,34.216023560282665],[134.02999904573443,34.21595053626035],[134.0299222696753,34.215906600650634],[134.0298672757701,34.21585236505862],[134.0298039746436,34.21577999858077],[134.02967272036224,34.21554563294987],[134.02978584002278,34.21550087703192],[134.02991710165634,34.21573637849549],[134.0299872432509,34.215810987326925],[134.0300489781408,34.215851579945024],[134.03021475877136,34.215926902260016],[134.03036142484046,34.21600345200539],[134.0304343089314,34.21607917568488],[134.03046235379114,34.21619368068155],[134.03050147664823,34.216331984420485],[134.0305327152004,34.21652138747132],[134.03054978917643,34.21662913300047],[134.0305517399626,34.216722194174594],[134.03060125806587,34.21677531715155],[134.03072327712107,34.216842894206984],[134.0307261202403,34.21688438141121],[134.03076246694792,34.216870610340735],[134.030826861642,34.21697172280263],[134.0308420061014,34.2170624548926],[134.03084120782344,34.21722588687746],[134.03080293342293,34.21722303225241],[134.03085926708812,34.21749063739166],[134.03089878509397,34.21769173396277],[134.03106180428608,34.21783478434387],[134.0311530420605,34.217872309497245],[134.03126854178532,34.21790724114232],[134.03127397282975,34.21794600337424],[134.03122892169398,34.21802376101424],[134.03113947397415,34.21800691029819],[134.03115326494193,34.2178732371543],[134.0310601414004,34.21783613489097],[134.03091154573883,34.217983743965696],[134.03088480707166,34.218077677606246],[134.0308540562831,34.218125458949125],[134.030824169143,34.218139634845286],[134.0307232531306,34.21822371069015],[134.0306678938067,34.21821883830128],[134.03058302478752,34.21817583070922],[134.03056967653262,34.218189835820155],[134.0305413157533,34.21817223354063],[134.03053987533468,34.21821773324734],[134.03050774332857,34.218240853385815],[134.0305297341889,34.218255120352424],[134.03053689949277,34.218295308618785],[134.03056313117898,34.218508237315675],[134.03054457372403,34.218653876872],[134.0305653734618,34.21870145316203],[134.03057979558417,34.218713309591955],[134.0306227789065,34.21870546024657],[134.03063733980593,34.218739449734095],[134.03059470841927,34.21880516965733],[134.03059188790905,34.21884519375495],[134.03053891557343,34.21889394567618],[134.030309211452,34.21903113102182],[134.03031542370948,34.219040471523684],[134.0302376236638,34.21905357420561],[134.0301866806556,34.21910061322465],[134.03015477311686,34.21896731806588],[134.0301363606216,34.21897335706585],[134.03010520949294,34.218907090718744],[134.02997290477143,34.218888936790606],[134.02995765442017,34.218907728400936],[134.02992892758732,34.21890274961351],[134.02979848775837,34.21885308640973],[134.02966311719442,34.21883580188632],[134.02959414266238,34.21878502552064],[134.02951033813673,34.21887400317251],[134.02945876102515,34.21901750413588],[134.0294651998555,34.21917410695578],[134.02951830313853,34.219251972115174],[134.0295290409188,34.219278630403686],[134.02954799661816,34.219361123805925],[134.02956789808542,34.219429981307776],[134.0296465136413,34.21954711703549],[134.02968871169503,34.2195767228274],[134.02971950578305,34.21958595718981],[134.0298807731465,34.21964654960407],[134.03005518646853,34.21968154337471],[134.03020388037373,34.21969962635427],[134.03041624612558,34.2197395674606],[134.03080439869564,34.21986897712014],[134.03087498866284,34.21990538370964],[134.03089820248533,34.21993113137247],[134.0309821221457,34.22007680514973],[134.030933845185,34.22009903962482],[134.03083872319098,34.219935770484376],[134.0307753301398,34.219901289145014],[134.03038777588668,34.21977731330323],[134.03004494978217,34.219722798601765],[134.02984244560864,34.219675250035074],[134.0296763370029,34.219621485369515],[134.02959038691853,34.2195688980328],[134.02952225039093,34.219452663679725],[134.029487025126,34.21935445393877],[134.02939205903726,34.21918776599602],[134.02924874121962,34.219572761990094],[134.02930980195075,34.219723827822364],[134.0294178786148,34.220110759026184],[134.02910553310366,34.22052234150014],[134.02900617796894,34.22053042446771],[134.0289684811387,34.22056463954203],[134.02887979172706,34.22063822990585],[134.0287749098261,34.22057994455411],[134.02879106921802,34.22054327094583],[134.0289241082331,34.220350328245885],[134.02891888426583,34.22033587148397],[134.0287599761883,34.22032294291917],[134.0287493427376,34.220260852227135],[134.02876015098047,34.220185893777014],[134.02876028304067,34.2200437419024],[134.02864819037026,34.21997422685039],[134.02836043744162,34.21980900908142],[134.02820909200724,34.220079024528445],[134.02728540602564,34.2204123355366],[134.0271437842517,34.22037973933371],[134.0271544985214,34.22028946366565],[134.02696817277783,34.22015236851962],[134.0267947533931,34.2201131106566],[134.02675512829228,34.22008699092768],[134.02573887203505,34.21983560175999],[134.0256218384991,34.219763472506266],[134.02533860524008,34.2196224355289],[134.0246624184384,34.21927424768252],[134.0240926340421,34.21896344955381],[134.02338018949675,34.21864556717524],[134.02313271675663,34.21851731003731],[134.02243060480654,34.21832667144756],[134.02140980260876,34.22107537458662],[134.0211085470583,34.22103876179671],[134.02089702470633,34.22099814284269],[134.02086439662057,34.220965950935046],[134.02084621894625,34.220839266668804],[134.02077409146764,34.22077996081368],[134.02065097781565,34.22076345277175],[134.0205808344491,34.220740832488346],[134.02049950255525,34.22070076909079],[134.02045381157208,34.220655153960394],[134.0204309909646,34.22063638984782],[134.0203204645014,34.22059645021283],[134.02014745189845,34.22056122928855],[134.01997281807093,34.220502357658226],[134.0199192784017,34.220493496761655],[134.01926003167037,34.220211527166875],[134.01886258725787,34.22010585868459],[134.0185825799113,34.22006278464324],[134.01816917081575,34.21998707764801],[134.0176363541551,34.21998932763704],[134.0171712241062,34.22016833227899],[134.0166005393093,34.22051376888147],[134.01666565833963,34.2202700511662],[134.01669073788182,34.220015439767714],[134.0166227254453,34.21978335420692],[134.0164486776998,34.2196402318415],[134.01618146055085,34.21950857273391],[134.01507311133645,34.2190595505954],[134.01475255411432,34.21891704099195],[134.01473767896937,34.21866259759625],[134.01507955895062,34.21793084076722],[134.01522345467242,34.21749867902518],[134.0151425253872,34.21733303883456],[134.01561746611503,34.21657858775684],[134.01560312812003,34.21641266787841],[134.0155093548449,34.21632453629602],[134.01522937249155,34.21628145439683],[134.01228561316452,34.21628271388008],[134.01228507744642,34.21619419935844],[134.0123496029823,34.2158508980775],[134.01230870657776,34.215696151043595],[134.0121486038756,34.21565255228195],[134.01208119913824,34.21552004955199],[134.01184063356447,34.215388269525334],[134.01124279206144,34.21564526894957],[134.01087117264177,34.21586812736019],[134.01052419199814,34.21575892165435],[134.01029328595735,34.21501848915332],[134.0101596838958,34.21495265283149],[134.00998660118555,34.21496443497354],[134.00947964795725,34.21483375762486],[134.00927905744922,34.21470180647325],[134.00874740388684,34.21489212682666],[134.0086334897441,34.21453368159405],[134.00836735312808,34.21457904335632],[134.0080650099056,34.21450652911443],[134.00805646186691,34.2145523646215],[134.00764137121374,34.21446168071399],[134.00757165170717,34.21437255988127],[134.0075482459871,34.21431518121681],[134.00745560789161,34.21425169682275],[134.0072710810196,34.214246076964486],[134.00708658155324,34.214246839879195],[134.00695631921258,34.21431762922107],[134.0068414999335,34.21440112093824],[134.0067653105115,34.214516395814044],[134.00666576474347,34.214580674768214],[134.00666529829414,34.21455170001617],[134.00660927619217,34.21432485126586],[134.00640230689606,34.21399645007969],[134.00608743959697,34.21390692480936],[134.00571810290742,34.213851675884136],[134.005622779655,34.213908841178004],[134.00552718502507,34.21392058606883],[134.0050485232942,34.21386578566717],[134.00473371469576,34.21378760752332],[134.0044055928173,34.21376624660931],[134.00400879675314,34.213688403737336],[134.00379046267935,34.2137460730247],[134.00338074695043,34.21379316764371],[134.0031620855715,34.21379406484777],[134.00301114257704,34.2136924992133],[134.00299660264798,34.2135449616471],[134.0029679842888,34.21332935863533],[134.00284431149754,34.213216330096834],[134.00202467070545,34.21327645090352],[134.00157462946856,34.21343724916993],[134.00128891020557,34.21365413761891],[134.0011811311049,34.213915710887825],[134.00118193774892,34.214051953935645],[134.00094142619224,34.21421000022425],[134.0007592951494,34.21422588142796],[134.00103956295496,34.21486775968096],[134.00126519026136,34.21532246775596],[134.00132652312413,34.2154551365724],[134.00140944216022,34.21558412883397],[134.00152266109927,34.21571658541863],[134.00160520831787,34.215780908949476],[134.00168329775732,34.21582369395399],[134.00176128081645,34.21584851993189],[134.00187386170882,34.215873213310054],[134.0019474190778,34.215880097867085],[134.00202529574938,34.21588696470058],[134.00209448037495,34.215886681499825],[134.00218514477956,34.21586115632028],[134.00229301190953,34.21582119850535],[134.00243532737773,34.215755954505774],[134.00252152302926,34.21570531142127],[134.0026510292091,34.21566885290757],[134.00279342950427,34.21561797928095],[134.0029188190951,34.215613867906654],[134.00303535633603,34.21557747118088],[134.00320815179873,34.21554802009594],[134.00334194488298,34.215504366714406],[134.00350166459805,34.215457009466014],[134.0036311808162,34.21542054987848],[134.00378220806203,34.21536604239077],[134.00392884085926,34.21530077892933],[134.00411442236933,34.2152389434911],[134.00426985383982,34.21519878843733],[134.0044425947273,34.21515856199819],[134.00460239882645,34.21512557410755],[134.00474072393118,34.21511781937974],[134.00474000228638,34.2155064019531],[134.0046272454643,34.21550686592232],[134.00431975249663,34.21550813066064],[134.00398190929772,34.21557764248647],[134.00368556196568,34.21573213691096],[134.00360356071872,34.21573247363415],[134.00347041541343,34.21575005104025],[134.00333716878006,34.215750597931844],[134.00324541818856,34.215836128354745],[134.00313297539074,34.21588767300578],[134.00328702637856,34.21593813332481],[134.00341028179602,34.21598020896617],[134.00361624810708,34.21614115136931],[134.00390472393335,34.21638690837753],[134.00421414766606,34.216709221603764],[134.00452806443747,34.21702930667607]]]}}]}
