{"type":"FeatureCollection","features":[{"type":"Feature","properties":{"potaRef":"JP-2074","nameEn":"Nerima-joshi Prefectural Park","nameJa":"","boundaryStatus":"全国都市公園GIS候補・公開前検証待ち","boundarySource":"国土交通省「都市計画決定GISデータ」都市公園・緑地を、POTA代表地点で空間照合して加工","boundaryScaleNote":"都市計画データは近似・未収録の可能性がある。POTA運用可否は公式情報で最終確認すること。","candidateMethod":"POTA representative point inside one MLIT urban-park polygon","sourceParkName":"","sourceParkType":"公園","sourcePrefecture":"東京都","sourceCity":"練馬区"},"geometry":{"type":"Polygon","coordinates":[[[139.64112014948822,35.745838704599045],[139.64122311379947,35.74605762925127],[139.64127485443177,35.746151633622354],[139.64133932313038,35.74624034025629],[139.64141552741975,35.74632266591712],[139.64150247481066,35.746397527367755],[139.64159906201647,35.746463931330446],[139.6417044064381,35.74652106515199],[139.64181685106146,35.74656829521956],[139.64182712495793,35.746572007151904],[139.64197812318196,35.746633720199384],[139.64212157675976,35.74670641766283],[139.64225638156253,35.74678946686296],[139.64242179564016,35.74683389612843],[139.64242256832165,35.746834438170815],[139.6424473193145,35.746841237647935],[139.643269418353,35.74706283171731],[139.64341237499755,35.74711281257328],[139.64362251140713,35.74718218832594],[139.64368980287642,35.74720104271498],[139.64369969649272,35.74722530490366],[139.64373137054233,35.74725023237176],[139.64399560000444,35.747356017532375],[139.6441545521145,35.74732859582596],[139.6441961498729,35.747318475859075],[139.64421050732616,35.74732543890482],[139.64445352947374,35.747281924447655],[139.6445395708947,35.74727385712313],[139.64517856510486,35.747172103111055],[139.64577003094024,35.746874315856466],[139.64587162353993,35.74683544529513],[139.6459432112565,35.746814014307944],[139.64599023435858,35.74680047699987],[139.64616890263153,35.74675730951975],[139.6462467841069,35.74673949358452],[139.64642322558706,35.74670281205833],[139.64689484367648,35.74658807957219],[139.64709031371936,35.746498967371494],[139.6472442529468,35.746486406262925],[139.64730929954143,35.74647226536285],[139.6475157605573,35.74645870347452],[139.64789040528305,35.74644053324446],[139.6479105728022,35.74642145548615],[139.64792949482546,35.74622426696036],[139.647935809669,35.746123504580176],[139.64795452796565,35.745871062320994],[139.64795771869876,35.745830145465376],[139.64798654518313,35.74560521026354],[139.64801123654203,35.74544696936723],[139.64802342357078,35.74538857996709],[139.6480824264188,35.74511925411803],[139.64817682783712,35.7447943687515],[139.64816827851246,35.74476208687762],[139.64817761416526,35.74474127981139],[139.64819520814456,35.74473517763394],[139.64824821980233,35.74456985949215],[139.64826841889024,35.74453690075904],[139.64827262889386,35.74448543953185],[139.6483054642105,35.74448648153189],[139.64832797652244,35.74440944980083],[139.64827047310976,35.74431814364354],[139.64825270587787,35.74430360440246],[139.64824774643262,35.744057885798476],[139.64826308414723,35.74392784301486],[139.64829253410764,35.74391058218395],[139.6482718729103,35.743856649021566],[139.6482409816952,35.74382784808707],[139.64794468835444,35.743629453024596],[139.6478472549093,35.74354574668725],[139.64780541620814,35.74347014812691],[139.64774214566657,35.74314889561911],[139.64771606873222,35.74309441318424],[139.64759497578092,35.74282030267744],[139.64749240999942,35.74261445369252],[139.64747864445883,35.74259090690396],[139.64746842255707,35.742564931913236],[139.64744325416862,35.74250026543748],[139.64741144353778,35.74243928427214],[139.64740000864458,35.74241195535884],[139.64739253196365,35.74239409685362],[139.647372637631,35.7422960881501],[139.6473624821313,35.742289131972],[139.64704864699993,35.742315326746244],[139.64683792739126,35.74231058362562],[139.64610898366303,35.74236218111001],[139.64609668391103,35.7423738796635],[139.64612033114784,35.74247387740874],[139.64602920921573,35.74262354179474],[139.6453384633817,35.742838881229346],[139.64500210552023,35.742944174960044],[139.6447727472789,35.7430128599642],[139.64467500934438,35.74305993805814],[139.64457278709315,35.74313314850482],[139.6445147793628,35.743163974161504],[139.6443067358562,35.74324233628531],[139.6440526337667,35.743254285429046],[139.6439788978926,35.74325020341233],[139.64293665285732,35.74309722003132],[139.64284149106092,35.743083458846314],[139.64243299197616,35.74302440317559],[139.6424055359412,35.74303968274353],[139.6423934297651,35.74306264823518],[139.6423505531026,35.743377605822005],[139.64233044124316,35.7436508665123],[139.64213438043797,35.743710315313464],[139.64185246479332,35.743793603379586],[139.64183905856584,35.74380529973275],[139.6418328270813,35.74382196498933],[139.64183356044148,35.74383891174008],[139.6419222825855,35.74404897985966],[139.64199021407427,35.74421493830171],[139.64200728562375,35.744288696761714],[139.6420184475587,35.74433702744812],[139.64206464592075,35.74452927101208],[139.64207178172143,35.7445505544694],[139.6421010456918,35.74461171324462],[139.6421320974918,35.744665033015416],[139.64216926357452,35.7447044815385],[139.64237856227751,35.74489004354129],[139.64240419640657,35.74498977471471],[139.64240773930857,35.745080367082565],[139.64240093213206,35.745152915810905],[139.64237528974078,35.74519550947073],[139.6423201091471,35.74524526711547],[139.64225147999966,35.74527805779573],[139.64213054277678,35.74531518198284],[139.6419531551149,35.74537808531154],[139.64183606063,35.74542639218558],[139.6418212481037,35.74547116622788],[139.6417987961743,35.74556640429759],[139.64156505618328,35.745567654396126],[139.64149195618546,35.745574207921884],[139.64141795347572,35.74558833139181],[139.6413666078659,35.745606186548926],[139.64128247432868,35.74564913730717],[139.6411504033115,35.74576394000869],[139.64112014948822,35.745838704599045]]]}}]}
