{"type":"FeatureCollection","features":[{"type":"Feature","properties":{"potaRef":"JP-2062","nameEn":"Kencho Mae Prefectural Park","nameJa":"","boundaryStatus":"全国都市公園GIS候補・公開前検証待ち","boundarySource":"国土交通省「都市計画決定GISデータ」都市公園・緑地を、POTA代表地点で空間照合して加工","boundaryScaleNote":"都市計画データは近似・未収録の可能性がある。POTA運用可否は公式情報で最終確認すること。","candidateMethod":"POTA representative point inside one MLIT urban-park polygon","sourceParkName":"県庁前公園","sourceParkType":"公園","sourcePrefecture":"富山県","sourceCity":"富山市"},"geometry":{"type":"Polygon","coordinates":[[[137.21043537255062,36.696722385761795],[137.21053075058066,36.69673667750015],[137.21068931118984,36.696767092208084],[137.21097374175739,36.69682007135057],[137.21102600694982,36.696829489900054],[137.21125909321725,36.69688608445077],[137.21157674507066,36.69696168435935],[137.21170373643048,36.69655865421256],[137.21182030837792,36.696191355092346],[137.21179363333624,36.6961565233416],[137.2115222071101,36.6961166122529],[137.21095182535515,36.69603511192253],[137.2103371813168,36.6959470716542],[137.21002595495287,36.6959203899703],[137.21010258660783,36.69611713860974],[137.21019557103583,36.696365523022635],[137.2103265195205,36.69670680473723],[137.21043537255062,36.696722385761795]]]}}]}
