{"type":"FeatureCollection","metadata":{"title":"超軽量ログ Ver.1.10 POTA公式区域・富山県","status":"公的GISと公式公園情報を照合した区域だけを実判定に使用","source":"国土交通省 都市計画決定GISデータ（令和7年度）","promotionConfig":"data/pota-boundary-official-promotions.json"},"features":[{"type":"Feature","properties":{"potaRef":"JP-1375","nameJa":"富山県総合運動公園","nameEn":"Toyama Athletic Recreation Prefectural Park","authority":"富山県","boundaryStatus":"公的GIS・公式公園情報との照合済み（公式区域判定対象）","boundarySource":"国土交通省「都市計画決定GISデータ（令和7年度）」都市公園・緑地","boundaryScaleNote":"都市計画決定区域を使用。現地の供用区域やPOTA規則上の有効区域と差がある可能性があるため、境界付近は注意表示します。","cautionMeters":75,"sourceParkName":"富山県総合運動公園","sourcePrefecture":"富山県","sourceCity":"富山市","officialParkUrl":"https://www.pref.toyama.jp/documents/53741/besshi10_seibihoushin.pdf","officialGisUrl":"https://www.mlit.go.jp/toshi/tosiko/toshi_tosiko_tk_000087.html","reviewNote":"公的GISの公園名・所在地と富山県公式県立都市公園資料を照合済み","importedPolygonCount":1},"geometry":{"type":"Polygon","coordinates":[[[137.1902066174885,36.626149961562284],[137.19018673429736,36.6261627940122],[137.19017405473733,36.62618085733109],[137.19017415340284,36.62620085854652],[137.19025939790842,36.62670223457245],[137.1902861058993,36.626989747000806],[137.19030751227788,36.6273502127128],[137.19031118946438,36.627642243864855],[137.1903023480423,36.62787375339843],[137.1902696838761,36.62823039071214],[137.19024396165835,36.62846167420302],[137.19028656551998,36.62849599622938],[137.1910920953684,36.628487981967446],[137.1910962246635,36.62856490748176],[137.19385910459016,36.62854458448786],[137.19384794890976,36.62848877981921],[137.19404876255484,36.6284682684641],[137.19411409462253,36.628785159555484],[137.1942267280944,36.62926114841019],[137.19429070919213,36.629514320728596],[137.19603163079339,36.62923282374426],[137.19633510591729,36.62921772898681],[137.19674508124234,36.62924337403907],[137.19770347129256,36.62931608046591],[137.19948714618948,36.62945077866033],[137.1999557006042,36.62949999870253],[137.20018915051702,36.627613903423196],[137.20019974762218,36.62749588945386],[137.20018902878888,36.62733282273824],[137.20011415212724,36.62654753422027],[137.19984656138305,36.623307669585564],[137.19482097897986,36.62359004395387],[137.1947303679542,36.62329825613651],[137.19440031276648,36.623358411780096],[137.19432567577024,36.62306876558012],[137.19326631728504,36.62329644630667],[137.19339971354418,36.62416755268104],[137.19368786500314,36.62606424690941],[137.1934482905743,36.6260814662389],[137.19344827572763,36.62603855314436],[137.19022765436353,36.62614502363682],[137.1902066174885,36.626149961562284]],[[137.19366898728396,36.62755549980922],[137.1939013416836,36.627531826069024],[137.19403638912735,36.6283917408653],[137.1938067819384,36.628416803075766],[137.19366898728396,36.62755549980922]]]}},{"type":"Feature","properties":{"potaRef":"JP-1376","nameJa":"富山県五福公園","nameEn":"Gofuku Prefectural Park","authority":"富山県","boundaryStatus":"公的GIS・公式公園情報との照合済み（公式区域判定対象）","boundarySource":"国土交通省「都市計画決定GISデータ（令和7年度）」都市公園・緑地","boundaryScaleNote":"都市計画決定区域を使用。現地の供用区域やPOTA規則上の有効区域と差がある可能性があるため、境界付近は注意表示します。","cautionMeters":75,"sourceParkName":"富山県五福公園","sourcePrefecture":"富山県","sourceCity":"富山市","officialParkUrl":"https://www.pref.toyama.jp/documents/53741/besshi10_seibihoushin.pdf","officialGisUrl":"https://www.mlit.go.jp/toshi/tosiko/toshi_tosiko_tk_000087.html","reviewNote":"公的GISの公園名・所在地と富山県公式県立都市公園資料を照合済み","importedPolygonCount":1},"geometry":{"type":"Polygon","coordinates":[[[137.19267275800155,36.696869962055835],[137.1920809523038,36.69649142496064],[137.19070559590085,36.6956067010533],[137.1887691651982,36.69436465260056],[137.18805473643556,36.695127617083045],[137.18802222822475,36.69518907472945],[137.18624956386043,36.69697800698173],[137.18746163616112,36.69777214519336],[137.19006428016644,36.69946994288874],[137.19061973823977,36.69891810130718],[137.19196178163477,36.69758126674368],[137.19267275800155,36.696869962055835]]]}},{"type":"Feature","properties":{"potaRef":"JP-1377","nameJa":"富山県岩瀬スポーツ公園","nameEn":"Iwase Sports Prefectural Park","authority":"富山県","boundaryStatus":"公的GIS・公式公園情報との照合済み（公式区域判定対象）","boundarySource":"国土交通省「都市計画決定GISデータ（令和7年度）」都市公園・緑地","boundaryScaleNote":"都市計画決定区域を使用。現地の供用区域やPOTA規則上の有効区域と差がある可能性があるため、境界付近は注意表示します。","cautionMeters":75,"sourceParkName":"富山県岩瀬スポーツ公園","sourcePrefecture":"富山県","sourceCity":"富山市","officialParkUrl":"https://www.pref.toyama.jp/documents/53741/besshi10_seibihoushin.pdf","officialGisUrl":"https://www.mlit.go.jp/toshi/tosiko/toshi_tosiko_tk_000087.html","reviewNote":"公的GISの公園名・所在地と富山県公式県立都市公園資料を照合済み","importedPolygonCount":1},"geometry":{"type":"Polygon","coordinates":[[[137.2401434218354,36.74543517070429],[137.24010629897714,36.74513135948357],[137.24064822071028,36.7445779243905],[137.2408372168313,36.74437906820693],[137.24111486407818,36.744095945040364],[137.24148616814108,36.74371305624105],[137.24142201450962,36.743162691759295],[137.24135786571796,36.742616369329525],[137.24133339104188,36.74241090918026],[137.24132410607092,36.74233141956122],[137.2413047017101,36.742175135602004],[137.24124476736012,36.74165710536843],[137.2410722109127,36.74017301573715],[137.24099680267318,36.74017471535626],[137.24094753089446,36.74018090542866],[137.24085477429108,36.740193882813124],[137.24083219950649,36.74020516391208],[137.24006607463969,36.74031755803424],[137.23998526314477,36.740329776237886],[137.23948471687032,36.74040579798742],[137.23917210699733,36.7404519583271],[137.23884517508708,36.74049969291477],[137.23873706613298,36.74051697043078],[137.23862620816817,36.740535665666],[137.23814627752833,36.74060541423725],[137.2380399101649,36.74060355308697],[137.23780915605795,36.74062734595379],[137.23735852263766,36.74066353458546],[137.23719743001033,36.7406802760664],[137.23711688727332,36.740692589173136],[137.23707661749557,36.740700497905195],[137.2370450578472,36.74071015367311],[137.23700805775223,36.74072244094849],[137.23696671376163,36.74074612007877],[137.23692210883203,36.740775057719844],[137.2368840408668,36.7408101241875],[137.2368546901951,36.74085482260206],[137.23684165767037,36.740888122087924],[137.23682757324437,36.740961722792335],[137.23682325723377,36.74100377813646],[137.2368232947092,36.74104495481381],[137.2368244159731,36.741080874252084],[137.23686390615802,36.74141201674849],[137.23692534000622,36.74193150773189],[137.23699007083664,36.742484288480966],[137.23702422182322,36.74277457298862],[137.23702567724212,36.74277800060511],[137.23702742262117,36.742780882610624],[137.23702945739137,36.74278259564604],[137.23703284812984,36.7427848533192],[137.2370356571702,36.74278625421698],[137.23704049962956,36.74278788767206],[137.2370538419858,36.74279018505764],[137.23788804841053,36.7427315701546],[137.23790267008164,36.74284109283394],[137.23795582990962,36.743315700485304],[137.23707059339569,36.74337803834331],[137.23647467062565,36.743423516449745],[137.23645793207584,36.74342676721382],[137.23644657216576,36.74343317588987],[137.2364381272011,36.74344006920989],[137.23643219127084,36.743450173381056],[137.23642956248844,36.74346506015116],[137.2364942435703,36.74401319114075],[137.23654669082606,36.744059278734234],[137.23655960905907,36.744100264121364],[137.23675980047204,36.74406834575984],[137.23689523073628,36.74436269161414],[137.23693557314027,36.744640794770206],[137.23696134322702,36.74480667792303],[137.23700507881352,36.74509179665613],[137.23709187639955,36.74565778768559],[137.2382931067232,36.74557138670147],[137.2401434218354,36.74543517070429]]]}},{"type":"Feature","properties":{"potaRef":"JP-1380","nameJa":"富岩運河環水公園","nameEn":"Fuganunga Kansui Prefectural Park","authority":"富山県","boundaryStatus":"公的GIS・公式公園情報との照合済み（公式区域判定対象）","boundarySource":"国土交通省「都市計画決定GISデータ（令和7年度）」都市公園・緑地","boundaryScaleNote":"都市計画決定区域を使用。現地の供用区域やPOTA規則上の有効区域と差がある可能性があるため、境界付近は注意表示します。","cautionMeters":75,"sourceParkName":"カナルパーク","sourcePrefecture":"富山県","sourceCity":"富山市","officialParkUrl":"https://www.pref.toyama.jp/documents/53741/besshi10_seibihoushin.pdf","officialGisUrl":"https://www.mlit.go.jp/toshi/tosiko/toshi_tosiko_tk_000087.html","reviewNote":"公的GISの公園名・所在地と富山県公式県立都市公園資料を照合済み","importedPolygonCount":1},"geometry":{"type":"Polygon","coordinates":[[[137.21081249672991,36.71023129564973],[137.2108683527253,36.71001205591869],[137.21148123109907,36.70937055992791],[137.21256818804278,36.71007287591381],[137.21205448510625,36.71059755944646],[137.21197830865842,36.710874173161365],[137.21221776094615,36.71130842216473],[137.21248269056773,36.71178978268017],[137.21261449603,36.71173888944587],[137.21278059713356,36.71165209687953],[137.21287457029015,36.71159097145649],[137.2129549911939,36.711536700079414],[137.21344508825828,36.71114764236135],[137.21373968336326,36.710917762645465],[137.21386542844985,36.71081183910974],[137.21391314317458,36.710758591351706],[137.21396797929887,36.71067677340314],[137.2139938682812,36.71063140152217],[137.21400838768324,36.71058902211078],[137.21402502318188,36.71052641004581],[137.21403233440986,36.71047022114634],[137.2140331277762,36.71041129239146],[137.21402858986855,36.71035341491682],[137.21401606791744,36.71029299456875],[137.21400750915222,36.710251697149175],[137.21397888766634,36.710159740862],[137.21381698734038,36.70967630981133],[137.21378909621575,36.709571075109984],[137.21377463803879,36.70949298278911],[137.21378007864928,36.709380608634405],[137.21378738092025,36.70930963395265],[137.213802339899,36.709263854853695],[137.21382771755466,36.709204638870034],[137.21384422253004,36.709167667854636],[137.21386439937564,36.709129216801976],[137.21389008357417,36.70908780640305],[137.2139157668399,36.7090449174196],[137.2139726533347,36.70897688019087],[137.21440098784012,36.70852523772275],[137.21463883238494,36.708283159980176],[137.21279371611016,36.70711196473021],[137.21238271058075,36.707537160681966],[137.2121388975737,36.70784367636136],[137.2113291199754,36.70865328367762],[137.2108858896647,36.70910937577952],[137.21083229526178,36.70931202972745],[137.2107384115273,36.70972117792565],[137.21051025052424,36.709696412105245],[137.21056076280485,36.70946904798277],[137.21013129707535,36.709858411178224],[137.20988897056822,36.71010808522006],[137.20979235901368,36.71023044201414],[137.20969115504343,36.71037380513261],[137.20958689590847,36.71054311630095],[137.20954241760606,36.710588848537604],[137.20949179463105,36.71062346280908],[137.20945652047797,36.71066301383566],[137.20935999777345,36.71094846589244],[137.20933859851738,36.711102920205256],[137.20928207953185,36.71157740050517],[137.2102901916874,36.71132868517682],[137.2104942702816,36.711281658442196],[137.21094078237854,36.71117029164099],[137.2106781236916,36.71075276531846],[137.21061674907193,36.71065025468142],[137.210599783788,36.71062182349716],[137.21058965275003,36.71060063719368],[137.21056137140232,36.71053905426172],[137.21054923132942,36.71050977565204],[137.21053831923405,36.710480990817715],[137.21053060804016,36.7104593588287],[137.2105106485351,36.710396982031604],[137.2104715053667,36.7102088850775],[137.21045873346054,36.71012284119552],[137.2104569978421,36.710053164491555],[137.21045863812859,36.709954841616685],[137.21070547436878,36.70997114076748],[137.21081249672991,36.71023129564973]]]}},{"type":"Feature","properties":{"potaRef":"JP-2062","nameJa":"県庁前公園","nameEn":"Kencho Mae Prefectural Park","authority":"富山県","boundaryStatus":"公的GIS・公式公園情報との照合済み（公式区域判定対象）","boundarySource":"国土交通省「都市計画決定GISデータ（令和7年度）」都市公園・緑地","boundaryScaleNote":"都市計画決定区域を使用。現地の供用区域やPOTA規則上の有効区域と差がある可能性があるため、境界付近は注意表示します。","cautionMeters":75,"sourceParkName":"県庁前公園","sourcePrefecture":"富山県","sourceCity":"富山市","officialParkUrl":"https://www.pref.toyama.jp/documents/53741/besshi10_seibihoushin.pdf","officialGisUrl":"https://www.mlit.go.jp/toshi/tosiko/toshi_tosiko_tk_000087.html","reviewNote":"公的GISの公園名・所在地と富山県公式県立都市公園資料を照合済み","importedPolygonCount":1},"geometry":{"type":"Polygon","coordinates":[[[137.21043537255062,36.696722385761795],[137.21053075058066,36.69673667750015],[137.21068931118984,36.696767092208084],[137.21097374175739,36.69682007135057],[137.21102600694982,36.696829489900054],[137.21125909321725,36.69688608445077],[137.21157674507066,36.69696168435935],[137.21170373643048,36.69655865421256],[137.21182030837792,36.696191355092346],[137.21179363333624,36.6961565233416],[137.2115222071101,36.6961166122529],[137.21095182535515,36.69603511192253],[137.2103371813168,36.6959470716542],[137.21002595495287,36.6959203899703],[137.21010258660783,36.69611713860974],[137.21019557103583,36.696365523022635],[137.2103265195205,36.69670680473723],[137.21043537255062,36.696722385761795]]]}}]}
