{"type":"FeatureCollection","metadata":{"title":"超軽量ログ Ver.1.10 POTA公式区域・栃木県","status":"公的GISと公式公園情報を照合した区域だけを実判定に使用","source":"国土交通省 都市計画決定GISデータ（令和7年度）","promotionConfig":"data/pota-boundary-official-promotions.json"},"features":[{"type":"Feature","properties":{"potaRef":"JP-1136","nameJa":"栃木県総合運動公園","nameEn":"Tochigi Sports Prefectural Park","authority":"栃木県","boundaryStatus":"公的GIS・公式公園情報との照合済み（公式区域判定対象）","boundarySource":"国土交通省「都市計画決定GISデータ（令和7年度）」都市公園・緑地","boundaryScaleNote":"都市計画決定区域を使用。現地の供用区域やPOTA規則上の有効区域と差がある可能性があるため、境界付近は注意表示します。","cautionMeters":75,"sourceParkName":"栃木県総合運動公園","sourcePrefecture":"栃木県","sourceCity":"宇都宮市","officialParkUrl":"https://www.pref.tochigi.lg.jp/h09/town/machidukuri/toshikouen/20130218kouentop.html","officialGisUrl":"https://www.mlit.go.jp/toshi/tosiko/toshi_tosiko_tk_000087.html","reviewNote":"公的GISの公園名・所在地と栃木県公式都市公園情報を照合済み","importedPolygonCount":1},"geometry":{"type":"Polygon","coordinates":[[[139.86568008848138,36.51063296224501],[139.86643532232796,36.510662661935264],[139.8665032670989,36.510611616817805],[139.86654233119518,36.509786622234614],[139.8665813944692,36.50896162752468],[139.8665076954034,36.508895303007925],[139.86627523859238,36.50888809402277],[139.86499650753217,36.508848429701814],[139.86412138797596,36.50882127688116],[139.86307682722412,36.50878885828486],[139.86258193849486,36.508773495900904],[139.86219790534275,36.508761573287615],[139.86207643726723,36.50876642140744],[139.86035270558273,36.50883476170842],[139.8603415977247,36.50869038935073],[139.86205989325975,36.50862267917007],[139.86205805944422,36.50860348570879],[139.8619779160543,36.50775281859165],[139.86185412222096,36.50749725491831],[139.86181646714752,36.50741110479853],[139.86180942780516,36.50739506430039],[139.86177803329184,36.507331984576645],[139.8617425102445,36.50727458368835],[139.86173480326548,36.507264401449014],[139.86172374871688,36.50725863612032],[139.86168912338317,36.5072134018306],[139.86162948334749,36.50714843620612],[139.86156538273474,36.50709681006574],[139.86131970477786,36.50690724606016],[139.86122646040988,36.50683877330424],[139.86115733718847,36.50678895061811],[139.8610575100634,36.50673066336353],[139.86099285860618,36.506697332350186],[139.86093546667757,36.50667202070616],[139.86084982760568,36.506640136499634],[139.86078640823686,36.50661762004902],[139.86072734400906,36.50659834704563],[139.8603823504728,36.50652082900465],[139.8599421215012,36.50642089036099],[139.85986597749155,36.50640351338619],[139.85981037562718,36.50638757376532],[139.85976694292333,36.50637298327227],[139.85970776640517,36.50635055542442],[139.85960448667058,36.50631128402673],[139.85954196206572,36.50629174082922],[139.85948680755297,36.506277693576564],[139.85939045657094,36.50625869851606],[139.85931654912343,36.50625159491174],[139.85926809632824,36.50624727955255],[139.8588745660812,36.50623898352871],[139.85885882601107,36.50624205116362],[139.85884431568732,36.50625025563839],[139.85876786820052,36.50632588670144],[139.85873336412132,36.50630309256656],[139.85839044623248,36.50607713295764],[139.8583886303885,36.5059870086543],[139.85802678864331,36.50626683174274],[139.85813820215483,36.50625995896369],[139.8582754358627,36.506350380937626],[139.85827521518857,36.50635762532071],[139.85825765309878,36.506934156589686],[139.85822974289795,36.50693353159238],[139.85818888586982,36.506943363770915],[139.8581902686422,36.50707548625115],[139.85818759659634,36.50709792785572],[139.8581771584724,36.507269887918845],[139.85844850498637,36.50745251334142],[139.85889605156024,36.507389510502406],[139.85935492730962,36.507485393281584],[139.85949418217382,36.50759855916729],[139.8595817306841,36.50766252829846],[139.85963666726713,36.50768919300498],[139.85966044998634,36.50769838043393],[139.85967898424153,36.50770369366576],[139.85969930407146,36.507707023754485],[139.85972576416333,36.50771035247104],[139.8597686192285,36.50770909818502],[139.8597724358565,36.50772683487026],[139.85977456225413,36.50774188521387],[139.85979581474055,36.50785913264899],[139.85978587907036,36.507860306490024],[139.8598516782827,36.50830370507957],[139.85978692829653,36.508310478914474],[139.85984723077758,36.50867691213772],[139.85987322696536,36.50884539136286],[139.85975477706774,36.5088550436309],[139.85958626455283,36.508866714155594],[139.85944701932274,36.50888561784785],[139.85910258083229,36.50894109997076],[139.85875874089479,36.50899734147073],[139.85818977669268,36.50908645040959],[139.85735992447414,36.50921926645217],[139.85657435162364,36.509344812382366],[139.856105975182,36.509421238577325],[139.8556271068619,36.50949645978941],[139.8553472851878,36.50954070584276],[139.85524315680505,36.50959409398381],[139.85518739584128,36.50963397818002],[139.85519813697172,36.50978395453848],[139.85527448672153,36.50985577921365],[139.85534420121917,36.50994834607362],[139.85538966948727,36.51003748098533],[139.8554392336906,36.5102097340437],[139.85556364702342,36.51064218277032],[139.85560362184498,36.510781130332056],[139.8556705481906,36.5110137569254],[139.85573340384184,36.511232233044225],[139.85564598073867,36.51127846671562],[139.85558803744664,36.511306803377245],[139.85554323981415,36.51132902380113],[139.85550304070685,36.511208387724565],[139.85542878182193,36.51095027278371],[139.85529375283835,36.510480923755104],[139.85521724888852,36.51021500006302],[139.85517457225598,36.51006927656885],[139.8551385938074,36.51000891263048],[139.85508208721896,36.509942302936494],[139.85500307603635,36.50987752894548],[139.85494596737044,36.509842832544166],[139.8548881499558,36.509812059463684],[139.8548344945483,36.5097906950689],[139.85465680316122,36.50972048902522],[139.85459310313465,36.50969200178085],[139.85452116147002,36.50964904925416],[139.85448693498253,36.50962743918343],[139.85441898038462,36.509573972574884],[139.85438634662424,36.50954556267853],[139.8543358787072,36.509498093618134],[139.85427099248108,36.50948975208998],[139.85412860358858,36.509566101415125],[139.85403671560874,36.509611116167854],[139.8539093710169,36.50967350046014],[139.85385713714564,36.50969908901735],[139.8537904570503,36.50972534672704],[139.85353270236226,36.50982684648005],[139.8528827381906,36.510065009316584],[139.85253743135252,36.510167808595526],[139.85242278717223,36.51021384957943],[139.85247177653295,36.51031071734357],[139.85289765196507,36.51017093676232],[139.85325658029555,36.51009345477707],[139.8533786342304,36.51007400543311],[139.85361164945772,36.51002421760511],[139.8546897706921,36.509826683636234],[139.85450340905146,36.51008501460919],[139.85447740592505,36.51012106910395],[139.8543795312904,36.51025681421904],[139.85434289827867,36.51030762144153],[139.8539833407869,36.51039189077438],[139.85367633930483,36.51047449817121],[139.85366607088253,36.510485405014855],[139.85365691963335,36.510499015403106],[139.85363884077074,36.51058869915564],[139.85367428022008,36.51070620884568],[139.85369451357627,36.51080128679888],[139.85370145610926,36.51087762112608],[139.85369858331896,36.51098928598151],[139.85362234661724,36.511054278926245],[139.85355090679192,36.51110512144122],[139.8534789059596,36.51114587005558],[139.85339283905023,36.51119193836653],[139.85331011491382,36.5112133119147],[139.85319626969303,36.51129055866194],[139.8532074326387,36.511335988793064],[139.85332984875305,36.5115320792065],[139.85337728111503,36.511614717580144],[139.85339262310256,36.51164147979392],[139.85340883358575,36.511669679642246],[139.85359993573206,36.511583854797614],[139.8539632523721,36.51165129520738],[139.85385749425262,36.511958007545765],[139.85381919714027,36.51195017335638],[139.85378182493528,36.51205995155608],[139.8537429717272,36.5120602286497],[139.85362390807026,36.51229962000979],[139.85353340979802,36.51247979452291],[139.85344503481966,36.512519197164245],[139.85338605499942,36.51295680498973],[139.85343149083664,36.512922882175374],[139.8535127471543,36.51286221534291],[139.8535950956895,36.51280464643729],[139.85363539700222,36.51277342946029],[139.85402115374995,36.51248595089157],[139.8540767164265,36.51244430878742],[139.85410588779212,36.51242244593453],[139.8542790091405,36.51229269752514],[139.85435436142387,36.512238394696425],[139.85440163808866,36.512203603239385],[139.85453658193697,36.51210409671837],[139.85472833122444,36.511959430778184],[139.85496270007155,36.51176745309903],[139.85499067888836,36.511746627423236],[139.85502239308684,36.5117249645331],[139.85505489096855,36.51170667185759],[139.85508108589173,36.511692398104906],[139.85509379505015,36.51168547475934],[139.85510283796256,36.511680675416585],[139.85514236802126,36.511662823765505],[139.85517470677996,36.51165007922678],[139.85521057708522,36.511638720973764],[139.85522609637798,36.51163380681959],[139.85529708356168,36.51161491592652],[139.85538806023126,36.51159422240758],[139.85544752020033,36.511580677164545],[139.85548548581124,36.511572081072],[139.85555459257628,36.511542283533],[139.85566225154054,36.511485348431385],[139.85570762770215,36.51146135133806],[139.85576345901717,36.51143182501343],[139.85584939124152,36.51138637976344],[139.85588901455358,36.51141984337065],[139.85590935632044,36.51143449429634],[139.85594703748066,36.51145891658942],[139.85603377629627,36.51150585171776],[139.85615864403167,36.511551555853224],[139.85632281547987,36.51159755744865],[139.856499920367,36.51164261009679],[139.85658607946328,36.51167405450346],[139.8566577461211,36.51170569727335],[139.85670983948987,36.51173610851008],[139.85674371810296,36.5117653029002],[139.85679565715148,36.51181475920959],[139.85687556370092,36.51193413741252],[139.85699834659084,36.512137923408154],[139.85706728204573,36.51225233687078],[139.85719893465094,36.51254574336555],[139.85723717413921,36.51253578479527],[139.85733334028546,36.51245411956731],[139.85737464375094,36.512434283776656],[139.85739551951266,36.51242670906896],[139.85740156187148,36.51246897625874],[139.85750428329527,36.51318850976187],[139.85751088530702,36.513234832431024],[139.85744694126424,36.513269928989175],[139.8574210360062,36.51326083163438],[139.85732537265216,36.51324679496035],[139.85721005303006,36.51324105815845],[139.85709931545244,36.51324251073723],[139.85698661330946,36.51324901822471],[139.8569119185656,36.5132588604841],[139.85685844249056,36.51327049712035],[139.85677773229168,36.51329606040732],[139.85653059812068,36.513394628647106],[139.8564803338092,36.51342026810972],[139.85638797553997,36.51333656020729],[139.8563522478493,36.513336026358985],[139.85619352699925,36.513483500786144],[139.85611160117153,36.51356661137105],[139.85594441335448,36.513746507841965],[139.85581021924875,36.51389228533439],[139.85577395181252,36.51393391353979],[139.85573783192024,36.51402661673197],[139.8556818324271,36.5142284186298],[139.85567431049856,36.51441431271028],[139.8557061971357,36.5146576793677],[139.85578258369142,36.514838036073215],[139.85583935554993,36.51495124763891],[139.8561755727312,36.51551896047302],[139.85623926541462,36.515629178944465],[139.85556447913027,36.515738368236455],[139.85496498110413,36.51583575201023],[139.85464018880828,36.51588847886177],[139.85463027614418,36.5159076939273],[139.85488730141444,36.5162683521835],[139.8551926439961,36.516696804265365],[139.85555142986982,36.51720024008693],[139.85561647120687,36.51732868501433],[139.85565680778086,36.51741164858548],[139.85570956645552,36.51760632550293],[139.85574267798594,36.51777609349497],[139.85579902847098,36.51796640100521],[139.85581188518117,36.51800982070033],[139.855841524846,36.51807678002385],[139.85590876898158,36.51817454221606],[139.85661040713677,36.517886060654156],[139.85690976092977,36.51775647465782],[139.8569698840823,36.517730291154336],[139.85713960196242,36.517661136013274],[139.85743125042862,36.51754312355028],[139.85745193219364,36.51753478681789],[139.85748165486015,36.517553093864315],[139.85758106338167,36.51761171246642],[139.85765360129452,36.5176515567976],[139.85770120624125,36.517675708759306],[139.85774815969805,36.51769710044209],[139.8577981147455,36.51771930365548],[139.85782940309758,36.5177302078677],[139.85786519764213,36.51774268250605],[139.85789095203356,36.517749570892214],[139.8579482874266,36.5177637023636],[139.85803357959176,36.517784378167796],[139.8581276894439,36.51780184143775],[139.8581851327079,36.517810921855954],[139.85829044048765,36.51782575011879],[139.8583746776503,36.51783449392198],[139.8584213849377,36.51783737299441],[139.85858757614704,36.517842885723766],[139.8585639937097,36.517771331806],[139.85855343081306,36.51773587002134],[139.85859897502957,36.51773227768259],[139.8586968465717,36.51772083387227],[139.85879875684824,36.51770150173169],[139.85892281870468,36.517668423234305],[139.85904305760707,36.51762829194529],[139.85915034819442,36.517581291372565],[139.85924686257437,36.51753421485732],[139.85933928178434,36.51747825140012],[139.8594058711194,36.51743669847755],[139.85949639934117,36.517366832110355],[139.8595678363844,36.517302467473094],[139.8596355853068,36.517228009652925],[139.85969428825962,36.51714805619345],[139.8597333431296,36.51707729976128],[139.85976313391163,36.51701609857408],[139.85979135980713,36.51694994087389],[139.85982816832865,36.516840791834],[139.85984957918484,36.516762739186426],[139.85986330914994,36.51666479604945],[139.85986849685435,36.51657698820714],[139.85985165939556,36.51643970632677],[139.85983503271262,36.51634285196277],[139.8598193624465,36.516291258184],[139.85978182977124,36.51619276173047],[139.85970226386138,36.51604797349669],[139.8596114157362,36.51588502067754],[139.85938841637562,36.51550382563596],[139.85912560459113,36.515054120223944],[139.85888344056136,36.51463593713788],[139.85887597803523,36.514623037575106],[139.85898924255204,36.51459173555068],[139.85925941874328,36.51453886411083],[139.85932271871368,36.514521726659],[139.85936526246297,36.51453667806923],[139.85940958471133,36.51452801642537],[139.85937384921695,36.51436773593344],[139.8592822553209,36.513956916790036],[139.85926887918149,36.51389692143598],[139.85926143532058,36.5138900565065],[139.85923823883005,36.513776943500304],[139.8592198208738,36.5136931077513],[139.85917243999228,36.51351325234074],[139.85955616412397,36.51350053466698],[139.86000129515912,36.513456905072935],[139.86039852715032,36.513410490915525],[139.86060049885933,36.5134052173526],[139.86152780319253,36.51325710582689],[139.8616442462886,36.51323851239345],[139.86166467685965,36.513235263024455],[139.86172646519984,36.51335998060173],[139.86178744043087,36.51339953064479],[139.86304076842984,36.51356586325454],[139.86307704634285,36.51354485513429],[139.8630821725275,36.51351997947339],[139.86318086864145,36.51322921286751],[139.86326495178983,36.51297350830895],[139.863270639017,36.51295602270909],[139.86331546823214,36.512819652925465],[139.8634206230772,36.51249058151547],[139.86364834949723,36.51183865250427],[139.86370822567787,36.51164180511008],[139.86400559465545,36.5106631558366],[139.86442984621104,36.510661242786625],[139.86545533520945,36.51068774156868],[139.86546819593457,36.51062462867411],[139.8655685761023,36.510628576596055],[139.86555921377294,36.51076092791403],[139.8654690570656,36.51119818134511],[139.86538676422217,36.51159729123868],[139.86530132991126,36.51197754699634],[139.86528459480442,36.5120571810342],[139.86523155170656,36.51232455316162],[139.8651807481833,36.51258949740753],[139.8651298810261,36.51285728012253],[139.86505784150174,36.51326059748149],[139.8653893249834,36.51338747425053],[139.86581545106128,36.51355054962635],[139.86647528519677,36.51380373353338],[139.86660527184904,36.513202878867226],[139.8666568108614,36.51295784311607],[139.86667036802322,36.51288615125331],[139.86741173462818,36.51298870381103],[139.86779327360833,36.51121651232627],[139.86788848537998,36.510697809007695],[139.86771365332356,36.51067308353227],[139.86777591065294,36.51032987080038],[139.86778375467492,36.510143742325745],[139.86672557521626,36.510101072484524],[139.8666975175198,36.5107997268459],[139.86610184167534,36.510780671083985],[139.86567377690423,36.51076509642685],[139.86568008848138,36.51063296224501]]]}},{"type":"Feature","properties":{"potaRef":"JP-1137","nameJa":"井頭公園","nameEn":"Igashira Prefectural Park","authority":"栃木県","boundaryStatus":"公的GIS・公式公園情報との照合済み（公式区域判定対象）","boundarySource":"国土交通省「都市計画決定GISデータ（令和7年度）」都市公園・緑地","boundaryScaleNote":"都市計画決定区域を使用。現地の供用区域やPOTA規則上の有効区域と差がある可能性があるため、境界付近は注意表示します。","cautionMeters":75,"sourceParkName":"井頭公園","sourcePrefecture":"栃木県","sourceCity":"真岡市","officialParkUrl":"https://www.pref.tochigi.lg.jp/h09/town/machidukuri/toshikouen/20130218kouentop.html","officialGisUrl":"https://www.mlit.go.jp/toshi/tosiko/toshi_tosiko_tk_000087.html","reviewNote":"公的GISの公園名・所在地と栃木県公式都市公園情報を照合済み","importedPolygonCount":1},"geometry":{"type":"Polygon","coordinates":[[[139.99151938490908,36.497972467771305],[139.99161618571583,36.49792781775276],[139.99248369695056,36.4975223639813],[139.9924983146741,36.49757434647741],[139.99251781218805,36.49766534648812],[139.99252370360455,36.49770778739616],[139.99253416963884,36.49780375631452],[139.99254001915662,36.49804384089738],[139.9925459004569,36.498190375921105],[139.99253941347723,36.49883856186167],[139.99254569984217,36.498910292778724],[139.99258266115086,36.49913447383698],[139.99264899919757,36.49942206347383],[139.99270266579686,36.49962693547153],[139.99280341577528,36.49998324420203],[139.9928165521384,36.50002017778566],[139.9928674761143,36.50013925460539],[139.99289643287727,36.50021546140828],[139.9931030636551,36.50070663503823],[139.99318110664987,36.50093040032003],[139.99336754144846,36.50131579406804],[139.99348224456463,36.50161494433316],[139.9935418912336,36.50174049810088],[139.99363186532403,36.50190242147429],[139.9936560846086,36.501954210638075],[139.99370861823084,36.50209473457421],[139.99378208261638,36.50231616231969],[139.99377977701735,36.50233491135844],[139.99377812466128,36.502345638420124],[139.9937792588362,36.502354288866215],[139.99388223280997,36.502486002774944],[139.99399119377617,36.502597610721836],[139.99402116348114,36.50262280527551],[139.99418940144204,36.502626183549374],[139.99429478217058,36.50262577104554],[139.99487033312835,36.502611834936715],[139.99504949235956,36.50260618474027],[139.99518154069753,36.5025996969478],[139.9954873792744,36.50258251846165],[139.99567557122595,36.50257234881303],[139.99574979883403,36.50256837242348],[139.99597747604935,36.50254255696599],[139.9962242562489,36.50252338422105],[139.9965159475918,36.50252082261416],[139.99707376009604,36.50251275824275],[139.9973779435601,36.502505130399896],[139.99738742605052,36.50250214324609],[139.99739500166032,36.50249483272843],[139.99741001024637,36.50246552156251],[139.9974324675734,36.50242169007329],[139.99749772485978,36.50229326272811],[139.99787536605072,36.50154912356876],[139.99795999815896,36.501398228178054],[139.9983157603629,36.50071107653465],[139.99834365632537,36.50065299763531],[139.99839978951897,36.50053990358392],[139.99866530837954,36.500044300559004],[139.99895638896606,36.499497290323404],[139.9992380985723,36.49895488872537],[139.9995152319982,36.49841456566076],[139.99857672392804,36.498281222797786],[139.99861772343888,36.498086406403615],[139.99867384734742,36.49786498222565],[139.99873716660682,36.497615338986535],[139.99874392995184,36.4975937897908],[139.99896895502135,36.49685409397327],[139.99898234314344,36.49679846839797],[139.9990160536601,36.49669360647168],[139.99910711260043,36.49636686777467],[139.99932570301627,36.49559662777425],[139.99939335910184,36.495393392334776],[139.99940167708914,36.4953682359384],[139.99947567209983,36.495101904259435],[139.99955427140063,36.49484881445568],[139.9996243961709,36.494652244657885],[139.99964272445771,36.49461049132452],[139.99966329883057,36.49457513371856],[139.99976523926625,36.49438050221878],[139.99985096381513,36.49422383580631],[140.0000157758895,36.49393908162577],[140.0001871528038,36.49364521541779],[140.0003108689049,36.49345632095981],[140.0003934329667,36.493336249239526],[140.00040567644615,36.49332009975173],[140.0004282782523,36.493293571401416],[140.0004561216944,36.49326496283392],[140.0004807351307,36.4932396032786],[140.00055915521415,36.493165140410035],[140.00058756382745,36.493139865638035],[140.00063904073252,36.49309743479678],[140.00070590509492,36.493047592112774],[140.0007483677068,36.49301770122031],[140.0007716619127,36.493001806562745],[140.00078247322867,36.49299449127903],[140.00082360101356,36.492966765228914],[140.00093552513758,36.49290108730819],[140.00099884764802,36.4928653089083],[140.00108647225133,36.4928152565855],[140.00118434308789,36.49275473530332],[140.00134039858926,36.492657090717685],[140.00145508988746,36.492581044054276],[140.00155896257607,36.492508978026585],[140.00161301374325,36.49247023825071],[140.00169447452168,36.4924091088166],[140.00178306017912,36.49233940740776],[140.0018345513244,36.492304095888926],[140.00186821500958,36.49228331963],[140.00189809597492,36.49226822657072],[140.00193433992402,36.4922534850123],[140.00205344412282,36.4922055504857],[140.0022026737885,36.49215243609122],[140.00237399902358,36.492097217337005],[140.00240033175837,36.492093034284835],[140.0024216499282,36.49209264357675],[140.00243884295028,36.49209442170768],[140.00248272236882,36.49210066824964],[140.00256870554105,36.49211785029559],[140.0027807662894,36.492162972249666],[140.00279505511628,36.49216376308027],[140.00280029604136,36.49216141239074],[140.00287561079935,36.49199520530776],[140.00292526112926,36.49188383056155],[140.0029457625532,36.49176483661977],[140.00300115148968,36.49167472314519],[140.00301983688757,36.491644324498616],[140.00303796654583,36.491615008137636],[140.00305620092524,36.49158253725498],[140.00280315125698,36.49157631782035],[140.00279891171425,36.49101358423483],[140.00280670333174,36.49084999654298],[140.00280584113145,36.49081286632363],[140.00280433211145,36.49073500058371],[140.0027684228755,36.49059553828737],[140.00274555626243,36.490448486970294],[140.00299385702652,36.49042839682323],[140.00297855353426,36.49032044898725],[140.00345398498993,36.49029760136754],[140.00344474764657,36.49010564855867],[140.00344102261448,36.48993342523244],[140.0034477838178,36.489758663454765],[140.00345935516677,36.489639862364896],[140.00347559455318,36.48951204212711],[140.0035166078114,36.48933119312034],[140.00357824824417,36.489140671302515],[140.00374732276052,36.488672862012244],[140.0038326472615,36.48844202038608],[140.00382781613442,36.488427517180455],[140.00378979687113,36.48839512653486],[140.0036603942804,36.48837521346882],[140.00361830010246,36.48836779318225],[140.003503635336,36.48835011203524],[140.00343999984037,36.48834263227981],[140.00341019288922,36.48833970064738],[140.00338228669582,36.488338298422015],[140.0033168782259,36.48833667924614],[140.0032158725637,36.48833835521693],[140.00315750235174,36.48833979017956],[140.0030908773598,36.48834330973057],[140.00304880802403,36.488347244945174],[140.0030074116984,36.488352711311286],[140.00287073488408,36.48837498618584],[140.00281729147818,36.48838371409875],[140.0026388892178,36.48841415920794],[140.00230071316653,36.48847024562878],[140.00169651794792,36.4885053471391],[140.0015949704581,36.488463041550794],[140.00110980395317,36.488314207505994],[140.00072501371554,36.48818163344486],[140.000372756247,36.48807343645064],[140.00015174160734,36.48801083845689],[140.00011355591158,36.488004132467815],[139.9991004296964,36.48783583902705],[139.99923929368066,36.487740023497345],[139.999201859309,36.487719166559536],[139.99912830551256,36.48777073010936],[139.99908757081678,36.48777240895029],[139.99905129020837,36.48776921484604],[139.99899008098157,36.487642764456176],[139.9988520428384,36.487707124956195],[139.99878632321597,36.487663866015865],[139.9987230111063,36.487650525174715],[139.99862779677483,36.48759342778701],[139.99842026708316,36.487677891764235],[139.99842504286826,36.48782460852079],[139.99838544948017,36.48783818203179],[139.99816450058958,36.487752868782096],[139.9980306863884,36.48786219482972],[139.99773682995888,36.48818741025565],[139.9977005143307,36.488220536128324],[139.99766999831147,36.48825167125439],[139.99762834827166,36.48829570956555],[139.99756811202698,36.488364918294835],[139.99746493077816,36.4884993463808],[139.99740483872412,36.488584146435926],[139.9972037554636,36.48886957795676],[139.9971034888991,36.48901067095989],[139.9968095614413,36.48941221993177],[139.99674779338375,36.48949684169106],[139.99668010927232,36.48958129126661],[139.99653843115868,36.48977525364923],[139.99650792748707,36.48981278732136],[139.99609643237034,36.49035968639362],[139.99609254620543,36.49036942518169],[139.99606895298936,36.490402533192814],[139.99603045382773,36.490459814992434],[139.9959742631666,36.490543617609276],[139.9959333137885,36.490603516337586],[139.99587264869288,36.490682728633516],[139.99579338035554,36.49077954057903],[139.99571885204344,36.49084795668476],[139.99563968913367,36.49094197451138],[139.9954445203751,36.49112573407152],[139.99524879392558,36.491310124938636],[139.99510354534428,36.491454251363855],[139.99502903076612,36.49152987700287],[139.99490429231514,36.49166117765436],[139.99467679772349,36.49192131546486],[139.99451547761424,36.49212106992921],[139.99397295174163,36.492793411967696],[139.99358244488204,36.493304223939646],[139.99352957399157,36.49337630468287],[139.9934770373053,36.49344811457883],[139.99340992953643,36.49354481845532],[139.99333937584646,36.49364855665088],[139.9932583619308,36.493767990544846],[139.99299410517244,36.49417796180041],[139.99282987836668,36.494434316198735],[139.9927660102066,36.49453308823911],[139.99260378518383,36.49478655564354],[139.99247648481887,36.494979592613994],[139.99240927171525,36.495080622037214],[139.99238569264648,36.49512211088596],[139.99237246417906,36.495148805464154],[139.9923425852552,36.495220945137156],[139.9921118678878,36.49522395613555],[139.9916302672579,36.49574218283662],[139.99151938490908,36.497972467771305]]]}},{"type":"Feature","properties":{"potaRef":"JP-1138","nameJa":"鬼怒グリーンパーク","nameEn":"Kinu Green Prefectural Park","authority":"栃木県","boundaryStatus":"公的GIS・公式公園情報との照合済み（公式区域判定対象）","boundarySource":"国土交通省「都市計画決定GISデータ（令和7年度）」都市公園・緑地","boundaryScaleNote":"都市計画決定区域を使用。現地の供用区域やPOTA規則上の有効区域と差がある可能性があるため、境界付近は注意表示します。","cautionMeters":75,"sourceParkName":"鬼怒グリーンパーク緑地","sourcePrefecture":"栃木県","sourceCity":"宇都宮市","officialParkUrl":"https://www.pref.tochigi.lg.jp/h09/town/machidukuri/toshikouen/20130218kouentop.html","officialGisUrl":"https://www.mlit.go.jp/toshi/tosiko/toshi_tosiko_tk_000087.html","reviewNote":"公的GISの公園名・所在地と栃木県公式都市公園情報を照合済み","importedPolygonCount":1},"geometry":{"type":"Polygon","coordinates":[[[139.9530799869475,36.63465727741342],[139.954050189803,36.63509357099759],[139.95417719163123,36.63514472171142],[139.95421100150438,36.63515687266385],[139.95432564155269,36.634756051628045],[139.95456730099636,36.63398174126214],[139.95459412334907,36.63390132441994],[139.95460745566433,36.6338466063178],[139.9546164317122,36.633794956833285],[139.95461891376632,36.633738086858656],[139.95460620112271,36.63347728465504],[139.95460615270312,36.633446642975585],[139.95460610884075,36.63341888521876],[139.9546060928908,36.63340879148898],[139.9546103593966,36.63334894563926],[139.95461887644254,36.63328990656861],[139.95463042293204,36.63323735324452],[139.95466560359537,36.63313917369691],[139.95468687995424,36.633087511656754],[139.95469976039317,36.633030000212806],[139.95472430524802,36.632853154382055],[139.95473260008802,36.63279510688097],[139.95474414742503,36.63274318439974],[139.95476697073295,36.632679894931194],[139.9548716507116,36.632406896316326],[139.95487888853484,36.63238760265088],[139.95493414440793,36.63225668792536],[139.9549802767965,36.632154802028964],[139.9550036531284,36.63208790703402],[139.95503337246376,36.6320016291515],[139.9551029671189,36.631816806262044],[139.95514240970732,36.63172745421065],[139.9551829792695,36.63164368859844],[139.95520929934776,36.63159995208031],[139.9552298199425,36.63156577451534],[139.95523828231978,36.63154314502817],[139.95527652351115,36.63147199895288],[139.95528243749132,36.631464152205616],[139.95532981787758,36.63144454693485],[139.9553880275983,36.63142369036413],[139.95542330588412,36.6314197781009],[139.9554898865324,36.63143327535495],[139.95555407467359,36.631455172820154],[139.95560625063254,36.631487418409485],[139.95568899865364,36.631560771353364],[139.95571537350872,36.63163214109259],[139.95571330689168,36.631706142923846],[139.9556824808548,36.63178529884785],[139.95561985176488,36.631919556058875],[139.95556504112977,36.632048307705325],[139.95546154780655,36.632292196085615],[139.9554040981251,36.632422118019115],[139.95548156689645,36.63246396593205],[139.95502184819628,36.63370816044093],[139.95489603670907,36.63375429610856],[139.9548686025853,36.63387184420921],[139.9548789426803,36.63390490867207],[139.95489684045265,36.63397933173202],[139.95491868962358,36.634077453020815],[139.95495144184795,36.634210981373336],[139.9549981690455,36.63441307879255],[139.95500954460383,36.63453491305595],[139.95501525097293,36.634607546120115],[139.95498585528946,36.634686974332375],[139.95483600251725,36.63468181043066],[139.95480424118136,36.634679770084155],[139.95476989646414,36.63474117875954],[139.95475440822216,36.63477616220104],[139.95471889735924,36.634878037149626],[139.95463234795608,36.63509207685231],[139.95456738791415,36.635240124637605],[139.95454379034737,36.635309362950906],[139.95453667653052,36.63533658726468],[139.95448665744476,36.63552805889949],[139.95441727734408,36.635710087356955],[139.95434406271792,36.63587175194512],[139.95428370224724,36.63602988861412],[139.95420489220774,36.63626032241745],[139.95413266234286,36.63640882794726],[139.95401156286653,36.63684117940851],[139.9539279773684,36.637164894819975],[139.9537324128277,36.63789193250756],[139.95354072831063,36.63852821234835],[139.95353082530133,36.63856003566535],[139.95358182899835,36.63856593214843],[139.95356191173093,36.63862993939108],[139.95352664998853,36.638750198690104],[139.95352098138363,36.63877237459737],[139.9533734301189,36.6393140707694],[139.95330675613425,36.639514120263186],[139.9532770459924,36.63960931977083],[139.9532765020517,36.639619053565085],[139.95327332600422,36.639661955148],[139.953153048325,36.639982372367385],[139.95312273559728,36.64004999491129],[139.95304298879748,36.640186611082164],[139.95302013027157,36.640229622608196],[139.95291412029007,36.640521185942035],[139.95284584309468,36.64077035358245],[139.95279564891135,36.64092613595708],[139.95326105104562,36.64111336280807],[139.9528474232495,36.64148130952304],[139.95273948049459,36.64160154612288],[139.95266138030584,36.641730762300696],[139.9525684445401,36.64191104765645],[139.95215620186957,36.643122934064515],[139.95186652299063,36.64408629884174],[139.95185174709206,36.64417640947597],[139.951833497854,36.64443169974817],[139.951586252693,36.644461504441885],[139.95155999899936,36.644552464274206],[139.95153186051348,36.644654150563646],[139.95150974819586,36.64474735932615],[139.9514520870535,36.64499624515106],[139.95140168248298,36.64523692257039],[139.9513151193558,36.64574638141309],[139.95127018768451,36.6459829076729],[139.9512362402534,36.64623510433232],[139.95119924214083,36.64646729678845],[139.95109348272,36.64715062082909],[139.95102189544238,36.6475826491797],[139.9509034610685,36.64831708496358],[139.95081425623817,36.648858719542474],[139.95078599862026,36.64903034078532],[139.95079545654391,36.649071427306495],[139.95075282014378,36.649421415230414],[139.95075038134246,36.64943565699988],[139.95074637518394,36.64944890897081],[139.95074162294335,36.649486224392646],[139.9507360782585,36.64951732214323],[139.9507081743679,36.649628020175676],[139.9506991880898,36.649675884113265],[139.95054491943685,36.650679009881266],[139.9505167909392,36.65086279741904],[139.950492426731,36.65102143705443],[139.95046551413836,36.651195940753226],[139.950447463017,36.651313928899846],[139.95042553497834,36.65145670454895],[139.95040294209386,36.65160362648055],[139.95033527408762,36.652043941506754],[139.95097641798506,36.652108363916675],[139.9515153472867,36.648744109206675],[139.9520949317415,36.64630719632253],[139.9528029281094,36.64358961261039],[139.95351292613068,36.64062432543019],[139.9537759244941,36.63934244603095],[139.95420655809983,36.63799400491066],[139.95439902326348,36.63718180943693],[139.9544031953661,36.637132778449654],[139.954451803307,36.63703837046404],[139.95451447345235,36.63685544764345],[139.95452717991708,36.636828938614585],[139.95453753672038,36.636801620877144],[139.95457126858219,36.63670551568171],[139.95458497389876,36.63667422912459],[139.9546657995536,36.63651670228122],[139.9546720253736,36.63649362451555],[139.95468846713322,36.63642493423576],[139.9546993805355,36.6363960838283],[139.9547218956673,36.636349377274634],[139.95475231908148,36.63628283564326],[139.95478039351917,36.636215935913725],[139.9548486702223,36.63604355151722],[139.9550185704014,36.63564314273962],[139.95514970165678,36.635335960324866],[139.95518167668905,36.63526112569349],[139.95532414541904,36.6349115737673],[139.9553700368148,36.634798152270974],[139.95541929154547,36.63469022478453],[139.95544469596356,36.6346327003872],[139.95562315297263,36.6342025413656],[139.95572695302909,36.63393945638404],[139.95583623097087,36.633675915039696],[139.95593379461195,36.63342977935898],[139.95603450516208,36.633193914376875],[139.9563100615543,36.63258214691784],[139.9564852490841,36.63221084012783],[139.9565053032007,36.63216494687695],[139.9565342753091,36.632101830936385],[139.95655044906323,36.632076760049024],[139.95656328598668,36.63206277771475],[139.9565822728783,36.63204869887739],[139.95660135870733,36.632026599012086],[139.956618663649,36.63200963798666],[139.95664711789823,36.63197229765312],[139.95667423201536,36.63193604017637],[139.95670167316962,36.631894555235725],[139.95679538031038,36.63168699539323],[139.9568809758909,36.63151161771902],[139.95697224310632,36.631317128057944],[139.95707446580047,36.63112118494891],[139.95716820036668,36.630931829552324],[139.9572689716185,36.630737870477475],[139.95737240504053,36.630530930857475],[139.9573813143877,36.63050857111642],[139.95746701391727,36.630329948461274],[139.95762028241523,36.630032563422894],[139.95773610054886,36.629810109396104],[139.95788791176417,36.629511734164474],[139.95807428325435,36.62915077725297],[139.95826991582007,36.62877881531502],[139.95846927326073,36.62842946992815],[139.95860496519367,36.628192033689885],[139.95873520166833,36.62796947330443],[139.95878929505741,36.62788578226675],[139.95912043324833,36.62716859555993],[139.95912422028798,36.62715966939475],[139.95914140749693,36.62714009455401],[139.95917741966412,36.627076880344596],[139.95918666515828,36.627055511451104],[139.9592001502403,36.627028460330365],[139.9592077219238,36.62700916603223],[139.9592113919636,36.62699708569016],[139.95922517553998,36.62694750355114],[139.95923752916633,36.62691234257265],[139.95924443497472,36.6268961131524],[139.95926550067526,36.62685526520331],[139.95928020573507,36.62682217455234],[139.9592865546795,36.62680729756158],[139.95928956741668,36.62680350921082],[139.95929981177227,36.626777633108965],[139.95931196004005,36.626753647566574],[139.959311170996,36.62674977312269],[139.95931149076688,36.626740219767],[139.9593127084382,36.626732738283785],[139.9593167168426,36.626722460035204],[139.95932630464154,36.62670532653838],[139.959330986579,36.626696669785574],[139.9593358906622,36.626687111569],[139.95934268639158,36.62667196373282],[139.95934937163634,36.62665762711855],[139.95935483374242,36.62664743744981],[139.95936029776925,36.62663841937516],[139.95936620889677,36.6266293107033],[139.9593708937826,36.626622456401705],[139.95938193837236,36.62660730405667],[139.95938729339062,36.6265999984296],[139.9593920906768,36.62659350449912],[139.95939878463201,36.62658448511794],[139.95940469723004,36.62657627767055],[139.95941016316888,36.62656843118792],[139.9594155171464,36.626560494701025],[139.95942064749804,36.626552558451166],[139.95942566574035,36.62654444207439],[139.9594304602091,36.626536235812075],[139.95943503120006,36.62652811990948],[139.95943960189416,36.62651982376142],[139.95944439547216,36.626511076762625],[139.95944952300627,36.6265014281812],[139.9594532015665,36.626494574944196],[139.95945743755976,36.62648672976464],[139.95946189658474,36.62647852385699],[139.95946646742107,36.62647031783049],[139.9594710382564,36.6264621118038],[139.95947572090293,36.62645390565824],[139.95948073824525,36.626445248543156],[139.95948642512747,36.626435779611896],[139.95949534656884,36.626421440615],[139.95950047675515,36.62641341423887],[139.95950583086068,36.6264055678704],[139.9595111851132,36.62639781162433],[139.95951676298887,36.626390055140554],[139.95952222919937,36.6263823888979],[139.95952847631696,36.62637364035204],[139.95953505724063,36.62636390010052],[139.95953896044745,36.62635767748178],[139.95954431306455,36.62634892988504],[139.9595468757096,36.62634342967224],[139.95954709563185,36.626341176368555],[139.95954429440755,36.626337574431446],[139.95954127385335,36.62633658628856],[139.95952852742738,36.6263366899478],[139.95952025466786,36.62633750983782],[139.9595111999639,36.626338781171555],[139.9594987932662,36.62634149802826],[139.95947856771485,36.62634908981514],[139.9594687353558,36.6263534261465],[139.95945979556865,36.62635658993322],[139.95944783567074,36.626359035941995],[139.9594367683455,36.626360309405946],[139.95942346477815,36.62636158524164],[139.95940334363084,36.626364670764744],[139.9593925011114,36.62636666496852],[139.9593816587393,36.62636874929397],[139.9593707044066,36.62637074361435],[139.9593546071601,36.62637301375615],[139.95934879396543,36.62637365078036],[139.95933560220638,36.62637492648767],[139.9593266593071,36.62637619768882],[139.9593157046763,36.62637801175887],[139.95920537639358,36.62639660384624],[139.95901459962397,36.62644970785317],[139.95885939112569,36.62651025418118],[139.95883001761808,36.62653056283584],[139.95881561870755,36.62654580879484],[139.9587665653118,36.62656559747617],[139.95859314388602,36.626634093486096],[139.9584456190749,36.62667579550898],[139.95826192266628,36.626751872168676],[139.9580735345896,36.62683092752189],[139.9578984710079,36.62692177469638],[139.95770340970103,36.62702327703421],[139.95748622168816,36.627132732977294],[139.9573429846841,36.62719948328968],[139.9572089502908,36.62728740269262],[139.9569168444171,36.62746560923707],[139.9565354921113,36.627702667684744],[139.95623068460222,36.62791107683871],[139.95600563970214,36.628074701988666],[139.955744329455,36.62828567853475],[139.95561809815896,36.62843108642836],[139.955278414137,36.62878994392102],[139.9551085509107,36.628991993133894],[139.95506712178621,36.62902646248343],[139.95501987990625,36.62906201924468],[139.95491896990228,36.62917054023469],[139.95471165922643,36.62945148460108],[139.95440461813516,36.62988186366677],[139.95406698004967,36.63034057155083],[139.95371470146884,36.630806773468],[139.953361446655,36.63129496524434],[139.95335151376216,36.631307141847664],[139.95327320854602,36.631430058208515],[139.95308052062282,36.631702242972764],[139.9529530779479,36.631866394716326],[139.9526838371654,36.632240404423996],[139.95240213271035,36.63258288304239],[139.95230370133783,36.63270870283722],[139.95221901461414,36.632828650819214],[139.95212182689528,36.63296366173124],[139.95205535653412,36.63307710254235],[139.95201633036885,36.633149239701545],[139.9519946145339,36.63320712017157],[139.951980947907,36.63326373088107],[139.95197274787134,36.633312134963425],[139.95196373693975,36.633342335071376],[139.95177187552156,36.63357639498891],[139.9517004396256,36.63366109142771],[139.95165847101046,36.63371088098151],[139.95162409420604,36.63375282228394],[139.95170579185964,36.633796180068444],[139.95180674388033,36.633852946884275],[139.95263771100082,36.63443448838788],[139.95293117070818,36.63459956852757],[139.95301791051105,36.63464832769203],[139.9530799869475,36.63465727741342]]]}},{"type":"Feature","properties":{"potaRef":"JP-1139","nameJa":"栃木県中央公園","nameEn":"Tochigi Central Prefectural Park","authority":"栃木県","boundaryStatus":"公的GIS・公式公園情報との照合済み（公式区域判定対象）","boundarySource":"国土交通省「都市計画決定GISデータ（令和7年度）」都市公園・緑地","boundaryScaleNote":"都市計画決定区域を使用。現地の供用区域やPOTA規則上の有効区域と差がある可能性があるため、境界付近は注意表示します。","cautionMeters":75,"sourceParkName":"栃木県中央公園","sourcePrefecture":"栃木県","sourceCity":"宇都宮市","officialParkUrl":"https://www.pref.tochigi.lg.jp/h09/town/machidukuri/toshikouen/20130218kouentop.html","officialGisUrl":"https://www.mlit.go.jp/toshi/tosiko/toshi_tosiko_tk_000087.html","reviewNote":"公的GISの公園名・所在地と栃木県公式都市公園情報を照合済み","importedPolygonCount":1},"geometry":{"type":"Polygon","coordinates":[[[139.8597784081139,36.55909729938234],[139.85985862367565,36.55910881729881],[139.8599662525349,36.55924415917387],[139.8601156589601,36.55968645333313],[139.86024246417819,36.560025830984436],[139.86031109322283,36.56012540221644],[139.86032529276903,36.560158113934904],[139.86032530047945,36.560180014025626],[139.8603184948566,36.56020588111738],[139.8603100106215,36.560223637445645],[139.86030331432892,36.56024274522374],[139.86030544357726,36.5602615806207],[139.86048439781425,36.560530919879184],[139.86051712840717,36.560523612342614],[139.86053378813364,36.56056263213764],[139.86054008329296,36.560577376416155],[139.86070116246782,36.56053339787944],[139.86086286403994,36.56049093198832],[139.86086243451186,36.56048964604444],[139.86073941385473,36.56012133845218],[139.8611775293265,36.560017593882186],[139.86150181396016,36.55993946998651],[139.86154213963562,36.559928645532324],[139.86157252286677,36.55991872467278],[139.86159251407037,36.559902317367744],[139.8616160780308,36.5598800511569],[139.86163383325834,36.55985922831026],[139.86164443640183,36.559832368872485],[139.8616499023183,36.559810197101214],[139.8616493373162,36.559792803334595],[139.86164340664146,36.5597664885895],[139.86187262979197,36.5597165049953],[139.86268138330888,36.559529210372915],[139.86284445908143,36.56003359302833],[139.86284535899858,36.560036376393946],[139.86380725798068,36.559819844443076],[139.86380658892833,36.55981786348616],[139.8635516902449,36.559063141512574],[139.86348380290983,36.55886921226313],[139.86461045689967,36.55861612295809],[139.86523008219942,36.55848239433254],[139.86518980582025,36.55833973908478],[139.86509809186268,36.55807876495531],[139.8649892661181,36.55776885804833],[139.8649722662374,36.557721817921],[139.86489032360797,36.557584130469714],[139.86486336621883,36.55750032243154],[139.8648592273068,36.557486895073644],[139.86482320722757,36.557369022606416],[139.86479099060006,36.55726358621329],[139.8647847207283,36.55722961117166],[139.86478042494693,36.55710623270946],[139.86479435831657,36.557031606432865],[139.86480449852303,36.55696932813364],[139.86429580672387,36.55708202681948],[139.86346675109564,36.5572688870388],[139.8627583316746,36.55743047690362],[139.8625730172554,36.55747558470907],[139.86238826115002,36.55752060196237],[139.86158969310088,36.55770527863519],[139.8611330443662,36.55780190932133],[139.8606817588327,36.55790439507096],[139.8600314110286,36.55804342431123],[139.86002560281904,36.55804466595313],[139.86004686650097,36.55815490405244],[139.86006732764773,36.5582049181828],[139.86022611754538,36.558649283011846],[139.86022121866375,36.558696509026596],[139.86021832454247,36.55872634068096],[139.86021821854808,36.55874265312354],[139.86021297639059,36.55876671738347],[139.8601773561568,36.55881467135352],[139.86013402899746,36.55886677275395],[139.86008947036686,36.558911574383984],[139.86005138503413,36.558938800385164],[139.85988797879128,36.559033737550834],[139.8597784081139,36.55909729938234]]]}}]}
