{"type":"FeatureCollection","metadata":{"title":"超軽量ログ Ver.1.10 POTA公式区域・岐阜県","status":"公的GISと公式公園情報を照合した区域だけを実判定に使用","source":"国土交通省 都市計画決定GISデータ（令和7年度）","promotionConfig":"data/pota-boundary-official-promotions.json"},"features":[{"type":"Feature","properties":{"potaRef":"JP-1434","nameJa":"岐阜県百年公園","nameEn":"Gifuken Hyakunen Prefectural Park","authority":"岐阜県","boundaryStatus":"公的GIS・公式公園情報との照合済み（公式区域判定対象）","boundarySource":"国土交通省「都市計画決定GISデータ（令和7年度）」都市公園・緑地","boundaryScaleNote":"都市計画決定区域を使用。現地の供用区域やPOTA規則上の有効区域と差がある可能性があるため、境界付近は注意表示します。","cautionMeters":75,"sourceParkName":"岐阜県百年公園","sourcePrefecture":"岐阜県","sourceCity":"関市","officialParkUrl":"https://www.pref.gifu.lg.jp/page/5775.html","officialGisUrl":"https://www.mlit.go.jp/toshi/tosiko/toshi_tosiko_tk_000087.html","reviewNote":"公的GISの公園名・所在地と岐阜県公式都市公園情報を照合済み","importedPolygonCount":1},"geometry":{"type":"Polygon","coordinates":[[[136.87697171037755,35.4754585772485],[136.87702138200402,35.47541981913306],[136.8770720614188,35.47538272198894],[136.87714199798216,35.47533160919828],[136.87717444280963,35.475306042227686],[136.87726872981568,35.475231010557174],[136.8774151098173,35.475084036826765],[136.877595427908,35.474885061373065],[136.87769346706452,35.47477743474893],[136.8778456171688,35.474606497083066],[136.87797071115077,35.4744672147357],[136.8780075247594,35.47442771334289],[136.87806170904796,35.47434385957391],[136.8781294516055,35.47423404184423],[136.87820547086548,35.47411458085788],[136.87826417840472,35.47401985791612],[136.87832750655173,35.473887070883414],[136.878351643458,35.47383637075947],[136.87841864211362,35.47372171957972],[136.878529135767,35.4735848175068],[136.87858994173743,35.4735317891193],[136.87868222349337,35.473461916545745],[136.8787167420504,35.47343540762864],[136.8788464404483,35.47336985175346],[136.87895086572917,35.47332759976092],[136.87903928232083,35.473293980988416],[136.87911522625717,35.47326313578695],[136.87935446725814,35.47318477000901],[136.87953227201012,35.47312919822259],[136.87968860089003,35.47307962350009],[136.87982895107874,35.47303645560566],[136.8799428271947,35.47299805615771],[136.88001375597008,35.47297365249269],[136.88007919292608,35.472950443620654],[136.88018357200698,35.47292088214873],[136.88024998345273,35.4729025069972],[136.88031053251592,35.47285310074873],[136.8804298980862,35.47281712961327],[136.88050289392385,35.47281568920321],[136.8805228570056,35.47281359120344],[136.88058880911967,35.47278796752489],[136.88065109565284,35.472761262458334],[136.88070007516373,35.47273961873752],[136.8807493922295,35.47271288288986],[136.8808060382722,35.47268266695097],[136.88087770948133,35.47263825346768],[136.88091670312747,35.47261417927601],[136.88098075397946,35.47255901202193],[136.88101544806494,35.47252928486032],[136.8810724947314,35.472479193885924],[136.88111021061312,35.47244248800129],[136.88114127571004,35.472404432299896],[136.8811619795681,35.472379773918554],[136.88120179894685,35.47231219103531],[136.88121753072673,35.47228510513341],[136.88125200546406,35.47222072758791],[136.8812667382745,35.472192566651415],[136.8812891732626,35.47214884774179],[136.88131429283567,35.47210003325361],[136.8813400678144,35.47205283381424],[136.88136585037273,35.47200348004203],[136.8813896233195,35.47195841217553],[136.88143850423577,35.471867765784545],[136.8814565959471,35.471830742989354],[136.88150683469206,35.47173310491659],[136.88152827014767,35.471691528927984],[136.88154401059657,35.47165880023949],[136.88159558237916,35.47156117428959],[136.88161701337276,35.47151771434817],[136.88166053660777,35.471436988629456],[136.8817033885919,35.47135598187507],[136.88174828569478,35.471263703422736],[136.88176872006304,35.47122159319864],[136.88180021977604,35.47115693804079],[136.88183203895184,35.47109229264182],[136.8819263232164,35.4709028876622],[136.88201679705665,35.47071276150981],[136.88206727730994,35.470614988542124],[136.88212453456106,35.470504548834015],[136.88215244068593,35.47044640222356],[136.8822036939414,35.47034179840567],[136.88222832210283,35.47028827724505],[136.8822830879793,35.47017802989139],[136.8823107258736,35.470120892176475],[136.8823625536594,35.46999694559788],[136.88238318860675,35.469944622871786],[136.88239374385958,35.46992290596846],[136.88241606299596,35.469817819255525],[136.88243032377358,35.469735681228485],[136.882434920014,35.46970709063445],[136.882350163589,35.4696915852421],[136.8823092684788,35.46968665739933],[136.88233337473787,35.46955907596682],[136.88233338905252,35.46953309765568],[136.8823234489077,35.469505293094144],[136.88228326273554,35.46942421664899],[136.88223868120463,35.46933346682477],[136.88219983094356,35.46921101022699],[136.88218687071424,35.469174121437646],[136.88218314142492,35.46916928114418],[136.88216819100475,35.4691656222778],[136.8819534562817,35.46915725572946],[136.8819025875579,35.4691529081602],[136.8817986197849,35.46914238686561],[136.8816142231488,35.4691173613299],[136.8814550220986,35.46909350377436],[136.88132264336775,35.4690750637381],[136.88118357723312,35.46904391602846],[136.8810572692883,35.46900071958978],[136.8809436341198,35.46896963177824],[136.88085163709326,35.46895793012948],[136.88074239494222,35.46895585958123],[136.88054557797832,35.468956601056824],[136.88042061056655,35.468958125580805],[136.88029862063584,35.468962063777546],[136.88020878333876,35.46897211754327],[136.87995461126303,35.46900791257189],[136.8796919144863,35.46902089039296],[136.87947197669962,35.46900405192904],[136.8793115460107,35.46897918806801],[136.87916457301358,35.46896252273354],[136.87906133979828,35.46895320870766],[136.8790040908228,35.46895217087971],[136.8789611486986,35.46895290682988],[136.87888399079503,35.46896067323415],[136.87878212666942,35.46898459684764],[136.87866751284938,35.469021190677886],[136.87859183555676,35.469049404177],[136.87845448870013,35.469092577847526],[136.87835610514085,35.469122963434266],[136.8782527185883,35.469156563997196],[136.87822525799723,35.46916334000086],[136.87812043470444,35.46917961211169],[136.87805556037839,35.46918791213416],[136.8779956649714,35.469196629659635],[136.87796321149506,35.469203799292075],[136.87792723919623,35.469218216766556],[136.87788375361222,35.46924147701452],[136.87777779586204,35.46929762404061],[136.87773181999785,35.46932087827287],[136.87770384810094,35.469328869823215],[136.87763045184118,35.469347623479734],[136.87748016251186,35.469383112158795],[136.8773633221602,35.46941344369632],[136.8772029775025,35.46946907224002],[136.87706710316607,35.46951909849496],[136.8769823725459,35.46954897487513],[136.8768891239639,35.469582048742616],[136.87682851977218,35.46960393343587],[136.8767782482711,35.46962046155925],[136.87672863360936,35.469635107314005],[136.87666638440948,35.46964865904037],[136.87661013416576,35.469660873051545],[136.876556551347,35.46967283204199],[136.87644269199657,35.469701294938716],[136.8763544792618,35.46972497890123],[136.87632217233838,35.46973725937977],[136.8763105115686,35.46974421717641],[136.8762858245588,35.469764024635225],[136.87624010806985,35.46980688436322],[136.8761842773281,35.46985866161691],[136.8761506925605,35.469889210345244],[136.87613846532938,35.4698974106931],[136.87612869451146,35.46990275951571],[136.8761166979272,35.46990810297956],[136.87610204714622,35.469913079492734],[136.87605788729456,35.4699244299652],[136.8760024009699,35.4699386195965],[136.87590097813316,35.469964876457425],[136.87578801162823,35.46999307046466],[136.8757258783652,35.47000796506901],[136.87564709271962,35.470026758607546],[136.87558895400576,35.47004004025324],[136.87548843762093,35.470062359836064],[136.87542096673306,35.47007848533757],[136.8753805828161,35.470087699341704],[136.8753098030062,35.47010167146413],[136.87526830748072,35.47011052218739],[136.8752343538854,35.470117957881705],[136.87519573424035,35.47012986225464],[136.87514224267818,35.470146922757216],[136.87509540573288,35.47016112384713],[136.87505056438792,35.47017498720851],[136.87499883770676,35.47019151107161],[136.87490739070904,35.47021957597263],[136.87486299069832,35.47023326005095],[136.87481615358942,35.47024747905965],[136.87476132799023,35.47026470743286],[136.87468164157758,35.47028869923634],[136.8746217090859,35.47030734841674],[136.87456754840585,35.47032350564495],[136.87451805184043,35.47033878175281],[136.87446255329115,35.470356197654795],[136.87440106703,35.470374851977525],[136.87435756070167,35.47038816845937],[136.87430518752302,35.47040361779276],[136.87426878621665,35.47041446358982],[136.8742195137976,35.47042866745231],[136.8741815562846,35.47044021254392],[136.8741436103497,35.47044855768324],[136.87413383934944,35.47045085961252],[136.8741001298635,35.470454717022214],[136.87405291535669,35.470451375555754],[136.8740161219413,35.47044878045866],[136.87397287931654,35.47044707111054],[136.87392699351005,35.47044499477634],[136.8738917264502,35.47044689231305],[136.87383290978656,35.47046465142169],[136.87377230479672,35.47048330756137],[136.8737163672024,35.47050018121404],[136.87366842597132,35.470514919907714],[136.8735885153467,35.47053981184235],[136.87351948222272,35.47056112454547],[136.87345623063112,35.47058031493743],[136.87341405792665,35.470593463051976],[136.87337765514033,35.470604660121644],[136.87333103731092,35.470619050350756],[136.87326045880963,35.470641080268905],[136.8732058568879,35.47065723581135],[136.87312505221894,35.470682467795896],[136.87304427219146,35.47070696965249],[136.873010749096,35.47071710095114],[136.8729925616757,35.47071884147055],[136.87298303046003,35.47071881827919],[136.8729644165795,35.47071662765497],[136.872904362629,35.470704853451934],[136.8728398798502,35.47069287914357],[136.87272289552237,35.47067094268201],[136.87270693848856,35.47066839792876],[136.8726745713055,35.47066670558825],[136.8726570495747,35.47066719473334],[136.87262777140018,35.47067053069993],[136.8725836289019,35.47067686815888],[136.87253791195403,35.47068588793528],[136.87245050243052,35.47070323415452],[136.87237396585968,35.47071827219757],[136.872324481111,35.470727102426025],[136.87229344315432,35.47072954163435],[136.87223733169665,35.47073352416354],[136.87221520883293,35.47064505192198],[136.87219897595494,35.47058216674834],[136.87217337196446,35.4704874483196],[136.8721701801073,35.47040486332427],[136.87216973200933,35.4703887452079],[136.87215264409554,35.470288404789635],[136.8721458022072,35.47024890679567],[136.87212091531282,35.47009658165638],[136.87211112923788,35.47004258196961],[136.8721028630191,35.46998576461021],[136.87208669939193,35.46990395019321],[136.87207641486293,35.46978119052533],[136.87203545938334,35.46946974713216],[136.87198983966366,35.469053594748964],[136.87196354701544,35.468879037599564],[136.8720742228241,35.468793052838514],[136.87188859876332,35.46877028098326],[136.87167083634483,35.46873771320996],[136.8716359122619,35.46884802227267],[136.87160602681175,35.46903889271703],[136.87160996589967,35.46908566696197],[136.87162279047297,35.46926395009579],[136.8716467944741,35.46945253650494],[136.87167154124143,35.469639916843626],[136.87168323601873,35.46971728551098],[136.8717138512826,35.46993913166662],[136.87171971969633,35.46997055978169],[136.8717269674697,35.47003463094443],[136.87174093442505,35.4701023421508],[136.87175830798301,35.47026312216432],[136.87177869857237,35.470418465089615],[136.87179103477013,35.4705224175746],[136.87179729239745,35.470652495790574],[136.87186842992966,35.47084573129455],[136.87189077700128,35.470905891187996],[136.871760925042,35.47094665976636],[136.8717239569834,35.47095865719997],[136.87163054988903,35.47099186181054],[136.87153114256964,35.471026674195286],[136.8714274088533,35.47101514398658],[136.87135509999138,35.471006908576996],[136.8712440749516,35.47099151139528],[136.87118246467384,35.47098349136218],[136.87118404585652,35.4709759685483],[136.87109339339523,35.47096697596718],[136.87106063324657,35.47095822427422],[136.87104193012658,35.470953319922884],[136.87101052938985,35.470943453810726],[136.87097440741474,35.47093198966107],[136.87083548211575,35.470910754791916],[136.87065291435795,35.47088263421212],[136.87064975128138,35.47088882808223],[136.8706352155937,35.47088631358315],[136.87051327825245,35.471124425563694],[136.8703646000778,35.47142183792337],[136.8700008266323,35.47213124692425],[136.8699048803799,35.472462085946454],[136.86928314872875,35.47359086494629],[136.86912585065863,35.47389553770012],[136.86898576047895,35.47409043525222],[136.86879255477027,35.47434554119011],[136.8685993368513,35.47460063776084],[136.8684272431387,35.474822578681184],[136.86826019936683,35.47504045750963],[136.868104946451,35.4752461603276],[136.86792807693723,35.475456622900815],[136.86784324982298,35.47556656381284],[136.86778880018448,35.47563268178238],[136.86774179869283,35.47570203616725],[136.8676838072705,35.47578420823772],[136.8676293333308,35.475862765372185],[136.86757382846636,35.47594294244333],[136.86750990047938,35.476018267113005],[136.86746095873244,35.47607879188201],[136.86738002035145,35.47617978219356],[136.86723389821447,35.47636171857818],[136.8670077228066,35.47640272069906],[136.86680526697546,35.47643035049419],[136.8663461621619,35.47649105387833],[136.8658681648084,35.476650510706975],[136.8659969773793,35.47680633192204],[136.86603769794425,35.47694468082986],[136.866020182396,35.47695793282361],[136.86599963350133,35.476980849262176],[136.86596562166847,35.47700292089552],[136.86594328502605,35.477017639159016],[136.8659099488078,35.4770358274331],[136.86588697399463,35.47704140391657],[136.86587565384852,35.477045143548764],[136.86538632250608,35.47665562762041],[136.86537041531284,35.47663947090622],[136.8653053462881,35.47669208531952],[136.86528432543298,35.47670855546013],[136.86525276984372,35.47674272077917],[136.8651760243931,35.476847235518356],[136.8651128890254,35.476860012849194],[136.86509967210765,35.47692608837838],[136.86508396142898,35.47699009347162],[136.86508134462574,35.47702392542548],[136.86508668648818,35.4770630053771],[136.8651004352242,35.47712305483176],[136.8651058171807,35.47714845165593],[136.86510527619143,35.47716052904136],[136.86510557952988,35.47721208978176],[136.86507233849105,35.47729618830343],[136.86506875252792,35.47732396043695],[136.86506864570597,35.47735256153714],[136.86507787046034,35.477414195160904],[136.86511330743758,35.47754176846512],[136.86510982498976,35.47767166026284],[136.8651008010584,35.477683121527924],[136.86500110169072,35.477731205334656],[136.86503464335144,35.47779385521966],[136.8650673425617,35.477851941914636],[136.86511255807932,35.477946043690515],[136.865129731678,35.47798019550747],[136.8651468852847,35.47801675400498],[136.86518417483788,35.478093916706094],[136.86519901735892,35.47812671059203],[136.86520562915229,35.47814150102357],[136.8652420212533,35.478193422315634],[136.86525955566455,35.47821950750077],[136.86529991593216,35.47827708143747],[136.86536444963826,35.478362370608416],[136.86539622767512,35.47840460833123],[136.8654405853251,35.47846299444264],[136.86546933599658,35.47851328308853],[136.86549979577833,35.47855148824376],[136.86552759877816,35.4785870096095],[136.86555407445488,35.47862090514042],[136.86557328202622,35.47864458772025],[136.8656123464281,35.47869516346733],[136.86564114836614,35.47873175094794],[136.86570536822427,35.47881569606598],[136.8657493727163,35.47888025575702],[136.86576856740703,35.478907426683406],[136.8658261665592,35.47897899706084],[136.86585298104373,35.47901075705581],[136.8658784842178,35.479042504762496],[136.8659009659576,35.479077742358164],[136.86597306879202,35.479187477945146],[136.8660347404911,35.47923677580877],[136.86606425296696,35.47926021355908],[136.8661197633421,35.47927135788231],[136.8661758879138,35.47929217570997],[136.86622876145844,35.479295263933416],[136.86627723426525,35.47931713532862],[136.86633434274583,35.47934305744431],[136.86636113665585,35.47938339858302],[136.86643474249323,35.47944480467059],[136.86647389760353,35.47946826630851],[136.86654492967853,35.47951060135892],[136.86659205732764,35.47953865287238],[136.86662491404346,35.479557808145934],[136.86666637458168,35.47958959535625],[136.86669690016515,35.479610349303684],[136.8667237087688,35.47961417476539],[136.86675185212877,35.479617642978994],[136.86681679480992,35.47962317668459],[136.86686821999686,35.47962760411268],[136.8669194131347,35.47963220220815],[136.86695619519801,35.47963891883491],[136.86701202784622,35.47964944158371],[136.8670598860379,35.47965887184611],[136.86709400569302,35.479667366589226],[136.86714605891902,35.4796807463399],[136.86719878240785,35.47969465955616],[136.867264547831,35.47971312110951],[136.86741249054185,35.47977602703939],[136.86759716975882,35.47981937335568],[136.8677736261533,35.47986029229198],[136.8679912000783,35.479909776864915],[136.8680196181154,35.479916490495555],[136.86811010686714,35.47993363362815],[136.86820359100767,35.479948368354364],[136.86828136292357,35.47996245121063],[136.8683471648769,35.4799771173792],[136.86847058840667,35.47998950114234],[136.86857830620002,35.48000245893766],[136.8686276932616,35.48000681748448],[136.86887985230015,35.4800644353466],[136.86894872729374,35.480109467853545],[136.86902830050005,35.480143196133994],[136.86906194718216,35.48017846968784],[136.86911863746514,35.48019866557762],[136.8691739760918,35.48022082315635],[136.86924283991976,35.480248025816046],[136.86929043232084,35.480266955273784],[136.86931810886395,35.48027757883877],[136.86936837591978,35.480297398225765],[136.8694538910346,35.48031569991622],[136.86949888489204,35.480322075432724],[136.86961789196963,35.480339927647876],[136.86968770154283,35.48034976244325],[136.86980360502434,35.480366525160385],[136.8698975704729,35.48037945696332],[136.86996050750477,35.480388211051014],[136.87004249475723,35.480400960053736],[136.87010631865837,35.48040829203651],[136.87015020224212,35.48041394346363],[136.8702295436101,35.48042399065854],[136.87026567298747,35.48042855934691],[136.8703512277525,35.48043915354683],[136.8704733320269,35.480453956784466],[136.8705752872419,35.48046690766919],[136.87066591970103,35.48047823522237],[136.8707060364466,35.48048334538363],[136.87073153540248,35.480486824212605],[136.87073696110912,35.48045873192904],[136.87075402925345,35.48045930560601],[136.87079925155962,35.480463535871],[136.87108916386606,35.48048635756927],[136.87112608231308,35.48048913415085],[136.87121745855117,35.48051406520674],[136.8713723933686,35.48053458164224],[136.87156253981667,35.4805605653328],[136.87163468802765,35.480569872896396],[136.8717846319478,35.48059010618222],[136.8718534411234,35.48059940545629],[136.87198176148976,35.48061717893891],[136.8720469159865,35.48062538750102],[136.87211106566187,35.48063414342821],[136.87214363739574,35.48063825217231],[136.87220547287112,35.48064700240157],[136.8723281330035,35.480663680027604],[136.8724454964256,35.480679271952276],[136.87261205314002,35.48070117624155],[136.87271045106345,35.480716721695785],[136.8727460164605,35.4807219012189],[136.8728537596261,35.48072834716881],[136.87293922702725,35.480732845872005],[136.87305128102255,35.48073877031285],[136.8731028363347,35.48074104106132],[136.87313573066385,35.480744348078325],[136.87316997562058,35.480748992440084],[136.87324806713627,35.48076958998228],[136.87326800406564,35.48077528120534],[136.87331650144725,35.48079419324885],[136.87348384414003,35.48086684695207],[136.87354495537875,35.48089304580064],[136.8736266520988,35.48092845280906],[136.87366500838147,35.48094505955053],[136.8737058764572,35.480958860015676],[136.87375420453196,35.480975896564466],[136.8737961024777,35.480979216240414],[136.87382108717108,35.48096960487056],[136.87383114072787,35.480947481918015],[136.8738332478993,35.480916460912944],[136.87383438659884,35.48087900157615],[136.87386081914173,35.48069500925531],[136.8738941679895,35.48053042277344],[136.87391017622193,35.48044948902222],[136.87391883955388,35.48039437151917],[136.87392924728323,35.48031100843102],[136.87392954630872,35.480228531232854],[136.87393094521897,35.48014968032182],[136.87390076827333,35.48007779273294],[136.87388540065845,35.48005197546588],[136.87385859108804,35.4800148539459],[136.87382680556163,35.47997328546694],[136.87376819239944,35.47990264488019],[136.8737339105911,35.47986268382034],[136.87366337143047,35.479777528765375],[136.87361816502735,35.47972343426721],[136.87358090494664,35.47967822880784],[136.87354166717154,35.479631405030474],[136.8735103778565,35.479589837671504],[136.87348604817902,35.479558770472345],[136.87345826912292,35.479515598124294],[136.8734496652726,35.479502687226585],[136.87343550472818,35.47946318059479],[136.87343196997705,35.47942906309903],[136.87343244423656,35.479392539596866],[136.87343166477285,35.4793310353042],[136.87343163163615,35.47924912516887],[136.8734311557529,35.47919809585968],[136.8734366539193,35.47914976723223],[136.87344778675606,35.47910655420843],[136.87345452245083,35.479081592828436],[136.87347025328017,35.47905585105703],[136.8734949728062,35.47902502920543],[136.8735210289498,35.47899635592307],[136.87356944326322,35.47894679745496],[136.87362852776656,35.47888732245305],[136.87370798060846,35.47880560528712],[136.87378176579293,35.47873086014974],[136.87382016371518,35.478690129000746],[136.87389628554055,35.47861217146936],[136.8739236686556,35.47858215823303],[136.87395407087763,35.478549195726444],[136.87398713534162,35.478511408173226],[136.8740419023625,35.47845112024804],[136.8740913273081,35.478396182666835],[136.87414008806013,35.47834205471335],[136.874158786406,35.478321421955805],[136.8741740307021,35.478305161620206],[136.8741934359427,35.47827494870562],[136.8742121650449,35.47824581582732],[136.87422359838834,35.47821076110781],[136.87422921785108,35.47818964594643],[136.87423264005488,35.478172762032976],[136.87422678859878,35.4781362231912],[136.87421861068816,35.47809699254422],[136.87420518545025,35.478040027687825],[136.87420100631923,35.477995109891346],[136.8742066137674,35.47796209624195],[136.87417505649813,35.47785768289647],[136.874164720555,35.477820997971584],[136.87415735195955,35.47778956637661],[136.87414907837152,35.477731135703856],[136.87414534168033,35.47766143953185],[136.8741415626763,35.47760342538062],[136.87416924246048,35.47753702334488],[136.87418781570176,35.477505239977106],[136.8742224314924,35.47744972560272],[136.87427509174347,35.477374523322524],[136.87432224224855,35.477305347041984],[136.8743583193907,35.47726314080856],[136.87440993226468,35.477203232663115],[136.87445947966987,35.477159851143355],[136.874553995397,35.47709904625092],[136.87461923038586,35.47706295889229],[136.87470242516045,35.477027500856344],[136.87483358755813,35.476974040650575],[136.87499397769153,35.4769073553119],[136.8750494318724,35.47688513463307],[136.87514765421722,35.476835218108675],[136.8752294044431,35.47678768649013],[136.87532693814296,35.47671782921768],[136.8753877202592,35.47667265360617],[136.8754385178755,35.476627652178415],[136.87551659734862,35.47655895567832],[136.87555615948077,35.47651876760557],[136.8756022175912,35.47647095132523],[136.87567984298926,35.476390571494846],[136.87575045718302,35.4763170253432],[136.87584454977107,35.47623547722238],[136.87590709769455,35.476183256661095],[136.875948635122,35.476148310341785],[136.87610636798124,35.47601396713182],[136.87617740279006,35.475939700617694],[136.87624941051254,35.475873702228576],[136.87631937180825,35.47581597371333],[136.8764237085575,35.47575667827056],[136.87652600783952,35.475703155804965],[136.87663741283666,35.47564552672755],[136.87673772026778,35.47559117902127],[136.87686227494086,35.4755294439021],[136.87691394156826,35.475499794750505],[136.87697171037755,35.4754585772485]]]}},{"type":"Feature","properties":{"potaRef":"JP-1437","nameJa":"各務原公園","nameEn":"Kakamigahara Prefectural Park","authority":"岐阜県","boundaryStatus":"公的GIS・公式公園情報との照合済み（公式区域判定対象）","boundarySource":"国土交通省「都市計画決定GISデータ（令和7年度）」都市公園・緑地","boundaryScaleNote":"都市計画決定区域を使用。現地の供用区域やPOTA規則上の有効区域と差がある可能性があるため、境界付近は注意表示します。","cautionMeters":75,"sourceParkName":"各務原公園","sourcePrefecture":"岐阜県","sourceCity":"各務原市","officialParkUrl":"https://www.pref.gifu.lg.jp/page/5775.html","officialGisUrl":"https://www.mlit.go.jp/toshi/tosiko/toshi_tosiko_tk_000087.html","reviewNote":"公的GISの公園名・所在地と岐阜県公式都市公園情報を照合済み","importedPolygonCount":1},"geometry":{"type":"Polygon","coordinates":[[[136.93470629487373,35.426946302497065],[136.93467805822405,35.426838620202105],[136.93457688331625,35.42656206326709],[136.93454273241954,35.4264507729514],[136.93452172659417,35.42636401716593],[136.93450975564159,35.42627191536997],[136.93451086188205,35.42615505000351],[136.93452401832127,35.426060436511335],[136.9345491136882,35.42596543131726],[136.93460040618078,35.42584045958748],[136.9346232125282,35.42579858795649],[136.93468389309749,35.42572164319831],[136.93475162358516,35.42564019589506],[136.93481986701966,35.42557569600176],[136.9348577687514,35.42548869277884],[136.9349088814358,35.425445442184724],[136.93498444409474,35.42543999844725],[136.9351783384369,35.42529587461903],[136.93519667993948,35.42523624559798],[136.93527265481532,35.42519826164996],[136.93529762139252,35.425170996831],[136.93534603876338,35.42510736005525],[136.93536861730772,35.42506792164191],[136.93538643892384,35.42501287975928],[136.93539104292674,35.424954837915216],[136.9353851713336,35.424782125949434],[136.93536860980348,35.424565900576084],[136.9353550115203,35.424464961921295],[136.93532965211355,35.42437549368458],[136.93528137965856,35.42425767733414],[136.93519177367872,35.42412960484816],[136.93513829960045,35.4240747868797],[136.93490933171873,35.4238503478176],[136.9345787499629,35.42352724326769],[136.93441801041064,35.423370675173885],[136.9342988574855,35.42325516489691],[136.9341895543408,35.423138132054504],[136.934026092774,35.422944474264355],[136.93382968735384,35.423097596530404],[136.933791023808,35.423162333217974],[136.93373620327603,35.42326975645572],[136.93370147620524,35.42332503592106],[136.93362107896957,35.42344206384063],[136.9335511063829,35.423495463410994],[136.93345890139912,35.42356352197337],[136.93335299005528,35.4236530074939],[136.93328486999673,35.423732163711016],[136.9331352723324,35.423920656375046],[136.93293764286864,35.424172064304045],[136.93290538908164,35.424247648021876],[136.9327541940841,35.424290929316236],[136.93269155428442,35.42432537696086],[136.9326792966383,35.42433323151596],[136.93234659691592,35.42464880028675],[136.93229036606692,35.42470983365647],[136.93219801098854,35.424813640777664],[136.93195296977788,35.42497298435783],[136.93190539510914,35.424988206799924],[136.93181893704693,35.42501404430837],[136.93171569442046,35.42503272797976],[136.93166019602597,35.425030907317236],[136.9315328606818,35.424999299479914],[136.93068703030363,35.42554104519819],[136.93046576426377,35.425378422351784],[136.92969435230503,35.42604242928581],[136.92924437159184,35.426661236022646],[136.92927557402982,35.426739025724395],[136.92949212033463,35.42673141066311],[136.92965628657194,35.42672100622711],[136.92984728162128,35.42668374717266],[136.93029949597297,35.42650510884267],[136.93042884505456,35.42646248199777],[136.93064539195345,35.42644682431302],[136.93097733894183,35.42638313016495],[136.9310959848099,35.426415532900876],[136.9311722856364,35.426603336724874],[136.93112957023976,35.42688207676534],[136.9310560470697,35.42695431635419],[136.93079764478748,35.42693772179692],[136.9307032590906,35.42696970863559],[136.93064020229917,35.427036605046105],[136.93064362297315,35.427060742407235],[136.93067850561732,35.42707421450727],[136.93079031874007,35.42705566565811],[136.93100346980097,35.42700782947302],[136.9310713063019,35.426993728614065],[136.9312151097702,35.42700611498116],[136.9313396264437,35.42705369059508],[136.93147052466065,35.42712988016587],[136.9313484386806,35.427234773467106],[136.9311714220132,35.42712703472058],[136.93108281035902,35.42710870754103],[136.93094874643174,35.427132648716785],[136.93067263159955,35.42722287214436],[136.93053083444454,35.42719839216767],[136.93046603530524,35.42712262834976],[136.9303850701882,35.42710313477087],[136.9303748521728,35.427011964464505],[136.9302877460283,35.42694208815951],[136.9303369092391,35.42685104308131],[136.93038591261163,35.426810918173345],[136.93051521522491,35.42678436324222],[136.93063400226683,35.42676851436786],[136.93070024178644,35.42680349222903],[136.930871432397,35.426782382132416],[136.9309589606702,35.42670748379659],[136.9309729483256,35.42669947054341],[136.93095270517128,35.42665463108259],[136.93084110731314,35.426607089311254],[136.93070615662376,35.42660682569963],[136.9305191256667,35.42663691866276],[136.92994257393272,35.42674840266749],[136.9296420866956,35.426801410939014],[136.92944635764098,35.426849287961176],[136.92929966848976,35.426859717451215],[136.9291774970229,35.42683534657328],[136.9290345130977,35.42676536847578],[136.9289405050652,35.4266686607472],[136.92884308181328,35.42654247921025],[136.92872124839164,35.42641086809539],[136.92860975124538,35.42632217521215],[136.92849113019443,35.42628172952972],[136.92842475162558,35.426286961968245],[136.928389817555,35.426294933598385],[136.92836866766436,35.42635655714779],[136.92840324171218,35.42647458354316],[136.92851816989963,35.42658740504315],[136.9284061200707,35.42668637489028],[136.92834659525238,35.42674255933793],[136.928223645147,35.426986273519695],[136.92816771858224,35.42700225319962],[136.92812221610933,35.42704237510533],[136.92806677812663,35.42719140342219],[136.92800355289754,35.427314600015045],[136.92799289772546,35.42737624422791],[136.9279403384879,35.42743779659329],[136.92784220367034,35.427552874512216],[136.92768120191832,35.42767320033676],[136.92756917332179,35.42776412887437],[136.92747815586534,35.42784437217947],[136.92737667457547,35.427913876949056],[136.92717171896146,35.42806003944902],[136.92695136980956,35.428164147439446],[136.92680811830843,35.42818799365734],[136.92667129838532,35.428404870790104],[136.9265835684884,35.428549462379536],[136.92647822031367,35.42874495737109],[136.92643591288527,35.42887676708909],[136.9263936815762,35.428986609652156],[136.9263444709457,35.42909909745925],[136.9263194513801,35.429294752129955],[136.92627741584218,35.42933488022131],[136.92629460694027,35.429431428082594],[136.9263605998331,35.42954952655019],[136.92643366902706,35.42964349036689],[136.9264925091613,35.42972264276571],[136.92649934825258,35.429770917692466],[136.92653062384653,35.42982728176477],[136.9265863299215,35.42988636256668],[136.9266419485379,35.429974946215005],[136.92672877646797,35.43013865199984],[136.92679128243157,35.43025942047036],[136.92685409367866,35.43028098969393],[136.9270033573856,35.43058959419501],[136.92677278001477,35.43061593516902],[136.92682809727458,35.430806395113365],[136.9267402139418,35.43100192494268],[136.92662799974156,35.43115719458599],[136.92645707682163,35.43135912133899],[136.92649527675314,35.43143158027516],[136.92644958175072,35.4315279939752],[136.92628512956824,35.4316349070595],[136.9261203899668,35.43183832393193],[136.92601585831625,35.43200926571561],[136.9256275472022,35.43405110510446],[136.9259661210899,35.43411880905274],[136.9264338361031,35.43421894023659],[136.9267411051646,35.43424368180549],[136.92712871233076,35.43427126818135],[136.92760442847708,35.43402021381858],[136.927922910322,35.43379833178947],[136.92813292779826,35.433643245241754],[136.92839297798517,35.43308883487351],[136.92851590543495,35.43285582944686],[136.92867354805196,35.4326899299118],[136.92887322596434,35.43248390120625],[136.9289880703886,35.43240720127746],[136.92927158192185,35.43220133688211],[136.9295056983608,35.43215622180236],[136.92990019748987,35.43220793444981],[136.93004334072285,35.43222699133335],[136.93020820514,35.432192529003956],[136.93044597820958,35.432083076856195],[136.9306699045627,35.431944112164814],[136.9309637949302,35.43176506287339],[136.93147719652424,35.43176338673238],[136.9316204562269,35.43174222120715],[136.9317518141168,35.43171212646018],[136.93196163343399,35.431613343667784],[136.93174048914685,35.429612286161706],[136.9315728839077,35.429606587590975],[136.9316086883552,35.42929567186322],[136.93220573543977,35.42935314346294],[136.93277324147323,35.428254166700135],[136.93273789683974,35.42821354392505],[136.93272118963057,35.42814893474379],[136.93273648507528,35.42809239205502],[136.9326292655597,35.42801502384253],[136.9324002407484,35.42789249316005],[136.93254840908412,35.427751998716346],[136.9327387794235,35.42782833824957],[136.93288274241903,35.42787377754723],[136.93314244956053,35.427927868713745],[136.93339905574808,35.428095025861964],[136.933432350005,35.42810586198839],[136.9335564900981,35.42809406790284],[136.9336534070194,35.42809335354334],[136.93385573498497,35.42800666783703],[136.9339489045815,35.42796863676724],[136.9341199656091,35.42792038044848],[136.93417887592275,35.42792364880404],[136.9342694189187,35.427956454030635],[136.9343030141868,35.428008214388704],[136.9343688713092,35.4279564197621],[136.93442203653626,35.42791460685059],[136.93451104622562,35.42781399164783],[136.93458341341173,35.42767555739714],[136.93464522369308,35.427539293236286],[136.93468733925118,35.42737731011119],[136.93470433493388,35.4272649823236],[136.93472082624353,35.42706351337956],[136.93470629487373,35.426946302497065]],[[136.9322338349686,35.427685013307546],[136.93218690497577,35.42760456623649],[136.9320881763618,35.4275390314763],[136.9320146326315,35.427515929748324],[136.93191807196516,35.42749278323431],[136.93182607374663,35.42748377056874],[136.93172262422644,35.427458843743175],[136.93159165339532,35.42740737991044],[136.93141022080374,35.427299308412785],[136.9315232617966,35.42719179237088],[136.93179923929833,35.42722058855972],[136.9318910724681,35.42728257663592],[136.93200577927874,35.42739406029989],[136.93227043259245,35.42735572362883],[136.9325297530039,35.42757697234205],[136.93226246989624,35.427728331937836],[136.9322338349686,35.427685013307546]]]}}]}
