{"type":"FeatureCollection","metadata":{"title":"超軽量ログ Ver.1.10 POTA公式区域・福岡県","status":"公的GISと公式公園情報を照合した区域だけを実判定に使用","source":"国土交通省 都市計画決定GISデータ（令和7年度）","promotionConfig":"data/pota-boundary-official-promotions.json"},"features":[{"type":"Feature","properties":{"potaRef":"JP-1705","nameJa":"春日公園","nameEn":"Kasuga Prefectural Park","authority":"福岡県","boundaryStatus":"公的GIS・公式公園情報との照合済み（公式区域判定対象）","boundarySource":"国土交通省「都市計画決定GISデータ（令和7年度）」都市公園・緑地","boundaryScaleNote":"都市計画決定区域を使用。現地の供用区域やPOTA規則上の有効区域と差がある可能性があるため、境界付近は注意表示します。","cautionMeters":75,"sourceParkName":"5・6・2001　春日公園","sourcePrefecture":"福岡県","sourceCity":"春日市","officialParkUrl":"https://www.pref.fukuoka.lg.jp/contents/kenkoen3.html","officialGisUrl":"https://www.mlit.go.jp/toshi/tosiko/toshi_tosiko_tk_000087.html","reviewNote":"公的GISの公園名・所在地と福岡県公式県営都市公園情報を照合済み","importedPolygonCount":1},"geometry":{"type":"Polygon","coordinates":[[[130.46644964399334,33.52795393390143],[130.46818212843215,33.52941055751247],[130.4685680470862,33.52973537439547],[130.46875945635557,33.5298961527218],[130.46878120209323,33.52991409916133],[130.46967887746393,33.53067481224181],[130.47070282032786,33.531530193375296],[130.47159450544595,33.53227229245428],[130.47167934704808,33.53234289488456],[130.47180392106333,33.53234207374173],[130.4722115734378,33.53200036374887],[130.47339754801797,33.530998692142695],[130.47460057421705,33.52998572009743],[130.4746636643577,33.52993233804448],[130.47468118158133,33.529919788892286],[130.47468739899082,33.52983523811763],[130.47463283094908,33.52976124960964],[130.474602193315,33.52971801955982],[130.47459151625208,33.52970327695659],[130.47454623893512,33.52964186111108],[130.4744864318251,33.52956189925244],[130.4744330276469,33.52949134195991],[130.4743645685486,33.52940007238367],[130.47429824422215,33.52931187752674],[130.47423589467834,33.52922514218809],[130.47420075267408,33.52917909772176],[130.47416071407113,33.529123835366455],[130.4741434163449,33.529100138027474],[130.47412473052663,33.52907454127378],[130.47408158247313,33.52901719183611],[130.47404238563615,33.52896517904795],[130.4740030992032,33.52891019033774],[130.47395611710118,33.52884597183908],[130.47391017342974,33.52878806946146],[130.4738683842611,33.52873748828653],[130.4738154380045,33.52868036763349],[130.47376940603363,33.52863707197043],[130.47370344692754,33.52857764178988],[130.47363443087448,33.528525231650875],[130.47356798667587,33.528474816091176],[130.47345374900218,33.52838758929051],[130.473378296739,33.52833136460862],[130.47330425232383,33.52827379335462],[130.47323042550906,33.528215862311654],[130.47312207741706,33.528133980140026],[130.47306848489964,33.528094799760034],[130.47300321848084,33.528045561086465],[130.4729281968895,33.52798942813056],[130.4728708677271,33.527945092212846],[130.47280808202694,33.52789514265422],[130.47276788456819,33.52786629826179],[130.4726794805727,33.52779784539966],[130.4726307155164,33.52776157074547],[130.47256641029875,33.5277136884479],[130.47248549880405,33.52765248075846],[130.47240620720456,33.52759046840868],[130.47233966554066,33.52753860909419],[130.4722844731331,33.5274970772026],[130.4722387112961,33.52746270870885],[130.4716827221102,33.527043674026906],[130.47163953243407,33.52701129997003],[130.4715971013183,33.526978117626335],[130.4715421183534,33.52693766830831],[130.47149304335508,33.52689940819768],[130.4714398818627,33.52686040928773],[130.4713912375767,33.52682215097486],[130.47134483380626,33.52678723840588],[130.47128984669027,33.526747510298705],[130.4712461376869,33.52671206819077],[130.47118773970757,33.526666735088085],[130.4711183943959,33.52661585499025],[130.47107243409323,33.526578870359046],[130.47100287745135,33.52652735812114],[130.47092340008226,33.52646083565077],[130.4708579691239,33.52640366039885],[130.47080530145092,33.52635438422427],[130.47075485889454,33.52629330558465],[130.4707047366277,33.526232679130835],[130.47066914730078,33.52618987777786],[130.47062087946134,33.5261252918423],[130.47056544610103,33.52603524800477],[130.4705154741258,33.525950006370245],[130.4704830075963,33.525889455302185],[130.47044552701698,33.5258037260361],[130.47042951518378,33.52576362317537],[130.47041358030845,33.525710897181796],[130.47039214745163,33.52564173717898],[130.470373792633,33.52557980373964],[130.4703584758708,33.5254963332389],[130.4703515510562,33.525449055818676],[130.47034438699322,33.525352726214564],[130.4703385086654,33.52527506679501],[130.47033373153988,33.525211027387456],[130.47032980520743,33.52514870480143],[130.47032473591457,33.525079614758525],[130.4703154166354,33.52498363660092],[130.4703134389125,33.52495486468525],[130.4702859091414,33.52454376310869],[130.47017884450125,33.524517427076034],[130.46998039283494,33.52470079038771],[130.46991500171734,33.52476092282556],[130.46925273726131,33.52537185738061],[130.46917835805914,33.52544042665301],[130.46894244323002,33.525658071695624],[130.4689344310602,33.525665521249394],[130.46789753769565,33.52662234721572],[130.4678899598351,33.526629167392855],[130.46779598067775,33.526715955612275],[130.4675786823843,33.52691627563392],[130.4675764077954,33.52691852004437],[130.46754661342288,33.52694922925823],[130.46753979130852,33.5269556919921],[130.4674640015761,33.52702560665151],[130.46742535555853,33.52706015497942],[130.4673809877033,33.52709729354742],[130.46737069361748,33.527090576881236],[130.46732708484515,33.527126817018605],[130.46730216027478,33.527153399409364],[130.46724902516362,33.52719816446058],[130.46721740539815,33.5272280542331],[130.46719069373881,33.52724759584587],[130.46716232851185,33.527273442065834],[130.46712855832598,33.52730287172587],[130.4670911150772,33.52733435942543],[130.4670673156127,33.527353011866026],[130.46702890451778,33.527384315046646],[130.46699827287875,33.52741105315028],[130.46697804318916,33.52742692574239],[130.46694420118467,33.52745049415262],[130.4669199588587,33.52747112834366],[130.4669000576435,33.52748610066129],[130.46687162554025,33.5275052741282],[130.46685312439908,33.527520162297236],[130.46680997404417,33.527551805677355],[130.46677429292635,33.52757680880308],[130.4667454057873,33.52759994765229],[130.46670130581435,33.527628431041876],[130.46667188699678,33.527650485573936],[130.4666396784962,33.5276709952376],[130.46661081730844,33.52768989629305],[130.46659037106227,33.52770594822278],[130.46655395947266,33.52772716110196],[130.466460783765,33.527787893327194],[130.46644964399334,33.52795393390143]]]}}]}
