{"type":"FeatureCollection","metadata":{"title":"超軽量ログ Ver.1.10 POTA公式区域・宮城県","status":"公的GISと公式公園情報を照合した区域だけを実判定に使用","source":"国土交通省 都市計画決定GISデータ（令和7年度）","promotionConfig":"data/pota-boundary-official-promotions.json"},"features":[{"type":"Feature","properties":{"potaRef":"JP-1053","nameJa":"宮城野原公園","nameEn":"Miyaginohara Prefectural Park","authority":"宮城県","boundaryStatus":"公的GIS・公式公園情報との照合済み（公式区域判定対象）","boundarySource":"国土交通省「都市計画決定GISデータ（令和7年度）」都市公園・緑地","boundaryScaleNote":"都市計画決定区域を使用。現地の供用区域やPOTA規則上の有効区域と差がある可能性があるため、境界付近は注意表示します。","cautionMeters":75,"sourceParkName":"宮城野原運動公園","sourcePrefecture":"宮城県","sourceCity":"仙台市","officialParkUrl":"https://www.pref.miyagi.jp/soshiki/tosikan/tosikouen-gaiyou.html","officialGisUrl":"https://www.mlit.go.jp/toshi/tosiko/toshi_tosiko_tk_000087.html","reviewNote":"公的GISの公園名・所在地と宮城県公式都市公園一覧を照合済み","importedPolygonCount":1},"geometry":{"type":"Polygon","coordinates":[[[140.90392142462045,38.25998686831971],[140.90402044185052,38.2600564401677],[140.90418547940104,38.25998579813711],[140.90420650798512,38.25997679422912],[140.9042724242485,38.25994857919373],[140.90602778348182,38.25919719672183],[140.9061852161243,38.258765492743024],[140.90643251990997,38.25865962899282],[140.90704833010457,38.258396017161964],[140.90705613120937,38.258392678364544],[140.9067417850033,38.25823424699267],[140.90638729717392,38.25805544390195],[140.90618516502343,38.25795339112672],[140.90570414482934,38.25771052125972],[140.90522308058667,38.257467469335396],[140.90506208582391,38.257385614743484],[140.90502751282315,38.25736712206563],[140.90499496054693,38.257346726810844],[140.90496963057322,38.25732838236524],[140.90494076717022,38.25730558032806],[140.90491267819735,38.257281262801456],[140.90489048733886,38.257259970251496],[140.90486918890608,38.257238360946985],[140.90484972905443,38.257215804656184],[140.90483003870474,38.25719111347742],[140.90480332795408,38.25715153368456],[140.90455047164957,38.256753177796355],[140.90441170141108,38.256534082588914],[140.90427802595948,38.256324904467775],[140.90401992521336,38.255922650342676],[140.90376176178057,38.25552113390885],[140.90352367142913,38.255148749955886],[140.90345933573815,38.25514294342662],[140.90321918532078,38.255116950143645],[140.90301272532272,38.25511786382478],[140.90281825955492,38.25512826689365],[140.90268763335837,38.2551509260019],[140.9024932041623,38.25524211725155],[140.90229826970267,38.25533237088257],[140.90209785043842,38.25542359116944],[140.9019036821409,38.255515663892936],[140.90170571841148,38.255606728078526],[140.9015124621282,38.25569626865143],[140.90131158609117,38.255789658635834],[140.90109066230482,38.2558890169335],[140.90089873162762,38.25598070724309],[140.90070376906073,38.256071237319425],[140.90050420450103,38.256163427726136],[140.90028475333457,38.256264449878756],[140.90058478041934,38.25660851144796],[140.90084366486394,38.25690548130423],[140.90110266301147,38.257202450502916],[140.90136155168156,38.25749941917451],[140.9016205540555,38.25779638718795],[140.90187956028657,38.25809335460762],[140.90220230680876,38.258447280234115],[140.90227549549417,38.25852804038285],[140.90240834254735,38.258674668813654],[140.90254119883696,38.25882127921156],[140.9026614166714,38.258953959566526],[140.90267381823438,38.258967583021494],[140.90274002754578,38.25903856278469],[140.90280801797795,38.25910847873847],[140.90287779125964,38.25917731300665],[140.90294927762042,38.2592450381326],[140.90302247703556,38.25931162661777],[140.90304392123033,38.25933063232427],[140.90309735458976,38.25937703311245],[140.90317387714663,38.259441249384864],[140.90325199934648,38.25950424933852],[140.90333171941825,38.25956600410109],[140.90341297980387,38.25962649583215],[140.9034764004985,38.25967206277752],[140.90358121547644,38.259746206734604],[140.90375132499042,38.25986652940067],[140.90392142462045,38.25998686831971]]]}}]}
