{"type":"FeatureCollection","metadata":{"title":"超軽量ログ Ver.1.10 POTA公式区域・北海道","status":"公的GISと公式公園情報を照合した区域だけを実判定に使用","source":"国土交通省 都市計画決定GISデータ（令和7年度）","promotionConfig":"data/pota-boundary-official-promotions.json"},"features":[{"type":"Feature","properties":{"potaRef":"JP-1019","nameJa":"サンピラーパーク","nameEn":"Sunpillar Prefectural Park","authority":"北海道","boundaryStatus":"公的GIS・公式公園情報との照合済み（公式区域判定対象）","boundarySource":"国土交通省「都市計画決定GISデータ（令和7年度）」都市公園・緑地","boundaryScaleNote":"都市計画決定区域を使用。現地の供用区域やPOTA規則上の有効区域と差がある可能性があるため、境界付近は注意表示します。","cautionMeters":75,"sourceParkName":"サンピラパーク","sourcePrefecture":"北海道","sourceCity":"名寄市","officialParkUrl":"https://www.pref.hokkaido.lg.jp/kn/tkn/kgs/homepage/R1mokuhyotasseido.html","officialGisUrl":"https://www.mlit.go.jp/toshi/tosiko/toshi_tosiko_tk_000087.html","reviewNote":"公的GISの公園名・所在地と北海道公式道立都市公園情報を照合済み","importedPolygonCount":1},"geometry":{"type":"Polygon","coordinates":[[[142.47080964798963,44.37653288705927],[142.47108614927546,44.37653349524293],[142.47122314717225,44.37653436402321],[142.47624303997662,44.376542594942705],[142.47629006933428,44.376535211611774],[142.47628649124334,44.37651847830744],[142.4787918910581,44.37652332470799],[142.4799199183215,44.37652547880696],[142.48104945145872,44.376527618719955],[142.4833405050757,44.37653198870129],[142.48334044642607,44.3765488192158],[142.4834315510119,44.376548993077805],[142.48343160963543,44.37653216256331],[142.48570686430799,44.376536427364805],[142.48576383585254,44.376536489792],[142.48799817174313,44.37654133341525],[142.48800420364583,44.376475277298375],[142.49026702011443,44.3764794141795],[142.4903582500757,44.376479582253076],[142.49052650469991,44.37647988509353],[142.49054749887753,44.37647992188544],[142.49057063980314,44.37652922130726],[142.49058011576653,44.37654495171856],[142.49071272784946,44.37674943612959],[142.4907885178477,44.37687077922966],[142.4917816695319,44.376544682739706],[142.49181618050744,44.37653295441129],[142.4917638075217,44.37645193737194],[142.49171391071877,44.37637492916171],[142.49160695823298,44.376222376849384],[142.49156562112748,44.37616700497451],[142.49147683224305,44.376055356083576],[142.49141174384644,44.375982393945165],[142.49136964656486,44.375940442919585],[142.49132223134873,44.37589607305623],[142.4913029980719,44.37587559320538],[142.49125531294249,44.375823528702604],[142.49122582444684,44.37579007419187],[142.49098773093795,44.37550633205526],[142.49094273713644,44.3754494556269],[142.4908946007065,44.375434067788404],[142.49065480094535,44.37524158169856],[142.49062820105271,44.37522082924499],[142.49059999163663,44.37519926115602],[142.49057115655583,44.37517811738774],[142.49054172094392,44.375157406886984],[142.49051170989753,44.37513712960042],[142.49048112345343,44.375117294527755],[142.49044996168516,44.37509791966878],[142.49041826223757,44.375079004943835],[142.49038602518397,44.37506056835271],[142.4903532630725,44.37504260986857],[142.49032000099936,44.37502512943815],[142.49028625158618,44.375008145034926],[142.4902520148693,44.37499166565856],[142.490217315908,44.37497568225576],[142.49018215481223,44.374960221826484],[142.49014656922623,44.374945284291165],[142.49011057173448,44.374930878623175],[142.49008713155035,44.37492172067565],[142.4900829828923,44.374919839350724],[142.48994035742246,44.37485521149761],[142.48973585076445,44.37475540552045],[142.48969175082087,44.37473264652631],[142.48956299728258,44.374666198047244],[142.48951351182555,44.37463976919128],[142.4891545140749,44.374448033815305],[142.48915292977955,44.37444724511351],[142.4889371676346,44.37434066610213],[142.4883965790617,44.37406628106143],[142.48738376867394,44.373552201038514],[142.48726619037453,44.373492521894065],[142.48714482945292,44.37343138344598],[142.48611855259307,44.37291435003072],[142.48457582752877,44.37213730878854],[142.48451879421276,44.372108121189605],[142.48323669141664,44.37145203831807],[142.48313295081547,44.371405457959874],[142.48299338581566,44.37134278619253],[142.48297353120745,44.37133538350834],[142.48274611124904,44.37126399837638],[142.48263645111288,44.37123699610431],[142.48245356896754,44.37121778394686],[142.48208115868488,44.37121211505537],[142.4819372119942,44.37121197542306],[142.48164029204193,44.37122638427758],[142.48151888104329,44.37123585565062],[142.48128152022943,44.37131297337034],[142.48119080823878,44.371327602358726],[142.48106728551804,44.371339390582065],[142.4810028577643,44.371343687997005],[142.48090778265973,44.37134645429495],[142.4804365012821,44.37134204189386],[142.4793069798281,44.37133342472674],[142.47914196922716,44.3713310558004],[142.4790639026121,44.37133227440551],[142.47868088583,44.3713579904622],[142.4786787781935,44.37135808468389],[142.47853492131298,44.371364996756135],[142.47831771061323,44.371387985681345],[142.47775800230073,44.37146359789115],[142.47765202897784,44.37147764248315],[142.47758569452574,44.37148542485543],[142.47747690207,44.37149730584899],[142.477367776717,44.3715074773599],[142.47725836863162,44.37151593028721],[142.47714871543127,44.37152265555509],[142.4769842544549,44.37152950764337],[142.4767970171947,44.37153253462583],[142.47676421785872,44.37153260874525],[142.47670888143924,44.371532304577755],[142.47658752839132,44.37153114133505],[142.4764372338002,44.37152826229695],[142.47597388959562,44.37150965840423],[142.47549291738756,44.37148809035986],[142.47525206791747,44.37147904333703],[142.4747804044578,44.3714733213215],[142.47459973986278,44.37147244367313],[142.47431890120194,44.37146997146416],[142.4741406933356,44.37146840424845],[142.47404237241633,44.37146907414995],[142.47399294027517,44.371526520492466],[142.47398033013613,44.371546345701994],[142.47351951287655,44.372271135949504],[142.47348075855734,44.37233208925258],[142.47296009322733,44.373150965483156],[142.47269976766518,44.37356039815088],[142.47243942597032,44.37396983922783],[142.4721790806565,44.374379279689364],[142.4720943064272,44.374512602726405],[142.47108827544477,44.3760947128116],[142.47091244189366,44.376371242508824],[142.47087199806074,44.3764348442131],[142.47080964798963,44.37653288705927]]]}},{"type":"Feature","properties":{"potaRef":"JP-1020","nameJa":"ゆめの森公園","nameEn":"Yumenomori Prefectural Park","authority":"北海道","boundaryStatus":"公的GIS・公式公園情報との照合済み（公式区域判定対象）","boundarySource":"国土交通省「都市計画決定GISデータ（令和7年度）」都市公園・緑地","boundaryScaleNote":"都市計画決定区域を使用。現地の供用区域やPOTA規則上の有効区域と差がある可能性があるため、境界付近は注意表示します。","cautionMeters":75,"sourceParkName":"ゆめの森公園","sourcePrefecture":"北海道","sourceCity":"中標津町","officialParkUrl":"https://www.pref.hokkaido.lg.jp/kn/tkn/kgs/homepage/R1mokuhyotasseido.html","officialGisUrl":"https://www.mlit.go.jp/toshi/tosiko/toshi_tosiko_tk_000087.html","reviewNote":"公的GISの公園名・所在地と北海道公式道立都市公園情報を照合済み","importedPolygonCount":1},"geometry":{"type":"Polygon","coordinates":[[[144.9617362641039,43.573087789219834],[144.96179710653033,43.57312386628381],[144.96188712874581,43.57305156421733],[144.96054367450907,43.572269594777836],[144.96037333711607,43.57216578644821],[144.95927314094484,43.57149525834362],[144.9593084619389,43.571466774649956],[144.9583220530109,43.570573465444504],[144.95766699044748,43.57004220579246],[144.9573129989999,43.569731415929866],[144.95724372869248,43.569662263243096],[144.95715454105544,43.5695731604727],[144.95713412315405,43.56955276345195],[144.95727554187994,43.56943982054324],[144.95716934573872,43.56936774573724],[144.95710607676682,43.569324750071154],[144.95707338273186,43.56930262867616],[144.95664821110307,43.56938330009534],[144.95628292460373,43.56947179130755],[144.95520048785164,43.569742305968795],[144.95514864386558,43.56975531780226],[144.95505605727246,43.569586841536925],[144.9554756752747,43.56948613706857],[144.95623581355557,43.56927531056067],[144.95636180302716,43.56924032666826],[144.9566283690641,43.569179179745646],[144.95683042012323,43.56913787423597],[144.95687166996333,43.56912942787064],[144.9570366507076,43.569104643829846],[144.9570707670501,43.56910020214931],[144.95710451939078,43.569096392811794],[144.95740684376779,43.5690654478154],[144.95753912539075,43.569071020249794],[144.9577293498525,43.56907704397912],[144.95783188470426,43.56899503603955],[144.95885391367565,43.56817821263821],[144.9603060341232,43.56699748015618],[144.96165142422393,43.56790159088793],[144.9620411874149,43.568158405928415],[144.962598260548,43.56852507480707],[144.9626906110668,43.56845140732481],[144.96279104674028,43.56851748195055],[144.9628998422505,43.56858908525927],[144.96400428357433,43.569316171432675],[144.9640631747807,43.56935495993788],[144.96410023166203,43.56937939245815],[144.964144648529,43.569408549761306],[144.96417584162654,43.569429148260916],[144.96422038448347,43.569458484776355],[144.96428950544995,43.56950387032989],[144.96433503435406,43.56936523352546],[144.96440587974536,43.56914803584151],[144.96464327536432,43.56842139498323],[144.96468939500238,43.56828050395643],[144.9647163992319,43.56819815185526],[144.9647338048258,43.5681416039173],[144.96487880706417,43.56767370179334],[144.9651601105326,43.56676684599187],[144.96507102796076,43.56670817362675],[144.96502099765283,43.56667527116513],[144.9652569768304,43.56644758841023],[144.96531129448655,43.566246516057646],[144.9654273989229,43.56581660002201],[144.96546194052982,43.565764625473435],[144.9655316590288,43.5655156588641],[144.96580713073465,43.56491245689758],[144.96595570484868,43.56470566316156],[144.96630387628772,43.56422109394716],[144.96628753006038,43.56421012456626],[144.9662674406094,43.564196658225974],[144.9649058452393,43.56329225249778],[144.96480232161005,43.56322619897314],[144.9639841489572,43.562685732867756],[144.96346029135046,43.56233965644397],[144.96229432650117,43.5615692902716],[144.96076737979456,43.56279381126873],[144.96054701575858,43.56297061959813],[144.96085019829593,43.56313121129147],[144.9594391207043,43.564140308892945],[144.9590159740139,43.56444304265501],[144.95792666441187,43.565280717940254],[144.95792285881123,43.5652834419434],[144.9578232562241,43.56535102952219],[144.95638834097724,43.5661828179781],[144.9563579695017,43.56620037844851],[144.95470301251535,43.56771005450302],[144.95398931665468,43.568208271433186],[144.9538252497053,43.568332691570376],[144.95375886112058,43.56838296832976],[144.95357810576945,43.56852018289078],[144.95310295684538,43.5688806438811],[144.95311480997776,43.56888858227792],[144.9531322754979,43.568900086737635],[144.9532540454523,43.56898116097359],[144.95327849767583,43.56899730318914],[144.9532670284352,43.56904364122064],[144.953349031314,43.56916483641759],[144.9538095617343,43.56984530257902],[144.9538549706501,43.56987499786099],[144.9538590861478,43.56987758294472],[144.95427477313166,43.56977915745241],[144.95440512475884,43.569746489223704],[144.95476211338456,43.56965733505028],[144.95494741786604,43.569612895581585],[144.9550421149397,43.56978189900613],[144.9546178530528,43.56988803137359],[144.95448762293216,43.56992051906639],[144.95411779580786,43.570012991975496],[144.95405354336933,43.57010862305962],[144.95400645282953,43.570179034371066],[144.9541886020413,43.570564885002774],[144.95432852783588,43.5708012112966],[144.95451603329008,43.571019601366224],[144.95474672614438,43.571214951228136],[144.95481357182285,43.57125675594661],[144.95491932576138,43.57132271465713],[144.95501510501398,43.571382613794775],[144.95531530844033,43.571518934370424],[144.9556404906895,43.5716208044532],[144.95670174324886,43.57188636300528],[144.95766664674042,43.57212748410027],[144.9577688371125,43.57215304571191],[144.95908991248854,43.572466031114466],[144.96041671294714,43.57278040587912],[144.96070742170616,43.572844669649434],[144.9617362641039,43.573087789219834]]]}},{"type":"Feature","properties":{"potaRef":"JP-1022","nameJa":"道南四季の杜公園","nameEn":"South Hokkaido Shiki no Mori Prefectural Park","authority":"北海道","boundaryStatus":"公的GIS・公式公園情報との照合済み（公式区域判定対象）","boundarySource":"国土交通省「都市計画決定GISデータ（令和7年度）」都市公園・緑地","boundaryScaleNote":"都市計画決定区域を使用。現地の供用区域やPOTA規則上の有効区域と差がある可能性があるため、境界付近は注意表示します。","cautionMeters":75,"sourceParkName":"道南四季の杜公園","sourcePrefecture":"北海道","sourceCity":"函館市","officialParkUrl":"https://www.pref.hokkaido.lg.jp/kn/tkn/kgs/homepage/R1mokuhyotasseido.html","officialGisUrl":"https://www.mlit.go.jp/toshi/tosiko/toshi_tosiko_tk_000087.html","reviewNote":"公的GISの公園名・所在地と北海道公式道立都市公園情報を照合済み","importedPolygonCount":1},"geometry":{"type":"Polygon","coordinates":[[[140.76671210400724,41.85416706820538],[140.76675243229047,41.854149977025635],[140.76691878119806,41.85407586286878],[140.7669699111885,41.85405265421553],[140.76716591202484,41.85397873044067],[140.76733750324507,41.85391709887172],[140.76678695697095,41.853098820289375],[140.7671143505872,41.852893916406174],[140.76740223515074,41.85271372586207],[140.76746901233722,41.852674769797055],[140.76734387039807,41.852484904234544],[140.7672719817814,41.852444222601186],[140.767208731469,41.85240842735427],[140.76739349251775,41.85240935142504],[140.76751886003265,41.85237337324179],[140.7675395149821,41.85211095997956],[140.76754119668485,41.852089540345744],[140.76760280339823,41.851947149100624],[140.7676728152943,41.851785297837],[140.76769794954149,41.8517271973659],[140.76776621141516,41.85156940583786],[140.76777073927684,41.85155893152579],[140.7678100600248,41.85146803673561],[140.7678268830672,41.851429152698636],[140.7678685867193,41.85134255117495],[140.7678830160507,41.85131297028319],[140.76791663726613,41.85124407146664],[140.76801078465854,41.85105278446226],[140.76809727560556,41.851037753696204],[140.76817004486614,41.85102510782702],[140.76837264661384,41.850989906043225],[140.76840723332697,41.85098389728234],[140.76854041326018,41.85095980441142],[140.76864609313213,41.8509423995808],[140.76871526645309,41.850930381886776],[140.76883172576703,41.85091014592699],[140.76896122113118,41.85088764494905],[140.76999229846723,41.85070849144044],[140.77004312989195,41.85121616269679],[140.7702278649827,41.85115787963853],[140.7703885025368,41.851331167952026],[140.77048040436253,41.85144123356086],[140.77064013672472,41.85137531043811],[140.77075195691137,41.85132952155754],[140.77076871689465,41.85132312464645],[140.77089409680866,41.85127283510304],[140.77101562333823,41.85122409361449],[140.77115611088146,41.851168638910714],[140.7712087861237,41.85114784338823],[140.77136782589255,41.851084299539664],[140.7713839471403,41.8510778604181],[140.77152878186013,41.85102537503678],[140.77154434206042,41.85101806504299],[140.77158109725556,41.851001807725005],[140.7717452063664,41.850948577336005],[140.77190657188032,41.85090008638536],[140.77196441684225,41.85088269769905],[140.772100452184,41.850839670005016],[140.77223663149255,41.8507965964749],[140.7722875260273,41.85078049979516],[140.77230102738707,41.8507762244717],[140.77252537502184,41.85083697376968],[140.77274043221027,41.85102260837247],[140.7727799764076,41.851007256418214],[140.77334681936455,41.85092110878638],[140.77380551831453,41.8507453009934],[140.7741292274711,41.850753802050356],[140.77432587935576,41.850766087349605],[140.77456448610604,41.850781008176014],[140.77488593568037,41.85083712271198],[140.77505589226726,41.85073358134427],[140.7753311934903,41.85056612359558],[140.77553247232643,41.85038176056825],[140.77530237662202,41.85010450995895],[140.77541798080276,41.85003318140885],[140.77538197336276,41.8499773397526],[140.7752658899615,41.84981068894129],[140.77524394583074,41.84977362880399],[140.77520977799347,41.8497159238149],[140.7751692847869,41.84964755070182],[140.77516790882657,41.84963834567159],[140.7751568117034,41.84956407554177],[140.77514126815032,41.84946004876833],[140.7751218128707,41.849329792559274],[140.77510870235403,41.84924198927108],[140.7750960506668,41.849157272331546],[140.77499027974574,41.84905413489565],[140.77468515943124,41.84882465983495],[140.77452089634568,41.84860480608967],[140.77448950197575,41.84851205278769],[140.7742989262818,41.84795460639709],[140.77424981165788,41.84781094292684],[140.7742373756753,41.84777455955322],[140.77421958541805,41.84772104755123],[140.77409467115186,41.847563403948016],[140.774008061277,41.84745409134566],[140.77394094428155,41.847369379408605],[140.77388008163925,41.847292562643375],[140.7737111102486,41.84707932021078],[140.77361414696878,41.846937747310214],[140.77341649597645,41.84665107954767],[140.77330894233597,41.84666074454508],[140.77328208644548,41.846561595220074],[140.77323704118405,41.846395285127414],[140.7732015313735,41.84626415614245],[140.77315879318678,41.84603664278695],[140.77314017463544,41.84593750995187],[140.77313291996964,41.845916175938434],[140.77310589194062,41.845854917126594],[140.77302425004507,41.84567949010437],[140.7731188787751,41.84563704578136],[140.77309956709524,41.845613857737256],[140.77293764208488,41.845496035830216],[140.77263910123222,41.845321910187955],[140.7725052456428,41.84528667287211],[140.77247876895387,41.845279697886575],[140.7718146219573,41.84510485415308],[140.7716745285878,41.84511095558064],[140.77159788529107,41.84511429278355],[140.7714965714659,41.845143205818246],[140.77101026640526,41.84528159955054],[140.77088733672912,41.84529415017243],[140.7698359592643,41.84568150740638],[140.76958017524888,41.84581657458549],[140.7687281178218,41.84509243852207],[140.76791420237717,41.84551474177092],[140.76761033316225,41.845077171454044],[140.76702306921874,41.84422938089558],[140.7667569726596,41.84388284077926],[140.7666687561015,41.84376782931717],[140.76637054058378,41.84338593757739],[140.76629501947195,41.84324580984927],[140.76592117044564,41.842569978225676],[140.76565003666593,41.84263756481654],[140.76540552139895,41.842707588711505],[140.76495778591018,41.8417903553885],[140.76505713813629,41.84153111819058],[140.76501904368598,41.84153609706287],[140.76496874022806,41.84154267031978],[140.76475608355702,41.841567015389224],[140.76436677453344,41.841458364394605],[140.76388576785916,41.84199774674461],[140.76352069572687,41.842305190252254],[140.76320795029383,41.842379358969474],[140.76316077825172,41.842369574685065],[140.7629698733719,41.84243857986178],[140.7626210327428,41.842564673729875],[140.76270774248974,41.842730182423296],[140.7626690648745,41.842817390406175],[140.76252280818713,41.84297524837427],[140.76268423006883,41.84326196409624],[140.76343574018546,41.84459961929438],[140.76348473998797,41.84504629066693],[140.7635209446348,41.84537631498102],[140.76375196649468,41.84570064261193],[140.76393329556632,41.84595766896598],[140.76414489616369,41.84626079644363],[140.76470514991706,41.847058416081055],[140.76482030118498,41.84722234502763],[140.76499865093027,41.84747624029189],[140.76501339066172,41.84749722618462],[140.76498871947916,41.84825606143557],[140.76498499137048,41.84830015391587],[140.7649551300324,41.848654370605665],[140.76492979170985,41.84895554101936],[140.7648662607415,41.84913909799366],[140.76482507789143,41.84925786835161],[140.7649017529083,41.84960264853028],[140.7653909192911,41.85017113586895],[140.76571644326793,41.850549447439846],[140.76575520558362,41.85083371968323],[140.76578229636422,41.85149864879711],[140.7655983029306,41.85172307668485],[140.76556683026556,41.85176146788979],[140.76548128740848,41.85185413607277],[140.7647421799849,41.85275806956749],[140.7645560240182,41.852978172780375],[140.76459561540833,41.8531469316457],[140.76460130172066,41.853171181411085],[140.76465704235795,41.85326477317816],[140.76471039771502,41.85327572636457],[140.76476840950988,41.853287640119184],[140.76510010781755,41.85317843682018],[140.765420365039,41.85316527729302],[140.76554522724354,41.85332378468641],[140.76559341524546,41.8534694359048],[140.76566346304506,41.85357475839611],[140.76585941380267,41.853683252380144],[140.76591390655227,41.85378312498596],[140.76602126926525,41.85386793928139],[140.76603763670852,41.85393085888109],[140.7661213746213,41.853960799772274],[140.76615712694309,41.85405150915299],[140.76617184359208,41.85408886432944],[140.76626526778904,41.85414462154044],[140.76623514939058,41.854227189948844],[140.7662709340109,41.8543592732508],[140.7664399518969,41.854303885430156],[140.76671210400724,41.85416706820538]]]}}]}
