{"type":"FeatureCollection","metadata":{"title":"超軽量ログ Ver.1.10 POTA公式区域・群馬県","status":"公的GISと公式公園情報を照合した区域だけを実判定に使用","source":"国土交通省 都市計画決定GISデータ（令和7年度）","promotionConfig":"data/pota-boundary-official-promotions.json"},"features":[{"type":"Feature","properties":{"potaRef":"JP-1319","nameJa":"榛名公園","nameEn":"Haruna Prefectural Park","authority":"群馬県","boundaryStatus":"公的GIS・公式公園情報との照合済み（公式区域判定対象）","boundarySource":"国土交通省「都市計画決定GISデータ（令和7年度）」都市公園・緑地","boundaryScaleNote":"都市計画決定区域を使用。現地の供用区域やPOTA規則上の有効区域と差がある可能性があるため、境界付近は注意表示します。","cautionMeters":75,"sourceParkName":"榛名公園","sourcePrefecture":"群馬県","sourceCity":"渋川市","officialParkUrl":"https://www.pref.gunma.jp/page/1223.html","officialGisUrl":"https://www.mlit.go.jp/toshi/tosiko/toshi_tosiko_tk_000087.html","reviewNote":"公的GISの公園名・所在地と群馬県公式県立公園情報を照合済み","importedPolygonCount":1},"geometry":{"type":"Polygon","coordinates":[[[138.899485472976,36.47478284256431],[138.89900371432967,36.4748084816242],[138.8984901845265,36.474780801826256],[138.89794140032168,36.47462825349683],[138.8975345709158,36.4745865365498],[138.89705352666732,36.47460354833224],[138.89674824863803,36.47464255203525],[138.8964276822132,36.47474074662601],[138.89605794647613,36.47496911604162],[138.8956826051096,36.475043221273076],[138.89537056934523,36.47504381055828],[138.89503024577016,36.47495529534256],[138.89481457599814,36.47487643318655],[138.89455626191574,36.47467872615934],[138.89438928738326,36.47453513381647],[138.89423802929113,36.47430864083952],[138.89357304666723,36.474030620795645],[138.89287955986623,36.473716774796095],[138.89229697840358,36.473332772760486],[138.8920785113464,36.473188827428935],[138.89177879220244,36.4730797827799],[138.89155879205182,36.47304830647265],[138.89065718031063,36.472194781296366],[138.89040370790897,36.4720608649915],[138.89019102639637,36.47204144156314],[138.88997500808605,36.47199526516868],[138.88965003077982,36.47185337499423],[138.88942170967246,36.471608466813976],[138.88900432356303,36.47121978518531],[138.88851136963737,36.47069408246962],[138.88835173786615,36.47055053960458],[138.88823079647491,36.47038806811658],[138.88806463489453,36.47031412054914],[138.88795359526756,36.47024652344101],[138.88787256210642,36.470119909311556],[138.8879864164713,36.46980059990739],[138.88807255592167,36.469653061172835],[138.88805605125899,36.46950470942427],[138.88786053783423,36.46928979759439],[138.88753525149966,36.46917456863538],[138.88713776361098,36.46895800071432],[138.88657025656013,36.46853542226799],[138.88630878931338,36.468305089064565],[138.8863047107144,36.46804415643859],[138.88638920212622,36.467748384760014],[138.88660579549023,36.46738362430984],[138.88667509613921,36.4670581046786],[138.8866185711116,36.46681466718318],[138.88642822921136,36.46677744653001],[138.88498806790136,36.46689066055298],[138.88412874004527,36.46662878616037],[138.88343786533565,36.46639793042446],[138.8830156477559,36.46610995556284],[138.88213644418224,36.46596061673171],[138.88178551793953,36.465854094938926],[138.88126048734367,36.465580249584235],[138.87990639922094,36.465243314089875],[138.87960589416198,36.46520531512533],[138.87947215746755,36.46534655321941],[138.87916431321042,36.465907377535885],[138.87857805782656,36.46643040416185],[138.87845900933624,36.46640869496025],[138.87818020881306,36.4662552575155],[138.87756434011942,36.46590043327511],[138.877209841997,36.46577009931345],[138.8761875702689,36.46562264132794],[138.87583566759554,36.46559621849211],[138.87501805728087,36.465823799254494],[138.87424794020728,36.46577903277172],[138.8737591618366,36.46550828887319],[138.87336479572537,36.465362726784086],[138.87292919485188,36.465267270091005],[138.8725593322895,36.46519611150737],[138.87208270201927,36.46515093080064],[138.8711907056824,36.46546389817009],[138.87089657118813,36.465503094871586],[138.8700635832437,36.46519987505104],[138.86916148708644,36.46514516626054],[138.86898809815168,36.46528815673663],[138.86879976790047,36.46546651150098],[138.86857838586124,36.465571516012545],[138.86819295218137,36.465870755264675],[138.8680230802824,36.46594942015185],[138.8678826331695,36.466028323030315],[138.86761468914696,36.466322540563844],[138.86752456299652,36.46648791520836],[138.867420162983,36.46662343451329],[138.86723456212755,36.46676122553261],[138.86696725463364,36.4669813790065],[138.86664876210747,36.46715070534963],[138.86636888937963,36.46722560416154],[138.8660163993566,36.4672405464539],[138.86586083219055,36.4673518240592],[138.86554449894598,36.46740327561866],[138.86502786700478,36.46762433088292],[138.86470939658633,36.46785301948338],[138.8644443850308,36.467910179217945],[138.86423098281105,36.467952971669106],[138.86389313151977,36.46797092753412],[138.86321935564652,36.467840916755755],[138.86295699586748,36.46769650574525],[138.86281095965023,36.4676300931371],[138.86276489643018,36.46778973953261],[138.86278485814853,36.46795896283691],[138.86276733479627,36.46818707972251],[138.86249736712267,36.46864143058985],[138.86232899420355,36.468900946842936],[138.86222857743942,36.46900685283084],[138.86198093559025,36.469144158441146],[138.86177048464853,36.469246225097734],[138.86168071501848,36.469381802518605],[138.86174918801632,36.46948315435326],[138.8619138650019,36.46952012110234],[138.86190328869424,36.4697809349162],[138.86215637089137,36.46979186548343],[138.86245290998994,36.47000325998243],[138.8628327818515,36.47001374270396],[138.8632839884706,36.46998731127063],[138.86335511815867,36.46999959430058],[138.86334490519533,36.47006450011451],[138.8624761547422,36.470187167450774],[138.86203167474397,36.470348048837614],[138.86151792515787,36.47059592574253],[138.86143835525962,36.47079683859632],[138.86127341856889,36.47092010141873],[138.86101979513072,36.47088244453817],[138.8609611709686,36.47109533531656],[138.8607351202393,36.47164081029908],[138.86053871511302,36.472174642119114],[138.86037557000887,36.472606088812356],[138.86030227804963,36.47275079690798],[138.86012066927307,36.47273448825357],[138.8600578803326,36.47305418689425],[138.86001926862184,36.47349563298235],[138.8600628923397,36.4738191282593],[138.86014744505493,36.4741043181012],[138.86025470121177,36.47433640885285],[138.8606137879966,36.474973786612594],[138.86052967897888,36.47583865460935],[138.86061521069803,36.47721487639975],[138.8607827750379,36.47790408839863],[138.8611709443523,36.47856535821209],[138.86145178216864,36.47900343575602],[138.86148319324445,36.479132648811955],[138.8622595489338,36.47957619564816],[138.86350473071357,36.48041053226232],[138.86380293606487,36.48062034588748],[138.86434762300598,36.48111108408636],[138.8649756413014,36.481641055421036],[138.8654795890808,36.48185861741194],[138.86618116544827,36.48211326432048],[138.86710052196293,36.48198434826699],[138.8694819772831,36.482371187416135],[138.87016913930182,36.4822671397934],[138.87115341716677,36.482485584193896],[138.87132190067857,36.48251065565092],[138.8728921862844,36.48258255904512],[138.87386746814784,36.482092431558286],[138.874379716905,36.48223294050098],[138.8747957594142,36.48243193062495],[138.8749862066153,36.482469001675206],[138.87513011134408,36.482422702708206],[138.87542836242,36.482365815041746],[138.87564425671258,36.48241795908218],[138.87582331777284,36.482487606371144],[138.87604948298446,36.482606894050036],[138.87627440577992,36.48283285232529],[138.8766787116848,36.48308803781897],[138.87693846475048,36.48316418838109],[138.87715226427878,36.48309476247741],[138.8774007939527,36.482948539055464],[138.87737015090426,36.48305032109501],[138.87800227907383,36.48298893119261],[138.87831847708708,36.483189502238176],[138.87858376456649,36.48335998255766],[138.87915725803435,36.48340608155463],[138.87936187717816,36.48318298999773],[138.87953632006779,36.48302607614586],[138.87971673574773,36.48280461543248],[138.87988968365843,36.48259376308551],[138.88007358736263,36.48262542815703],[138.880399265662,36.48271161103795],[138.88047572040801,36.48282313211771],[138.8805612228943,36.48291544238695],[138.88065113334807,36.48300778788906],[138.88094231487247,36.48320573089496],[138.8809670986544,36.4834632517354],[138.8810905708607,36.48345232419015],[138.8814184125164,36.483382104144056],[138.88159951711353,36.48330474277167],[138.88194692375131,36.48312372299485],[138.8821112730003,36.48289973133958],[138.88224575881665,36.48269927045405],[138.88263847564386,36.48240590270681],[138.88330045094713,36.48230438137917],[138.88363248334338,36.48217071658644],[138.88387672191442,36.482012583181216],[138.88409203426565,36.4818126504322],[138.88445920624508,36.48121085982759],[138.88471358341988,36.48081556160598],[138.88505620460785,36.48065942410225],[138.88510023834527,36.48066040454351],[138.88531371469045,36.48061379583372],[138.88569423741626,36.48053575473496],[138.88576697612177,36.48053115104764],[138.88626675805514,36.48049003545968],[138.88745688687254,36.48097143478783],[138.888111801374,36.48124047711016],[138.88824130003528,36.48124565055581],[138.89192518179516,36.48172076817608],[138.89285711467474,36.48184318810926],[138.89331135070069,36.48190313407661],[138.89376561558134,36.4819606920714],[138.89495417887312,36.48211240310986],[138.8956148936401,36.48219831991621],[138.89596324947084,36.48210731854839],[138.8964296204098,36.48197460533103],[138.89678217830743,36.481839849630354],[138.89731862592188,36.481563106699724],[138.89743932176447,36.48140277039291],[138.8982391734641,36.48101122262887],[138.8990892448978,36.48059398922937],[138.8992786695634,36.480470968148886],[138.8991679542769,36.48015936426616],[138.89897423604526,36.479774878292524],[138.8988396663622,36.47937058916501],[138.89877220872867,36.47887800034495],[138.8987676994511,36.47863779244243],[138.89877768950032,36.478421467692435],[138.8988830483433,36.47820591775885],[138.89900248214946,36.47804376198289],[138.8990726830123,36.47792364996603],[138.899260609935,36.477780690323904],[138.89937989943752,36.47762746069441],[138.8993744274879,36.47746734027634],[138.89929694217446,36.4771999191998],[138.89918476864335,36.476760264291606],[138.8992038783394,36.47640213394363],[138.89921895384032,36.47605835560443],[138.8992483864654,36.47575028752529],[138.89929815291444,36.475270388240574],[138.89937062842824,36.474961224544266],[138.899485472976,36.47478284256431]]]}},{"type":"Feature","properties":{"potaRef":"JP-1321","nameJa":"敷島公園","nameEn":"Shikishima Prefectural Park","authority":"群馬県","boundaryStatus":"公的GIS・公式公園情報との照合済み（公式区域判定対象）","boundarySource":"国土交通省「都市計画決定GISデータ（令和7年度）」都市公園・緑地","boundaryScaleNote":"都市計画決定区域を使用。現地の供用区域やPOTA規則上の有効区域と差がある可能性があるため、境界付近は注意表示します。","cautionMeters":75,"sourceParkName":"敷島公園","sourcePrefecture":"群馬県","sourceCity":"前橋市","officialParkUrl":"https://www.pref.gunma.jp/page/1223.html","officialGisUrl":"https://www.mlit.go.jp/toshi/tosiko/toshi_tosiko_tk_000087.html","reviewNote":"公的GISの公園名・所在地と群馬県公式県立公園情報を照合済み","importedPolygonCount":1},"geometry":{"type":"Polygon","coordinates":[[[139.05356164609714,36.417706567724096],[139.05317109503832,36.41728432990876],[139.05309830243303,36.41725203253552],[139.05300672479885,36.41715480357188],[139.05290792242394,36.41704401778903],[139.05277350316305,36.41689329063875],[139.0527374460105,36.4168528606985],[139.05253122320667,36.41663800954412],[139.05244780351634,36.41654692585077],[139.05228872774128,36.41637322751745],[139.0522485010164,36.416329317519676],[139.05192482813007,36.4159758898526],[139.05164628538708,36.41567454989434],[139.05160618086867,36.41562408038085],[139.05225349963064,36.415241610386445],[139.05255954879152,36.415121241178866],[139.05278323106094,36.414901449135506],[139.05274542369912,36.41479532473994],[139.05274132391145,36.41478382519983],[139.05287164531302,36.41479210234741],[139.0530584617848,36.41480525561686],[139.05325339114594,36.41481999279576],[139.05344230425115,36.414834239744735],[139.05363356364327,36.414848024060404],[139.05368621379696,36.41485170241293],[139.05390803397506,36.41486798397746],[139.0540003720232,36.41487455285401],[139.05413911732455,36.41488455989861],[139.05415902989017,36.41488588848013],[139.05416516826358,36.41488532470622],[139.0541748387016,36.414881674713556],[139.05417805982236,36.41487957782614],[139.05419187536103,36.41485723619792],[139.0542486410131,36.414763688727724],[139.05432302907565,36.41464385807804],[139.05446155214239,36.41442046105887],[139.0544976735326,36.41435079675592],[139.0545461313684,36.414277247458976],[139.05452891224786,36.41416585947331],[139.05452811425513,36.41400465908948],[139.0545290978244,36.41393294509402],[139.05453000875914,36.413789320050896],[139.05453116694582,36.41364549924613],[139.05453167978416,36.41345798227392],[139.05453202071996,36.413290922248386],[139.05453296667125,36.41311698071542],[139.05453448969482,36.41291092196113],[139.054531291877,36.41291069382043],[139.05453141246556,36.412845003457676],[139.0545323884406,36.41274846933732],[139.0545211852638,36.41274819799739],[139.05451970499834,36.412577043471586],[139.05451818612602,36.412355140041676],[139.05451708548622,36.412037842504205],[139.05451568186717,36.4120176095934],[139.05451281221585,36.41201131826828],[139.05451303716038,36.411983201143656],[139.0545150217895,36.41174095258728],[139.05451645795983,36.41164735047114],[139.05451929605536,36.411510597257774],[139.05451920249462,36.41147082505919],[139.05451941007334,36.411400998570414],[139.0544641196348,36.411400674001015],[139.05427738091083,36.41140508948479],[139.05427709017556,36.411389541249974],[139.05426494330334,36.41128962206673],[139.05425441229949,36.4112030796693],[139.054248141535,36.41117003545758],[139.05419953471176,36.41099194931847],[139.0541666050774,36.410943229880715],[139.05409170005518,36.41082056129918],[139.05402054268586,36.410667535524205],[139.0540056714314,36.41063378627844],[139.05392108304335,36.41048603514687],[139.05379984794678,36.41048858737582],[139.0537454369665,36.41040154217251],[139.05368954129582,36.410297949549395],[139.05362767934088,36.41017340113047],[139.053571743645,36.4100337947525],[139.05349928328715,36.40984620671529],[139.0534698109366,36.409801952758144],[139.0533675985251,36.409610529332696],[139.05327918886326,36.40939913444024],[139.0530954544383,36.409047965650636],[139.05309441635708,36.40904696750703],[139.05297544014684,36.40904907494101],[139.05285201358598,36.409050233006475],[139.05279639127255,36.40905104106374],[139.0527853460418,36.409051752944684],[139.0527728621245,36.40905361801668],[139.05275485781934,36.40905784519497],[139.0527275042358,36.4090671203697],[139.0527059769701,36.40907800177799],[139.05269618106277,36.40908422837704],[139.0526860426626,36.40909125483745],[139.0526742752877,36.40910062287701],[139.05266189898524,36.40911178940903],[139.05265238436837,36.40912221760878],[139.05264415769975,36.409133185957764],[139.05263692895312,36.409145710958256],[139.05262240605995,36.409174176219224],[139.05260225893645,36.40921649277286],[139.0525551163666,36.409325875028514],[139.052484654735,36.409499145794655],[139.05242517001963,36.40964397405452],[139.05237197434488,36.409773124933615],[139.0523105057086,36.40992351790912],[139.05225177567783,36.4100552650428],[139.05220360400574,36.41015819566166],[139.05214706345225,36.41027390512634],[139.05209546315373,36.410378373308056],[139.0520461988389,36.410473464957946],[139.0520088688696,36.410544760905076],[139.0519679091644,36.41062210832709],[139.05192310162505,36.410701899042465],[139.0518635869901,36.41080944171467],[139.05179570051715,36.4109246991259],[139.05173614974322,36.41102357159339],[139.05165227742492,36.411159623966014],[139.05159842739474,36.41124368129301],[139.0515420291693,36.4113273253668],[139.0512655897819,36.41177181847303],[139.04930824394697,36.41407686506484],[139.04932952894274,36.41418557675036],[139.04932461033852,36.414228975031314],[139.0493638870136,36.4143172206001],[139.04945497161896,36.41450268014983],[139.04952601699404,36.4146374397261],[139.04953762324243,36.41465310729621],[139.04963025828064,36.41479419911252],[139.04961637942301,36.41480717684766],[139.04962442805515,36.41488284338868],[139.04962714207326,36.41490681605896],[139.04962573830346,36.4149620796597],[139.04962380822727,36.41503765366849],[139.0496219870503,36.415093509344246],[139.0495934573635,36.41518396842199],[139.0495729594277,36.41521648566563],[139.04954562878953,36.41525984498836],[139.04953619814282,36.41527289607101],[139.0494981250731,36.41532557664936],[139.0494638016586,36.415355641878236],[139.0494151024079,36.415398302123606],[139.0493170551873,36.41546605410386],[139.0492222825948,36.415512962989546],[139.04916186211986,36.41553694464703],[139.04914328932676,36.41554431194598],[139.04886932006139,36.41565515065954],[139.0487185400305,36.41571635428795],[139.04866831406983,36.415745558651125],[139.04865189363989,36.41575510298309],[139.04860438244958,36.41579143500953],[139.04857553708345,36.41581348794144],[139.0485492117146,36.41585105868708],[139.04852817090915,36.415880949579815],[139.04852265262681,36.41588858282861],[139.0485123262092,36.415935226917526],[139.04849476856603,36.416021107449],[139.04848431782224,36.41607456315946],[139.04846636961287,36.416163901863186],[139.0484566222578,36.41624042481981],[139.04843763135466,36.416395700993],[139.04841940617402,36.41654789906441],[139.04840441205184,36.41665381287171],[139.0483992550756,36.41669534396806],[139.0483970361112,36.416725259423],[139.0485353850772,36.41673722696883],[139.04858068369057,36.41682323221351],[139.04887199317852,36.41668725550143],[139.04899821843293,36.416647393897684],[139.0490103107673,36.416643570975964],[139.049049615003,36.41662601981884],[139.0492496312456,36.41653342371844],[139.0493503148339,36.41649306957128],[139.04945098829134,36.41674763571019],[139.0495408126966,36.4169400624296],[139.04944939727488,36.41695244012924],[139.04919173100143,36.417024055725605],[139.04920532928116,36.41715871755783],[139.04931544340158,36.41750136046683],[139.0494169470536,36.41810369187247],[139.04934181295184,36.418289890444505],[139.04916803717697,36.418286542201045],[139.04891571039198,36.418296890179505],[139.04879246375376,36.41830198354656],[139.04867861359162,36.41830733770809],[139.0484864750706,36.41831478987559],[139.04835992946113,36.41831970880264],[139.04832894502968,36.41834590229378],[139.04832831098423,36.41844645799009],[139.04832537339283,36.418630858507285],[139.04832455467422,36.41868217848812],[139.04832321463704,36.418766570384555],[139.0483213909957,36.418871201750896],[139.04832160402765,36.41888770477341],[139.04828834845674,36.4190420209792],[139.04821667064164,36.419372915940514],[139.04815889164027,36.419638058880444],[139.04813614539188,36.41974850890547],[139.04810385925708,36.4198895291755],[139.0480437944007,36.42015790144726],[139.0479900127806,36.42039582531219],[139.0479639111103,36.420514977175245],[139.04798628765855,36.42054748771375],[139.04826033200592,36.42060816669347],[139.04857161480456,36.42067842659849],[139.0488974406573,36.42075078198185],[139.0490381269186,36.420781653322535],[139.04914490528785,36.42075233451221],[139.04919887305354,36.420688556140476],[139.0492913821897,36.42057448144308],[139.0493750945352,36.42047365024531],[139.0495187310986,36.42029759061862],[139.04962511085762,36.420176909623265],[139.04965764074444,36.42014354310257],[139.04972555370037,36.42007562110298],[139.04975644014482,36.42004588475985],[139.0498129151716,36.41999428021748],[139.04983691998427,36.419973664259274],[139.04987487106715,36.4199422168323],[139.04989336579487,36.419928287924066],[139.04993220815024,36.419903578555164],[139.05002601759918,36.419845252306416],[139.0500725552742,36.419818322260674],[139.05017260484007,36.41976042526138],[139.05043517354298,36.41961904719016],[139.05055221216514,36.419554952611996],[139.05073535352082,36.41945548420209],[139.05089479152485,36.4193677024182],[139.05103865838277,36.419293761417215],[139.05118966255478,36.41921517065455],[139.05129025717648,36.41915402281365],[139.05147441841225,36.419041618188494],[139.05163267032293,36.418945175774546],[139.05194598005085,36.41875277499706],[139.05205147364669,36.4186900264248],[139.05211358573783,36.41865094968212],[139.05226916550333,36.418552938800886],[139.05248023476048,36.418418898702605],[139.05269009926482,36.41828271441871],[139.05290671752638,36.4181401390773],[139.05309091503662,36.41801806188919],[139.05331894076483,36.41786752130163],[139.05356164609714,36.417706567724096]]]}}]}
