{"type":"FeatureCollection","metadata":{"title":"超軽量ログ Ver.1.10 POTA公式区域・山形県","status":"公的GISと公式公園情報を照合した区域だけを実判定に使用","source":"国土交通省 都市計画決定GISデータ（令和7年度）","promotionConfig":"data/pota-boundary-official-promotions.json"},"features":[{"type":"Feature","properties":{"potaRef":"JP-1076","nameJa":"山形県総合運動公園","nameEn":"Yamagata Prefectural General Sports Prefectural Park","authority":"山形県","boundaryStatus":"公的GIS・公式公園情報との照合済み（公式区域判定対象）","boundarySource":"国土交通省「都市計画決定GISデータ（令和7年度）」都市公園・緑地","boundaryScaleNote":"都市計画決定区域を使用。現地の供用区域やPOTA規則上の有効区域と差がある可能性があるため、境界付近は注意表示します。","cautionMeters":75,"sourceParkName":"山形県総合運動公園","sourcePrefecture":"山形県","sourceCity":"天童市","officialParkUrl":"https://www.pref.yamagata.jp/180019/kurashi/kendo/toshikoen/park02/index.html","officialGisUrl":"https://www.mlit.go.jp/toshi/tosiko/toshi_tosiko_tk_000087.html","reviewNote":"公的GISの公園名・所在地と山形県公式都市公園一覧を照合済み","importedPolygonCount":1},"geometry":{"type":"Polygon","coordinates":[[[140.37264249323644,38.33982941929649],[140.37341236059524,38.340991008929095],[140.37377984100982,38.34078199005848],[140.3743806580569,38.34044028736193],[140.37471665136775,38.340249020756474],[140.37521189051407,38.33996743422894],[140.3752261516134,38.33995932494614],[140.3758298049155,38.340613322155406],[140.37631092480666,38.34113451165677],[140.37674969916714,38.34089971745254],[140.37693801344562,38.34079895112348],[140.3770231591177,38.3407532487716],[140.37706271612137,38.34073031546888],[140.37738893482722,38.34055758530667],[140.3777675771773,38.340354931879084],[140.37786693446805,38.34030168221786],[140.3779992905882,38.340230822844966],[140.37823777260206,38.34010322021647],[140.3784188191973,38.34000636499798],[140.37854059348837,38.3399410949921],[140.3786290087911,38.33989385560214],[140.3787356283337,38.33983669162963],[140.37940286691122,38.33947959389293],[140.3795986615402,38.339374769689776],[140.37982422765901,38.33925373028987],[140.38010543359934,38.339102779457036],[140.38074383767398,38.33875992170344],[140.38080055358975,38.338729451425046],[140.38119272033222,38.33851895553607],[140.38149678613766,38.33835570117542],[140.38169746356246,38.338247935943826],[140.38180591728036,38.338189650000956],[140.38191634300892,38.338130386114834],[140.3819388492051,38.33811836601388],[140.38215929702477,38.337999977106605],[140.38243390299658,38.337852514624586],[140.3826955061353,38.33771204032466],[140.38298091427765,38.33755884623807],[140.38301307808769,38.337473660259164],[140.382937553352,38.33733076618641],[140.3828804892135,38.33722299569418],[140.3828130030732,38.33709533600392],[140.38268037176493,38.336844530265225],[140.3825812627144,38.33665720151623],[140.3825451794554,38.336588928209984],[140.3825019826829,38.33650767634033],[140.3824240645623,38.33636195724664],[140.38237220723133,38.336265046116395],[140.38233245327837,38.33619070534748],[140.3822907114094,38.336112696795176],[140.38225731413704,38.336050909335235],[140.38221684288587,38.335976988094096],[140.38217336652465,38.33589770586658],[140.38211539789904,38.33579204312802],[140.38207841662648,38.33572461086878],[140.38204810726083,38.33566931083486],[140.3820368400477,38.33564885524856],[140.3819470459211,38.3354802847318],[140.38186052107517,38.33531778001121],[140.38171035528478,38.33503509069984],[140.3815664680726,38.33476326497053],[140.3814518617935,38.33454687607726],[140.3813679070417,38.334388181775225],[140.38122482844318,38.33412325666896],[140.381060433575,38.333815876184275],[140.38101290954648,38.33372686448298],[140.38090998449306,38.333687473558996],[140.38034624242587,38.33381551725231],[140.3800535657807,38.33388181915923],[140.37989598259034,38.333916123012266],[140.37973478976704,38.33394886419414],[140.37951552647124,38.3339933466382],[140.3792655496058,38.33404052543422],[140.37923374726063,38.33404589269533],[140.37910904523557,38.33406652670254],[140.37895156920885,38.33409069393456],[140.37881990912962,38.33410932987423],[140.37863208755863,38.33413450544518],[140.37846335956914,38.33415736149156],[140.3781752832397,38.33418777902172],[140.37788566752565,38.33421424818931],[140.37775151658062,38.33422386370351],[140.37771454781375,38.33422653579818],[140.377605307618,38.334239626356876],[140.37748421016872,38.33425534551175],[140.3773170736293,38.334273701299544],[140.37689551284396,38.33427853952053],[140.37671383378563,38.33426460058738],[140.37644269164275,38.33425932297778],[140.37637406436636,38.334258633687746],[140.3757403577334,38.334248564790904],[140.37557143241855,38.33424579495487],[140.3753732473166,38.334241925376546],[140.3752125915546,38.334238624168044],[140.37497748321047,38.33423728462512],[140.37480000530422,38.33423743659249],[140.37473137364944,38.334237450206565],[140.3745905358682,38.3342374633544],[140.37443044887792,38.334243172882886],[140.3743675677312,38.334245320366314],[140.3742686639894,38.33424887555686],[140.37387445313982,38.33427422215462],[140.37376555880155,38.334281961073216],[140.3735740202006,38.33430106071531],[140.37336745534301,38.33432221281933],[140.37312689006856,38.334349988522376],[140.37288718525042,38.33438297575529],[140.37235824803702,38.33447310835004],[140.37254938085712,38.33501175717336],[140.37269977798164,38.33544973302538],[140.37286342751767,38.335926192023244],[140.37302065695349,38.33637249990548],[140.37306104017605,38.336487107705274],[140.37311888458902,38.336652744220395],[140.3731586023426,38.33676664550502],[140.37318322380003,38.33683712913698],[140.37322399632464,38.33695385001696],[140.37328021761977,38.33711483453539],[140.37333235758155,38.33726411877099],[140.37335785700736,38.33733713974021],[140.37338860801654,38.33742763728574],[140.37342149959687,38.33752588579253],[140.37348438735916,38.33771392498054],[140.37359435628272,38.33803884029818],[140.37360071787356,38.33805744740961],[140.3736022623889,38.338067589206005],[140.37360133419102,38.33808011448652],[140.37359538561844,38.33810219276826],[140.37358594978156,38.33811750023164],[140.3735737980471,38.33813124854498],[140.37357227275987,38.33813926670973],[140.3735727395313,38.33815024893321],[140.37357557541182,38.3381610996566],[140.37358092246353,38.338170552467034],[140.37360989778136,38.338202762432864],[140.37376422828893,38.33837398490012],[140.37400690747293,38.338643250102784],[140.374216264692,38.338875360906535],[140.37424826131019,38.33891039801358],[140.3739904803224,38.33905790694791],[140.37365183925792,38.339251554346674],[140.37333382499534,38.339433597272716],[140.37309734365843,38.33956879948447],[140.37297997622508,38.339636051894395],[140.37296145475648,38.33964653735997],[140.37275811237475,38.33976314579611],[140.37264249323644,38.33982941929649]]]}},{"type":"Feature","properties":{"potaRef":"JP-1077","nameJa":"西蔵王公園","nameEn":"Nishizao Prefectural Park","authority":"山形県","boundaryStatus":"公的GIS・公式公園情報との照合済み（公式区域判定対象）","boundarySource":"国土交通省「都市計画決定GISデータ（令和7年度）」都市公園・緑地","boundaryScaleNote":"都市計画決定区域を使用。現地の供用区域やPOTA規則上の有効区域と差がある可能性があるため、境界付近は注意表示します。","cautionMeters":75,"sourceParkName":"西蔵王公園","sourcePrefecture":"山形県","sourceCity":"山形市","officialParkUrl":"https://www.pref.yamagata.jp/180019/kurashi/kendo/toshikoen/park02/index.html","officialGisUrl":"https://www.mlit.go.jp/toshi/tosiko/toshi_tosiko_tk_000087.html","reviewNote":"公的GISの公園名・所在地と山形県公式都市公園一覧を照合済み","importedPolygonCount":1},"geometry":{"type":"Polygon","coordinates":[[[140.3556431086236,38.191851853704776],[140.35559274121906,38.19191640690539],[140.35411929937553,38.19245366675217],[140.35392620823487,38.19253467082297],[140.35376164986212,38.19261001920007],[140.35365161354207,38.19268798333765],[140.3534962699553,38.19282010272336],[140.35339898657801,38.19296611475416],[140.35329061214506,38.19317120832325],[140.3532353433852,38.193438461480184],[140.3531136103588,38.19405457340284],[140.3531196731231,38.19421790122808],[140.35316511954744,38.19435323442606],[140.35322146136448,38.19446608760269],[140.3534637445634,38.1950583476141],[140.35337890895292,38.195087564326386],[140.3531911527135,38.1954348009804],[140.35296976282905,38.19580329802918],[140.35276369758824,38.19613328407028],[140.35259191264677,38.196349942691526],[140.35185185445317,38.19658904900328],[140.3514192620144,38.196744523671775],[140.35101153329424,38.19673398037148],[140.35095477824436,38.1967516260621],[140.3508521236092,38.19685847739663],[140.3507382397044,38.1969503599729],[140.3506124183763,38.19713454398075],[140.35050516512058,38.197363571732765],[140.3503826803716,38.19761632826906],[140.35031800826326,38.197684621295465],[140.3488609178509,38.19876627136719],[140.34884165857164,38.198825741131444],[140.34878865204405,38.19884945470034],[140.34864772354177,38.19903061782811],[140.34857505795316,38.1991672951401],[140.34858359968536,38.19958755370867],[140.3484437613743,38.19961076779333],[140.34845098191934,38.19965852146408],[140.3483791249001,38.19967314717725],[140.34834078246334,38.199765339370124],[140.3482255467432,38.20005979384739],[140.34819043544377,38.200229568180234],[140.34853658657354,38.20041569916747],[140.34847554333402,38.20050779765259],[140.34839202670454,38.2005789680924],[140.34853301035653,38.20095500604404],[140.3485024212019,38.20101456972164],[140.34849827461645,38.20106818912464],[140.3485167254044,38.201130770875665],[140.34864757233822,38.20133403185359],[140.34846491898605,38.20154486740428],[140.3483884987998,38.201675616341724],[140.34838032934462,38.20177088948465],[140.3484060847399,38.20187531256306],[140.3484768713787,38.2020156792922],[140.34858563729503,38.202132270490615],[140.34874720842578,38.202249220331744],[140.3489467786636,38.20233943808652],[140.34960600820787,38.20257753734805],[140.34997860125424,38.202766870112264],[140.35005744744507,38.202835612929626],[140.35016621617348,38.20295234344683],[140.3502333398982,38.20308072787708],[140.35028186783072,38.20316145271009],[140.35034202560556,38.20320337057279],[140.35042866483099,38.20323357195961],[140.35067398674397,38.20325837229304],[140.35105095655706,38.20334635930746],[140.35118634824642,38.20343025612953],[140.35123454885067,38.203567572075016],[140.3512295982481,38.20374338376291],[140.35119001860247,38.204023369904085],[140.35117305215823,38.204303308112664],[140.35117911518876,38.2045268888229],[140.3513035722065,38.205126270387304],[140.35140323174394,38.205475387127755],[140.35149672883904,38.20561598597668],[140.35159055651266,38.205699711717045],[140.35171341468248,38.205797915854575],[140.35197728148313,38.20655708853716],[140.35204318633467,38.206648019880305],[140.3521599613618,38.20680335453721],[140.35223515894097,38.20685138651672],[140.35229556359315,38.20685642049526],[140.3523833663518,38.20682580903387],[140.35244713366583,38.20678073968277],[140.35252303703828,38.206721501405426],[140.35257454475317,38.20670256651358],[140.35264084470288,38.20672677028699],[140.35266467474713,38.20677923733592],[140.3526371535081,38.20682684845118],[140.3525702729123,38.206890910208536],[140.35252751946808,38.206962250427935],[140.35251500901893,38.207026534811334],[140.35252373364827,38.20707668756904],[140.35256254491642,38.20714357536292],[140.3526583655204,38.20727742542167],[140.35294633422012,38.20758859761782],[140.35408793780223,38.20765520582591],[140.354575446358,38.20794325613666],[140.35527966023466,38.208365644742166],[140.35557674442742,38.20867670680809],[140.35584315531122,38.209047333285774],[140.35622280564525,38.20966632968163],[140.35636053235726,38.20985989613189],[140.35647406772728,38.21005589816003],[140.35653953261158,38.210208767526716],[140.35669984560798,38.21055066463544],[140.35672911826646,38.21059681791866],[140.35674866142082,38.210664329966924],[140.3567839108478,38.210683196548764],[140.35688525345407,38.2107040207142],[140.3568949161404,38.21067238485813],[140.356949264638,38.210655852820295],[140.35701062874793,38.21065793193155],[140.3571781071171,38.21072210226401],[140.3572532064635,38.21073155741887],[140.35730986638623,38.21072995706608],[140.35736661555762,38.21070780344554],[140.35765824809675,38.210502323221846],[140.35777612836256,38.21044944589953],[140.35802674984393,38.210417941129656],[140.35816397909812,38.210387103138885],[140.35824445232802,38.21035209352796],[140.35833461608345,38.21027418574674],[140.35948048062866,38.210770976750176],[140.35945599486976,38.21069485773576],[140.3594423420767,38.21059907350995],[140.3594609689308,38.21047807952327],[140.35953647046645,38.210391101832805],[140.35966902906256,38.210309985442315],[140.35974440246514,38.21024271603448],[140.35980198869387,38.21016692814436],[140.35989576896313,38.210012450444076],[140.36012042067955,38.21003024958453],[140.36016393349314,38.20992343359475],[140.36024314775273,38.209813945901004],[140.3603188217281,38.2096931816358],[140.36035652657785,38.20938094685731],[140.36037220274744,38.20916421166787],[140.36041305726204,38.208916606704655],[140.36051067610578,38.208719910488306],[140.3607835038175,38.20846760829907],[140.36080906417587,38.208377613153864],[140.36083112901497,38.208276341679095],[140.36082484796663,38.20814398491532],[140.36079733948,38.2079833870724],[140.36075823440817,38.207960705156395],[140.36063702425392,38.207943183014166],[140.3606379164709,38.207805223989],[140.36067399939586,38.207743426867765],[140.3608171291902,38.20768206063575],[140.36082466607783,38.2076201485682],[140.36082148007594,38.20756100890571],[140.3606308170645,38.20724771377309],[140.36053589593536,38.207027717548534],[140.3604371157347,38.20685275472145],[140.3601256932123,38.2064601364484],[140.35978518021184,38.20611765781922],[140.3597076673064,38.20599951376485],[140.3596084342887,38.20589493750378],[140.35936711499664,38.20569124285726],[140.35928912732035,38.20561209217357],[140.3592549433676,38.20538107783982],[140.3592557102909,38.2052628272189],[140.359284912508,38.20516158480557],[140.35918917627612,38.205068284558415],[140.35890456864976,38.20493761879393],[140.3586910313342,38.20485228872962],[140.35861280758212,38.204809738978746],[140.35855950567506,38.204775736657666],[140.35849575560403,38.2047022741455],[140.35843949026648,38.204575205361664],[140.35799556763112,38.20425243442355],[140.35757272736438,38.20398042740874],[140.3574343799566,38.20385598181831],[140.35725687629906,38.203717299461466],[140.35719669648844,38.20364385071395],[140.35702285354603,38.2034911050202],[140.35689133208783,38.203414551089196],[140.3564794409319,38.20312006002946],[140.35632292632482,38.203046219508444],[140.3561556161494,38.202986412728805],[140.3560773407335,38.20295230777034],[140.35600270692203,38.20290695530342],[140.35593533789412,38.20284192337108],[140.35585011065112,38.20277963433654],[140.3557578579395,38.20270042326799],[140.35572962675764,38.202652443809406],[140.35571577790256,38.20258762946048],[140.35568403400117,38.202531189002706],[140.35555214674054,38.202511084170986],[140.35541722627403,38.20240917466004],[140.35527853569405,38.20233822086513],[140.35515058610812,38.202261679523005],[140.35507963205285,38.202199448059915],[140.35500529437752,38.20210904710977],[140.35494358458055,38.20201095476145],[140.35492093474895,38.20191442933534],[140.3548926859908,38.20186926516556],[140.35477560732278,38.2017674276183],[140.35476172261252,38.201708244135496],[140.35486232505218,38.20160166266614],[140.35493028156304,38.20157659950267],[140.35488079119528,38.20150600867494],[140.35485259789837,38.20145239802049],[140.35484239166854,38.20137633613866],[140.3548251601945,38.201283352225055],[140.35476008815422,38.20120847448682],[140.35469754471515,38.20115613155065],[140.35452317814878,38.20108503140682],[140.35433803443044,38.2010251493004],[140.35423201213572,38.20086986054931],[140.35412600874344,38.20071175621028],[140.35394186322605,38.20049983696393],[140.35363735344114,38.20014383180413],[140.3535380446376,38.20005332787365],[140.35343877304058,38.19995719287708],[140.3533430880339,38.19985825689201],[140.35328650164024,38.19978200523407],[140.3532441682275,38.19970862739816],[140.35320904452456,38.19962401676273],[140.35318460590096,38.199542265381254],[140.3531315877405,38.19946602823828],[140.35301444897613,38.199381082064995],[140.3528653035451,38.199273480260565],[140.35275172562666,38.19918291726206],[140.35269151703338,38.199115097185796],[140.3526597769547,38.199058655902434],[140.3526637334663,38.1989995451921],[140.35268214300356,38.198858560647366],[140.35271858306055,38.19879704890214],[140.35273725483145,38.198670424810004],[140.35273180245738,38.198414326643906],[140.35268959993905,38.19832124015838],[140.3526224601909,38.19822242042179],[140.35253742627987,38.1981319740711],[140.3524737805995,38.198044430825895],[140.35242810345807,38.19793725217322],[140.35233643470636,38.19777075817155],[140.3521492527908,38.19747998770335],[140.35190584166065,38.19705947025097],[140.35186748675002,38.19692416571014],[140.35187161061754,38.19683971558042],[140.35189712209552,38.19675816871937],[140.351998717616,38.1966967835484],[140.3521227188603,38.196639431917646],[140.35244431841286,38.19653643277606],[140.35310646808654,38.19633050935065],[140.35335263714245,38.19621607766399],[140.35353290595756,38.1960789924008],[140.35365658652762,38.19593421442187],[140.3537095457672,38.19577436569424],[140.35373918336754,38.19557331437166],[140.35373550697565,38.195413093485804],[140.35369066814235,38.195273258100386],[140.35363118218285,38.19509563422729],[140.35360338011714,38.194982897870844],[140.35355121452466,38.19477714816789],[140.3534580699189,38.194536740231904],[140.3533509464427,38.194245172483605],[140.3533104260631,38.194018353485006],[140.35337954948506,38.193841677519],[140.35341531046166,38.193740463189194],[140.3534249727761,38.19362041863538],[140.3535032223486,38.19339169184271],[140.3535112995509,38.19324813078757],[140.3534906149031,38.19313823902739],[140.35358126386578,38.192963481002266],[140.35375894945352,38.19281779725078],[140.35394259694047,38.192694521350575],[140.35413975942376,38.19261156297313],[140.35568104502647,38.19205191356345],[140.3557707360015,38.19206382224233],[140.3556431086236,38.191851853704776]]]}},{"type":"Feature","properties":{"potaRef":"JP-1079","nameJa":"中山公園","nameEn":"Nakayama Prefectural Park","authority":"山形県","boundaryStatus":"公的GIS・公式公園情報との照合済み（公式区域判定対象）","boundarySource":"国土交通省「都市計画決定GISデータ（令和7年度）」都市公園・緑地","boundaryScaleNote":"都市計画決定区域を使用。現地の供用区域やPOTA規則上の有効区域と差がある可能性があるため、境界付近は注意表示します。","cautionMeters":75,"sourceParkName":"6・5・401 中山公園","sourcePrefecture":"山形県","sourceCity":"中山町","officialParkUrl":"https://www.pref.yamagata.jp/180019/kurashi/kendo/toshikoen/park02/index.html","officialGisUrl":"https://www.mlit.go.jp/toshi/tosiko/toshi_tosiko_tk_000087.html","reviewNote":"公的GISの公園名・所在地と山形県公式都市公園一覧を照合済み","importedPolygonCount":1},"geometry":{"type":"Polygon","coordinates":[[[140.26491159667287,38.34176456350243],[140.26491113798116,38.34176631544177],[140.26490969238702,38.34177183039824],[140.26490680234906,38.34178285941578],[140.26490581545332,38.341786621532],[140.26490535675424,38.34178837437221],[140.26490391116627,38.34179388842767],[140.26490354208735,38.34179529843779],[140.26490102112652,38.34180491744501],[140.26490003536705,38.341808680467615],[140.26489957553082,38.341810432401324],[140.26489813107884,38.341815947363166],[140.26489435427413,38.3418303677876],[140.2648724504473,38.34191399742478],[140.26490763323625,38.34193241864943],[140.26504639966114,38.34200985631623],[140.26505594908144,38.34201532545124],[140.26510753305453,38.34204486912063],[140.26514072202608,38.34206387704744],[140.26528906243078,38.34214883425045],[140.2653284242586,38.34241366921272],[140.2653292198453,38.34241902204571],[140.26532983425372,38.3424361495041],[140.26533104396364,38.34246992141541],[140.26533185196504,38.342492435729895],[140.26533265881588,38.34251495093971],[140.26533386967895,38.34254872195517],[140.2653346765308,38.34257123716475],[140.26533548339012,38.34259375147331],[140.26533669424833,38.342627523389226],[140.26533750110866,38.34265003769759],[140.26533830796944,38.34267255200583],[140.2653395188298,38.342706323921306],[140.2653400148347,38.342720156007125],[140.26534032569157,38.34272883822935],[140.26534034640477,38.342729408635186],[140.2653408959215,38.342744738369944],[140.26534057087528,38.34275135071773],[140.26533891388036,38.342785110543886],[140.26533780921375,38.34280761739483],[140.26533670454637,38.3428301242457],[140.2653350464035,38.342863884065785],[140.26533394173418,38.34288639091638],[140.26533283706414,38.34290889776686],[140.26533117891717,38.34294265758643],[140.26533007424518,38.34296516443665],[140.26532944703553,38.342977948674715],[140.26532896957946,38.342987670385874],[140.26532731256535,38.34302143111136],[140.2653272650206,38.34302239220168],[140.26535291717585,38.34302992501626],[140.26537971412466,38.34303779402081],[140.2653914678935,38.343041245751124],[140.2653866070355,38.34306484348713],[140.2653820279597,38.343087075836515],[140.26537745001792,38.3431093090921],[140.2653705819559,38.34314265896942],[140.26536600287,38.34316489131781],[140.26536142491815,38.34318712457239],[140.26535455684098,38.3432204744482],[140.26534997774502,38.343242706795614],[140.26534539978306,38.34326494004921],[140.2653385316978,38.343298289022584],[140.2653339525847,38.34332052226992],[140.26532937346872,38.34334275551698],[140.26532250651226,38.3433761044944],[140.26531990005898,38.343388760218204],[140.2653179273891,38.34339833774075],[140.265313348263,38.34342057098679],[140.2653064801475,38.343453919957206],[140.26530190215817,38.34347615320807],[140.265297323022,38.34349838645315],[140.26529045489136,38.34353173542205],[140.26528587689194,38.34355396867193],[140.26528147614874,38.343575330654375],[140.26528129775272,38.343576201015075],[140.2652744295999,38.34360955088341],[140.26526985159038,38.3436317841323],[140.2652652724411,38.343654016474446],[140.26525840427317,38.34368736634129],[140.2652538262606,38.343709598688264],[140.26524924709415,38.34373183193033],[140.2652423789111,38.343765181795675],[140.26523780088846,38.343787414141644],[140.26523322171192,38.34380964738272],[140.26522635351373,38.34384299724658],[140.26522177433705,38.34386522958601],[140.26522063636116,38.343870756846094],[140.2652171962944,38.343887462831624],[140.26521563739868,38.34389503142151],[140.26524631508175,38.3439049509139],[140.26527277179324,38.34391350572411],[140.26527952490522,38.34391568902038],[140.26529922851805,38.343922059627474],[140.265338913038,38.343934891369514],[140.2653653686275,38.34394344615342],[140.26539182537428,38.343952000036005],[140.26543150992725,38.34396483174691],[140.26544946765915,38.34397063798362],[140.26545796668273,38.3439733865156],[140.26548442230757,38.34398194037188],[140.26551685624096,38.34399242779195],[140.26552410689354,38.34399477205162],[140.26555056367098,38.344003326799545],[140.2655770204618,38.3440118806406],[140.26561670508076,38.34402471228919],[140.2656431607363,38.3440332670108],[140.26566961754907,38.344041820831094],[140.26570930220103,38.34405465244857],[140.26573539614495,38.344063090076084],[140.26600804386254,38.344151246329794],[140.2660091279291,38.34415159664077],[140.26603558482182,38.34416015127989],[140.26607564499733,38.34417222868777],[140.26610241103896,38.34418016404837],[140.2661291770865,38.34418809940289],[140.26616932560395,38.34420000151962],[140.26619609166627,38.344207936858965],[140.2662228577345,38.34421587219222],[140.26626300628294,38.34422777427704],[140.26628977236592,38.34423570959512],[140.26631653846187,38.3442436440062],[140.26635666147394,38.34425559729002],[140.26638321717843,38.34426396042485],[140.26640977175217,38.34427232264724],[140.26644960533676,38.34428486642838],[140.26647615991888,38.344293229536746],[140.26649233871873,38.344298324268586],[140.26650322909643,38.34430029865031],[140.2665450347573,38.34430787865239],[140.2665729055935,38.34431293077946],[140.26659409117036,38.34431677213953],[140.26660085193555,38.34431768955306],[140.26664312729565,38.34432342573059],[140.26667131201214,38.34432725044667],[140.26669949673868,38.344331074255045],[140.26674205317812,38.34433494767641],[140.26677059150674,38.34433640906669],[140.26679662203287,38.34433774301185],[140.2667991365318,38.34433774524945],[140.26684203512545,38.344337788520086],[140.2668550068619,38.34433780163134],[140.2668706349483,38.344337817662456],[140.26689923477826,38.34433784589694],[140.26694213337248,38.34433788913095],[140.26697073320273,38.344337917347985],[140.2669993330261,38.344337946458964],[140.26704223162082,38.34433798965636],[140.26706972412723,38.344338008898],[140.26707083145146,38.34433801784898],[140.2670954624823,38.34433822598194],[140.26712406065099,38.34433846768022],[140.26715265881995,38.34433870937151],[140.26719555492647,38.34433907234033],[140.26719731428636,38.34433908714093],[140.26722415309612,38.344339314014206],[140.26725275126608,38.34433955568111],[140.267295647374,38.34433991861332],[140.26732424554464,38.344340160262774],[140.26735132216768,38.344332907613854],[140.26739193537983,38.3443220281699],[140.26741901199657,38.34431477460429],[140.2674208060983,38.344314294043166],[140.267446087457,38.34430752192778],[140.2674867017851,38.34429664245628],[140.26751377838315,38.3442893888686],[140.26754085382493,38.344282136170044],[140.26755957666592,38.344277120784255],[140.26756349803085,38.34427612612777],[140.26758210417438,38.34427140568903],[140.267622937491,38.344261047078504],[140.26765015893542,38.34425414102623],[140.2676773815187,38.344247234973075],[140.26771821366458,38.34423687632361],[140.26774543623512,38.34422997025457],[140.26777265765656,38.344223064173605],[140.26781349091968,38.34421270549624],[140.2678370121959,38.34420673837178],[140.26784040547994,38.34420524383143],[140.26786536496553,38.34419424729032],[140.26790280360436,38.3441777529162],[140.2679277630712,38.34416675636161],[140.26795272253054,38.3441557598016],[140.26799016113,38.34413926539919],[140.26801512057057,38.34412826882572],[140.26804002375377,38.344117297202466],[140.26804008114058,38.344117273153294],[140.26807788625322,38.344101306648035],[140.26810309118244,38.34409066171108],[140.26812829495336,38.34408001766405],[140.26816610117845,38.34406405023455],[140.26819130493104,38.344053406173764],[140.2682165086833,38.34404276120657],[140.26825431486296,38.34402679464917],[140.26827951858988,38.34401615056917],[140.26830472346046,38.34400550558825],[140.2683425296016,38.34398953900198],[140.26834744087896,38.34398746433698],[140.26836655778283,38.343977356712315],[140.26839030285083,38.34396480185966],[140.26842591985854,38.34394597046964],[140.26844966376217,38.34393341559923],[140.26847340879456,38.343920861630366],[140.26850902576643,38.3439020293137],[140.26853276963448,38.343889475327074],[140.26855651464533,38.34387692044011],[140.26859213042334,38.34385808899317],[140.2686158754138,38.343845534093965],[140.26863962039604,38.34383297918987],[140.26867532568502,38.343814253560346],[140.26869933133568,38.34380201163017],[140.2687233369853,38.343789768794046],[140.26875934486912,38.343771404978206],[140.26878335049867,38.34375916212958],[140.26880735612008,38.34374691927597],[140.26884336510568,38.34372855543939],[140.268867370707,38.34371631257327],[140.26889137515633,38.34370406969664],[140.26892738409967,38.343685705833785],[140.26895138966583,38.343673463851076],[140.26897539523097,38.34366122096245],[140.26901140298813,38.34364285706782],[140.2690354085331,38.343630614166685],[140.2690594140701,38.34361837126055],[140.26909542292893,38.343600007345174],[140.26911942844578,38.34358776442652],[140.2691434339546,38.34357552150288],[140.26917944162724,38.34355715755573],[140.26920344710894,38.34354491552049],[140.2692274525896,38.343532672579336],[140.26926346022003,38.34351430860594],[140.26927683946607,38.34350748514851],[140.2692875767323,38.34350220223089],[140.26931183146363,38.34349026859833],[140.2693482129843,38.343472366785775],[140.26937246769586,38.343460433140464],[140.2693967235434,38.343448499495565],[140.26943310502247,38.34343059765623],[140.2694573597063,38.34341866399306],[140.2694816143822,38.343406730324766],[140.2695047008968,38.34339599561379],[140.26951855073062,38.34338955639675],[140.26954333312264,38.34337831448467],[140.2695681143701,38.34336707166083],[140.26960528736743,38.343350207871055],[140.26963006859586,38.34333896503394],[140.26965484980963,38.343327723092415],[140.26969202277397,38.343310858373826],[140.26971680396872,38.34329961641902],[140.2697415863068,38.34328837356346],[140.26977882371688,38.34327160192538],[140.2698039964243,38.34326091231802],[140.2698291702613,38.343250223611605],[140.26986692929407,38.34323418963252],[140.26989210311967,38.343223500011476],[140.269917275787,38.343212811280374],[140.26995503592514,38.343196777278],[140.2699861849572,38.34318355041832],[140.2699827489862,38.34317048085167],[140.26993184210656,38.342976810793516],[140.2698974684729,38.342853556035976],[140.26988344280772,38.342803261209404],[140.26982004642963,38.342575936206],[140.26941979577356,38.341125486172714],[140.26912352782733,38.34006454916654],[140.26901662630135,38.339677132261315],[140.26899739725374,38.339666612048866],[140.26898712055134,38.33967069528448],[140.2689827499998,38.339673297838935],[140.26897772966097,38.33965585187011],[140.26897758727634,38.33965577370255],[140.26893915314014,38.33963474508946],[140.26893304023415,38.33963574546326],[140.26890504021677,38.339640327211164],[140.26887704020294,38.33964490805144],[140.26883504016874,38.33965178020019],[140.2688070412832,38.33965636193009],[140.26877904125027,38.339660943647765],[140.26873704119797,38.33966781576125],[140.26870904116348,38.33967239656123],[140.26868104111853,38.339676978255405],[140.268639042192,38.33968385033912],[140.26861104213842,38.339688432016516],[140.2685830420884,38.33969301278626],[140.2685410419999,38.339699884829216],[140.26851304307814,38.33970446648862],[140.26843246172075,38.33971766658273],[140.26843123385817,38.33971786878908],[140.2684212621331,38.33971950103872],[140.26837646491396,38.339726839758384],[140.2683652653166,38.33972867510993],[140.26832046809338,38.33973601290717],[140.26830926849323,38.33973784825333],[140.268264471259,38.33974518602909],[140.26825327165608,38.33974702136989],[140.2682357002735,38.33974989904545],[140.2682084732669,38.33975435911863],[140.26819727480512,38.33975619445957],[140.2681524764049,38.339763532186815],[140.26814127679648,38.339765367516875],[140.2680964795291,38.33977270522814],[140.2680852799179,38.33977454055284],[140.2680404826395,38.33978187824261],[140.26802928302556,38.33978371356191],[140.2679844857361,38.33979105123022],[140.26797328611937,38.33979288654416],[140.26792841321725,38.3398002373408],[140.2678612143832,38.339811244665874],[140.26782195043285,38.3398176764629],[140.26781075080808,38.33981951176124],[140.2678006244208,38.33982117024085],[140.26776590235568,38.3398266562943],[140.2677546872041,38.339828428445394],[140.26770982431168,38.339835516127025],[140.26769860915746,38.33983728827273],[140.26765374625438,38.33984437593282],[140.26764253109747,38.33984614807314],[140.26759766817673,38.33985323661261],[140.26758645188025,38.33985500784109],[140.26754159009272,38.33986209636453],[140.26753037378657,38.339863868488564],[140.26748551199537,38.33987095608951],[140.26747429568658,38.33987272820815],[140.26742943274084,38.33987981578204],[140.26741821757324,38.33988158790081],[140.26737335460982,38.339888676354086],[140.26736213943957,38.33989044846747],[140.26731338346488,38.339898150580915],[140.26730607794613,38.339899373956456],[140.26726132161983,38.33990686831217],[140.2672501331123,38.33990874145072],[140.2672053767747,38.339916235784955],[140.26719418712048,38.339918108912634],[140.2671494319155,38.33992560323095],[140.26713824225845,38.339927476353246],[140.26709348589833,38.33993497064459],[140.26708229738236,38.339936843767056],[140.26703754101098,38.339944338036936],[140.26702635134828,38.3399462111485],[140.26698159610947,38.339953705402465],[140.266970406444,38.339955578508665],[140.26692565005004,38.33996307273565],[140.2669144615256,38.33996494584201],[140.26689431804954,38.33996831903255],[140.26686967179288,38.339972312851614],[140.26685846654928,38.33997412911157],[140.26681364901512,38.33998139235537],[140.26680244491268,38.33998320861548],[140.26675762736758,38.33999047183777],[140.2667464232694,38.33999228719157],[140.2667016057134,38.33999955039234],[140.2666904016055,38.34000136664172],[140.26664558403854,38.340008629820986],[140.2666343799279,38.34001044606496],[140.26658956235002,38.34001770922272],[140.26657835823664,38.34001952546133],[140.26653354064783,38.34002678859759],[140.26652233539485,38.340028603924345],[140.26647751778808,38.34003586794002],[140.26646631367626,38.34003768326693],[140.26642149606556,38.34004494636017],[140.266410291944,38.340046762582645],[140.26636547432238,38.34005402565437],[140.2663542701981,38.340055841871454],[140.26630945256554,38.34006310492169],[140.2662982484455,38.34006492023247],[140.26625343079502,38.34007218416211],[140.26624222667226,38.34007399946751],[140.26619740901785,38.340081262474705],[140.26618620374146,38.34008307867015],[140.26614138607613,38.34009034165584],[140.26613018194087,38.340092157851416],[140.26608536426463,38.3400994208156],[140.26607416013368,38.340101236104886],[140.26602934243942,38.34010849994849],[140.26601813830575,38.34011031523239],[140.26597332060763,38.34011757815355],[140.26596211646418,38.34011939433301],[140.26591311810103,38.34012733524583],[140.2659116966821,38.34012756531982],[140.26589730837497,38.34012989674973],[140.26588376863683,38.34013240436676],[140.26584216999169,38.3401405414262],[140.26581551102103,38.34014869401121],[140.26580838903962,38.340150872294906],[140.26578946335357,38.34015796223052],[140.2657808107756,38.34016146111555],[140.26575133004428,38.34017338134569],[140.26572655270772,38.340184627894125],[140.26571794154384,38.34018853600939],[140.2657025513803,38.34019684582128],[140.26567973816336,38.34021014523725],[140.26566809252503,38.34021693433577],[140.2656528877702,38.34022640366923],[140.26564621842957,38.340231411337115],[140.2656255211313,38.34024695355667],[140.2655963616852,38.34027163825909],[140.2655783715972,38.340289145950294],[140.2655745054609,38.34029290854876],[140.2655656135754,38.34030156243574],[140.26556057958197,38.34030677712779],[140.26551890755889,38.34035008977851],[140.26550203038482,38.34036819657696],[140.26549622945765,38.34037435265641],[140.26547646547058,38.340395325831906],[140.26545920279173,38.34041328300033],[140.26544194010427,38.340431240166076],[140.2654160460571,38.34045817590973],[140.26539878334833,38.34047613306882],[140.265381520631,38.34049409022526],[140.26535562654598,38.34052102505399],[140.26535379855338,38.34052292622896],[140.26533861545522,38.340539131179575],[140.26532163511465,38.34055725366878],[140.2652961634369,38.340584438293114],[140.26527918306803,38.340602561676775],[140.2652622015468,38.340620685052336],[140.2652367309684,38.34064786966866],[140.26521974943296,38.340665992136834],[140.26520276902593,38.340684115508886],[140.26518982032184,38.340697933818284],[140.2651855293325,38.34071419782469],[140.26517971057677,38.34073625028456],[140.26517389181743,38.34075830274402],[140.26516516367164,38.340791381432474],[140.26515934490328,38.34081343389097],[140.26515352613131,38.34083548634904],[140.26514479797365,38.340868564134475],[140.26513897804875,38.340890616586016],[140.26513315926414,38.34091266904271],[140.26512771143445,38.34093746310614],[140.26512583832314,38.34094733482386],[140.2651234855577,38.340959739509955],[140.26511714788154,38.34099315412075],[140.26511292314206,38.34101543052947],[140.26510869726306,38.341037706031464],[140.2650994721145,38.34107069761511],[140.26509323517462,38.34109267866916],[140.26508699823086,38.34111465972279],[140.2650776416606,38.341147631747305],[140.26507140470724,38.34116961279982],[140.2650651665991,38.341191594747265],[140.26505581115254,38.34122456677502],[140.26504957304178,38.34124654782044],[140.2650433360711,38.34126852887097],[140.26503398060436,38.341301500896364],[140.26502774248013,38.341323481940236],[140.26502150549598,38.341345462989196],[140.2650127623575,38.3413785388871],[140.26500698119364,38.341400597824475],[140.26500120003325,38.34142265586056],[140.26499252885088,38.34145574381763],[140.2649867488184,38.34147780275917],[140.26498096764547,38.34149986079387],[140.26497229644423,38.34153294874886],[140.26496651526233,38.341555006782556],[140.2649607340698,38.341577065716784],[140.2649575964337,38.3415890395405],[140.26495738535118,38.341589847576564],[140.26495726626771,38.34159030108158],[140.26495593977126,38.34159536163293],[140.26495304860373,38.34160639064648],[140.26495206284977,38.341610153669706],[140.26495160416002,38.34161190560924],[140.26495015857216,38.34161742056642],[140.26494726854673,38.34162844958534],[140.26494628279923,38.341632211707584],[140.26494582295823,38.34163396454245],[140.26494437737654,38.341639478598616],[140.26494148734227,38.34165050851826],[140.26494050159414,38.34165427064042],[140.2649400417599,38.34165602257435],[140.2649385973142,38.34166153753689],[140.26493570614124,38.341672566549875],[140.26493529816682,38.34167412322752],[140.26493426169486,38.34167808151232],[140.26493281611135,38.34168359556828],[140.26493183035524,38.341687358591265],[140.2649299260735,38.34169462548752],[140.26492848048935,38.34170013954341],[140.2649270348979,38.34170565450021],[140.26492604914824,38.34170941662221],[140.26492414486532,38.341716683518335],[140.26492269927323,38.34172219847505],[140.26492125368088,38.341727713431744],[140.2649202679306,38.34173147555366],[140.2649183636465,38.34173874244967],[140.26491691806055,38.34174425650537],[140.26491679896952,38.34174471091125],[140.26491547361124,38.341749771467505],[140.26491258243112,38.34176080047969],[140.26491159667287,38.34176456350243]]]}},{"type":"Feature","properties":{"potaRef":"JP-1080","nameJa":"最上川ふるさと総合公園","nameEn":"Mogamigawa Furusato Sogo Prefectural Park","authority":"山形県","boundaryStatus":"公的GIS・公式公園情報との照合済み（公式区域判定対象）","boundarySource":"国土交通省「都市計画決定GISデータ（令和7年度）」都市公園・緑地","boundaryScaleNote":"都市計画決定区域を使用。現地の供用区域やPOTA規則上の有効区域と差がある可能性があるため、境界付近は注意表示します。","cautionMeters":75,"sourceParkName":"最上川ふるさと総合公園","sourcePrefecture":"山形県","sourceCity":"寒河江市","officialParkUrl":"https://www.pref.yamagata.jp/180019/kurashi/kendo/toshikoen/park02/index.html","officialGisUrl":"https://www.mlit.go.jp/toshi/tosiko/toshi_tosiko_tk_000087.html","reviewNote":"公的GISの公園名・所在地と山形県公式都市公園一覧を照合済み","importedPolygonCount":1},"geometry":{"type":"Polygon","coordinates":[[[140.25436632893252,38.36747453060701],[140.2549144151639,38.36731561582011],[140.2549182646563,38.367288460284],[140.2549691182012,38.36729014096863],[140.2550237085309,38.367278968155574],[140.25518785146997,38.36719825230003],[140.25523158645098,38.36718130481155],[140.2554571862682,38.367139509117166],[140.2555044861219,38.367131160669594],[140.25555557950207,38.367102807228385],[140.25555054985082,38.36704986319518],[140.25589790716495,38.36700294466547],[140.25604342811113,38.3669793472739],[140.25726078661015,38.36672645713241],[140.25731099035625,38.366689811587925],[140.2573323597215,38.36663527199562],[140.2572934490585,38.36650206598133],[140.25727809684457,38.36637612746586],[140.25729874866371,38.366291843002166],[140.25736664141425,38.36622357350513],[140.25746636893015,38.36612478649822],[140.25747956243487,38.36611159918631],[140.25748631144842,38.3660974873767],[140.2574875285609,38.36608830363683],[140.25751195226215,38.36603775761388],[140.25758196838663,38.366084622156535],[140.25766837643224,38.36599377903534],[140.25776764058037,38.365890264894794],[140.2577724353572,38.365905727159216],[140.2577771534729,38.365945752622984],[140.2577718477193,38.36597978259071],[140.257766308263,38.365993326448205],[140.25775389700078,38.366020744577796],[140.25785198737253,38.36594666053217],[140.25784597952787,38.36589608759346],[140.25783102763646,38.36584781322919],[140.25782653590778,38.36584321344015],[140.2579017186731,38.36579383274676],[140.25792732048492,38.3658057464627],[140.25796355349573,38.365819793546294],[140.25801815832696,38.36582972061767],[140.25805988104378,38.365835781535175],[140.25816693024305,38.36578594347401],[140.25813772380042,38.36578819042029],[140.2581104075757,38.3657893096306],[140.25805706353802,38.365786936069924],[140.25801752899088,38.36577926417372],[140.25798352941564,38.365769160725726],[140.2580664724029,38.365732564686795],[140.25828697915463,38.36564497012607],[140.258525662317,38.36555603354815],[140.25860761177427,38.365530690559396],[140.25877128323683,38.36550860854776],[140.25901495222917,38.36547833662223],[140.25925682648744,38.36544519487638],[140.25950230991995,38.36541493082049],[140.25971515269316,38.365377354796685],[140.2599915978947,38.36533722890026],[140.26026792887384,38.365311405321386],[140.26065175261238,38.365246057925766],[140.26075471323284,38.36522462979215],[140.26087784512154,38.36524385195018],[140.2611718415394,38.365274580618504],[140.2611578423241,38.36532218802946],[140.2611348254152,38.36536140770363],[140.2611088463773,38.365392270091704],[140.26107834554642,38.3654207264822],[140.2610357616837,38.3654455480031],[140.26099629005577,38.36545965795519],[140.26095530451644,38.36547376050315],[140.2611203757323,38.365466223423276],[140.2611706592761,38.36542475289714],[140.26121602689642,38.36536770430902],[140.2613042993849,38.36537979605057],[140.26135133035342,38.36555078221406],[140.26143833351884,38.36565251698461],[140.26134119955546,38.3652992443844],[140.26153085560546,38.36532233923679],[140.26156165774887,38.365332500843785],[140.26163590092142,38.365362898853974],[140.2618291823236,38.36550257619782],[140.26210737033531,38.365702738863185],[140.26218696323792,38.36574603450317],[140.2622754800257,38.36580939813454],[140.26252068382973,38.36581488251776],[140.26252349694212,38.36591930584751],[140.2626927195215,38.365884372571756],[140.26273518330774,38.365918968612974],[140.26307581141714,38.36585188405457],[140.26328574582706,38.36580920963258],[140.26350531759144,38.36576391124842],[140.26372892951514,38.365716451773785],[140.26397643810034,38.36565178799836],[140.26415903901014,38.36559814440836],[140.26443075484585,38.365513648280874],[140.26475014342105,38.365414325091564],[140.26534320898557,38.36518651963981],[140.2653045844127,38.36513102931136],[140.26536102110396,38.3651155693765],[140.26551427085917,38.36503192658911],[140.2657584605737,38.36493442033337],[140.26596260630785,38.36484673208618],[140.2661612690103,38.36476330729622],[140.266363508556,38.3646870512308],[140.26644721456123,38.36466886210763],[140.26659546762102,38.36460174334574],[140.26678751744757,38.364495367071875],[140.26691947944028,38.364419423621165],[140.2669646408498,38.36439522595146],[140.26717125528378,38.36430152193224],[140.2673626284892,38.36422275115465],[140.2675540663149,38.36413356805601],[140.26736947074554,38.36395128278197],[140.26714123357004,38.363726810153146],[140.26702351625374,38.36363415968388],[140.26715818085876,38.3635393567298],[140.2673240508456,38.36367899361059],[140.2675296006166,38.3638606385993],[140.26767247644514,38.363990509400395],[140.2676926238612,38.363996745697285],[140.2677154938107,38.364006483616315],[140.26773502014055,38.36401180334293],[140.26775722431128,38.36401136898098],[140.26794691972273,38.363927594262485],[140.26815089549774,38.36385134706694],[140.2683617839857,38.36376989918577],[140.26847379117345,38.36372807782573],[140.26855192087783,38.363674496100764],[140.26862909427024,38.363678443706284],[140.26918533807373,38.36348872554081],[140.2691771745728,38.36347369349298],[140.2692196712762,38.363459595328635],[140.26925898300925,38.36346574337034],[140.26983551593648,38.36330045987489],[140.26982359106847,38.363276564231434],[140.26989620522417,38.363282873012764],[140.27012214347525,38.36323389886677],[140.27022823551297,38.363217722783475],[140.27024044790173,38.36320466985739],[140.27035854798828,38.36320166200243],[140.27058291760846,38.363159831204165],[140.2706938462386,38.36310553603994],[140.27083779113795,38.36308834818094],[140.2708943442669,38.36301829824571],[140.27094390125671,38.363069787611884],[140.27097274623023,38.36305919921185],[140.2710074241484,38.36307724315807],[140.2710438095521,38.36307026678978],[140.27115144266867,38.363050520473834],[140.27113114417097,38.36293481006428],[140.27108691233832,38.36278203586953],[140.27104086142987,38.362668585868064],[140.27101420471917,38.36259217697573],[140.27091255131344,38.36242601662175],[140.27078191646052,38.362288323311795],[140.27065865819858,38.36237116378246],[140.2707262318615,38.362441809292584],[140.27067286354338,38.36249161288922],[140.27049624435978,38.36262306482926],[140.27038351638095,38.36251882926729],[140.27033459283106,38.36246277576881],[140.27050428733563,38.362322374989496],[140.27071241951506,38.362187498363625],[140.27064939566827,38.36211568271636],[140.27068365334173,38.36191417941554],[140.27069605782765,38.361719722104056],[140.27072115592313,38.36152818712447],[140.27072141054043,38.36149529181657],[140.27069273457812,38.36144509541243],[140.27063533849108,38.361350422526655],[140.27060134556936,38.36128303650892],[140.27058533019033,38.36124005171175],[140.27055653147409,38.361205587141235],[140.2705455552191,38.36121554585665],[140.27051516327273,38.36115246834081],[140.27049193637788,38.36110229804183],[140.27042820597413,38.36112201579575],[140.27040455825923,38.36112619260513],[140.27033110331072,38.36099425559074],[140.27027165837313,38.3609296077866],[140.27016325863835,38.36085328360907],[140.2701253675308,38.36082020507266],[140.27005998650534,38.360818460281955],[140.2700149305712,38.36077247535985],[140.26991530259136,38.36073624050035],[140.26988472178147,38.360697475955995],[140.26985982372523,38.360628703610125],[140.2698189220359,38.36051551569441],[140.27022071038297,38.36047167757562],[140.2702897904489,38.36046485845183],[140.27060250694169,38.360429172846054],[140.27058019923734,38.36026029365782],[140.2705652459242,38.36008000854379],[140.2705648916641,38.359891211005596],[140.27057109329317,38.3597939827713],[140.27058270044634,38.35970250153823],[140.27062226296985,38.35951961752377],[140.27069091000627,38.35933401162808],[140.2707297182046,38.35924838195623],[140.27077582628797,38.35915849604912],[140.27088427848662,38.358993105610324],[140.27099748687257,38.358838941242716],[140.27114271367296,38.35865489426863],[140.27099065046758,38.35865976900318],[140.27098291597292,38.358608676627156],[140.27098254845728,38.35853504436979],[140.27099169508395,38.35844855427334],[140.27100178160478,38.35838522140835],[140.27101072584352,38.3583426401518],[140.27101422906085,38.35830511868779],[140.2710100239309,38.35825587577795],[140.27103133257268,38.358194214841404],[140.27106705228746,38.35806454598968],[140.2711167321394,38.357961252833576],[140.27108301821025,38.35795735311277],[140.2710542054679,38.35800265007871],[140.2710149138264,38.35805491431695],[140.27095022421534,38.35809974277843],[140.27075496476246,38.358294276248756],[140.27060689473691,38.3584544707562],[140.2703400103059,38.358710637294664],[140.27028202013895,38.35877114532163],[140.27034815021,38.35883224935048],[140.27031460053487,38.35886426944252],[140.27016171930205,38.35905900537345],[140.26989678477932,38.359302411007484],[140.2697201794216,38.359428038166364],[140.26945078090458,38.35973425024813],[140.26957334762457,38.3599316782856],[140.2696184215718,38.36002924128788],[140.26968236796512,38.3601676541597],[140.26974609965922,38.360305601069825],[140.26956241738228,38.36032977805469],[140.269429717188,38.36034201275113],[140.26911863992217,38.36040058734861],[140.26912963488266,38.36062233169901],[140.26925993039373,38.360685890241555],[140.26931160905735,38.36081486264718],[140.26944923487702,38.36110443891131],[140.26946898231287,38.36113456988205],[140.2695538570998,38.3611993394677],[140.26944981920641,38.36126320151146],[140.2694076762707,38.3611978021993],[140.26938794988484,38.36116481169215],[140.26942468954212,38.36111206816616],[140.2693800665952,38.36101030432528],[140.2692816261313,38.36082103590145],[140.2690108971956,38.36082974459503],[140.26892694081909,38.360880830900925],[140.26884758352568,38.36080750493693],[140.2687321529957,38.360701109587566],[140.2686409185494,38.36075358955566],[140.26847853306714,38.360845775003085],[140.2683671289111,38.36092247252949],[140.26835762366625,38.36097677677202],[140.26833574843351,38.360986683663015],[140.2683008362005,38.36103800493849],[140.26828435414134,38.36105508868061],[140.26797438066706,38.36143833596957],[140.26769325425576,38.36161576354557],[140.26766589538022,38.36162993419683],[140.26736822563294,38.36183207271242],[140.26696956684296,38.36201703611706],[140.2666136392182,38.36231281117756],[140.26668565930615,38.36239516136116],[140.266510979241,38.36243245799023],[140.26647213790991,38.36244371232044],[140.2664526731939,38.36245506032309],[140.26640628329167,38.36250251088439],[140.26647813973048,38.36260583820453],[140.26643684733182,38.36262089440878],[140.26656842140332,38.362831303121254],[140.26667861448746,38.36298821153633],[140.26687295367293,38.36322562117928],[140.26671552845113,38.363301871301125],[140.26666034328002,38.36324009920452],[140.2665109480123,38.36304774875599],[140.26629836532737,38.36272885723817],[140.2662702152449,38.362674215206745],[140.26624108440933,38.36268265589586],[140.2662087334828,38.36263816079209],[140.26604103577552,38.36271172413918],[140.26594130669423,38.36268835734671],[140.2658120682562,38.36272205818715],[140.26563656664536,38.36286423493567],[140.26563439237967,38.36301265829865],[140.2656052460591,38.36315299744123],[140.26559952899947,38.36318729608511],[140.26559849223798,38.36327856575805],[140.26558375686827,38.36334597942174],[140.2655799339282,38.36337027493996],[140.26562000885824,38.36335616635492],[140.26564338831932,38.363386315542016],[140.26558492483107,38.36342894036415],[140.2655847572546,38.363450393055494],[140.26558446678217,38.36348757850109],[140.26557822458892,38.363589097435074],[140.26558534541005,38.36360772579283],[140.2655960657553,38.36363066191993],[140.26559196350092,38.36369071312271],[140.26557893448145,38.36373069740947],[140.26533818356933,38.36377625299192],[140.26531511592881,38.3637060587805],[140.265278830278,38.36370016193011],[140.26518929487244,38.363766950033536],[140.26515642980678,38.36378824517636],[140.26507511189388,38.36373350107099],[140.26517365111746,38.36367676807981],[140.26515008054184,38.363670932804226],[140.2651366805667,38.363642262597104],[140.2651983303321,38.36365686398022],[140.2652421782635,38.36362489528941],[140.26528510758237,38.36359435194436],[140.2653234866922,38.36356474064928],[140.26532398966157,38.36350038167828],[140.2652654277818,38.363439311532275],[140.26532459509266,38.36342291162794],[140.2653240871778,38.36329418544723],[140.26532518625865,38.363153547434685],[140.2653106916042,38.363071237281346],[140.26515333518464,38.36306093914722],[140.26503621783573,38.363131885619914],[140.26502585286337,38.363489401268254],[140.2650133890223,38.36353463268184],[140.26497833845906,38.36356426001043],[140.26489290633793,38.36364847059454],[140.26478934498934,38.36372782445904],[140.264720722316,38.36379185398365],[140.2646082557308,38.36384851903526],[140.26461230303494,38.363911709009095],[140.26444984358142,38.36397289924335],[140.26442079321487,38.36400970638102],[140.2643781366667,38.36404406446456],[140.2643597661382,38.36407019666173],[140.26419580272932,38.36413018728106],[140.2641835155932,38.364152773096386],[140.2640390805135,38.36423192876698],[140.26393567727754,38.364291021095006],[140.2639461705314,38.36430418272564],[140.26368559739922,38.36436751715179],[140.26337824365447,38.364411791873195],[140.2631218086601,38.364449162570146],[140.26299464999394,38.36444854408071],[140.26286217815206,38.36443073644391],[140.26283314726712,38.36442630394796],[140.26274761885605,38.36442584089983],[140.26268466786473,38.36442756077134],[140.26263327107867,38.36443248297865],[140.26259515810304,38.364428006216016],[140.26249502342338,38.36445612399349],[140.2624897251013,38.364436908796094],[140.26230337651458,38.3644169317857],[140.26217372920215,38.36442488186412],[140.26198183609165,38.3643400375369],[140.26107719567406,38.3642016575209],[140.26062504038424,38.3641021918761],[140.26010674236264,38.36400119385397],[140.25936104888072,38.36383321638598],[140.25928958139528,38.36427550295421],[140.25926541821786,38.36443701472344],[140.25876629374426,38.36441477947889],[140.25840490952288,38.36440228480634],[140.25823784209908,38.364399747336726],[140.25799415653913,38.36440000503491],[140.25781730157135,38.36440226426224],[140.25763450701055,38.36440777442826],[140.2576330714134,38.36474777531219],[140.2576328581403,38.36481023733125],[140.2576266604406,38.36490703140761],[140.25762004383725,38.364918891496465],[140.25761142105083,38.364923984587],[140.25759683382987,38.36493054847517],[140.25757112416704,38.364942116593106],[140.25755638419497,38.36494889415285],[140.25748215343694,38.364983056809564],[140.2573844733559,38.36502801206674],[140.2573778679392,38.36503152306617],[140.25734333196215,38.36504988330453],[140.25729595353357,38.36508032618274],[140.25727753231388,38.36509373104908],[140.25723485300207,38.36512468080174],[140.25718960528962,38.3651559810015],[140.25712204753813,38.36521284689522],[140.25700310363646,38.36531111031473],[140.2569724927255,38.36533968581932],[140.25693614856857,38.36537361452133],[140.25690418298353,38.36540345459221],[140.2568889100886,38.365417528065585],[140.25686308782537,38.36544080335443],[140.2568001595281,38.36549752514413],[140.25677645488136,38.36552216045371],[140.25665586049146,38.36564861161404],[140.25658681287507,38.3657291514068],[140.2565001019636,38.36583740585599],[140.25630039676582,38.366084095049715],[140.2555814456013,38.36630491146316],[140.25546739148362,38.36633994150835],[140.25482620890367,38.366536882899084],[140.25443601003255,38.36665674678517],[140.2541024749623,38.366121747267144],[140.25362407288486,38.36536181318198],[140.25345660261962,38.36510029795755],[140.25276525774396,38.36524887095733],[140.25268730284137,38.3653950690153],[140.25283512532243,38.365646088345564],[140.25296969663387,38.36585449440303],[140.25305543891062,38.36597169036162],[140.25341030207352,38.36639281613865],[140.2536353553594,38.36665994163711],[140.25363343621902,38.366659949266236],[140.25381489353322,38.36691400315783],[140.25387423732982,38.3669900999076],[140.25417846293897,38.36734545037074],[140.25426831182472,38.367464035157056],[140.2542883167461,38.36746127253513],[140.25436632893252,38.36747453060701]]]}},{"type":"Feature","properties":{"potaRef":"JP-1081","nameJa":"最上中央公園","nameEn":"Mogami Central Prefectural Park","authority":"山形県","boundaryStatus":"公的GIS・公式公園情報との照合済み（公式区域判定対象）","boundarySource":"国土交通省「都市計画決定GISデータ（令和7年度）」都市公園・緑地","boundaryScaleNote":"都市計画決定区域を使用。現地の供用区域やPOTA規則上の有効区域と差がある可能性があるため、境界付近は注意表示します。","cautionMeters":75,"sourceParkName":"最上中央公園","sourcePrefecture":"山形県","sourceCity":"新庄市","officialParkUrl":"https://www.pref.yamagata.jp/180019/kurashi/kendo/toshikoen/park02/index.html","officialGisUrl":"https://www.mlit.go.jp/toshi/tosiko/toshi_tosiko_tk_000087.html","reviewNote":"公的GISの公園名・所在地と山形県公式都市公園一覧を照合済み","importedPolygonCount":1},"geometry":{"type":"Polygon","coordinates":[[[140.30696838216747,38.75895918162483],[140.30697152885907,38.7589850514628],[140.3069792460153,38.75901526617537],[140.30699284226742,38.759043975841415],[140.3070103629976,38.759070991478474],[140.30702537236408,38.759095293121604],[140.30704376996815,38.75911258304331],[140.30706537789675,38.75913141893699],[140.30711601756752,38.75916092599693],[140.30714730477985,38.759177823484436],[140.30715656080332,38.759186513738314],[140.30715951190524,38.75919202247863],[140.307160375463,38.75919977405714],[140.30715199735397,38.759259555722664],[140.30713512356087,38.75934811874851],[140.30710836918632,38.75946602445793],[140.3070576995951,38.759722551183515],[140.30702674920988,38.75987907732527],[140.3070296150487,38.75988053166046],[140.3070744071682,38.75990730972258],[140.3070934087252,38.759920728508895],[140.3071890194027,38.759843051410364],[140.30725869821546,38.75989660789489],[140.30717962479562,38.759962909129264],[140.30721128429846,38.75999026765564],[140.3072607445325,38.76004103044391],[140.3072900503732,38.76007710801978],[140.30731599815257,38.76011452181683],[140.30733885249887,38.760153273028145],[140.30735789581996,38.760192367442734],[140.3073390997782,38.760197958491375],[140.30737382466367,38.760279555586834],[140.30739297317731,38.7603356773676],[140.30741501338738,38.76042109121538],[140.30742517686656,38.76047861399118],[140.30741054730836,38.76048089048957],[140.30747940594293,38.76078741420915],[140.30749300012414,38.760847835271505],[140.30750889021266,38.760908987375764],[140.3075282367192,38.760969524400615],[140.3075540973239,38.76103612671493],[140.3075723045106,38.76107945153027],[140.3075939707613,38.76112180091821],[140.30763320193273,38.76118367960722],[140.30767259556413,38.76124224372327],[140.30771913594975,38.761297497647995],[140.30777226320737,38.761348907327985],[140.30783585935947,38.76139901271118],[140.30789592883352,38.761431084325785],[140.30795807576334,38.7614607328338],[140.30805466732798,38.76150053603565],[140.30815487009298,38.76153431939415],[140.30822330571362,38.761553725826396],[140.308292913094,38.76157025462152],[140.3083635765067,38.76158399534707],[140.3084349508308,38.761594937442254],[140.30854314551158,38.761605882660454],[140.30861583693786,38.76160981259486],[140.3086885508005,38.761610679545235],[140.30880341679915,38.76160624017191],[140.30989927295516,38.761544576868054],[140.30992805892743,38.76184109990761],[140.3088305874764,38.761902747209426],[140.30886402818336,38.76230002031643],[140.30887823396847,38.762467289962814],[140.31014082230357,38.762391237445435],[140.31009271379907,38.76190435917727],[140.3100084065052,38.76183659485786],[140.30997961954375,38.761540161922],[140.31005907687126,38.761468446154396],[140.31031261902785,38.76146057204141],[140.31032070069165,38.76156718397119],[140.31036825522403,38.76159415330884],[140.31087611082492,38.76156741573372],[140.3112422283617,38.76155364641353],[140.31169921517045,38.7615282996347],[140.31185093023433,38.76151986859312],[140.31375173872377,38.76141437977201],[140.31460228415042,38.761367076974224],[140.3148654152673,38.76135374008384],[140.31489335190176,38.76132521556703],[140.31492128851394,38.76129669104324],[140.31490326287323,38.76117994528793],[140.31508775696315,38.761173286047324],[140.3150780859135,38.76111045083641],[140.3148935913329,38.761117200149485],[140.31488821025775,38.76108168104735],[140.31484297377528,38.7610840028895],[140.31457880680938,38.761097515313864],[140.3137273447509,38.76114472378647],[140.3118265433228,38.7612502212738],[140.31122175712937,38.76128382727815],[140.31085620475972,38.76129759906465],[140.31030530043202,38.761326666433305],[140.31030882082823,38.76139767263953],[140.31005585550753,38.761405369148605],[140.31002867273654,38.76085777410361],[140.31003065849393,38.760318048280126],[140.31003631476432,38.76003195860032],[140.3100127175663,38.7600175287315],[140.3098800274323,38.75994216033477],[140.30981068869403,38.75990320141906],[140.3097515729668,38.759869783712254],[140.309595951009,38.75978350153446],[140.30948466277553,38.759723904146234],[140.30929552133003,38.75962702096044],[140.3092427982033,38.75959903702246],[140.30914442626678,38.759551208850574],[140.3090685202031,38.75951357138247],[140.30905764089061,38.75950811721814],[140.3090262090187,38.75949518352758],[140.3083780490585,38.75920028538971],[140.30813166669273,38.7591428726607],[140.30807665259712,38.759129301220646],[140.30802301133355,38.75911680798893],[140.30797095511116,38.75910783534497],[140.30794958445327,38.7591036852624],[140.30790020954367,38.759089949899256],[140.30769997227839,38.75903022118687],[140.30767793472674,38.75902444644578],[140.30758212035963,38.7589889707135],[140.30737329640638,38.75894073426552],[140.30715282770907,38.758880102770895],[140.30705566985964,38.75885371959227],[140.30699342457243,38.75883938535902],[140.30699193083782,38.75883910836423],[140.3069721884392,38.75892658639062],[140.30696838216747,38.75895918162483]]]}},{"type":"Feature","properties":{"potaRef":"JP-1086","nameJa":"県民緑地","nameEn":"Kenmin Ryokuchi Prefectural Park","authority":"山形県","boundaryStatus":"公的GIS・公式公園情報との照合済み（公式区域判定対象）","boundarySource":"国土交通省「都市計画決定GISデータ（令和7年度）」都市公園・緑地","boundaryScaleNote":"都市計画決定区域を使用。現地の供用区域やPOTA規則上の有効区域と差がある可能性があるため、境界付近は注意表示します。","cautionMeters":75,"sourceParkName":"県民緑地","sourcePrefecture":"山形県","sourceCity":"山形市","officialParkUrl":"https://www.pref.yamagata.jp/180019/kurashi/kendo/toshikoen/park02/index.html","officialGisUrl":"https://www.mlit.go.jp/toshi/tosiko/toshi_tosiko_tk_000087.html","reviewNote":"公的GISの公園名・所在地と山形県公式都市公園一覧を照合済み","importedPolygonCount":1},"geometry":{"type":"Polygon","coordinates":[[[140.36180892930585,38.23970596099114],[140.3617665099907,38.239730848945165],[140.36170993111458,38.23999964725868],[140.3616147199429,38.24045988832247],[140.36167844523723,38.24058388776971],[140.36255178571375,38.240777443672904],[140.3625835404052,38.24066255590289],[140.36205049298735,38.24054680930171],[140.36214840862394,38.2402479096622],[140.36218222735044,38.24025578818512],[140.362412332197,38.2395533876673],[140.36428965347662,38.239968596611874],[140.36444650642483,38.2399268493443],[140.36457432580409,38.239535013196154],[140.3645239308896,38.23946090375248],[140.36336577440116,38.23920428030782],[140.36331565998026,38.23914227832838],[140.36296253507376,38.23906934871049],[140.36273267649497,38.239056179651925],[140.36239401491522,38.23904482606021],[140.3621030110005,38.239054216352784],[140.3619222044181,38.23906700491212],[140.36190328300756,38.239081006656455],[140.36179988688275,38.239572186106],[140.3618313868603,38.23959357004753],[140.36180892930585,38.23970596099114]]]}},{"type":"Feature","properties":{"potaRef":"JP-1087","nameJa":"県政史緑地","nameEn":"Kenseishi Ryokuchi Prefectural Park","authority":"山形県","boundaryStatus":"公的GIS・公式公園情報との照合済み（公式区域判定対象）","boundarySource":"国土交通省「都市計画決定GISデータ（令和7年度）」都市公園・緑地","boundaryScaleNote":"都市計画決定区域を使用。現地の供用区域やPOTA規則上の有効区域と差がある可能性があるため、境界付近は注意表示します。","cautionMeters":75,"sourceParkName":"県政史緑地","sourcePrefecture":"山形県","sourceCity":"山形市","officialParkUrl":"https://www.pref.yamagata.jp/180019/kurashi/kendo/toshikoen/park02/index.html","officialGisUrl":"https://www.mlit.go.jp/toshi/tosiko/toshi_tosiko_tk_000087.html","reviewNote":"公的GISの公園名・所在地と山形県公式都市公園一覧を照合済み","importedPolygonCount":1},"geometry":{"type":"Polygon","coordinates":[[[140.34166059799853,38.25592640384519],[140.34039964996302,38.25640313421524],[140.33947618932507,38.256757388042146],[140.33973407330697,38.2572076921444],[140.34003317445234,38.25707464868059],[140.34028597899774,38.257491284526814],[140.34217284455087,38.25676363768302],[140.34166059799853,38.25592640384519]]]}}]}
