{"type":"FeatureCollection","metadata":{"title":"超軽量ログ Ver.1.10 POTA公式区域・岩手県","status":"公的GISと公式公園情報を照合した区域だけを実判定に使用","source":"国土交通省 都市計画決定GISデータ（令和7年度）","promotionConfig":"data/pota-boundary-official-promotions.json"},"features":[{"type":"Feature","properties":{"potaRef":"JP-1042","nameJa":"花巻広域公園","nameEn":"Hanamaki Koiki Prefectural Park","authority":"岩手県","boundaryStatus":"公的GIS・公式公園情報との照合済み（公式区域判定対象）","boundarySource":"国土交通省「都市計画決定GISデータ（令和7年度）」都市公園・緑地","boundaryScaleNote":"都市計画決定区域を使用。現地の供用区域やPOTA規則上の有効区域と差がある可能性があるため、境界付近は注意表示します。","cautionMeters":75,"sourceParkName":"花巻広域公園","sourcePrefecture":"岩手県","sourceCity":"花巻市","officialParkUrl":"https://www.pref.iwate.jp/kendozukuri/toshigesui/kouen/1029359/index.html","officialGisUrl":"https://www.mlit.go.jp/toshi/tosiko/toshi_tosiko_tk_000087.html","reviewNote":"公的GISの公園名・所在地と岩手県公式県立都市公園一覧を照合済み","importedPolygonCount":1},"geometry":{"type":"Polygon","coordinates":[[[141.05921948052747,39.426690931409766],[141.05924463882457,39.42682511011342],[141.05931922656308,39.42695280100451],[141.05934445741366,39.42710935079789],[141.05927897806518,39.42725009733772],[141.0592051432472,39.42735570522847],[141.05918490004578,39.42746760082035],[141.05913138040535,39.42748368418813],[141.0589126243079,39.427375448212935],[141.05886711974713,39.427321206249104],[141.05855818944727,39.42736335141752],[141.05829500953075,39.42753643894907],[141.05808585143419,39.427850040843865],[141.05783892648554,39.427952786263994],[141.05760017089432,39.42803314415373],[141.05753452331416,39.42812275572032],[141.05710809663995,39.42821142708912],[141.05680103804212,39.42819603790425],[141.05656424910126,39.428247626846144],[141.05619630833334,39.428524777139955],[141.05604992474807,39.42884749132153],[141.0559040226527,39.42897081246519],[141.0556448190548,39.42910233974576],[141.05528451897032,39.4291925127761],[141.05485587690666,39.4295297860367],[141.05443580913277,39.42961687434523],[141.05406205613122,39.42968949174395],[141.0538026223036,39.42974990673011],[141.0534414420888,39.429889612053564],[141.05346381649625,39.43012446783039],[141.05327764318923,39.43026537724057],[141.05317311433694,39.43044294687307],[141.05285812741457,39.43055191153092],[141.0527298638612,39.43104076128687],[141.05244914318988,39.43120276164288],[141.05189237278418,39.431063765472366],[141.05157647484492,39.43086062045005],[141.05135701322575,39.43085623815381],[141.0513135777422,39.43080358733239],[141.05131009111636,39.43067655714236],[141.05142438026982,39.43061786208148],[141.05148490827779,39.4305170911837],[141.05154447529046,39.430510730260494],[141.05156896975703,39.430436379806864],[141.05066883802272,39.430207960796984],[141.0497095878535,39.43044851018425],[141.0499107867775,39.430802533687974],[141.0495396727125,39.43143648013197],[141.04940589656414,39.43161129773754],[141.04968805193388,39.43193485459251],[141.04984829040646,39.43215893851368],[141.0498975298077,39.43234128834044],[141.05014910684574,39.432370178091084],[141.05025453626328,39.432359496387775],[141.0502682000923,39.43240560553417],[141.05023797530055,39.43272053750141],[141.05041107443753,39.43273069973748],[141.050258281588,39.43329151276049],[141.05016510767612,39.433663248605676],[141.0500217719722,39.43365932165056],[141.0499137094984,39.43431108471652],[141.04987991357197,39.434626821714026],[141.05022562434422,39.43472145509032],[141.05028603763813,39.434766284633874],[141.05038105710773,39.43475711892965],[141.05054963847456,39.434846329117505],[141.0512365852518,39.43508593449942],[141.05154740870978,39.43514287783529],[141.05134592909147,39.435209770093365],[141.0511700729534,39.43531616315642],[141.05084331424538,39.43535344746882],[141.05078533122852,39.43609060794055],[141.0507453055353,39.43663861798799],[141.05073192550608,39.43680906378485],[141.05044456282866,39.43684375657374],[141.05062266122874,39.43745751406844],[141.05073058679773,39.43787006142358],[141.0507610246554,39.437966360569405],[141.05077103014634,39.438201838892574],[141.05093330626354,39.43819901866687],[141.05112584620886,39.438236409745514],[141.05123484754603,39.43824878941068],[141.05125583026924,39.43828650153139],[141.05120723463068,39.43831535556033],[141.05147722922962,39.43865676960374],[141.05177794347867,39.43903479812309],[141.052050716713,39.439373329270715],[141.0520767002127,39.43952716239703],[141.0521337835468,39.43998798189621],[141.05215993621624,39.44019574526546],[141.05225413344556,39.44066224741898],[141.05232480415657,39.441019134892294],[141.05269152372523,39.441443776432386],[141.0530233691472,39.441836124307095],[141.0531611397589,39.44200053204618],[141.05323514068124,39.4421209729358],[141.05349422898996,39.44205106423484],[141.0536947435574,39.44198949912999],[141.05390381401614,39.441921266868036],[141.0541934888695,39.44184623061799],[141.0543424633298,39.441760820136864],[141.05435796768302,39.44157519977353],[141.05439852214016,39.44138026050126],[141.05444327858936,39.441199283407215],[141.05435612232966,39.440936847935866],[141.05446606484713,39.44098585331961],[141.05449343166595,39.44096052905477],[141.05463584737078,39.440971564179506],[141.05502461414912,39.44068189608732],[141.0550807954196,39.44074987438904],[141.05519258861443,39.44070626612309],[141.05518842986007,39.44061200197074],[141.05533279155762,39.44044589879885],[141.05553898908545,39.44042867076712],[141.05554948065353,39.44031417747312],[141.05583111312794,39.44012341147343],[141.0558278748676,39.43989289286546],[141.05586798196248,39.43988392442522],[141.05587346801065,39.43980611142512],[141.0560649227547,39.43971388167737],[141.05604717915702,39.439596075528016],[141.05597873320266,39.43955249610294],[141.05614651051138,39.43942754225386],[141.0562659601804,39.43944078082072],[141.05611336587782,39.439245795252106],[141.05617556205766,39.43924446582597],[141.05632363334,39.43914438650987],[141.0565218580106,39.43910391666594],[141.05676033693365,39.438999086136135],[141.05707696090664,39.438890737963796],[141.0570924943844,39.43892616044816],[141.05719275319166,39.438901515317596],[141.0571919330882,39.438861898430496],[141.05728949394404,39.43881962486395],[141.0574281097075,39.43871666862561],[141.0575016973992,39.43864582274387],[141.05752097744013,39.43856498091536],[141.05745982246114,39.43845062548376],[141.05740505469305,39.43841428506303],[141.05736163669826,39.438297622438725],[141.05744821761658,39.43821665097582],[141.0574471677256,39.438163484852666],[141.05746879227078,39.438121767794264],[141.05748011674737,39.43807728738605],[141.05766030774728,39.4379480101122],[141.05759612949163,39.43790226597364],[141.05756511400892,39.43776369052106],[141.0577691977727,39.437711704479376],[141.05793006098668,39.43777704778539],[141.05792100947292,39.43766259196308],[141.0580731347058,39.437711117634116],[141.05818821819125,39.437717628945656],[141.05823176767436,39.4377579470923],[141.05837899343535,39.43763308845612],[141.05863313314939,39.4376746822542],[141.05866819962824,39.43777730360966],[141.05875269422322,39.43772327010593],[141.05876752751968,39.43761045149033],[141.0589063450302,39.437571463456536],[141.0588558589566,39.437399851398325],[141.05896427703038,39.43735923879925],[141.05908389212945,39.43742466051803],[141.05923720814886,39.43735190278994],[141.05946909336507,39.43722519488706],[141.0595688215184,39.43718291518675],[141.05972287804406,39.43715736398436],[141.0597006399337,39.43699411445518],[141.059782427689,39.436775109219525],[141.05971393573932,39.43631189624391],[141.05961750318602,39.43578258760556],[141.05995741831325,39.43579464915086],[141.060173068373,39.43579604641605],[141.06029061323267,39.43581649169714],[141.06036220156773,39.43582476393027],[141.0606913253942,39.43586955678593],[141.06077884857532,39.43588525968745],[141.06096482981215,39.43592092773371],[141.06102921339635,39.435929449365126],[141.06126950114458,39.43594690459883],[141.06134183427832,39.43594337742002],[141.0614852865149,39.435941543927456],[141.06150044122546,39.435805206955365],[141.06150238532317,39.4357625638862],[141.0611014621259,39.43573063257168],[141.0609490162602,39.43570366675962],[141.06085989275135,39.43568748259137],[141.06076368423027,39.43565495367515],[141.06068153951304,39.43562239719196],[141.06059708044953,39.43559893324612],[141.0605125505997,39.43555365799975],[141.06043272055942,39.435512008745405],[141.0603598752597,39.43545580488513],[141.06030350257143,39.435419562600465],[141.06025869634405,39.43533603973807],[141.05995503801154,39.43493857407437],[141.0599200943833,39.43476848179394],[141.05991954627322,39.43454449387562],[141.05989941764108,39.43443211119107],[141.0598511808554,39.434193643143054],[141.05982235107805,39.43386443586134],[141.05982714812262,39.433717199677936],[141.05983709308256,39.433531101936964],[141.05987729624363,39.432917578406894],[141.05998222763623,39.43293085145591],[141.06007672919168,39.432916997767805],[141.06020174618524,39.43292421010714],[141.0603682782521,39.43288536200866],[141.06046244604616,39.43290409991042],[141.06061622044422,39.43287823242259],[141.06070934992977,39.43279069606746],[141.06078897749413,39.432775626233244],[141.0608714564283,39.43279250967588],[141.06100035776373,39.43272194785927],[141.0607394092296,39.43268705039945],[141.06069963734393,39.4327270742431],[141.06061451491837,39.4327421547528],[141.0605458287071,39.43274228893868],[141.06052650661002,39.43271462895772],[141.06038908583076,39.43269998312154],[141.0603149600732,39.43271717254047],[141.06019388582,39.43265988269543],[141.06019086199123,39.43257466483245],[141.0601304666224,39.43258969676148],[141.0600725907736,39.4325344141451],[141.0600969171489,39.43241079226898],[141.06004734592165,39.432374668795376],[141.05990448624743,39.43237707773836],[141.05975342563667,39.43239228603387],[141.05966360153343,39.432315416753525],[141.059494644805,39.432318941264825],[141.05939537577453,39.432207278034845],[141.05933370320284,39.4322521403515],[141.05930413722186,39.4322426713934],[141.0592654053412,39.43215824415251],[141.05925495984798,39.43190102895375],[141.05921238411324,39.431693095001116],[141.0594216828318,39.43142103760109],[141.05956921541642,39.43116507941751],[141.05944796504087,39.430561446112584],[141.05945752143805,39.43039714806728],[141.05932166692995,39.429977586748024],[141.059008161071,39.42973047235295],[141.05869152180546,39.4295537686698],[141.05827419630364,39.42943462630737],[141.05785763275026,39.42917779234921],[141.05791628188877,39.42911053213801],[141.05805641504176,39.42911665329042],[141.05810794987417,39.428909885968096],[141.05776429834984,39.42883597865881],[141.05763490222452,39.428751004417755],[141.05750289565955,39.42870864697232],[141.0576999831438,39.42848455446515],[141.0579957385766,39.42818783084486],[141.05875418649754,39.428082047869005],[141.0592933326573,39.42786687696474],[141.05976993836583,39.42742811274573],[141.05974017192236,39.42714373612177],[141.05921948052747,39.426690931409766]]]}},{"type":"Feature","properties":{"potaRef":"JP-1891","nameJa":"高田松原津波復興祈念公園","nameEn":"Takatamatsubara Memorial Prefectural Park","authority":"国土交通省・岩手県・陸前高田市","boundaryStatus":"公的GIS・公式公園情報との照合済み（公式区域判定対象）","boundarySource":"国土交通省「都市計画決定GISデータ（令和7年度）」都市公園・緑地","boundaryScaleNote":"都市計画決定区域を使用。現地の供用区域やPOTA規則上の有効区域と差がある可能性があるため、境界付近は注意表示します。","cautionMeters":75,"sourceParkName":"高田松原津波復興祈念公園","sourcePrefecture":"岩手県","sourceCity":"陸前高田市","officialParkUrl":"https://www.pref.iwate.jp/kendozukuri/toshigesui/kouen/1029359/1063934/index.html","officialGisUrl":"https://www.mlit.go.jp/toshi/tosiko/toshi_tosiko_tk_000087.html","reviewNote":"公的GISの公園名・所在地と岩手県公式公園情報を照合済み","importedPolygonCount":1},"geometry":{"type":"Polygon","coordinates":[[[141.64331324888673,39.009446824569146],[141.6436387196711,39.0094241313399],[141.64364235734928,39.009456032667934],[141.64377805798435,39.00944231939424],[141.64380198756024,39.00967457875589],[141.64379021270582,39.0103560372541],[141.64380703815888,39.010353802421854],[141.6438523061143,39.01035028091486],[141.6439172259787,39.010352820657836],[141.64403956297747,39.01033990825262],[141.64427796207445,39.01030631819727],[141.64441921172775,39.010289587624094],[141.64471861940848,39.01024694955782],[141.64480778284383,39.01023804160899],[141.64493143044638,39.010221632883635],[141.64493110448427,39.01021741595308],[141.64493033291038,39.01020743419666],[141.6449622909372,39.01020419403229],[141.64498515989172,39.01020077386779],[141.64513710618672,39.01018222221106],[141.64513912467552,39.010193546324835],[141.6451395983975,39.01019620399653],[141.64528274597006,39.010176614347195],[141.64557836580354,39.010135018394635],[141.6458785318677,39.01008821243052],[141.6460877674753,39.01005416909068],[141.64612745494077,39.01004632549125],[141.64622675634914,39.01001400884197],[141.6457591700516,39.00920377654294],[141.64572143838032,39.0091963769176],[141.64564051818405,39.00899039867997],[141.6456627629789,39.00898696618535],[141.6453272228588,39.00816192404001],[141.64522309339267,39.007917407908785],[141.64516139345145,39.00793147788138],[141.6451637345072,39.00794745958565],[141.64501429143814,39.00799615824715],[141.64497291138133,39.00790050747047],[141.64498543762627,39.00789846202571],[141.64485162686074,39.007652312464145],[141.64490709838807,39.00764703084177],[141.6448602086797,39.00747322214794],[141.64483847338258,39.007473719522125],[141.64478339857067,39.00728213530496],[141.64480695328677,39.00727800018297],[141.644770346108,39.00714185938923],[141.64470344894042,39.00715063301759],[141.64465058738688,39.00710634326519],[141.64458371475953,39.007078421439275],[141.644538347208,39.007068697650574],[141.64447163014842,39.00706674398747],[141.6443932955025,39.00707178325284],[141.64419405794666,39.00684584197988],[141.64380036772553,39.00677161715347],[141.6431393441652,39.00662624609499],[141.6427631707076,39.00658210900327],[141.64257311535755,39.00653300132756],[141.6420296472077,39.00656458278717],[141.64177666028922,39.00659610778502],[141.64122984288048,39.00648353001143],[141.64098048686733,39.00646264615162],[141.6405341123346,39.006385934867964],[141.6403020342175,39.006393415291],[141.6398844283201,39.00636350166352],[141.63961916925132,39.006377574586814],[141.63871447687487,39.006296504865745],[141.6381849743445,39.006143165775626],[141.63784281131166,39.006038036482295],[141.63730327869408,39.00593747594574],[141.6369485188204,39.00589672675464],[141.63661874380816,39.005847070651484],[141.63609553364998,39.005719815413656],[141.63585668995174,39.00562868200002],[141.63569470946342,39.005586177266515],[141.6355954172644,39.005535452152756],[141.63547323055863,39.00552002179492],[141.63535744452992,39.0054820455072],[141.63483300928215,39.00535920230895],[141.6344545883371,39.00524234527946],[141.63388896754324,39.00505039808416],[141.63286661074144,39.004690915830516],[141.63250123978517,39.004562213196394],[141.631686068039,39.004225027778745],[141.6315671153885,39.00413673910493],[141.6310994450647,39.004005304918884],[141.63078655767316,39.00380035387315],[141.6303333619102,39.00356062160292],[141.62976842186018,39.00331528596504],[141.62929799411518,39.00313535259823],[141.62885511680568,39.002863721750934],[141.62794781238762,39.002406513907395],[141.62701104368423,39.00196532524493],[141.62689176088284,39.00177227479356],[141.6267657730998,39.001534958526065],[141.62667989768494,39.00131398608407],[141.62661069669858,39.00115590530653],[141.62652387492227,39.00100902210444],[141.62645527751053,39.0009049415062],[141.626385986291,39.000818174679374],[141.62625758897698,39.00068265169222],[141.62598514049964,39.000456558610786],[141.62580704540474,39.0005425453368],[141.62578611972444,39.00050796692903],[141.62545372882386,39.00061789865966],[141.62548096386786,39.0006339915127],[141.62522766969022,39.00087965707148],[141.62520229498486,39.000867125616736],[141.6251796049277,39.00110137316572],[141.62526030886397,39.001104909527335],[141.62510582212843,39.00186863738133],[141.62454658884826,39.00179991109331],[141.6245265324484,39.00190262422714],[141.62428403021715,39.00187065302731],[141.62424498732275,39.00187057153099],[141.62421100930393,39.001887072420516],[141.6241838128346,39.001914951334456],[141.62310107673738,39.00358820354417],[141.62304220603409,39.00356490410661],[141.62261245726108,39.0042077908312],[141.62259517342795,39.00430438844548],[141.6225818174,39.00434925088257],[141.62253852544998,39.00443269189863],[141.6223727900743,39.004778952278144],[141.622443524581,39.00484265279257],[141.62243213218952,39.004856335516386],[141.62268765372332,39.00503679702859],[141.6232945719316,39.00545144879622],[141.62463558782042,39.006364810581196],[141.6248105526599,39.00625404022638],[141.62523821484547,39.00669119734252],[141.62477207255964,39.00695933388809],[141.62479559598242,39.007061769650946],[141.6261248926865,39.00787140660928],[141.62647973376338,39.008019929865235],[141.62628112870013,39.00825574753576],[141.62668018086006,39.0084609551655],[141.62718835955692,39.00867213077324],[141.62758833713278,39.00880926565503],[141.62799250502448,39.00892421500009],[141.62814144341965,39.00896224457238],[141.62819103882765,39.00896435454376],[141.62864422914018,39.009053744325676],[141.62908550548946,39.00915389726353],[141.62917641770068,39.00918927998017],[141.62944057117974,39.00924217433623],[141.62952222991788,39.009243694149326],[141.6299739245779,39.00933971633133],[141.63000076335464,39.00927099263402],[141.63036816408504,39.009355137787196],[141.63034288961296,39.009445385657465],[141.6303336026095,39.00950008912618],[141.63032366988733,39.00962134030762],[141.6303291275624,39.00967553392513],[141.63033480321656,39.00971828531421],[141.63034428665074,39.00977110015856],[141.63036160483355,39.00982242012189],[141.6306295325924,39.010331876374856],[141.63095452492382,39.010997434159506],[141.63106678283043,39.0112708281651],[141.63116692133178,39.01158249172149],[141.63131996287936,39.012275262458225],[141.6313516280466,39.01232905012087],[141.63140466821102,39.012389615171976],[141.6314530225456,39.01242805665975],[141.63149926387516,39.01264119093873],[141.63155257587465,39.01282064066733],[141.6316291198981,39.01300549443999],[141.6316003576063,39.013012614881234],[141.63157116322407,39.01306024146748],[141.63155803910414,39.01311641261635],[141.631561067001,39.01318839757765],[141.63158118605136,39.013233625440364],[141.63169560598215,39.01341336011555],[141.6327037078632,39.013115527070404],[141.63268763974224,39.01306636411468],[141.63260600613984,39.01280351174408],[141.63252840499788,39.012539917029464],[141.63245484735523,39.0122756176198],[141.63238534367295,39.01201065126434],[141.63231990383264,39.01174505580714],[141.6322585371352,39.01147886918173],[141.63220125229947,39.01121212940562],[141.63188225919777,39.009670264427456],[141.63179892132322,39.009607928808464],[141.6317989229962,39.00960791720889],[141.63191875985214,39.009618438020375],[141.63203988267222,39.00962742815791],[141.63216118583068,39.00963479104167],[141.63225951825748,39.00963943325232],[141.63229816654237,39.00966743543875],[141.6344807575527,39.00962640160008],[141.6345335166208,39.00963657087076],[141.6345853394238,39.00962357703666],[141.64263407569368,39.009541178731716],[141.64320841232458,39.00951783092527],[141.64326397249235,39.00948224580545],[141.64325723002676,39.00945073035314],[141.64331324888673,39.009446824569146]]]}}]}
