{"type":"FeatureCollection","features":[{"type":"Feature","properties":{"potaRef":"JP-0146","nameJa":"石鎚","nameEn":"Ishizuchi Quasi-National Park","authority":"環境省 生物多様性「見える化」マップ","boundaryStatus":"全国GIS候補・公開前検証待ち","boundarySource":"環境省 生物多様性「見える化」マップの自然公園区域を、POTA代表座標で一意に空間照合して加工","boundaryScaleNote":"区域は概要データであり、正確性は保証されない。POTA運用可否は公式情報で最終確認すること。","candidateMethod":"POTA representative point inside one public natural-park area","sourceParkKind":"国定公園","sourceName":"石鎚","sourceFeatureCount":21,"cautionMeters":75},"geometry":{"type":"MultiPolygon","coordinates":[[[[133.073363,33.756322],[133.074981,33.756588],[133.076939,33.757078],[133.078554,33.757255],[133.082486,33.756814],[133.085276,33.75611],[133.087698,33.75564],[133.088242,33.75542],[133.089418,33.755684],[133.091994,33.756447],[133.094473,33.75677],[133.09614,33.757269],[133.09772,33.757328],[133.098387,33.757607],[133.101669,33.757989],[133.102108,33.758238],[133.103091,33.759075],[133.104161,33.759662],[133.104969,33.759897],[133.106232,33.759868],[133.108093,33.759648],[133.108848,33.759192],[133.109093,33.757974],[133.109795,33.756388],[133.110515,33.755566],[133.11155,33.754803],[133.112814,33.754157],[133.113077,33.752865],[133.114078,33.74899],[133.114008,33.746347],[133.11385,33.745466],[133.113411,33.744468],[133.112604,33.743631],[133.110883,33.739946],[133.109883,33.738082],[133.108093,33.735337],[133.104653,33.735014],[133.104056,33.735572],[133.101388,33.736717],[133.100388,33.736878],[133.099668,33.736628],[133.098545,33.735806],[133.097527,33.734412],[133.095316,33.730301],[133.094403,33.727967],[133.093999,33.726147],[133.09414,33.725075],[133.094701,33.724047],[133.095509,33.722917],[133.096386,33.722139],[133.097466,33.717853],[133.098061,33.717487],[133.102252,33.717005],[133.103031,33.717109],[133.104771,33.717563],[133.106183,33.718281],[133.107945,33.72052],[133.108348,33.720843],[133.108985,33.720927],[133.109708,33.720898],[133.110453,33.721248],[133.111323,33.721465],[133.111594,33.720577],[133.111899,33.720445],[133.112306,33.720388],[133.112538,33.721603],[133.113275,33.723497],[133.114337,33.725302],[133.115872,33.727725],[133.116776,33.729413],[133.118382,33.730433],[133.122129,33.732173],[133.123209,33.734933],[133.123964,33.738001],[133.125267,33.742281],[133.126583,33.74482],[133.128338,33.747698],[133.129268,33.749342],[133.129567,33.749988],[133.129584,33.750648],[133.129356,33.750971],[133.128303,33.751426],[133.126214,33.75219],[133.125653,33.752924],[133.125074,33.754671],[133.124284,33.755581],[133.123599,33.756256],[133.122055,33.75884],[133.121739,33.760616],[133.121195,33.762202],[133.120896,33.76414],[133.120651,33.765211],[133.120721,33.765476],[133.121212,33.765725],[133.12223,33.765623],[133.122932,33.7653],[133.123231,33.765256],[133.123687,33.765314],[133.125179,33.764786],[133.126671,33.764463],[133.128742,33.763758],[133.131375,33.762965],[133.132673,33.762378],[133.134007,33.761292],[133.135271,33.760088],[133.136306,33.759192],[133.136956,33.758972],[133.138483,33.758591],[133.140431,33.757871],[133.141923,33.756858],[133.143573,33.756154],[133.145521,33.755684],[133.146855,33.75423],[133.148908,33.752821],[133.150049,33.751632],[133.151295,33.749724],[133.153208,33.749327],[133.153858,33.749268],[133.154454,33.749386],[133.156631,33.745819],[133.158035,33.743308],[133.158526,33.742031],[133.158614,33.739976],[133.158509,33.738493],[133.158245,33.736702],[133.157771,33.734764],[133.157157,33.733252],[133.157017,33.732166],[133.157122,33.729729],[133.157192,33.729523],[133.157726,33.729372],[133.157962,33.729611],[133.158245,33.729739],[133.15857,33.729813],[133.158807,33.72994],[133.158998,33.730095],[133.159362,33.730539],[133.159855,33.730948],[133.160596,33.731317],[133.161127,33.731373],[133.16121,33.731526],[133.161196,33.731692],[133.161062,33.732061],[133.160856,33.732384],[133.160134,33.733144],[133.159629,33.733407],[133.159457,33.733559],[133.159358,33.733708],[133.159297,33.733937],[133.159286,33.736375],[133.159163,33.736992],[133.158911,33.737767],[133.158934,33.737956],[133.159347,33.738679],[133.159389,33.738961],[133.159358,33.739317],[133.159201,33.74],[133.158941,33.740762],[133.158926,33.740989],[133.159091,33.741817],[133.15911,33.742626],[133.158991,33.743231],[133.158353,33.744357],[133.157688,33.745758],[133.157726,33.745892],[133.157875,33.746099],[133.158208,33.746453],[133.158364,33.746856],[133.158154,33.749752],[133.158055,33.750019],[133.157833,33.750177],[133.157837,33.750295],[133.160043,33.751656],[133.160968,33.752295],[133.162229,33.753332],[133.163553,33.75421],[133.163948,33.75464],[133.164004,33.754844],[133.163905,33.755072],[133.164237,33.755722],[133.164646,33.756361],[133.164978,33.756614],[133.165253,33.756702],[133.167813,33.756876],[133.168909,33.75735],[133.169318,33.757629],[133.169877,33.757534],[133.170921,33.757543],[133.17172,33.757734],[133.172597,33.758268],[133.173033,33.759052],[133.17336,33.759292],[133.175053,33.760225],[133.175741,33.76075],[133.176018,33.761786],[133.176171,33.763052],[133.176341,33.763327],[133.176787,33.763796],[133.177754,33.764024],[133.178569,33.764156],[133.179834,33.764009],[133.179973,33.764055],[133.18024,33.764518],[133.180398,33.764959],[133.180457,33.765274],[133.180574,33.76549],[133.18079,33.765638],[133.181721,33.766011],[133.182365,33.766345],[133.182799,33.767047],[133.183217,33.767444],[133.183579,33.767904],[133.183742,33.768142],[133.183774,33.768351],[133.183578,33.768784],[133.183019,33.769567],[133.18277,33.770019],[133.1824,33.771211],[133.181852,33.769997],[133.180465,33.768118],[133.178956,33.766988],[133.176657,33.764786],[133.175428,33.763494],[133.173673,33.761982],[133.171233,33.760749],[133.166108,33.758473],[133.164564,33.757651],[133.163546,33.756388],[133.163335,33.755919],[133.160632,33.753849],[133.157912,33.753863],[133.155858,33.754128],[133.151629,33.755067],[133.150242,33.755845],[133.149452,33.75699],[133.14875,33.758605],[133.148189,33.759104],[133.147206,33.759281],[133.145977,33.759192],[133.143608,33.760117],[133.141168,33.761424],[133.139624,33.7632],[133.138377,33.765211],[133.137342,33.766283],[133.136236,33.767164],[133.135008,33.767634],[133.130743,33.768779],[133.130093,33.769278],[133.12904,33.770452],[133.128654,33.770981],[133.127619,33.772111],[133.126794,33.773345],[133.126179,33.774798],[133.125881,33.776985],[133.124881,33.777998],[133.12467,33.778453],[133.124793,33.778894],[133.125705,33.779657],[133.126004,33.780362],[133.125635,33.783401],[133.12711,33.783826],[133.127636,33.784149],[133.127624,33.784571],[133.127421,33.784836],[133.127986,33.785327],[133.1295,33.787085],[133.130042,33.78716],[133.131737,33.787633],[133.132776,33.788067],[133.133793,33.788748],[133.134719,33.789957],[133.13519,33.790985],[133.133226,33.791578],[133.132296,33.791739],[133.131015,33.791607],[133.130471,33.791372],[133.129365,33.79008],[133.124819,33.788407],[133.123906,33.787834],[133.123117,33.785691],[133.122362,33.783415],[133.121748,33.780978],[133.120888,33.778879],[133.120502,33.777264],[133.119905,33.775767],[133.118782,33.774357],[133.114903,33.774769],[133.112814,33.774504],[133.110796,33.77402],[133.109286,33.773271],[133.10797,33.7717],[133.106145,33.769674],[133.103863,33.769131],[133.102757,33.768735],[133.102248,33.767751],[133.101985,33.766518],[133.101213,33.765006],[133.099282,33.762965],[133.097966,33.761762],[133.097018,33.761189],[133.094842,33.760646],[133.092823,33.760543],[133.089173,33.760484],[133.087716,33.760352],[133.086171,33.760279],[133.085382,33.760382],[133.082819,33.761189],[133.080818,33.761512],[133.077255,33.761439],[133.075588,33.761292],[133.074061,33.760719],[133.073201,33.760205],[133.072271,33.759369],[133.071393,33.758018],[133.073363,33.756322]]],[[[133.182626,33.771714],[133.18353,33.772616],[133.184157,33.773565],[133.184849,33.774385],[133.185329,33.775591],[133.185885,33.776115],[133.186554,33.776996],[133.186716,33.777101],[133.187116,33.777217],[133.187258,33.777371],[133.187309,33.777911],[133.187272,33.778194],[133.187059,33.778653],[133.187042,33.778798],[133.187054,33.779188],[133.187141,33.779446],[133.187507,33.779926],[133.187902,33.780287],[133.188046,33.780586],[133.188372,33.781667],[133.18858,33.782063],[133.189595,33.782923],[133.190208,33.783268],[133.190384,33.783457],[133.19047,33.783626],[133.190353,33.784091],[133.190361,33.784277],[133.190637,33.78507],[133.190761,33.785755],[133.190228,33.786841],[133.190259,33.78719],[133.190687,33.788074],[133.191246,33.789592],[133.191414,33.78983],[133.192103,33.791146],[133.192205,33.792701],[133.192654,33.793631],[133.192846,33.793858],[133.193244,33.794003],[133.193644,33.794049],[133.193942,33.794021],[133.194545,33.793848],[133.194524,33.794103],[133.193705,33.795315],[133.192575,33.794998],[133.18996,33.793677],[133.188135,33.792503],[133.186573,33.791093],[133.185836,33.789757],[133.185678,33.787952],[133.185678,33.786469],[133.186169,33.784326],[133.186152,33.7823],[133.185081,33.778615],[133.183519,33.773756],[133.182626,33.771714]]],[[[133.065549,33.756852],[133.064328,33.756852],[133.062193,33.756644],[133.060894,33.756578],[133.060431,33.756436],[133.060442,33.755936],[133.060849,33.75552],[133.061391,33.755142],[133.062126,33.754802],[133.062928,33.75466],[133.064204,33.754698],[133.064826,33.754367],[133.065797,33.753403],[133.065752,33.75191],[133.066079,33.751504],[133.066825,33.751391],[133.068023,33.750786],[133.068768,33.750767],[133.069231,33.75122],[133.069841,33.752421],[133.069977,33.755491],[133.070146,33.755794],[133.073363,33.756322],[133.071393,33.758018],[133.072271,33.759369],[133.073201,33.760205],[133.074061,33.760719],[133.075588,33.761292],[133.077255,33.761439],[133.080818,33.761512],[133.082819,33.761189],[133.085382,33.760382],[133.086171,33.760279],[133.087716,33.760352],[133.089173,33.760484],[133.092823,33.760543],[133.094842,33.760646],[133.097018,33.761189],[133.097966,33.761762],[133.099282,33.762965],[133.101213,33.765006],[133.101985,33.766518],[133.102248,33.767751],[133.102757,33.768735],[133.103863,33.769131],[133.106145,33.769674],[133.10797,33.7717],[133.109286,33.773271],[133.110796,33.77402],[133.112814,33.774504],[133.114903,33.774769],[133.118782,33.774357],[133.119905,33.775767],[133.120502,33.777264],[133.120888,33.778879],[133.121748,33.780978],[133.122362,33.783415],[133.123117,33.785691],[133.123906,33.787834],[133.124819,33.788407],[133.129365,33.79008],[133.130471,33.791372],[133.131015,33.791607],[133.132296,33.791739],[133.133226,33.791578],[133.13519,33.790985],[133.135239,33.791091],[133.135374,33.792565],[133.135261,33.794549],[133.134945,33.796099],[133.13499,33.797422],[133.135126,33.798764],[133.135352,33.80003],[133.1356,33.801901],[133.136007,33.802808],[133.135736,33.803791],[133.135261,33.804358],[133.134493,33.805586],[133.13307,33.807476],[133.131912,33.80947],[133.131946,33.810877],[133.132431,33.8122],[133.133493,33.813145],[133.134035,33.81461],[133.134103,33.815507],[133.13373,33.816547],[133.132909,33.817785],[133.132332,33.818092],[133.132044,33.818446],[133.131231,33.81881],[133.130824,33.819089],[133.130217,33.819405],[133.12972,33.819934],[133.129584,33.820369],[133.130285,33.821692],[133.13024,33.822089],[133.127754,33.823582],[133.126376,33.824073],[133.122919,33.825131],[133.120683,33.825642],[133.119485,33.825963],[133.117407,33.825887],[133.116458,33.825547],[133.115622,33.82498],[133.113453,33.823015],[133.112752,33.822032],[133.111645,33.81984],[133.111035,33.81916],[133.109386,33.818215],[133.108392,33.81727],[133.107804,33.81555],[133.107217,33.814019],[133.106313,33.813055],[133.105658,33.812451],[133.10376,33.812413],[133.102698,33.812281],[133.102043,33.811846],[133.101704,33.81126],[133.100665,33.807877],[133.100439,33.807745],[133.097385,33.807088],[133.097158,33.806669],[133.09335,33.80366],[133.091823,33.802662],[133.088558,33.801472],[133.086259,33.800092],[133.085136,33.798903],[133.085118,33.797582],[133.085399,33.796275],[133.086435,33.79513],[133.08654,33.794925],[133.085943,33.792782],[133.086119,33.790579],[133.086312,33.787144],[133.086716,33.783812],[133.087224,33.781008],[133.087576,33.779349],[133.087927,33.778747],[133.088155,33.776648],[133.088593,33.775752],[133.089348,33.773389],[133.090226,33.771069],[133.090577,33.770306],[133.091349,33.769146],[133.092595,33.768177],[133.094385,33.767003],[133.09679,33.766958],[133.098475,33.767032],[133.099317,33.767281],[133.09951,33.767193],[133.10123,33.767825],[133.101265,33.767619],[133.099949,33.765549],[133.09865,33.763729],[133.09851,33.763288],[133.097966,33.762775],[133.097018,33.762349],[133.094842,33.761864],[133.090998,33.761248],[133.087453,33.761145],[133.086487,33.761292],[133.085259,33.761718],[133.083223,33.762158],[133.080731,33.762378],[133.077957,33.762363],[133.07557,33.762173],[133.073517,33.761659],[133.07185,33.760631],[133.070884,33.759413],[133.070446,33.75771],[133.068339,33.756902],[133.067462,33.756961],[133.065549,33.756852]],[[133.087189,33.790741],[133.087137,33.792459],[133.08754,33.793706],[133.087628,33.794602],[133.08733,33.796907],[133.086926,33.797934],[133.086926,33.798404],[133.087312,33.799035],[133.090068,33.800239],[133.091577,33.800474],[133.092841,33.801678],[133.093841,33.802441],[133.095789,33.803513],[133.098282,33.80479],[133.099159,33.804922],[133.100721,33.805451],[133.101652,33.806141],[133.104899,33.808989],[133.107338,33.810795],[133.109339,33.812145],[133.110375,33.813217],[133.111024,33.814641],[133.111673,33.815316],[133.114201,33.817562],[133.11492,33.818458],[133.115201,33.819515],[133.115868,33.820645],[133.116904,33.821864],[133.117693,33.822466],[133.118922,33.823009],[133.121344,33.822994],[133.123362,33.82248],[133.12524,33.822143],[133.126609,33.821732],[133.127083,33.821467],[133.127118,33.821232],[133.127066,33.821042],[133.125556,33.82041],[133.125714,33.81903],[133.127031,33.818605],[133.128329,33.817445],[133.129014,33.816256],[133.130611,33.815801],[133.13119,33.815434],[133.131717,33.815419],[133.132138,33.814685],[133.132191,33.814024],[133.131699,33.813261],[133.130822,33.812395],[133.13012,33.81075],[133.129874,33.808886],[133.129962,33.80824],[133.130857,33.806934],[133.132208,33.804262],[133.133138,33.80275],[133.133542,33.801193],[133.133367,33.799872],[133.133173,33.798874],[133.132752,33.798243],[133.132822,33.796026],[133.133086,33.795174],[133.133296,33.79356],[133.133121,33.792884],[133.131366,33.792987],[133.130629,33.792943],[133.129628,33.792238],[133.127996,33.790932],[133.125591,33.789669],[133.123029,33.788583],[133.122327,33.788157],[133.122116,33.787423],[133.121116,33.785104],[133.120923,33.784164],[133.118641,33.776662],[133.11822,33.775987],[133.116868,33.775693],[133.115622,33.77562],[133.113341,33.775605],[133.110357,33.775312],[133.10969,33.775091],[133.108988,33.774578],[133.10783,33.773315],[133.105636,33.772229],[133.104442,33.772067],[133.103284,33.771979],[133.10295,33.770937],[133.102248,33.770276],[133.102143,33.770232],[133.101985,33.769909],[133.101371,33.769542],[133.100985,33.769381],[133.099844,33.769322],[133.098906,33.76905],[133.097552,33.768938],[133.095149,33.768938],[133.093824,33.769234],[133.09263,33.770144],[133.092104,33.770819],[133.091138,33.77286],[133.09012,33.774783],[133.089225,33.777029],[133.089278,33.778262],[133.088646,33.781903],[133.087874,33.783151],[133.087733,33.784663],[133.087698,33.786307],[133.087769,33.787467],[133.087628,33.788965],[133.087347,33.789611],[133.087189,33.790741]]],[[[133.074981,33.756588],[133.07514,33.755076],[133.075896,33.754235],[133.077173,33.754187],[133.077636,33.753932],[133.078619,33.753498],[133.080743,33.754575],[133.080878,33.752808],[133.081116,33.752279],[133.081624,33.752222],[133.081974,33.751712],[133.082031,33.751211],[133.081308,33.751135],[133.080912,33.750928],[133.081138,33.749671],[133.082494,33.749718],[133.082855,33.749671],[133.083104,33.749576],[133.083194,33.749208],[133.083036,33.747989],[133.083782,33.747271],[133.084301,33.746373],[133.084731,33.745126],[133.084866,33.743784],[133.084843,33.74334],[133.084132,33.742178],[133.082889,33.741053],[133.082697,33.740524],[133.083138,33.739333],[133.083443,33.737963],[133.083443,33.736962],[133.083364,33.735535],[133.083092,33.734883],[133.083013,33.73271],[133.082765,33.73184],[133.0815,33.730206],[133.081025,33.729299],[133.08098,33.727229],[133.080562,33.726016],[133.080528,33.725681],[133.080506,33.724942],[133.080946,33.723931],[133.081353,33.722637],[133.082991,33.721862],[133.086316,33.720983],[133.087162,33.720704],[133.088074,33.720558],[133.09178,33.720294],[133.095903,33.718413],[133.097033,33.71812],[133.097466,33.717853],[133.096386,33.722139],[133.095509,33.722917],[133.094701,33.724047],[133.09414,33.725075],[133.093999,33.726147],[133.094403,33.727967],[133.095316,33.730301],[133.097527,33.734412],[133.098545,33.735806],[133.099668,33.736628],[133.100388,33.736878],[133.101388,33.736717],[133.104056,33.735572],[133.104653,33.735014],[133.108093,33.735337],[133.109883,33.738082],[133.110883,33.739946],[133.112604,33.743631],[133.113411,33.744468],[133.11385,33.745466],[133.114008,33.746347],[133.114078,33.74899],[133.113077,33.752865],[133.112814,33.754157],[133.11155,33.754803],[133.110515,33.755566],[133.109795,33.756388],[133.109093,33.757974],[133.108848,33.759192],[133.108093,33.759648],[133.106232,33.759868],[133.104969,33.759897],[133.104161,33.759662],[133.103091,33.759075],[133.102108,33.758238],[133.101669,33.757989],[133.098387,33.757607],[133.09772,33.757328],[133.09614,33.757269],[133.094473,33.75677],[133.091994,33.756447],[133.089418,33.755684],[133.088242,33.75542],[133.087698,33.75564],[133.085276,33.75611],[133.082486,33.756814],[133.078554,33.757255],[133.076939,33.757078],[133.074981,33.756588]]],[[[133.112306,33.720388],[133.112747,33.719812],[133.113187,33.719783],[133.114193,33.720199],[133.116316,33.720936],[133.118061,33.719837],[133.119174,33.719916],[133.121434,33.719897],[133.122586,33.719783],[133.12375,33.719868],[133.12419,33.720605],[133.124947,33.720501],[133.125704,33.720558],[133.126845,33.720794],[133.128765,33.721276],[133.129556,33.721191],[133.131793,33.72052],[133.132516,33.720218],[133.133996,33.718961],[133.134098,33.718612],[133.134857,33.718097],[133.13497,33.717771],[133.135433,33.717327],[133.136309,33.716835],[133.136433,33.716471],[133.136642,33.716282],[133.137512,33.715994],[133.138687,33.715432],[133.13915,33.715413],[133.14083,33.716194],[133.141189,33.716466],[133.14226,33.717676],[133.143151,33.718308],[133.143536,33.718532],[133.145826,33.719521],[133.145796,33.721744],[133.145837,33.721939],[133.146549,33.722603],[133.146927,33.722857],[133.147492,33.723146],[133.148609,33.723564],[133.149251,33.723722],[133.150753,33.724377],[133.151392,33.724541],[133.151713,33.724696],[133.154277,33.726594],[133.155283,33.727186],[133.156177,33.727862],[133.157309,33.728836],[133.157726,33.729372],[133.157192,33.729523],[133.157122,33.729729],[133.157017,33.732166],[133.157157,33.733252],[133.157771,33.734764],[133.158245,33.736702],[133.158509,33.738493],[133.158614,33.739976],[133.158526,33.742031],[133.158035,33.743308],[133.156631,33.745819],[133.154454,33.749386],[133.153858,33.749268],[133.153208,33.749327],[133.151295,33.749724],[133.150049,33.751632],[133.148908,33.752821],[133.146855,33.75423],[133.145521,33.755684],[133.143573,33.756154],[133.141923,33.756858],[133.140431,33.757871],[133.138483,33.758591],[133.136956,33.758972],[133.136306,33.759192],[133.135271,33.760088],[133.134007,33.761292],[133.132673,33.762378],[133.131375,33.762965],[133.128742,33.763758],[133.126671,33.764463],[133.125179,33.764786],[133.123687,33.765314],[133.123231,33.765256],[133.122932,33.7653],[133.12223,33.765623],[133.121212,33.765725],[133.120721,33.765476],[133.120651,33.765211],[133.120896,33.76414],[133.121195,33.762202],[133.121739,33.760616],[133.122055,33.75884],[133.123599,33.756256],[133.124284,33.755581],[133.125074,33.754671],[133.125653,33.752924],[133.126214,33.75219],[133.128303,33.751426],[133.129356,33.750971],[133.129584,33.750648],[133.129567,33.749988],[133.129268,33.749342],[133.128338,33.747698],[133.126583,33.74482],[133.125267,33.742281],[133.123964,33.738001],[133.123209,33.734933],[133.122129,33.732173],[133.118382,33.730433],[133.116776,33.729413],[133.115872,33.727725],[133.114337,33.725302],[133.113275,33.723497],[133.112538,33.721603],[133.112306,33.720388]]],[[[133.127624,33.784571],[133.127636,33.784149],[133.12711,33.783826],[133.125635,33.783401],[133.126004,33.780362],[133.125705,33.779657],[133.124793,33.778894],[133.12467,33.778453],[133.124881,33.777998],[133.125881,33.776985],[133.126179,33.774798],[133.126794,33.773345],[133.127619,33.772111],[133.128654,33.770981],[133.12904,33.770452],[133.130093,33.769278],[133.130743,33.768779],[133.135008,33.767634],[133.136236,33.767164],[133.137342,33.766283],[133.138377,33.765211],[133.139624,33.7632],[133.141168,33.761424],[133.143608,33.760117],[133.145977,33.759192],[133.147206,33.759281],[133.148189,33.759104],[133.14875,33.758605],[133.149452,33.75699],[133.150242,33.755845],[133.151629,33.755067],[133.155858,33.754128],[133.157912,33.753863],[133.160632,33.753849],[133.163335,33.755919],[133.163546,33.756388],[133.164564,33.757651],[133.166108,33.758473],[133.171233,33.760749],[133.173673,33.761982],[133.175428,33.763494],[133.176657,33.764786],[133.178956,33.766988],[133.180465,33.768118],[133.181852,33.769997],[133.1824,33.771211],[133.182372,33.771478],[133.182626,33.771714],[133.183519,33.773756],[133.185081,33.778615],[133.186152,33.7823],[133.186169,33.784326],[133.185678,33.786469],[133.185678,33.787952],[133.185836,33.789757],[133.186573,33.791093],[133.188135,33.792503],[133.18996,33.793677],[133.192575,33.794998],[133.193705,33.795315],[133.192688,33.796874],[133.192417,33.797375],[133.19244,33.798669],[133.192372,33.79883],[133.192045,33.79883],[133.191344,33.798376],[133.189808,33.797894],[133.188994,33.797734],[133.187548,33.797668],[133.18704,33.797583],[133.186227,33.797044],[133.184306,33.795617],[133.183301,33.795164],[133.182759,33.795145],[133.181697,33.795381],[133.180567,33.795759],[133.179821,33.796175],[133.179471,33.79677],[133.178974,33.797847],[133.178726,33.797942],[133.178421,33.797904],[133.177607,33.797394],[133.177133,33.796562],[133.176489,33.796203],[133.176127,33.795041],[133.175969,33.794075],[133.175766,33.793292],[133.175291,33.792745],[133.175054,33.791809],[133.175811,33.791053],[133.175867,33.790608],[133.175495,33.789881],[133.174073,33.788819],[133.173473,33.78819],[133.173371,33.787746],[133.173529,33.787425],[133.174952,33.786678],[133.175935,33.786281],[133.176557,33.785705],[133.176218,33.784732],[133.176455,33.784609],[133.177008,33.784514],[133.177709,33.784184],[133.178342,33.784023],[133.179223,33.784014],[133.17972,33.783702],[133.180736,33.783362],[133.181448,33.783371],[133.182555,33.782965],[133.183391,33.782436],[133.183781,33.781828],[133.183342,33.780526],[133.182145,33.777789],[133.181646,33.77647],[133.181347,33.774367],[133.180948,33.772999],[133.180269,33.771914],[133.179232,33.770512],[133.178154,33.76961],[133.177555,33.768693],[133.1754,33.766289],[133.174682,33.765405],[133.172786,33.763769],[133.171749,33.762968],[133.169554,33.7621],[133.168516,33.761516],[133.167179,33.761048],[133.166261,33.760564],[133.164545,33.76008],[133.163967,33.759713],[133.163308,33.758862],[133.16259,33.757443],[133.161393,33.756575],[133.160195,33.756075],[133.158479,33.755791],[133.156743,33.755991],[133.154648,33.756592],[133.153072,33.757176],[133.151675,33.758278],[133.150059,33.760214],[133.148642,33.761632],[133.146128,33.761833],[133.14527,33.761816],[133.144232,33.762367],[133.142576,33.763786],[133.14096,33.766206],[133.140221,33.76689],[133.137248,33.768859],[133.133098,33.770445],[133.132619,33.770862],[133.13202,33.771113],[133.131082,33.772298],[133.130065,33.772515],[133.129007,33.774701],[133.128528,33.776153],[133.128189,33.777739],[133.127491,33.778723],[133.127551,33.779191],[133.128109,33.781227],[133.12793,33.781928],[133.12941,33.782815],[133.127986,33.784514],[133.127624,33.784571]]],[[[133.182365,33.766345],[133.182622,33.766565],[133.183217,33.767444],[133.182799,33.767047],[133.182365,33.766345]]],[[[133.087189,33.790741],[133.087347,33.789611],[133.087628,33.788965],[133.087769,33.787467],[133.087698,33.786307],[133.087733,33.784663],[133.087874,33.783151],[133.088646,33.781903],[133.089278,33.778262],[133.089225,33.777029],[133.09012,33.774783],[133.091138,33.77286],[133.092104,33.770819],[133.09263,33.770144],[133.093824,33.769234],[133.095149,33.768938],[133.097552,33.768938],[133.098906,33.76905],[133.099844,33.769322],[133.100985,33.769381],[133.101371,33.769542],[133.101985,33.769909],[133.102143,33.770232],[133.102248,33.770276],[133.10295,33.770937],[133.103284,33.771979],[133.104442,33.772067],[133.105636,33.772229],[133.10783,33.773315],[133.108988,33.774578],[133.10969,33.775091],[133.110357,33.775312],[133.113341,33.775605],[133.115622,33.77562],[133.116868,33.775693],[133.11822,33.775987],[133.118641,33.776662],[133.120923,33.784164],[133.121116,33.785104],[133.122116,33.787423],[133.122327,33.788157],[133.123029,33.788583],[133.125591,33.789669],[133.127996,33.790932],[133.129628,33.792238],[133.130629,33.792943],[133.131366,33.792987],[133.133121,33.792884],[133.133296,33.79356],[133.133086,33.795174],[133.132822,33.796026],[133.132752,33.798243],[133.133173,33.798874],[133.133367,33.799872],[133.133542,33.801193],[133.133138,33.80275],[133.132208,33.804262],[133.130857,33.806934],[133.129962,33.80824],[133.129874,33.808886],[133.13012,33.81075],[133.130822,33.812395],[133.131699,33.813261],[133.132191,33.814024],[133.132138,33.814685],[133.131717,33.815419],[133.13119,33.815434],[133.130611,33.815801],[133.129014,33.816256],[133.128329,33.817445],[133.127031,33.818605],[133.125714,33.81903],[133.125556,33.82041],[133.127066,33.821042],[133.127118,33.821232],[133.127083,33.821467],[133.126609,33.821732],[133.12524,33.822143],[133.123362,33.82248],[133.121344,33.822994],[133.118922,33.823009],[133.117693,33.822466],[133.116904,33.821864],[133.115868,33.820645],[133.115201,33.819515],[133.11492,33.818458],[133.114201,33.817562],[133.111673,33.815316],[133.111024,33.814641],[133.110375,33.813217],[133.109339,33.812145],[133.107338,33.810795],[133.104899,33.808989],[133.101652,33.806141],[133.100721,33.805451],[133.099159,33.804922],[133.098282,33.80479],[133.095789,33.803513],[133.093841,33.802441],[133.092841,33.801678],[133.091577,33.800474],[133.090068,33.800239],[133.087312,33.799035],[133.086926,33.798404],[133.086926,33.797934],[133.08733,33.796907],[133.087628,33.794602],[133.08754,33.793706],[133.087137,33.792459],[133.087189,33.790741]],[[133.120738,33.821423],[133.120984,33.821306],[133.121177,33.819691],[133.121563,33.819251],[133.121616,33.818913],[133.12137,33.817621],[133.121353,33.814744],[133.121616,33.813187],[133.122915,33.810016],[133.124108,33.807991],[133.125021,33.806801],[133.126004,33.805143],[133.126565,33.803748],[133.127601,33.801795],[133.128601,33.800768],[133.12904,33.799711],[133.129216,33.798771],[133.129163,33.798067],[133.128549,33.797553],[133.127478,33.797068],[133.126144,33.796643],[133.125655,33.796565],[133.124898,33.796584],[133.124336,33.796687],[133.123476,33.796701],[133.122862,33.796819],[133.121563,33.796437],[133.119527,33.796466],[133.115789,33.796672],[133.11456,33.797054],[133.113841,33.797626],[133.112981,33.798698],[133.112086,33.79927],[133.110857,33.799637],[133.109787,33.800048],[133.109067,33.800489],[133.108593,33.801575],[133.107838,33.802573],[133.107294,33.803043],[133.10661,33.803396],[133.10596,33.805803],[133.105732,33.806302],[133.106048,33.807154],[133.106698,33.808005],[133.108312,33.808563],[133.108523,33.808695],[133.110067,33.809165],[133.111033,33.809341],[133.111349,33.809488],[133.112226,33.809444],[133.112981,33.809503],[133.112928,33.809679],[133.11198,33.810604],[133.113279,33.812351],[133.114613,33.81376],[133.116474,33.815287],[133.117176,33.816329],[133.11779,33.818017],[133.118545,33.820895],[133.119194,33.821188],[133.120738,33.821423]]],[[[133.065549,33.756852],[133.067462,33.756961],[133.068339,33.756902],[133.070446,33.75771],[133.070884,33.759413],[133.07185,33.760631],[133.073517,33.761659],[133.07557,33.762173],[133.077957,33.762363],[133.080731,33.762378],[133.083223,33.762158],[133.085259,33.761718],[133.086487,33.761292],[133.087453,33.761145],[133.090998,33.761248],[133.094842,33.761864],[133.097018,33.762349],[133.097966,33.762775],[133.09851,33.763288],[133.09865,33.763729],[133.099949,33.765549],[133.101265,33.767619],[133.10123,33.767825],[133.09951,33.767193],[133.099317,33.767281],[133.098475,33.767032],[133.09679,33.766958],[133.094385,33.767003],[133.092595,33.768177],[133.091349,33.769146],[133.090577,33.770306],[133.090226,33.771069],[133.089348,33.773389],[133.088593,33.775752],[133.088155,33.776648],[133.087927,33.778747],[133.087576,33.779349],[133.087224,33.781008],[133.086716,33.783812],[133.086312,33.787144],[133.086119,33.790579],[133.085943,33.792782],[133.08654,33.794925],[133.086435,33.79513],[133.085399,33.796275],[133.085118,33.797582],[133.085136,33.798903],[133.086259,33.800092],[133.088558,33.801472],[133.091823,33.802662],[133.09335,33.80366],[133.096404,33.806038],[133.097158,33.806669],[133.097385,33.807088],[133.097027,33.807008],[133.096214,33.806951],[133.094858,33.806498],[133.094135,33.806365],[133.093661,33.806195],[133.093141,33.806252],[133.091763,33.805799],[133.08817,33.80491],[133.08747,33.80457],[133.084985,33.802643],[133.081234,33.800167],[133.079314,33.80028],[133.076896,33.800091],[133.075247,33.799827],[133.074343,33.799543],[133.07292,33.798712],[133.072558,33.798183],[133.071022,33.796879],[133.070954,33.796331],[133.071135,33.796028],[133.071993,33.795518],[133.072649,33.794119],[133.072965,33.793817],[133.073213,33.79342],[133.073236,33.790869],[133.073756,33.789319],[133.073891,33.78777],[133.074027,33.787127],[133.074049,33.786503],[133.074569,33.785502],[133.074863,33.784633],[133.075744,33.784727],[133.077416,33.784595],[133.07911,33.784122],[133.080014,33.783688],[133.078591,33.782856],[133.070954,33.777867],[133.069937,33.777546],[133.067746,33.777489],[133.066142,33.776639],[133.062933,33.774484],[133.062414,33.772991],[133.062188,33.771271],[133.062182,33.769505],[133.06234,33.768201],[133.062849,33.767293],[133.063651,33.7665],[133.064103,33.765734],[133.063933,33.763334],[133.063515,33.760972],[133.063459,33.760046],[133.063877,33.759148],[133.065549,33.756852]]],[[[133.12941,33.782815],[133.12793,33.781928],[133.128109,33.781227],[133.127551,33.779191],[133.127491,33.778723],[133.128189,33.777739],[133.128528,33.776153],[133.129007,33.774701],[133.130065,33.772515],[133.131082,33.772298],[133.13202,33.771113],[133.132619,33.770862],[133.133098,33.770445],[133.137248,33.768859],[133.140221,33.76689],[133.14096,33.766206],[133.142576,33.763786],[133.144232,33.762367],[133.14527,33.761816],[133.146128,33.761833],[133.148642,33.761632],[133.150059,33.760214],[133.151675,33.758278],[133.153072,33.757176],[133.154648,33.756592],[133.156743,33.755991],[133.158479,33.755791],[133.160195,33.756075],[133.161393,33.756575],[133.16259,33.757443],[133.163308,33.758862],[133.163967,33.759713],[133.164545,33.76008],[133.166261,33.760564],[133.167179,33.761048],[133.168516,33.761516],[133.169554,33.7621],[133.171749,33.762968],[133.172786,33.763769],[133.174682,33.765405],[133.1754,33.766289],[133.177555,33.768693],[133.178154,33.76961],[133.179232,33.770512],[133.180269,33.771914],[133.180948,33.772999],[133.181347,33.774367],[133.181646,33.77647],[133.182145,33.777789],[133.183342,33.780526],[133.183781,33.781828],[133.183391,33.782436],[133.181855,33.782341],[133.180556,33.781793],[133.179268,33.781519],[133.178138,33.78134],[133.17746,33.781113],[133.177099,33.780546],[133.176781,33.78015],[133.176375,33.780011],[133.175935,33.780039],[133.175156,33.780234],[133.17475,33.78043],[133.174209,33.78057],[133.173396,33.78057],[133.173024,33.780654],[133.172381,33.780933],[133.17184,33.780933],[133.170215,33.780598],[133.169016,33.780621],[133.168225,33.780414],[133.167706,33.779884],[133.167502,33.778921],[133.167118,33.77875],[133.166666,33.778713],[133.166147,33.779147],[133.166101,33.779733],[133.165853,33.779979],[133.165537,33.780168],[133.16522,33.780206],[133.164927,33.780168],[133.164791,33.779828],[133.16461,33.778637],[133.163887,33.777635],[133.16269,33.776709],[133.161425,33.776275],[133.160634,33.775783],[133.159323,33.774593],[133.158917,33.774404],[133.158103,33.77344],[133.156115,33.771456],[133.154669,33.77036],[133.1532,33.769679],[133.151551,33.769509],[133.150015,33.769585],[133.148298,33.769849],[133.148117,33.77053],[133.147552,33.770927],[133.146242,33.771286],[133.144592,33.771116],[133.143869,33.771116],[133.143937,33.769887],[133.143666,33.768716],[133.143101,33.768243],[133.142649,33.768243],[133.142084,33.768621],[133.141316,33.769509],[133.141203,33.769982],[133.141271,33.77121],[133.140955,33.771777],[133.140774,33.772854],[133.140322,33.773742],[133.139757,33.774593],[133.138854,33.774914],[133.138628,33.776086],[133.138537,33.778127],[133.138831,33.779091],[133.138763,33.779299],[133.13804,33.779487],[133.134741,33.780962],[133.134267,33.781075],[133.133906,33.781018],[133.133341,33.780602],[133.13246,33.78064],[133.130042,33.782152],[133.12941,33.782815]]],[[[133.120738,33.821423],[133.119194,33.821188],[133.118545,33.820895],[133.11779,33.818017],[133.117176,33.816329],[133.116474,33.815287],[133.114613,33.81376],[133.113279,33.812351],[133.11198,33.810604],[133.112928,33.809679],[133.112981,33.809503],[133.112226,33.809444],[133.111349,33.809488],[133.111033,33.809341],[133.110067,33.809165],[133.108523,33.808695],[133.108312,33.808563],[133.106698,33.808005],[133.106048,33.807154],[133.105732,33.806302],[133.10596,33.805803],[133.10661,33.803396],[133.107294,33.803043],[133.107838,33.802573],[133.108593,33.801575],[133.109067,33.800489],[133.109787,33.800048],[133.110857,33.799637],[133.112086,33.79927],[133.112981,33.798698],[133.113841,33.797626],[133.11456,33.797054],[133.115789,33.796672],[133.119527,33.796466],[133.121563,33.796437],[133.122862,33.796819],[133.123476,33.796701],[133.124336,33.796687],[133.124898,33.796584],[133.125655,33.796565],[133.126144,33.796643],[133.127478,33.797068],[133.128549,33.797553],[133.129163,33.798067],[133.129216,33.798771],[133.12904,33.799711],[133.128601,33.800768],[133.127601,33.801795],[133.126565,33.803748],[133.126004,33.805143],[133.125021,33.806801],[133.124108,33.807991],[133.122915,33.810016],[133.121616,33.813187],[133.121353,33.814744],[133.12137,33.817621],[133.121616,33.818913],[133.121563,33.819251],[133.121177,33.819691],[133.120984,33.821306],[133.120738,33.821423]]],[[[133.193705,33.795315],[133.194524,33.794103],[133.194545,33.793848],[133.195056,33.793706],[133.195491,33.79372],[133.196413,33.793929],[133.196836,33.79395],[133.198248,33.793823],[133.199188,33.793936],[133.200035,33.793952],[133.200957,33.794122],[133.201533,33.794344],[133.203704,33.794735],[133.204354,33.794758],[133.205713,33.794514],[133.206101,33.794231],[133.206342,33.793195],[133.206458,33.792947],[133.20687,33.79274],[133.208195,33.791804],[133.208598,33.791374],[133.209023,33.790709],[133.209685,33.790252],[133.209977,33.789897],[133.210201,33.789707],[133.210669,33.789458],[133.211846,33.789137],[133.212269,33.788899],[133.212484,33.788628],[133.212939,33.78771],[133.214236,33.786944],[133.214383,33.786802],[133.214726,33.786293],[133.215538,33.785612],[133.215722,33.785346],[133.215824,33.785037],[133.215858,33.784661],[133.216238,33.783866],[133.216542,33.783414],[133.217336,33.782466],[133.218537,33.781532],[133.218919,33.781155],[133.219844,33.780431],[133.220517,33.780291],[133.220851,33.780302],[133.221584,33.780475],[133.222911,33.780645],[133.223465,33.780829],[133.22406,33.781434],[133.224804,33.781835],[133.225311,33.782509],[133.225793,33.782683],[133.226679,33.782934],[133.229119,33.783459],[133.229785,33.783643],[133.231204,33.783914],[133.231609,33.783962],[133.232549,33.783891],[133.233245,33.783532],[133.234248,33.783134],[133.235128,33.782936],[133.235374,33.782839],[133.236382,33.782674],[133.236628,33.782661],[133.236921,33.782725],[133.237945,33.783595],[133.238549,33.784034],[133.239757,33.784627],[133.240518,33.785442],[133.241372,33.786104],[133.243253,33.787383],[133.243863,33.787869],[133.244192,33.788092],[133.245437,33.788565],[133.245937,33.788947],[133.246437,33.788966],[133.246708,33.788898],[133.246966,33.788735],[133.247268,33.788416],[133.247692,33.788096],[133.249554,33.788259],[133.249881,33.788329],[133.251108,33.788897],[133.251332,33.789167],[133.251596,33.789887],[133.252452,33.790627],[133.253145,33.791089],[133.253628,33.791326],[133.254695,33.791572],[133.254867,33.791651],[133.255867,33.792434],[133.25718,33.793863],[133.257449,33.794368],[133.257714,33.795776],[133.258138,33.796686],[133.258271,33.797218],[133.25831,33.797644],[133.258448,33.79804],[133.258626,33.798376],[133.25935,33.799229],[133.260199,33.800106],[133.26075,33.800605],[133.260853,33.800749],[133.260934,33.801062],[133.260668,33.801062],[133.260203,33.800901],[133.259597,33.800798],[133.259149,33.800637],[133.25771,33.799374],[133.25678,33.798633],[133.256306,33.797788],[133.256271,33.797488],[133.255911,33.796284],[133.255472,33.79555],[133.255244,33.794889],[133.254428,33.793964],[133.253849,33.793399],[133.252998,33.792966],[133.251813,33.792504],[133.251287,33.792063],[133.250821,33.791219],[133.250032,33.790536],[133.24911,33.790081],[133.248575,33.789905],[133.247917,33.789898],[133.245986,33.79039],[133.245205,33.790235],[133.243371,33.7892],[133.24187,33.78865],[133.240536,33.787174],[133.239308,33.786095],[133.238606,33.785604],[133.237807,33.784943],[133.237342,33.784715],[133.23621,33.784605],[133.234745,33.784627],[133.231936,33.784804],[133.229506,33.784833],[133.22804,33.784635],[133.227083,33.784334],[133.225451,33.783453],[133.223222,33.781801],[133.222292,33.781691],[133.220809,33.781867],[133.219905,33.782212],[133.219308,33.782616],[133.218544,33.783478],[133.217292,33.785491],[133.216649,33.786078],[133.215837,33.787057],[133.215262,33.78784],[133.214314,33.788847],[133.213231,33.789853],[133.210862,33.791307],[133.209745,33.792538],[133.209474,33.793013],[133.20856,33.794075],[133.20829,33.794243],[133.208154,33.794495],[133.207408,33.794993],[133.206346,33.795456],[133.204268,33.795466],[133.202889,33.795371],[133.202234,33.795249],[133.198314,33.795145],[133.197218,33.795003],[133.196055,33.794984],[133.193705,33.795315]]],[[[133.157726,33.729372],[133.160246,33.728672],[133.161545,33.728613],[133.165634,33.727438],[133.16825,33.726602],[133.169847,33.726734],[133.174041,33.726881],[133.176744,33.727174],[133.178815,33.727527],[133.179763,33.727747],[133.180711,33.728892],[133.181817,33.730712],[133.182712,33.732004],[133.182519,33.733355],[133.18208,33.734779],[133.180816,33.735939],[133.179096,33.736232],[133.176972,33.736027],[133.174621,33.736159],[133.173708,33.73635],[133.17283,33.736805],[133.172093,33.736775],[133.171286,33.736115],[133.170198,33.735836],[133.169303,33.735542],[133.167688,33.735513],[133.167091,33.735337],[133.166003,33.735381],[133.164529,33.736981],[133.162844,33.739609],[133.162317,33.741458],[133.161878,33.744189],[133.162247,33.745584],[133.1623,33.746964],[133.1633,33.749547],[133.164406,33.751882],[133.166038,33.753496],[133.167512,33.754436],[133.169917,33.755566],[133.172883,33.757152],[133.175042,33.758488],[133.178341,33.760793],[133.17971,33.762628],[133.180483,33.763846],[133.181782,33.765402],[133.182365,33.766345],[133.181721,33.766011],[133.18079,33.765638],[133.180574,33.76549],[133.180457,33.765274],[133.180398,33.764959],[133.18024,33.764518],[133.179916,33.76402],[133.178569,33.764156],[133.177754,33.764024],[133.176787,33.763796],[133.176341,33.763327],[133.176171,33.763052],[133.176018,33.761786],[133.175741,33.76075],[133.175053,33.760225],[133.17336,33.759292],[133.173033,33.759052],[133.172597,33.758268],[133.17172,33.757734],[133.170921,33.757543],[133.169877,33.757534],[133.169318,33.757629],[133.168909,33.75735],[133.167813,33.756876],[133.165253,33.756702],[133.164978,33.756614],[133.164646,33.756361],[133.164237,33.755722],[133.163905,33.755072],[133.164004,33.754844],[133.163948,33.75464],[133.163553,33.75421],[133.162229,33.753332],[133.160968,33.752295],[133.160043,33.751656],[133.157837,33.750295],[133.157833,33.750177],[133.158055,33.750019],[133.158154,33.749752],[133.158364,33.746856],[133.158208,33.746453],[133.157875,33.746099],[133.157726,33.745892],[133.157688,33.745758],[133.158353,33.744357],[133.158991,33.743231],[133.15911,33.742626],[133.159091,33.741817],[133.158926,33.740989],[133.158941,33.740762],[133.159201,33.74],[133.159358,33.739317],[133.159389,33.738961],[133.159347,33.738679],[133.158934,33.737956],[133.158911,33.737767],[133.159163,33.736992],[133.159286,33.736375],[133.159297,33.733937],[133.159358,33.733708],[133.159457,33.733559],[133.159629,33.733407],[133.160134,33.733144],[133.160856,33.732384],[133.161062,33.732061],[133.161196,33.731692],[133.16121,33.731526],[133.161127,33.731373],[133.160596,33.731317],[133.159855,33.730948],[133.159362,33.730539],[133.158998,33.730095],[133.158807,33.72994],[133.15857,33.729813],[133.158245,33.729739],[133.157962,33.729611],[133.157726,33.729372]]],[[[133.1824,33.771211],[133.18277,33.770019],[133.183019,33.769567],[133.183578,33.768784],[133.183774,33.768351],[133.183742,33.768142],[133.183217,33.767444],[133.184432,33.768603],[133.185204,33.770129],[133.185537,33.771407],[133.18652,33.773565],[133.189276,33.778072],[133.191242,33.782652],[133.193453,33.78732],[133.194471,33.789097],[133.19505,33.789787],[133.195592,33.790026],[133.195162,33.790775],[133.195004,33.791465],[133.195219,33.792441],[133.194576,33.793486],[133.194545,33.793848],[133.193942,33.794021],[133.193644,33.794049],[133.193312,33.794011],[133.192846,33.793858],[133.192654,33.793631],[133.192205,33.792701],[133.192103,33.791146],[133.191414,33.78983],[133.191246,33.789592],[133.190687,33.788074],[133.190259,33.78719],[133.190228,33.786841],[133.190761,33.785755],[133.190637,33.78507],[133.190361,33.784277],[133.190353,33.784091],[133.19047,33.783626],[133.190384,33.783457],[133.190208,33.783268],[133.189595,33.782923],[133.18858,33.782063],[133.188372,33.781667],[133.188046,33.780586],[133.187902,33.780287],[133.187326,33.779724],[133.187141,33.779446],[133.187054,33.779188],[133.187059,33.778653],[133.187272,33.778194],[133.187309,33.777911],[133.187258,33.777371],[133.187116,33.777217],[133.186716,33.777101],[133.186554,33.776996],[133.185885,33.776115],[133.185329,33.775591],[133.184849,33.774385],[133.184157,33.773565],[133.18353,33.772616],[133.182626,33.771714],[133.1824,33.771211]]],[[[133.156177,33.727862],[133.157069,33.727615],[133.160194,33.727791],[133.161843,33.727424],[133.163054,33.726602],[133.164564,33.725824],[133.165231,33.725603],[133.165687,33.725354],[133.165705,33.72346],[133.165354,33.722535],[133.164195,33.721875],[133.162528,33.721023],[133.161843,33.717617],[133.161387,33.716369],[133.161405,33.714666],[133.162352,33.713169],[133.162598,33.712406],[133.162616,33.711451],[133.162142,33.710556],[133.161405,33.709646],[133.15907,33.70762],[133.158702,33.70715],[133.158754,33.706798],[133.16094,33.704268],[133.163168,33.704625],[133.162177,33.705873],[133.161352,33.70671],[133.161668,33.707077],[133.163107,33.708178],[133.164388,33.710071],[133.164845,33.711862],[133.164652,33.71402],[133.163704,33.715621],[133.164107,33.717617],[133.164037,33.718571],[133.164037,33.71954],[133.164283,33.720084],[133.165582,33.720172],[133.16653,33.720289],[133.167232,33.720641],[133.168653,33.724825],[133.169092,33.725031],[133.171093,33.725251],[133.172672,33.725515],[133.174972,33.725427],[133.176095,33.725603],[133.179816,33.725809],[133.180886,33.725677],[133.181922,33.725824],[133.182448,33.727527],[133.183308,33.728818],[133.184555,33.731344],[133.184818,33.731578],[133.184835,33.733619],[133.184397,33.734324],[133.184028,33.734588],[133.182413,33.736115],[133.181378,33.736878],[133.179359,33.738023],[133.178184,33.738801],[133.177025,33.740871],[133.17685,33.741664],[133.17706,33.744512],[133.177464,33.746876],[133.177955,33.747198],[133.181799,33.747008],[133.183431,33.747463],[133.185748,33.748578],[133.187135,33.74965],[133.189065,33.750795],[133.191013,33.751309],[133.193172,33.752263],[133.19484,33.752762],[133.196525,33.752748],[133.198016,33.752263],[133.198332,33.751984],[133.199262,33.751544],[133.20028,33.750751],[133.200386,33.749929],[133.200675,33.748925],[133.201043,33.74941],[133.201693,33.750423],[133.201552,33.751039],[133.200429,33.752008],[133.200236,33.752302],[133.200183,33.752684],[133.200253,33.753388],[133.199411,33.754034],[133.198007,33.754166],[133.195708,33.754152],[133.195041,33.754387],[133.194403,33.754479],[133.193646,33.754113],[133.19333,33.754128],[133.192804,33.75379],[133.192646,33.753775],[133.191768,33.753144],[133.189627,33.752351],[133.189065,33.751999],[133.188416,33.751896],[133.186608,33.750869],[133.186134,33.750692],[133.185818,33.750692],[133.183098,33.749224],[133.182045,33.749034],[133.180711,33.748945],[133.17627,33.74852],[133.17541,33.748123],[133.174901,33.747624],[133.174603,33.743484],[133.174761,33.741781],[133.175042,33.74071],[133.17534,33.739961],[133.175252,33.739667],[133.174656,33.739388],[133.173603,33.73955],[133.172602,33.73955],[133.170128,33.737979],[133.168565,33.737451],[133.167828,33.737084],[133.167354,33.737172],[133.166687,33.737539],[133.165652,33.7393],[133.164687,33.741869],[133.164371,33.743132],[133.164283,33.743851],[133.164072,33.744673],[133.164423,33.746053],[133.164915,33.747698],[133.165213,33.748035],[133.165231,33.74852],[133.166424,33.749841],[133.166565,33.750355],[133.166968,33.750707],[133.167161,33.75125],[133.168162,33.752014],[133.169794,33.75288],[133.17104,33.753188],[133.172163,33.754671],[133.173568,33.755801],[133.176183,33.757034],[133.179008,33.758532],[133.181052,33.760083],[133.182176,33.761389],[133.18279,33.7634],[133.184949,33.7655],[133.186546,33.767482],[133.187195,33.768392],[133.187388,33.768964],[133.188284,33.77077],[133.189108,33.772899],[133.189372,33.774337],[133.189565,33.775982],[133.190294,33.77675],[133.191347,33.77838],[133.192137,33.780039],[133.19312,33.782637],[133.193155,33.783063],[133.194195,33.785933],[133.195098,33.787541],[133.196322,33.788559],[133.195987,33.789336],[133.195592,33.790026],[133.19505,33.789787],[133.194471,33.789097],[133.193453,33.78732],[133.191242,33.782652],[133.189276,33.778072],[133.18652,33.773565],[133.185537,33.771407],[133.185204,33.770129],[133.184432,33.768603],[133.183217,33.767444],[133.182622,33.766565],[133.182365,33.766345],[133.181782,33.765402],[133.180483,33.763846],[133.17971,33.762628],[133.178341,33.760793],[133.175042,33.758488],[133.172883,33.757152],[133.169917,33.755566],[133.167512,33.754436],[133.166038,33.753496],[133.164406,33.751882],[133.1633,33.749547],[133.1623,33.746964],[133.162247,33.745584],[133.161878,33.744189],[133.162317,33.741458],[133.162844,33.739609],[133.164529,33.736981],[133.166003,33.735381],[133.167091,33.735337],[133.167688,33.735513],[133.169303,33.735542],[133.170198,33.735836],[133.171286,33.736115],[133.172093,33.736775],[133.17283,33.736805],[133.173708,33.73635],[133.174621,33.736159],[133.176972,33.736027],[133.179096,33.736232],[133.180816,33.735939],[133.18208,33.734779],[133.182519,33.733355],[133.182712,33.732004],[133.181817,33.730712],[133.180711,33.728892],[133.179763,33.727747],[133.178815,33.727527],[133.176744,33.727174],[133.174041,33.726881],[133.169847,33.726734],[133.16825,33.726602],[133.165634,33.727438],[133.161545,33.728613],[133.160246,33.728672],[133.157726,33.729372],[133.157309,33.728836],[133.156177,33.727862]]],[[[133.1824,33.771211],[133.182626,33.771714],[133.182372,33.771478],[133.1824,33.771211]]],[[[133.139817,33.715691],[133.140196,33.714479],[133.140582,33.713462],[133.141373,33.711737],[133.141411,33.711474],[133.141293,33.710373],[133.141423,33.710116],[133.142195,33.709827],[133.142417,33.709691],[133.142704,33.709434],[133.143391,33.708537],[133.143671,33.70837],[133.144137,33.707824],[133.144672,33.70739],[133.144894,33.707132],[133.145031,33.706878],[133.14523,33.706004],[133.145177,33.705842],[133.145951,33.705755],[133.147162,33.705388],[133.148759,33.704552],[133.149882,33.703186],[133.150961,33.702591],[133.151674,33.702522],[133.154428,33.702702],[133.156692,33.703406],[133.158816,33.703979],[133.16094,33.704268],[133.158754,33.706798],[133.158702,33.70715],[133.15907,33.70762],[133.161405,33.709646],[133.162142,33.710556],[133.162616,33.711451],[133.162598,33.712406],[133.162352,33.713169],[133.161405,33.714666],[133.161387,33.716369],[133.161843,33.717617],[133.162528,33.721023],[133.164195,33.721875],[133.165354,33.722535],[133.165705,33.72346],[133.165687,33.725354],[133.165231,33.725603],[133.164564,33.725824],[133.163054,33.726602],[133.161843,33.727424],[133.160194,33.727791],[133.157069,33.727615],[133.156177,33.727862],[133.155283,33.727186],[133.154277,33.726594],[133.151713,33.724696],[133.151392,33.724541],[133.150753,33.724377],[133.149251,33.723722],[133.148609,33.723564],[133.147492,33.723146],[133.146927,33.722857],[133.146549,33.722603],[133.145837,33.721939],[133.145796,33.721744],[133.145826,33.719521],[133.143536,33.718532],[133.143151,33.718308],[133.14226,33.717676],[133.141189,33.716466],[133.14083,33.716194],[133.139817,33.715691]]],[[[133.163168,33.704625],[133.163765,33.705109],[133.165345,33.705785],[133.166556,33.705843],[133.168802,33.706122],[133.172787,33.706724],[133.173445,33.706941],[133.174757,33.707265],[133.175568,33.707209],[133.176558,33.706952],[133.179605,33.70542],[133.180667,33.704251],[133.182018,33.703061],[133.182668,33.702298],[133.183401,33.701718],[133.184388,33.701623],[133.18502,33.701388],[133.187565,33.701388],[133.189092,33.701314],[133.189776,33.701094],[133.190934,33.700947],[133.191672,33.700727],[133.192339,33.700815],[133.19269,33.70152],[133.193392,33.702665],[133.193585,33.703884],[133.19369,33.705983],[133.194023,33.707334],[133.193743,33.709125],[133.194059,33.71115],[133.194111,33.714307],[133.194936,33.71598],[133.194971,33.716582],[133.19469,33.717801],[133.193971,33.719254],[133.193462,33.720957],[133.193374,33.721794],[133.19376,33.722073],[133.194901,33.722131],[133.20236,33.722058],[133.204221,33.722146],[133.206801,33.72197],[133.20817,33.721985],[133.207748,33.723262],[133.207573,33.724657],[133.207503,33.725846],[133.206976,33.727049],[133.206766,33.728503],[133.205582,33.730406],[133.205345,33.730994],[133.205142,33.731189],[133.204161,33.731693],[133.203788,33.731749],[133.203416,33.732196],[133.203112,33.733119],[133.202875,33.733538],[133.202232,33.734069],[133.201656,33.734377],[133.201318,33.735076],[133.201284,33.735495],[133.201622,33.73639],[133.201903,33.736829],[133.202781,33.737519],[133.202904,33.73771],[133.202781,33.73793],[133.202272,33.73793],[133.201973,33.738165],[133.201517,33.738928],[133.199446,33.740102],[133.199341,33.740499],[133.199955,33.742393],[133.200131,33.743538],[133.200306,33.747707],[133.200675,33.748925],[133.200386,33.749929],[133.20028,33.750751],[133.199262,33.751544],[133.198332,33.751984],[133.198016,33.752263],[133.196525,33.752748],[133.19484,33.752762],[133.193172,33.752263],[133.191013,33.751309],[133.189065,33.750795],[133.187135,33.74965],[133.185748,33.748578],[133.183431,33.747463],[133.181799,33.747008],[133.177955,33.747198],[133.177464,33.746876],[133.17706,33.744512],[133.17685,33.741664],[133.177025,33.740871],[133.178184,33.738801],[133.179359,33.738023],[133.181378,33.736878],[133.182413,33.736115],[133.184028,33.734588],[133.184397,33.734324],[133.184835,33.733619],[133.184818,33.731578],[133.184555,33.731344],[133.183308,33.728818],[133.182448,33.727527],[133.181922,33.725824],[133.180886,33.725677],[133.179816,33.725809],[133.176095,33.725603],[133.174972,33.725427],[133.172672,33.725515],[133.171093,33.725251],[133.169092,33.725031],[133.168653,33.724825],[133.167232,33.720641],[133.16653,33.720289],[133.165582,33.720172],[133.164283,33.720084],[133.164037,33.71954],[133.164037,33.718571],[133.164107,33.717617],[133.163704,33.715621],[133.164652,33.71402],[133.164845,33.711862],[133.164388,33.710071],[133.163107,33.708178],[133.161668,33.707077],[133.161352,33.70671],[133.162177,33.705873],[133.163168,33.704625]]],[[[133.179385,33.758835],[133.179008,33.758532],[133.176183,33.757034],[133.173568,33.755801],[133.172163,33.754671],[133.17104,33.753188],[133.169794,33.75288],[133.168162,33.752014],[133.167161,33.75125],[133.166968,33.750707],[133.166565,33.750355],[133.166424,33.749841],[133.165231,33.74852],[133.165213,33.748035],[133.164915,33.747698],[133.164423,33.746053],[133.164072,33.744673],[133.164283,33.743851],[133.164371,33.743132],[133.164687,33.741869],[133.165652,33.7393],[133.166687,33.737539],[133.167354,33.737172],[133.167828,33.737084],[133.168565,33.737451],[133.170128,33.737979],[133.172602,33.73955],[133.173603,33.73955],[133.174656,33.739388],[133.175252,33.739667],[133.17534,33.739961],[133.175042,33.74071],[133.174761,33.741781],[133.174603,33.743484],[133.174901,33.747624],[133.17541,33.748123],[133.17627,33.74852],[133.180711,33.748945],[133.182045,33.749034],[133.183098,33.749224],[133.185818,33.750692],[133.186134,33.750692],[133.186608,33.750869],[133.188416,33.751896],[133.189065,33.751999],[133.189627,33.752351],[133.191768,33.753144],[133.192646,33.753775],[133.192804,33.75379],[133.19333,33.754128],[133.193646,33.754113],[133.194403,33.754479],[133.193514,33.754607],[133.192952,33.75446],[133.191267,33.75446],[133.190249,33.754519],[133.187581,33.755546],[133.185423,33.756178],[133.183141,33.756559],[133.180649,33.75744],[133.179385,33.758835]]],[[[133.189565,33.775982],[133.190179,33.775923],[133.191179,33.775556],[133.191969,33.775453],[133.193093,33.774954],[133.193566,33.774954],[133.195304,33.773031],[133.196094,33.772018],[133.196603,33.771724],[133.198042,33.771724],[133.1982,33.771886],[133.19813,33.77215],[133.196778,33.772444],[133.196497,33.772708],[133.196462,33.774822],[133.196813,33.774881],[133.19741,33.774646],[133.197919,33.774205],[133.198937,33.773603],[133.199306,33.773295],[133.20171,33.770594],[133.202781,33.77008],[133.203816,33.770065],[133.204228,33.770392],[133.204567,33.771175],[133.204533,33.773272],[133.204398,33.773943],[133.204364,33.774978],[133.204161,33.775816],[133.203924,33.77618],[133.203653,33.777075],[133.203112,33.778081],[133.202773,33.778501],[133.20257,33.779088],[133.201995,33.779787],[133.201318,33.780178],[133.201013,33.780542],[133.200607,33.780822],[133.200336,33.781353],[133.200302,33.781716],[133.199603,33.783552],[133.199016,33.78482],[133.198475,33.785407],[133.197655,33.786635],[133.196531,33.788074],[133.196322,33.788559],[133.195098,33.787541],[133.194195,33.785933],[133.193155,33.783063],[133.19312,33.782637],[133.192137,33.780039],[133.191347,33.77838],[133.190294,33.77675],[133.189565,33.775982]]],[[[133.194545,33.793848],[133.194576,33.793486],[133.195219,33.792441],[133.202363,33.792566],[133.203618,33.791839],[133.204636,33.790746],[133.206206,33.789652],[133.209664,33.787722],[133.211358,33.78662],[133.212411,33.785674],[133.212578,33.784756],[133.213385,33.783816],[133.21435,33.782906],[133.215658,33.781901],[133.216175,33.781255],[133.21693,33.779794],[133.217369,33.77826],[133.217325,33.777379],[133.217939,33.777394],[133.220846,33.778445],[133.222643,33.779163],[133.226938,33.781577],[133.228664,33.78208],[133.229611,33.782304],[133.231236,33.782304],[133.232725,33.781856],[133.233571,33.781744],[133.234394,33.781522],[133.235591,33.781372],[133.236315,33.781126],[133.237044,33.781126],[133.23779,33.781332],[133.239062,33.781919],[133.23958,33.782411],[133.24015,33.783049],[133.240826,33.78404],[133.243195,33.785516],[133.243713,33.785648],[133.245784,33.784936],[133.246758,33.78437],[133.247022,33.783981],[133.247118,33.783203],[133.248145,33.783013],[133.248777,33.78335],[133.249558,33.784011],[133.249997,33.784481],[133.250233,33.785053],[133.250321,33.786162],[133.250637,33.787108],[133.251137,33.787857],[133.253279,33.789523],[133.25434,33.790162],[133.256438,33.791013],[133.258184,33.79232],[133.258702,33.79301],[133.258684,33.793458],[133.259009,33.79425],[133.259799,33.795924],[133.259878,33.796489],[133.260457,33.797979],[133.260931,33.798801],[133.26108,33.79933],[133.261721,33.799866],[133.261624,33.800189],[133.261396,33.800629],[133.26108,33.801062],[133.260934,33.801062],[133.260853,33.800749],[133.26075,33.800605],[133.260199,33.800106],[133.25935,33.799229],[133.258626,33.798376],[133.258448,33.79804],[133.25831,33.797644],[133.258271,33.797218],[133.258138,33.796686],[133.257714,33.795776],[133.257449,33.794368],[133.25718,33.793863],[133.255867,33.792434],[133.254867,33.791651],[133.254695,33.791572],[133.253628,33.791326],[133.253145,33.791089],[133.252452,33.790627],[133.251596,33.789887],[133.251332,33.789167],[133.251108,33.788897],[133.249881,33.788329],[133.249554,33.788259],[133.247692,33.788096],[133.247268,33.788416],[133.246966,33.788735],[133.246708,33.788898],[133.246437,33.788966],[133.245937,33.788947],[133.245437,33.788565],[133.244192,33.788092],[133.243863,33.787869],[133.243253,33.787383],[133.241372,33.786104],[133.240518,33.785442],[133.239757,33.784627],[133.238549,33.784034],[133.237945,33.783595],[133.236921,33.782725],[133.236628,33.782661],[133.236382,33.782674],[133.235374,33.782839],[133.235128,33.782936],[133.234248,33.783134],[133.233245,33.783532],[133.232549,33.783891],[133.231609,33.783962],[133.231204,33.783914],[133.229785,33.783643],[133.229119,33.783459],[133.226679,33.782934],[133.225793,33.782683],[133.225311,33.782509],[133.224804,33.781835],[133.22406,33.781434],[133.223465,33.780829],[133.222911,33.780645],[133.221584,33.780475],[133.220851,33.780302],[133.220517,33.780291],[133.219844,33.780431],[133.218919,33.781155],[133.218537,33.781532],[133.217336,33.782466],[133.216542,33.783414],[133.216238,33.783866],[133.215858,33.784661],[133.215824,33.785037],[133.215722,33.785346],[133.215538,33.785612],[133.214726,33.786293],[133.214383,33.786802],[133.214236,33.786944],[133.212939,33.78771],[133.212484,33.788628],[133.212269,33.788899],[133.211846,33.789137],[133.210669,33.789458],[133.210201,33.789707],[133.209977,33.789897],[133.209685,33.790252],[133.209023,33.790709],[133.208598,33.791374],[133.208195,33.791804],[133.20687,33.79274],[133.206458,33.792947],[133.206342,33.793195],[133.206101,33.794231],[133.205713,33.794514],[133.204354,33.794758],[133.203704,33.794735],[133.202387,33.794525],[133.201533,33.794344],[133.200686,33.794058],[133.199774,33.793925],[133.199188,33.793936],[133.198248,33.793823],[133.197133,33.793952],[133.196413,33.793929],[133.195329,33.793699],[133.195056,33.793706],[133.194545,33.793848]]]]}}]}
