{"type":"FeatureCollection","features":[{"type":"Feature","properties":{"potaRef":"JP-0143","nameJa":"秋吉台","nameEn":"Akiyoshidai Quasi-National Park","authority":"環境省 生物多様性「見える化」マップ","boundaryStatus":"全国GIS候補・公開前検証待ち","boundarySource":"環境省 生物多様性「見える化」マップの自然公園区域を、POTA代表座標で一意に空間照合して加工","boundaryScaleNote":"区域は概要データであり、正確性は保証されない。POTA運用可否は公式情報で最終確認すること。","candidateMethod":"POTA representative point inside one public natural-park area","sourceParkKind":"国定公園","sourceName":"秋吉台","sourceFeatureCount":25,"cautionMeters":75},"geometry":{"type":"MultiPolygon","coordinates":[[[[131.282641,34.266237],[131.282521,34.265945],[131.282585,34.265668],[131.282755,34.265348],[131.283801,34.265369],[131.28431,34.265227],[131.284749,34.265035],[131.287181,34.264978],[131.287322,34.265661],[131.286241,34.265782],[131.284833,34.265846],[131.284727,34.266393],[131.284543,34.2665],[131.283787,34.266465],[131.282641,34.266237]]],[[[131.294549,34.234462],[131.300393,34.235038],[131.300407,34.234127],[131.300195,34.233487],[131.300266,34.232889],[131.30086,34.232206],[131.301016,34.231708],[131.301822,34.230812],[131.302585,34.22936],[131.30301,34.228307],[131.302953,34.227738],[131.303024,34.227283],[131.303575,34.227567],[131.305145,34.227752],[131.305386,34.228051],[131.305414,34.228777],[131.305103,34.229645],[131.304537,34.230385],[131.304353,34.230855],[131.303717,34.231466],[131.304848,34.231779],[131.307125,34.232036],[131.307846,34.232434],[131.3152,34.231964],[131.316515,34.238439],[131.315582,34.239094],[131.315271,34.239762],[131.315412,34.24137],[131.314635,34.242822],[131.314026,34.243206],[131.312584,34.24369],[131.312103,34.244131],[131.31175,34.24544],[131.3209,34.259713],[131.320295,34.270762],[131.306202,34.269688],[131.301274,34.26243],[131.302334,34.261385],[131.302773,34.260645],[131.303749,34.258183],[131.304074,34.257599],[131.305439,34.256425],[131.306839,34.25639],[131.307348,34.256063],[131.307899,34.255949],[131.308606,34.255401],[131.309646,34.255173],[131.310671,34.254761],[131.310933,34.254519],[131.310894,34.254255],[131.307083,34.248556],[131.301539,34.247276],[131.295345,34.245924],[131.288457,34.244515],[131.286124,34.241072],[131.280311,34.232832],[131.294549,34.234462]]],[[[131.317382,34.275849],[131.317749,34.275458],[131.318308,34.275152],[131.31864,34.274725],[131.319142,34.273679],[131.319531,34.272576],[131.320146,34.271893],[131.31997,34.273523],[131.319545,34.276034],[131.320026,34.27671],[131.319156,34.277073],[131.319152,34.277294],[131.318393,34.277165],[131.31823,34.276582],[131.318053,34.27639],[131.317926,34.27597],[131.317382,34.275849]]],[[[131.326574,34.289997],[131.326609,34.28883],[131.327239,34.289442],[131.328349,34.290125],[131.328872,34.290616],[131.329685,34.29174],[131.33059,34.292701],[131.332019,34.29448],[131.332408,34.29549],[131.332372,34.296273],[131.331389,34.296002],[131.331305,34.295262],[131.330866,34.294259],[131.328207,34.291278],[131.326574,34.289997]]],[[[131.278589,34.257074],[131.279516,34.25713],[131.279968,34.257016],[131.280414,34.256425],[131.280902,34.255543],[131.281538,34.25491],[131.282656,34.254405],[131.283532,34.253658],[131.284105,34.252939],[131.28465,34.251908],[131.284749,34.251402],[131.284664,34.250926],[131.284232,34.250534],[131.28221,34.249709],[131.281241,34.24909],[131.280534,34.248272],[131.280548,34.247532],[131.280739,34.247012],[131.28175,34.245746],[131.282917,34.244458],[131.282309,34.242644],[131.281651,34.242217],[131.280987,34.242053],[131.280004,34.241954],[131.279636,34.241619],[131.2769,34.237443],[131.276885,34.236988],[131.277105,34.236155],[131.277175,34.23533],[131.276942,34.234469],[131.274941,34.232242],[131.274934,34.230435],[131.275542,34.229823],[131.276723,34.229239],[131.278434,34.228628],[131.28028,34.228656],[131.282175,34.229005],[131.284296,34.229652],[131.285187,34.229624],[131.28687,34.229218],[131.287789,34.229275],[131.28856,34.229844],[131.291219,34.232562],[131.291827,34.233067],[131.29235,34.233259],[131.294549,34.234462],[131.280311,34.232832],[131.286124,34.241072],[131.288457,34.244515],[131.295345,34.245924],[131.301539,34.247276],[131.307083,34.248556],[131.310894,34.254255],[131.310933,34.254519],[131.310671,34.254761],[131.309646,34.255173],[131.308606,34.255401],[131.307899,34.255949],[131.307348,34.256063],[131.306839,34.25639],[131.305439,34.256425],[131.304074,34.257599],[131.303749,34.258183],[131.302773,34.260645],[131.302334,34.261385],[131.301274,34.26243],[131.306202,34.269688],[131.320295,34.270762],[131.3209,34.259713],[131.31175,34.24544],[131.312103,34.244131],[131.312584,34.24369],[131.314026,34.243206],[131.314635,34.242822],[131.315412,34.24137],[131.315271,34.239762],[131.315582,34.239094],[131.316515,34.238439],[131.317233,34.238724],[131.318032,34.238809],[131.319475,34.239186],[131.320443,34.239215],[131.321504,34.239094],[131.32289,34.239158],[131.324325,34.239378],[131.325096,34.240758],[131.325888,34.241249],[131.325874,34.241762],[131.324396,34.242267],[131.324849,34.244351],[131.325421,34.246002],[131.326631,34.247916],[131.327635,34.248955],[131.329374,34.249752],[131.330499,34.250356],[131.331559,34.250648],[131.33327,34.250549],[131.334331,34.250335],[131.335017,34.250115],[131.33583,34.250228],[131.338114,34.249524],[131.340412,34.248499],[131.341254,34.2483],[131.342979,34.246472],[131.342753,34.246073],[131.342244,34.245753],[131.342229,34.244643],[131.342845,34.242459],[131.34334,34.241868],[131.34382,34.24142],[131.344011,34.240929],[131.344718,34.24026],[131.344888,34.239997],[131.344393,34.239435],[131.343665,34.239022],[131.342307,34.238553],[131.341494,34.238133],[131.341042,34.237514],[131.340759,34.236831],[131.340681,34.236191],[131.340943,34.235501],[131.340646,34.234796],[131.340115,34.233878],[131.339514,34.232299],[131.339429,34.231744],[131.338814,34.231459],[131.339044,34.231121],[131.339907,34.231506],[131.340105,34.232345],[131.340812,34.23401],[131.341519,34.235319],[131.341208,34.236443],[131.34142,34.237269],[131.341802,34.23771],[131.343018,34.238307],[131.344927,34.239133],[131.345549,34.239958],[131.345182,34.240655],[131.344574,34.241125],[131.344206,34.241779],[131.343343,34.242647],[131.342749,34.244768],[131.342749,34.245579],[131.34323,34.245849],[131.343697,34.246461],[131.345182,34.247912],[131.345153,34.249705],[131.345394,34.250773],[131.346214,34.251655],[131.346454,34.253519],[131.347289,34.254601],[131.347925,34.255084],[131.348774,34.256365],[131.349735,34.257176],[131.35074,34.257489],[131.352012,34.258656],[131.353214,34.259111],[131.354317,34.260506],[131.354515,34.261474],[131.354897,34.261872],[131.355279,34.262583],[131.355392,34.263864],[131.355718,34.264533],[131.355095,34.264818],[131.353229,34.266141],[131.350329,34.26846],[131.35023,34.270068],[131.349834,34.270822],[131.344913,34.277012],[131.340699,34.280115],[131.340246,34.280698],[131.340048,34.283046],[131.339426,34.284796],[131.338888,34.287471],[131.338167,34.289535],[131.337007,34.291612],[131.3363,34.294302],[131.335622,34.296607],[131.334575,34.298741],[131.333429,34.300122],[131.331096,34.303138],[131.330907,34.303179],[131.330673,34.30262],[131.331658,34.301609],[131.332408,34.300677],[131.33327,34.299474],[131.334112,34.298492],[131.334515,34.297589],[131.33525,34.296358],[131.335682,34.294465],[131.336566,34.291434],[131.337159,34.290196],[131.337796,34.289136],[131.338347,34.28735],[131.339083,34.284284],[131.339443,34.283188],[131.339613,34.282334],[131.337888,34.282583],[131.336771,34.282612],[131.333292,34.281239],[131.332577,34.28116],[131.331488,34.281388],[131.330937,34.28173],[131.330477,34.282434],[131.329912,34.282875],[131.328441,34.283316],[131.326178,34.286326],[131.32586,34.287429],[131.326609,34.28883],[131.326574,34.289997],[131.326107,34.289713],[131.32557,34.28903],[131.324976,34.287607],[131.324778,34.287578],[131.324184,34.288119],[131.322947,34.288852],[131.321511,34.289172],[131.320055,34.289798],[131.317891,34.289684],[131.316314,34.290246],[131.315253,34.290239],[131.314992,34.290147],[131.314507,34.289705],[131.314012,34.289577],[131.313206,34.289592],[131.312372,34.289307],[131.311679,34.289264],[131.31118,34.288631],[131.311605,34.287834],[131.31159,34.287237],[131.311004,34.285942],[131.31094,34.284889],[131.310742,34.284199],[131.310049,34.283451],[131.309009,34.28264],[131.308309,34.281986],[131.308034,34.2812],[131.30773,34.280694],[131.307284,34.280232],[131.305502,34.278859],[131.305156,34.278268],[131.304951,34.275493],[131.304717,34.27518],[131.303635,34.274675],[131.303169,34.274348],[131.302377,34.27301],[131.301691,34.272534],[131.301161,34.272484],[131.300022,34.273039],[131.299584,34.273025],[131.299209,34.272655],[131.298912,34.272149],[131.298424,34.271794],[131.297682,34.271637],[131.296967,34.271779],[131.296826,34.272221],[131.296359,34.27274],[131.296006,34.272776],[131.295334,34.271922],[131.294316,34.271915],[131.2938,34.271609],[131.293368,34.271004],[131.292569,34.270812],[131.292102,34.27057],[131.291735,34.269972],[131.291784,34.26766],[131.291954,34.26719],[131.291996,34.266763],[131.291201,34.266934],[131.290282,34.267418],[131.289843,34.266351],[131.289193,34.266465],[131.288613,34.26682],[131.288047,34.268186],[131.287637,34.268727],[131.287368,34.269424],[131.287595,34.269979],[131.287575,34.270712],[131.28687,34.270068],[131.286035,34.269656],[131.284749,34.269777],[131.283239,34.269798],[131.282334,34.269471],[131.281697,34.26866],[131.281613,34.267052],[131.281047,34.265344],[131.280029,34.263935],[131.278812,34.262441],[131.278388,34.261644],[131.278487,34.259467],[131.278671,34.258613],[131.278589,34.257074]],[[131.282641,34.266237],[131.283787,34.266465],[131.284543,34.2665],[131.284727,34.266393],[131.284833,34.265846],[131.286241,34.265782],[131.287322,34.265661],[131.287181,34.264978],[131.284749,34.265035],[131.28431,34.265227],[131.283801,34.265369],[131.282755,34.265348],[131.282585,34.265668],[131.282521,34.265945],[131.282641,34.266237]],[[131.317382,34.275849],[131.317226,34.27612],[131.317233,34.276788],[131.317509,34.277386],[131.31806,34.277735],[131.319142,34.277777],[131.320535,34.277685],[131.321469,34.276938],[131.322374,34.276653],[131.324219,34.27661],[131.325018,34.276511],[131.326723,34.275906],[131.327769,34.275999],[131.329134,34.277194],[131.329869,34.277671],[131.332019,34.278247],[131.332814,34.278531],[131.334653,34.280794],[131.336661,34.281776],[131.337326,34.281875],[131.339376,34.281591],[131.339691,34.281367],[131.33962,34.280883],[131.33991,34.280207],[131.342526,34.278194],[131.344379,34.276835],[131.344775,34.276223],[131.348254,34.272004],[131.349605,34.270211],[131.349824,34.268375],[131.350092,34.268005],[131.352567,34.266034],[131.355007,34.264341],[131.354816,34.263772],[131.354738,34.262776],[131.354321,34.26205],[131.35401,34.261723],[131.353861,34.261395],[131.353812,34.260805],[131.352737,34.25941],[131.351627,34.259062],[131.351167,34.258713],[131.350404,34.257902],[131.349414,34.257582],[131.348558,34.256892],[131.347801,34.255988],[131.34742,34.255404],[131.346875,34.255049],[131.345963,34.25369],[131.345666,34.25179],[131.34481,34.251],[131.344605,34.249805],[131.344619,34.248105],[131.343531,34.246959],[131.342541,34.248062],[131.341699,34.248823],[131.33996,34.249442],[131.338644,34.250147],[131.336191,34.25083],[131.334762,34.251036],[131.332287,34.251534],[131.332896,34.252936],[131.33327,34.253512],[131.334034,34.253562],[131.335024,34.253064],[131.336212,34.253028],[131.336933,34.253405],[131.339352,34.253298],[131.339804,34.25359],[131.340165,34.254138],[131.340165,34.2548],[131.3395,34.256102],[131.339542,34.256699],[131.339953,34.257212],[131.339953,34.25899],[131.339726,34.259147],[131.336523,34.258877],[131.336035,34.259026],[131.335724,34.258998],[131.334713,34.258371],[131.334168,34.258357],[131.333299,34.259026],[131.331425,34.259005],[131.330548,34.259524],[131.329862,34.259638],[131.329325,34.259531],[131.32866,34.259311],[131.328257,34.25946],[131.32702,34.259424],[131.325478,34.260342],[131.32475,34.261047],[131.323647,34.262327],[131.323682,34.26353],[131.324303,34.264872],[131.323873,34.26554],[131.323604,34.266273],[131.323625,34.266842],[131.324403,34.267518],[131.324615,34.268272],[131.325238,34.26909],[131.327663,34.269773],[131.328045,34.269979],[131.328193,34.270477],[131.328292,34.271239],[131.328809,34.272256],[131.328738,34.272619],[131.328342,34.273039],[131.326362,34.272612],[131.324743,34.272519],[131.323399,34.272797],[131.321568,34.272975],[131.31997,34.273523],[131.320146,34.271893],[131.319531,34.272576],[131.319142,34.273679],[131.31864,34.274725],[131.318308,34.275152],[131.317749,34.275458],[131.317382,34.275849]],[[131.327034,34.283722],[131.327309,34.283295],[131.327437,34.282932],[131.328278,34.282541],[131.329318,34.282391],[131.329947,34.281915],[131.330286,34.281217],[131.331015,34.280641],[131.331877,34.280413],[131.33327,34.280406],[131.332118,34.27919],[131.33158,34.278983],[131.330074,34.278585],[131.329056,34.278222],[131.328603,34.277824],[131.3275,34.276635],[131.326694,34.276628],[131.325266,34.277183],[131.322579,34.277297],[131.321582,34.277802],[131.322904,34.27803],[131.323456,34.278272],[131.323717,34.278663],[131.323958,34.27973],[131.324064,34.280449],[131.323753,34.281566],[131.323625,34.282953],[131.323236,34.284668],[131.322706,34.285259],[131.322013,34.285778],[131.321299,34.286532],[131.320549,34.287116],[131.319793,34.287478],[131.319284,34.287656],[131.318817,34.288062],[131.318209,34.288304],[131.317099,34.289008],[131.318025,34.288852],[131.31934,34.289015],[131.320224,34.28883],[131.321235,34.288354],[131.322395,34.288233],[131.323159,34.287784],[131.325414,34.285671],[131.327034,34.283722]]],[[[131.293916,34.220065],[131.29352,34.219296],[131.29311,34.218912],[131.292488,34.217987],[131.292346,34.217176],[131.294524,34.218955],[131.295231,34.219168],[131.296349,34.219168],[131.297423,34.218741],[131.298159,34.218628],[131.298611,34.219453],[131.299248,34.219922],[131.300337,34.220278],[131.302755,34.22163],[131.303717,34.22099],[131.304353,34.220719],[131.305089,34.220819],[131.310844,34.223338],[131.312131,34.22358],[131.313503,34.224149],[131.317452,34.227706],[131.317463,34.228421],[131.31735,34.228848],[131.316247,34.22973],[131.315511,34.230442],[131.315172,34.231096],[131.3152,34.231964],[131.307846,34.232434],[131.307125,34.232036],[131.304848,34.231779],[131.303717,34.231466],[131.304353,34.230855],[131.304537,34.230385],[131.305103,34.229645],[131.305414,34.228777],[131.305386,34.228051],[131.305145,34.227752],[131.303575,34.227567],[131.303024,34.227283],[131.302953,34.227738],[131.30301,34.228307],[131.302585,34.22936],[131.301822,34.230812],[131.301016,34.231708],[131.30086,34.232206],[131.300266,34.232889],[131.300195,34.233487],[131.300407,34.234127],[131.300393,34.235038],[131.295228,34.23454],[131.294973,34.233765],[131.294493,34.233153],[131.294196,34.232491],[131.294026,34.230876],[131.293481,34.229794],[131.293439,34.228734],[131.293955,34.227703],[131.294592,34.226778],[131.294966,34.225867],[131.295171,34.225042],[131.295157,34.22364],[131.294903,34.222793],[131.294789,34.221377],[131.293916,34.220065]]],[[[131.326574,34.289997],[131.328207,34.291278],[131.330866,34.294259],[131.331305,34.295262],[131.331389,34.296002],[131.330173,34.295938],[131.329431,34.296045],[131.328575,34.296465],[131.327953,34.296472],[131.327317,34.29591],[131.327055,34.295113],[131.326723,34.294373],[131.326723,34.290424],[131.326574,34.289997]]],[[[131.326609,34.28883],[131.327246,34.288261],[131.328292,34.287998],[131.329692,34.288076],[131.330569,34.288339],[131.331326,34.288325],[131.332217,34.287898],[131.333009,34.287977],[131.334006,34.288418],[131.335003,34.288524],[131.335738,34.289022],[131.336063,34.289762],[131.335986,34.291192],[131.335187,34.292466],[131.335158,34.293128],[131.335328,34.294216],[131.335469,34.294785],[131.335475,34.295437],[131.335003,34.29608],[131.334331,34.296514],[131.333504,34.296714],[131.332372,34.296273],[131.332408,34.29549],[131.332019,34.29448],[131.33059,34.292701],[131.329685,34.29174],[131.328872,34.290616],[131.328349,34.290125],[131.327239,34.289442],[131.326609,34.28883]]],[[[131.268832,34.249442],[131.269143,34.248588],[131.269998,34.249143],[131.271497,34.248795],[131.272296,34.248852],[131.273484,34.24935],[131.274453,34.250147],[131.274998,34.250972],[131.275089,34.252964],[131.275464,34.253377],[131.275528,34.253725],[131.275337,34.254003],[131.275408,34.256159],[131.275662,34.256977],[131.275782,34.258058],[131.275662,34.258556],[131.275705,34.258855],[131.275549,34.259467],[131.275634,34.260029],[131.275669,34.260805],[131.275238,34.261516],[131.275047,34.262299],[131.275054,34.263046],[131.275252,34.26348],[131.27591,34.26417],[131.276398,34.264974],[131.276398,34.265735],[131.276086,34.266888],[131.276277,34.267137],[131.275634,34.268638],[131.276044,34.269357],[131.275804,34.269627],[131.274538,34.270196],[131.273824,34.270303],[131.273371,34.270474],[131.271016,34.270453],[131.26915,34.269606],[131.268669,34.269015],[131.268238,34.268916],[131.267318,34.268816],[131.267064,34.26866],[131.266795,34.268254],[131.266731,34.267521],[131.267078,34.266568],[131.267711,34.266041],[131.26904,34.265742],[131.269705,34.265372],[131.269917,34.26486],[131.269804,34.262541],[131.26903,34.260477],[131.269008,34.258122],[131.269355,34.257446],[131.269319,34.257027],[131.268591,34.256678],[131.268527,34.256337],[131.268853,34.255945],[131.269319,34.255646],[131.26939,34.255148],[131.269107,34.254679],[131.269121,34.254074],[131.268853,34.253619],[131.268853,34.253327],[131.269093,34.253],[131.268655,34.251484],[131.268832,34.249442]]],[[[131.283363,34.27137],[131.283964,34.270851],[131.285123,34.270929],[131.28553,34.271377],[131.285572,34.271847],[131.285784,34.272245],[131.28611,34.272473],[131.2871,34.27263],[131.28874,34.272971],[131.289744,34.273469],[131.291526,34.275163],[131.291795,34.275746],[131.291767,34.276443],[131.291427,34.277738],[131.291045,34.27835],[131.289419,34.278891],[131.288882,34.278877],[131.287637,34.278407],[131.285431,34.27798],[131.285173,34.277631],[131.285046,34.277076],[131.285116,34.276429],[131.284876,34.275803],[131.284968,34.275291],[131.284805,34.274522],[131.28436,34.273612],[131.283603,34.272758],[131.283348,34.272317],[131.283363,34.27137]]],[[[131.278589,34.257074],[131.27853,34.255952],[131.278162,34.255184],[131.27819,34.254729],[131.278954,34.252665],[131.278148,34.251385],[131.277426,34.249563],[131.277426,34.248951],[131.277243,34.248368],[131.277342,34.247301],[131.277129,34.246874],[131.276535,34.246376],[131.276535,34.245892],[131.275206,34.244981],[131.274655,34.245308],[131.273693,34.24538],[131.272887,34.245095],[131.27225,34.244426],[131.272166,34.243074],[131.272434,34.242349],[131.273509,34.241552],[131.274556,34.23973],[131.274556,34.23872],[131.273707,34.237866],[131.272519,34.236315],[131.272533,34.234465],[131.27085,34.232943],[131.269578,34.230438],[131.268899,34.229912],[131.268644,34.228546],[131.270398,34.226169],[131.270921,34.225643],[131.27324,34.224803],[131.276762,34.224789],[131.277738,34.224547],[131.278544,34.223807],[131.279491,34.223266],[131.281881,34.223252],[131.283819,34.2221],[131.284342,34.221317],[131.286096,34.221075],[131.287156,34.220577],[131.289461,34.220634],[131.29014,34.220406],[131.291597,34.220065],[131.293916,34.220065],[131.294789,34.221377],[131.294903,34.222793],[131.295157,34.22364],[131.295171,34.225042],[131.294966,34.225867],[131.294592,34.226778],[131.293955,34.227703],[131.293439,34.228734],[131.293481,34.229794],[131.294026,34.230876],[131.294196,34.232491],[131.294493,34.233153],[131.294973,34.233765],[131.295228,34.23454],[131.294549,34.234462],[131.29235,34.233259],[131.291827,34.233067],[131.291219,34.232562],[131.28856,34.229844],[131.287789,34.229275],[131.28687,34.229218],[131.285187,34.229624],[131.284296,34.229652],[131.282175,34.229005],[131.28028,34.228656],[131.278434,34.228628],[131.276723,34.229239],[131.275542,34.229823],[131.274934,34.230435],[131.274941,34.232242],[131.276942,34.234469],[131.277175,34.23533],[131.277105,34.236155],[131.276885,34.236988],[131.2769,34.237443],[131.279636,34.241619],[131.280004,34.241954],[131.280987,34.242053],[131.281651,34.242217],[131.282309,34.242644],[131.282917,34.244458],[131.28175,34.245746],[131.280739,34.247012],[131.280548,34.247532],[131.280534,34.248272],[131.281241,34.24909],[131.28221,34.249709],[131.284232,34.250534],[131.284664,34.250926],[131.284749,34.251402],[131.28465,34.251908],[131.284105,34.252939],[131.283532,34.253658],[131.282656,34.254405],[131.281538,34.25491],[131.280902,34.255543],[131.280414,34.256425],[131.279968,34.257016],[131.279516,34.25713],[131.278589,34.257074]]],[[[131.287575,34.270712],[131.287595,34.269979],[131.287368,34.269424],[131.287637,34.268727],[131.288047,34.268186],[131.288613,34.26682],[131.289193,34.266465],[131.289843,34.266351],[131.290282,34.267418],[131.291201,34.266934],[131.291996,34.266763],[131.291954,34.26719],[131.291784,34.26766],[131.291735,34.269972],[131.292102,34.27057],[131.292569,34.270812],[131.293368,34.271004],[131.2938,34.271609],[131.294316,34.271915],[131.295334,34.271922],[131.296006,34.272776],[131.296359,34.27274],[131.296826,34.272221],[131.296967,34.271779],[131.297682,34.271637],[131.298424,34.271794],[131.298912,34.272149],[131.299209,34.272655],[131.299584,34.273025],[131.300022,34.273039],[131.301161,34.272484],[131.301691,34.272534],[131.302377,34.27301],[131.303169,34.274348],[131.303635,34.274675],[131.304717,34.27518],[131.304951,34.275493],[131.305156,34.278268],[131.305502,34.278859],[131.307284,34.280232],[131.30773,34.280694],[131.308034,34.2812],[131.308309,34.281986],[131.307631,34.281708],[131.307037,34.281281],[131.306181,34.280413],[131.305523,34.27993],[131.304746,34.279659],[131.304399,34.279375],[131.303204,34.277326],[131.302518,34.276671],[131.301747,34.276457],[131.301054,34.276571],[131.300199,34.277112],[131.299548,34.277176],[131.299506,34.276322],[131.29923,34.275967],[131.297484,34.275461],[131.295263,34.275163],[131.29421,34.274807],[131.292923,34.274223],[131.291728,34.273341],[131.289755,34.27253],[131.288949,34.272025],[131.288624,34.271342],[131.288022,34.271121],[131.287575,34.270712]]],[[[131.31118,34.288631],[131.311679,34.289264],[131.312372,34.289307],[131.313206,34.289592],[131.314012,34.289577],[131.314507,34.289705],[131.314992,34.290147],[131.315253,34.290239],[131.315303,34.290723],[131.315996,34.291463],[131.316172,34.29194],[131.316434,34.292345],[131.318216,34.290958],[131.319779,34.290694],[131.321504,34.290125],[131.322275,34.290083],[131.322586,34.290317],[131.321964,34.291513],[131.32313,34.291363],[131.323632,34.2912],[131.324142,34.291249],[131.324439,34.291626],[131.324474,34.292253],[131.32388,34.292936],[131.322034,34.294359],[131.321186,34.29517],[131.321165,34.295483],[131.321384,34.295796],[131.322402,34.295725],[131.324142,34.295895],[131.324686,34.295525],[131.324849,34.294857],[131.325047,34.294601],[131.3254,34.294686],[131.32603,34.295255],[131.326192,34.295838],[131.326334,34.297382],[131.327055,34.297347],[131.327741,34.297681],[131.328731,34.297624],[131.329106,34.297873],[131.32907,34.298115],[131.32878,34.298564],[131.328823,34.298748],[131.328667,34.299126],[131.328787,34.299353],[131.32919,34.299367],[131.329636,34.299311],[131.329572,34.300107],[131.329735,34.300442],[131.329735,34.300862],[131.329961,34.301232],[131.330562,34.301758],[131.330548,34.302285],[131.330907,34.303179],[131.329922,34.303338],[131.328904,34.303053],[131.327773,34.302512],[131.326839,34.301915],[131.326457,34.301886],[131.325595,34.302498],[131.324704,34.302527],[131.323827,34.301815],[131.322498,34.301331],[131.320221,34.300093],[131.31957,34.300093],[131.31834,34.300335],[131.316713,34.299809],[131.315851,34.299851],[131.313316,34.2983],[131.312934,34.297752],[131.312453,34.297361],[131.310989,34.296621],[131.310509,34.29549],[131.30995,34.294935],[131.30872,34.294394],[131.308691,34.293341],[131.308847,34.292267],[131.309236,34.291527],[131.309306,34.290894],[131.310325,34.289471],[131.31118,34.288631]]],[[[131.3152,34.231964],[131.315172,34.231096],[131.315511,34.230442],[131.316247,34.22973],[131.31735,34.228848],[131.317463,34.228421],[131.317452,34.227706],[131.317958,34.22809],[131.319217,34.228489],[131.320207,34.228887],[131.32097,34.229826],[131.321451,34.231249],[131.321706,34.231662],[131.32329,34.232402],[131.325213,34.232843],[131.326839,34.232815],[131.327843,34.232317],[131.328282,34.231876],[131.328381,34.231264],[131.328635,34.231107],[131.329639,34.231591],[131.329993,34.231392],[131.330474,34.231349],[131.331068,34.23105],[131.331549,34.230509],[131.332284,34.228788],[131.332256,34.228119],[131.334094,34.226824],[131.335947,34.226924],[131.336626,34.226539],[131.33729,34.226639],[131.337729,34.226966],[131.338535,34.227094],[131.338959,34.227891],[131.338917,34.228361],[131.339185,34.22893],[131.339143,34.229385],[131.339228,34.230652],[131.339044,34.231121],[131.338814,34.231459],[131.338376,34.231815],[131.337753,34.232541],[131.335003,34.234384],[131.334586,34.235465],[131.334161,34.235764],[131.332889,34.235721],[131.332485,34.236006],[131.33163,34.235956],[131.331545,34.236141],[131.332082,34.236689],[131.332054,34.236916],[131.331884,34.236916],[131.331319,34.236468],[131.331177,34.236618],[131.331184,34.236867],[131.331382,34.237521],[131.331029,34.23824],[131.330696,34.238233],[131.330187,34.237834],[131.329212,34.237863],[131.328342,34.238019],[131.32673,34.238218],[131.325959,34.238432],[131.324325,34.239378],[131.32289,34.239158],[131.321504,34.239094],[131.320443,34.239215],[131.319475,34.239186],[131.318032,34.238809],[131.317233,34.238724],[131.316515,34.238439],[131.3152,34.231964]]],[[[131.317382,34.275849],[131.317926,34.27597],[131.318053,34.27639],[131.31823,34.276582],[131.318393,34.277165],[131.319152,34.277294],[131.319142,34.277777],[131.31806,34.277735],[131.317509,34.277386],[131.317233,34.276788],[131.317226,34.27612],[131.317382,34.275849]]],[[[131.31997,34.273523],[131.321568,34.272975],[131.323399,34.272797],[131.324743,34.272519],[131.326362,34.272612],[131.328342,34.273039],[131.328738,34.272619],[131.328809,34.272256],[131.328292,34.271239],[131.328193,34.270477],[131.328045,34.269979],[131.327663,34.269773],[131.325238,34.26909],[131.324615,34.268272],[131.324403,34.267518],[131.323625,34.266842],[131.323604,34.266273],[131.323873,34.26554],[131.324303,34.264872],[131.325054,34.266383],[131.325669,34.266788],[131.326185,34.266959],[131.326694,34.266952],[131.327529,34.266554],[131.328717,34.266461],[131.329183,34.266326],[131.330032,34.266354],[131.331241,34.267229],[131.33204,34.267514],[131.335144,34.267358],[131.335448,34.267258],[131.339005,34.267358],[131.340108,34.268019],[131.340518,34.268553],[131.340836,34.268681],[131.341063,34.268531],[131.34119,34.26819],[131.340907,34.267123],[131.341105,34.266852],[131.342215,34.266803],[131.342647,34.266625],[131.343439,34.26661],[131.343729,34.266803],[131.343891,34.267087],[131.34317,34.268062],[131.343028,34.268816],[131.342809,34.269428],[131.342477,34.269962],[131.34131,34.27068],[131.341084,34.271399],[131.340829,34.271868],[131.339691,34.273149],[131.338991,34.273782],[131.33735,34.274586],[131.337223,34.274942],[131.337216,34.275319],[131.337541,34.275639],[131.337959,34.275838],[131.339281,34.276009],[131.339818,34.276472],[131.340426,34.276707],[131.340504,34.277333],[131.340815,34.277468],[131.340886,34.277952],[131.341126,34.278186],[131.341904,34.278673],[131.33991,34.280207],[131.33962,34.280883],[131.339691,34.281367],[131.339376,34.281591],[131.337326,34.281875],[131.336661,34.281776],[131.334653,34.280794],[131.332814,34.278531],[131.332874,34.277962],[131.332811,34.277471],[131.332429,34.277244],[131.33187,34.277158],[131.331991,34.276596],[131.331991,34.276148],[131.330732,34.276184],[131.330209,34.275863],[131.330039,34.275515],[131.329431,34.275088],[131.328816,34.274832],[131.325627,34.275059],[131.322975,34.2756],[131.322536,34.275778],[131.321752,34.275785],[131.320026,34.27671],[131.319545,34.276034],[131.31997,34.273523]]],[[[131.327034,34.283722],[131.325414,34.285671],[131.323159,34.287784],[131.322395,34.288233],[131.321235,34.288354],[131.320224,34.28883],[131.31934,34.289015],[131.318025,34.288852],[131.317099,34.289008],[131.318209,34.288304],[131.318817,34.288062],[131.319284,34.287656],[131.319793,34.287478],[131.320549,34.287116],[131.321299,34.286532],[131.322013,34.285778],[131.322706,34.285259],[131.323236,34.284668],[131.323625,34.282953],[131.323753,34.281566],[131.324064,34.280449],[131.323958,34.27973],[131.323717,34.278663],[131.323456,34.278272],[131.322904,34.27803],[131.321582,34.277802],[131.322579,34.277297],[131.325266,34.277183],[131.326694,34.276628],[131.3275,34.276635],[131.328263,34.277457],[131.327854,34.277966],[131.327826,34.278421],[131.32791,34.27877],[131.328243,34.279183],[131.328413,34.27956],[131.328264,34.279866],[131.327727,34.280314],[131.327804,34.281224],[131.327571,34.281616],[131.327027,34.2821],[131.325478,34.282697],[131.325655,34.283081],[131.32598,34.28338],[131.326807,34.28358],[131.327034,34.283722]]],[[[131.327246,34.288261],[131.327748,34.28745],[131.328533,34.286852],[131.328915,34.286817],[131.329445,34.287052],[131.32994,34.286945],[131.330138,34.286603],[131.330244,34.285935],[131.332507,34.283871],[131.333207,34.283999],[131.33279,34.285252],[131.332683,34.286098],[131.332832,34.286682],[131.33327,34.286696],[131.333765,34.286312],[131.333963,34.285913],[131.333985,34.285052],[131.334571,34.284391],[131.334678,34.283914],[131.334303,34.282719],[131.334579,34.282498],[131.335088,34.282455],[131.33706,34.283266],[131.338058,34.283266],[131.338644,34.283174],[131.339411,34.283286],[131.339083,34.284284],[131.338347,34.28735],[131.337796,34.289136],[131.337159,34.290196],[131.336566,34.291434],[131.335682,34.294465],[131.335475,34.295437],[131.335469,34.294785],[131.335328,34.294216],[131.335158,34.293128],[131.335187,34.292466],[131.335986,34.291192],[131.336063,34.289762],[131.335738,34.289022],[131.335003,34.288524],[131.334006,34.288418],[131.333009,34.287977],[131.332217,34.287898],[131.331326,34.288325],[131.330569,34.288339],[131.329692,34.288076],[131.328292,34.287998],[131.327246,34.288261]]],[[[131.331964,34.29616],[131.332372,34.296273],[131.333504,34.296714],[131.334331,34.296514],[131.335003,34.29608],[131.335475,34.295437],[131.33525,34.296358],[131.334515,34.297589],[131.334301,34.298067],[131.332846,34.297347],[131.33233,34.29692],[131.331964,34.29616]]],[[[131.315253,34.290239],[131.316314,34.290246],[131.317891,34.289684],[131.320055,34.289798],[131.321511,34.289172],[131.322947,34.288852],[131.324184,34.288119],[131.324778,34.287578],[131.324976,34.287607],[131.32557,34.28903],[131.326107,34.289713],[131.326574,34.289997],[131.326723,34.290424],[131.326723,34.294373],[131.327055,34.295113],[131.327317,34.29591],[131.327953,34.296472],[131.328575,34.296465],[131.329431,34.296045],[131.330173,34.295938],[131.331389,34.296002],[131.331964,34.29616],[131.33233,34.29692],[131.332846,34.297347],[131.334301,34.298067],[131.334112,34.298492],[131.33327,34.299474],[131.332408,34.300677],[131.331658,34.301609],[131.330673,34.30262],[131.330548,34.302285],[131.330562,34.301758],[131.329961,34.301232],[131.329735,34.300862],[131.329735,34.300442],[131.329572,34.300107],[131.329636,34.299311],[131.32919,34.299367],[131.328787,34.299353],[131.328667,34.299126],[131.328823,34.298748],[131.32878,34.298564],[131.32907,34.298115],[131.329106,34.297873],[131.328731,34.297624],[131.327741,34.297681],[131.327055,34.297347],[131.326334,34.297382],[131.326192,34.295838],[131.32603,34.295255],[131.3254,34.294686],[131.325047,34.294601],[131.324849,34.294857],[131.324686,34.295525],[131.324142,34.295895],[131.322402,34.295725],[131.321384,34.295796],[131.321165,34.295483],[131.321186,34.29517],[131.322034,34.294359],[131.32388,34.292936],[131.324474,34.292253],[131.324439,34.291626],[131.324142,34.291249],[131.323632,34.2912],[131.32313,34.291363],[131.321964,34.291513],[131.322586,34.290317],[131.322275,34.290083],[131.321504,34.290125],[131.319779,34.290694],[131.318216,34.290958],[131.316434,34.292345],[131.316172,34.29194],[131.315996,34.291463],[131.315303,34.290723],[131.315253,34.290239]]],[[[131.319142,34.277777],[131.319156,34.277073],[131.320026,34.27671],[131.321752,34.275785],[131.322536,34.275778],[131.322975,34.2756],[131.325627,34.275059],[131.328816,34.274832],[131.329431,34.275088],[131.330039,34.275515],[131.330209,34.275863],[131.330732,34.276184],[131.331991,34.276148],[131.331991,34.276596],[131.33187,34.277158],[131.332429,34.277244],[131.332811,34.277471],[131.332874,34.277962],[131.332814,34.278531],[131.332019,34.278247],[131.329869,34.277671],[131.329134,34.277194],[131.327769,34.275999],[131.326723,34.275906],[131.325018,34.276511],[131.324219,34.27661],[131.322374,34.276653],[131.321469,34.276938],[131.320535,34.277685],[131.319142,34.277777]]],[[[131.324303,34.264872],[131.323682,34.26353],[131.323647,34.262327],[131.32475,34.261047],[131.325478,34.260342],[131.32702,34.259424],[131.328257,34.25946],[131.32866,34.259311],[131.329325,34.259531],[131.329862,34.259638],[131.330548,34.259524],[131.331425,34.259005],[131.333299,34.259026],[131.334168,34.258357],[131.334713,34.258371],[131.335724,34.258998],[131.336035,34.259026],[131.336523,34.258877],[131.339726,34.259147],[131.339953,34.25899],[131.339953,34.257212],[131.339542,34.256699],[131.3395,34.256102],[131.340165,34.2548],[131.340165,34.254138],[131.339804,34.25359],[131.339352,34.253298],[131.336933,34.253405],[131.336212,34.253028],[131.335024,34.253064],[131.334034,34.253562],[131.33327,34.253512],[131.332896,34.252936],[131.332287,34.251534],[131.334762,34.251036],[131.336191,34.25083],[131.338644,34.250147],[131.33996,34.249442],[131.341699,34.248823],[131.342541,34.248062],[131.343531,34.246959],[131.344619,34.248105],[131.344605,34.249805],[131.34481,34.251],[131.345666,34.25179],[131.345963,34.25369],[131.346875,34.255049],[131.34742,34.255404],[131.347801,34.255988],[131.348558,34.256892],[131.349414,34.257582],[131.350404,34.257902],[131.351167,34.258713],[131.351627,34.259062],[131.352737,34.25941],[131.353812,34.260805],[131.353861,34.261395],[131.35401,34.261723],[131.354321,34.26205],[131.354738,34.262776],[131.354816,34.263772],[131.355007,34.264341],[131.352567,34.266034],[131.350092,34.268005],[131.349824,34.268375],[131.349605,34.270211],[131.348254,34.272004],[131.344775,34.276223],[131.344379,34.276835],[131.341904,34.278673],[131.341126,34.278186],[131.340886,34.277952],[131.340815,34.277468],[131.340504,34.277333],[131.340426,34.276707],[131.339818,34.276472],[131.339281,34.276009],[131.337959,34.275838],[131.337541,34.275639],[131.337216,34.275319],[131.337223,34.274942],[131.33735,34.274586],[131.338991,34.273782],[131.339691,34.273149],[131.340829,34.271868],[131.341084,34.271399],[131.34131,34.27068],[131.342477,34.269962],[131.342809,34.269428],[131.343028,34.268816],[131.34317,34.268062],[131.343891,34.267087],[131.343729,34.266803],[131.343439,34.26661],[131.342647,34.266625],[131.342215,34.266803],[131.341105,34.266852],[131.340907,34.267123],[131.34119,34.26819],[131.341063,34.268531],[131.340836,34.268681],[131.340518,34.268553],[131.340108,34.268019],[131.339005,34.267358],[131.335448,34.267258],[131.335144,34.267358],[131.33204,34.267514],[131.331241,34.267229],[131.330032,34.266354],[131.329183,34.266326],[131.328717,34.266461],[131.327529,34.266554],[131.326694,34.266952],[131.326185,34.266959],[131.325669,34.266788],[131.325054,34.266383],[131.324303,34.264872]]],[[[131.324325,34.239378],[131.325959,34.238432],[131.32673,34.238218],[131.328342,34.238019],[131.329212,34.237863],[131.330187,34.237834],[131.330696,34.238233],[131.331029,34.23824],[131.331382,34.237521],[131.331184,34.236867],[131.331177,34.236618],[131.331319,34.236468],[131.331884,34.236916],[131.332054,34.236916],[131.332082,34.236689],[131.331545,34.236141],[131.33163,34.235956],[131.332485,34.236006],[131.332889,34.235721],[131.334161,34.235764],[131.334586,34.235465],[131.335003,34.234384],[131.337753,34.232541],[131.338376,34.231815],[131.338814,34.231459],[131.339429,34.231744],[131.339514,34.232299],[131.340115,34.233878],[131.340646,34.234796],[131.340943,34.235501],[131.340681,34.236191],[131.340759,34.236831],[131.341042,34.237514],[131.341494,34.238133],[131.342307,34.238553],[131.343665,34.239022],[131.344393,34.239435],[131.344888,34.239997],[131.344718,34.24026],[131.344011,34.240929],[131.34382,34.24142],[131.34334,34.241868],[131.342845,34.242459],[131.342229,34.244643],[131.342244,34.245753],[131.342753,34.246073],[131.342979,34.246472],[131.341254,34.2483],[131.340412,34.248499],[131.338114,34.249524],[131.33583,34.250228],[131.335017,34.250115],[131.334331,34.250335],[131.33327,34.250549],[131.331559,34.250648],[131.330499,34.250356],[131.329374,34.249752],[131.327635,34.248955],[131.326631,34.247916],[131.325421,34.246002],[131.324849,34.244351],[131.324396,34.242267],[131.325874,34.241762],[131.325888,34.241249],[131.325096,34.240758],[131.324325,34.239378]]],[[[131.326609,34.28883],[131.32586,34.287429],[131.326178,34.286326],[131.328441,34.283316],[131.329912,34.282875],[131.330477,34.282434],[131.330937,34.28173],[131.331488,34.281388],[131.332577,34.28116],[131.333292,34.281239],[131.336771,34.282612],[131.337888,34.282583],[131.339613,34.282334],[131.339411,34.283286],[131.338644,34.283174],[131.338058,34.283266],[131.33706,34.283266],[131.335088,34.282455],[131.334579,34.282498],[131.334303,34.282719],[131.334678,34.283914],[131.334571,34.284391],[131.333985,34.285052],[131.333963,34.285913],[131.333765,34.286312],[131.33327,34.286696],[131.332832,34.286682],[131.332683,34.286098],[131.33279,34.285252],[131.333207,34.283999],[131.332507,34.283871],[131.330244,34.285935],[131.330138,34.286603],[131.32994,34.286945],[131.329445,34.287052],[131.328915,34.286817],[131.328533,34.286852],[131.327748,34.28745],[131.327246,34.288261],[131.326609,34.28883]]],[[[131.327034,34.283722],[131.326807,34.28358],[131.32598,34.28338],[131.325655,34.283081],[131.325478,34.282697],[131.327027,34.2821],[131.327571,34.281616],[131.327804,34.281224],[131.327727,34.280314],[131.328264,34.279866],[131.328413,34.27956],[131.328243,34.279183],[131.32791,34.27877],[131.327826,34.278421],[131.327854,34.277966],[131.328263,34.277457],[131.329056,34.278222],[131.330074,34.278585],[131.33158,34.278983],[131.332118,34.27919],[131.33327,34.280406],[131.331877,34.280413],[131.331015,34.280641],[131.330286,34.281217],[131.329947,34.281915],[131.329318,34.282391],[131.328278,34.282541],[131.327437,34.282932],[131.327309,34.283295],[131.327034,34.283722]]]]}}]}
