{"type":"FeatureCollection","features":[{"type":"Feature","properties":{"potaRef":"JP-1712","nameJa":"Sefurihokuzan","nameEn":"Sefuri Hokusan Prefectural Nature Park","authority":"環境省 生物多様性「見える化」マップ","boundaryStatus":"全国GIS候補・公開前検証待ち","boundarySource":"環境省 生物多様性「見える化」マップの自然公園区域を、POTA代表座標で一意に空間照合して加工","boundaryScaleNote":"区域は概要データであり、正確性は保証されない。POTA運用可否は公式情報で最終確認すること。","candidateMethod":"POTA representative point inside one public natural-park area","sourceParkKind":"都道府県立自然公園","sourceName":"Sefurihokuzan","sourceFeatureCount":1,"cautionMeters":75},"geometry":{"type":"MultiPolygon","coordinates":[[[[130.204265,33.481327],[130.203884,33.481573],[130.203816,33.481545],[130.203537,33.480919],[130.203332,33.480747],[130.202646,33.480431],[130.202286,33.480328],[130.201735,33.480041],[130.201584,33.480041],[130.201088,33.480396],[130.200681,33.480535],[130.200338,33.480561],[130.199918,33.480663],[130.198801,33.481178],[130.198523,33.481172],[130.197929,33.480529],[130.197929,33.480374],[130.198179,33.480037],[130.198191,33.479899],[130.197994,33.479542],[130.197955,33.479344],[130.198732,33.478419],[130.19909,33.478141],[130.198734,33.47752],[130.198488,33.477299],[130.198253,33.477272],[130.197431,33.477524],[130.196143,33.478066],[130.19597,33.478085],[130.195779,33.477907],[130.195457,33.477194],[130.19495,33.476485],[130.194694,33.476197],[130.194531,33.476109],[130.193698,33.476185],[130.192916,33.476054],[130.192527,33.476104],[130.192286,33.476212],[130.192005,33.476434],[130.191847,33.476485],[130.191519,33.476428],[130.191089,33.476292],[130.190893,33.476125],[130.190793,33.475798],[130.190612,33.475602],[130.190306,33.475431],[130.189233,33.475123],[130.188789,33.474892],[130.18867,33.474704],[130.188566,33.473954],[130.188663,33.473128],[130.188419,33.472511],[130.188608,33.471556],[130.188857,33.47119],[130.188853,33.470959],[130.188781,33.470874],[130.18863,33.470824],[130.187614,33.471084],[130.187267,33.471084],[130.186883,33.471011],[130.18653,33.470836],[130.186387,33.47064],[130.186506,33.468727],[130.186474,33.46847],[130.186232,33.468248],[130.185859,33.468059],[130.185212,33.467858],[130.184302,33.467357],[130.183906,33.467253],[130.183154,33.466768],[130.182799,33.466648],[130.181828,33.466485],[130.18062,33.466332],[130.179245,33.466299],[130.178864,33.466387],[130.178263,33.466657],[130.177679,33.46668],[130.17673,33.46634],[130.176203,33.465989],[130.176052,33.465917],[130.175935,33.465923],[130.17582,33.466158],[130.175797,33.466417],[130.175667,33.466631],[130.175279,33.467105],[130.175034,33.467303],[130.17483,33.467386],[130.17387,33.467356],[130.172863,33.467387],[130.17247,33.467354],[130.172149,33.467196],[130.172028,33.46719],[130.171246,33.467561],[130.170895,33.46764],[130.169811,33.467676],[130.168852,33.467621],[130.168637,33.467703],[130.167802,33.46822],[130.166714,33.46873],[130.165818,33.469035],[130.165358,33.469145],[130.164861,33.46918],[130.164617,33.469333],[130.164414,33.46958],[130.164233,33.469994],[130.164176,33.470259],[130.164187,33.470531],[130.164421,33.471008],[130.164423,33.471284],[130.163929,33.472346],[130.163813,33.472396],[130.162906,33.472426],[130.162563,33.472492],[130.162242,33.472711],[130.161999,33.473015],[130.161511,33.473839],[130.161231,33.474164],[130.159965,33.474931],[130.159518,33.47547],[130.159126,33.475739],[130.158718,33.47584],[130.158475,33.475756],[130.158038,33.475481],[130.157842,33.475472],[130.157695,33.475522],[130.15732,33.475991],[130.15715,33.476393],[130.156988,33.476598],[130.156767,33.476722],[130.156401,33.476779],[130.156021,33.476754],[130.155427,33.476478],[130.155265,33.476465],[130.154948,33.476494],[130.154499,33.476677],[130.153936,33.476602],[130.15343,33.476641],[130.152488,33.477029],[130.15212,33.477027],[130.151622,33.476936],[130.151445,33.476993],[130.150821,33.477617],[130.150059,33.477427],[130.148809,33.477337],[130.148583,33.477397],[130.148497,33.47729],[130.148434,33.476751],[130.148331,33.476332],[130.147952,33.475803],[130.147669,33.475541],[130.146928,33.475167],[130.146439,33.474783],[130.145953,33.474483],[130.145686,33.474385],[130.144485,33.474175],[130.143998,33.474206],[130.142997,33.474461],[130.142771,33.474454],[130.142545,33.474312],[130.142241,33.473894],[130.1422,33.473647],[130.141934,33.473108],[130.1414,33.4725],[130.141172,33.472056],[130.14098,33.471873],[130.140695,33.471729],[130.139847,33.471474],[130.139724,33.47133],[130.139413,33.470706],[130.139298,33.470578],[130.138966,33.470398],[130.138801,33.470436],[130.137858,33.471333],[130.137514,33.47157],[130.137106,33.471692],[130.135588,33.472454],[130.135254,33.472459],[130.134832,33.472368],[130.134666,33.472424],[130.132539,33.473464],[130.13221,33.474056],[130.131949,33.474337],[130.131667,33.474473],[130.130545,33.47462],[130.130353,33.474727],[130.130132,33.474982],[130.12974,33.475554],[130.129559,33.475626],[130.129086,33.47552],[130.127798,33.475414],[130.12704,33.475449],[130.126463,33.475784],[130.126035,33.475909],[130.124465,33.475775],[130.123175,33.475494],[130.122501,33.475466],[130.121854,33.475336],[130.121381,33.475421],[130.120372,33.475835],[130.120085,33.47587],[130.119558,33.47584],[130.118869,33.475659],[130.118258,33.475177],[130.117995,33.475062],[130.117639,33.475054],[130.117255,33.475135],[130.11598,33.474984],[130.114204,33.475297],[130.113863,33.475197],[130.113576,33.475192],[130.112351,33.475521],[130.111908,33.475591],[130.111351,33.475591],[130.110747,33.475726],[130.109289,33.476166],[130.109121,33.476291],[130.108929,33.476567],[130.10828,33.477151],[130.108094,33.477502],[130.107903,33.477718],[130.107705,33.477798],[130.106926,33.477829],[130.106553,33.477676],[130.106313,33.47745],[130.105759,33.476399],[130.105633,33.476203],[130.105418,33.476047],[130.104855,33.475892],[130.10419,33.476067],[130.10313,33.475887],[130.102993,33.475621],[130.103037,33.475367],[130.102828,33.475041],[130.10275,33.474831],[130.102645,33.473579],[130.102481,33.472814],[130.102034,33.471738],[130.101429,33.471191],[130.100924,33.470867],[130.098965,33.469944],[130.098417,33.469841],[130.097681,33.469861],[130.096765,33.469766],[130.094846,33.469282],[130.094313,33.469226],[130.093658,33.468943],[130.092946,33.468953],[130.091964,33.469068],[130.090907,33.468635],[130.089877,33.468498],[130.089414,33.468525],[130.088921,33.468674],[130.088564,33.468927],[130.087422,33.46943],[130.087083,33.469454],[130.086527,33.469373],[130.086246,33.46942],[130.085929,33.469681],[130.085806,33.469708],[130.085369,33.469578],[130.084657,33.469257],[130.084088,33.469196],[130.083807,33.469206],[130.083412,33.469502],[130.083274,33.469517],[130.083121,33.469435],[130.082816,33.469104],[130.082499,33.469089],[130.082116,33.469194],[130.081828,33.469194],[130.081355,33.468858],[130.080912,33.468838],[130.080622,33.46868],[130.079903,33.468469],[130.079473,33.468429],[130.079167,33.468494],[130.078939,33.468619],[130.078724,33.469347],[130.078623,33.469417],[130.078503,33.469427],[130.078173,33.469387],[130.077746,33.469645],[130.077754,33.468165],[130.077612,33.466145],[130.077704,33.465274],[130.077681,33.464465],[130.078072,33.464424],[130.07839,33.46469],[130.078577,33.464927],[130.078671,33.464958],[130.078945,33.464945],[130.0793,33.465095],[130.079591,33.465045],[130.079747,33.465065],[130.079812,33.465362],[130.07996,33.465478],[130.080062,33.465682],[130.080277,33.465885],[130.080418,33.46612],[130.080639,33.466232],[130.080877,33.466257],[130.081375,33.466421],[130.081495,33.466394],[130.081823,33.466188],[130.082234,33.466041],[130.082444,33.465888],[130.082873,33.465364],[130.083198,33.465301],[130.083454,33.465162],[130.083774,33.464627],[130.083902,33.46452],[130.084311,33.464529],[130.084396,33.464634],[130.084318,33.465077],[130.084441,33.465219],[130.084662,33.46526],[130.08484,33.465168],[130.084919,33.464874],[130.08502,33.464781],[130.085438,33.464581],[130.085536,33.464622],[130.08569,33.464569],[130.085917,33.464097],[130.086334,33.463974],[130.086719,33.463944],[130.087724,33.463661],[130.088988,33.46322],[130.089545,33.463207],[130.090825,33.463293],[130.093132,33.463553],[130.09445,33.463635],[130.095831,33.463635],[130.096278,33.463576],[130.096543,33.463503],[130.096631,33.46342],[130.096809,33.463396],[130.097,33.46344],[130.097126,33.463374],[130.09734,33.462702],[130.097621,33.46228],[130.097626,33.462092],[130.097675,33.462007],[130.097771,33.461916],[130.098263,33.46176],[130.098338,33.461698],[130.098533,33.461318],[130.098801,33.461111],[130.098856,33.461],[130.09888,33.460328],[130.098732,33.460247],[130.098286,33.460242],[130.098035,33.460163],[130.097922,33.459907],[130.098034,33.459685],[130.098432,33.459363],[130.098677,33.459107],[130.098744,33.458956],[130.098797,33.458479],[130.098558,33.457823],[130.098889,33.458157],[130.099075,33.458123],[130.099111,33.458043],[130.098985,33.457371],[130.09902,33.456814],[130.098988,33.456735],[130.098905,33.456699],[130.098572,33.456742],[130.098512,33.456671],[130.098466,33.45647],[130.09809,33.456328],[130.098072,33.456232],[130.098171,33.456151],[130.098281,33.456142],[130.098659,33.456263],[130.09914,33.456272],[130.099216,33.456199],[130.099227,33.456107],[130.099137,33.455699],[130.099256,33.455579],[130.100036,33.45568],[130.100421,33.455634],[130.100563,33.455473],[130.100565,33.455386],[130.100547,33.455314],[130.100357,33.45512],[130.100299,33.454865],[130.10033,33.454727],[130.100574,33.454418],[130.100848,33.454352],[130.101257,33.454352],[130.101372,33.454403],[130.101453,33.454563],[130.101337,33.455138],[130.101623,33.45519],[130.101816,33.455347],[130.102131,33.455433],[130.102527,33.456083],[130.102609,33.456299],[130.102598,33.456498],[130.102406,33.457315],[130.102468,33.457617],[130.103002,33.458479],[130.103748,33.459137],[130.104179,33.459426],[130.104365,33.459486],[130.105588,33.459445],[130.106076,33.459585],[130.106382,33.459716],[130.106947,33.460289],[130.107199,33.46042],[130.107685,33.460532],[130.108236,33.460534],[130.108307,33.460639],[130.108236,33.460815],[130.107991,33.461059],[130.107681,33.461547],[130.107252,33.461842],[130.107184,33.462054],[130.106888,33.462414],[130.106859,33.462664],[130.106746,33.462882],[130.106766,33.463098],[130.107008,33.463591],[130.107252,33.463864],[130.10774,33.464158],[130.108207,33.464214],[130.108437,33.464288],[130.108511,33.464359],[130.108538,33.464569],[130.108419,33.465168],[130.108507,33.465348],[130.108852,33.465756],[130.108904,33.466335],[130.108842,33.467013],[130.108604,33.468042],[130.108652,33.468307],[130.108602,33.468402],[130.108317,33.468601],[130.108183,33.468779],[130.108192,33.469155],[130.108478,33.46964],[130.109187,33.470237],[130.109596,33.470786],[130.110603,33.471246],[130.111074,33.471298],[130.1113,33.471251],[130.111595,33.470983],[130.112016,33.470698],[130.112765,33.470484],[130.113254,33.470457],[130.113369,33.470399],[130.113871,33.469904],[130.114134,33.469757],[130.11464,33.469605],[130.115132,33.469556],[130.116099,33.469199],[130.116993,33.469016],[130.117661,33.469013],[130.118092,33.468876],[130.118317,33.468709],[130.119338,33.467633],[130.120092,33.4675],[130.120527,33.467325],[130.121008,33.466976],[130.121157,33.466932],[130.121485,33.466929],[130.121773,33.467031],[130.122096,33.466978],[130.122823,33.466443],[130.12317,33.466067],[130.123876,33.465752],[130.124578,33.465047],[130.124728,33.464955],[130.125208,33.465015],[130.12575,33.465276],[130.126224,33.465209],[130.126654,33.465379],[130.126981,33.465323],[130.127434,33.465429],[130.127912,33.465366],[130.128257,33.465392],[130.128512,33.465564],[130.128683,33.465832],[130.128727,33.466543],[130.128825,33.466957],[130.128987,33.467079],[130.129097,33.467091],[130.129411,33.466997],[130.129546,33.466858],[130.129575,33.466636],[130.129529,33.466376],[130.12958,33.466162],[130.129788,33.465715],[130.130301,33.465485],[130.130507,33.465468],[130.130857,33.46555],[130.131136,33.46552],[130.131378,33.465403],[130.131604,33.464895],[130.131455,33.464717],[130.131409,33.464483],[130.131249,33.464251],[130.131303,33.463976],[130.131998,33.463496],[130.132126,33.463368],[130.1324,33.462917],[130.132569,33.46276],[130.132753,33.462634],[130.133094,33.462589],[130.133169,33.462539],[130.133127,33.462032],[130.133055,33.462003],[130.132863,33.462061],[130.132705,33.461911],[130.132673,33.461797],[130.132749,33.461368],[130.132873,33.461163],[130.133344,33.460802],[130.133784,33.460591],[130.13423,33.460481],[130.1345,33.460502],[130.135523,33.460807],[130.135862,33.460828],[130.137507,33.460665],[130.139178,33.460775],[130.139509,33.460718],[130.139863,33.460527],[130.140585,33.459935],[130.140861,33.459681],[130.141165,33.459218],[130.14197,33.458867],[130.142254,33.458267],[130.142978,33.458177],[130.143054,33.458101],[130.143114,33.457757],[130.143207,33.457557],[130.143746,33.457278],[130.144024,33.457042],[130.14492,33.456767],[130.145229,33.456573],[130.14585,33.456651],[130.146271,33.456428],[130.146684,33.456346],[130.14756,33.455697],[130.14896,33.455076],[130.149212,33.455101],[130.149648,33.455273],[130.149743,33.455264],[130.150083,33.454828],[130.150282,33.454705],[130.150547,33.454439],[130.151033,33.454357],[130.151332,33.454002],[130.151425,33.453951],[130.152176,33.453757],[130.152477,33.45332],[130.152582,33.452908],[130.153022,33.452525],[130.153371,33.452381],[130.153855,33.452293],[130.153945,33.45223],[130.15424,33.451645],[130.154794,33.451045],[130.155025,33.450945],[130.155461,33.451004],[130.155593,33.450959],[130.155695,33.450858],[130.155736,33.450737],[130.155613,33.450289],[130.155604,33.45],[130.155708,33.450046],[130.156077,33.450513],[130.156869,33.451132],[130.157379,33.451652],[130.157961,33.453404],[130.158181,33.453812],[130.158346,33.453996],[130.158824,33.45418],[130.159311,33.454516],[130.160653,33.45622],[130.160912,33.456358],[130.161933,33.456504],[130.16216,33.456589],[130.162357,33.456807],[130.162608,33.457221],[130.162986,33.457962],[130.163466,33.458419],[130.164397,33.459175],[130.164502,33.459208],[130.166381,33.459126],[130.167229,33.458709],[130.167652,33.45838],[130.167998,33.457953],[130.168363,33.457393],[130.168732,33.456629],[130.169038,33.455735],[130.169242,33.455498],[130.16992,33.454923],[130.170752,33.45445],[130.171701,33.454114],[130.17229,33.453969],[130.172792,33.453917],[130.173365,33.45393],[130.173883,33.454114],[130.17488,33.454745],[130.175272,33.454877],[130.17601,33.454976],[130.177535,33.454679],[130.178028,33.454653],[130.17868,33.454318],[130.179274,33.4542],[130.180019,33.454305],[130.180412,33.454568],[130.180804,33.45497],[130.18128,33.455649],[130.181743,33.456195],[130.182104,33.456458],[130.182732,33.456774],[130.183454,33.457109],[130.184616,33.45751],[130.186382,33.457747],[130.188089,33.458282],[130.188528,33.458361],[130.190066,33.458401],[130.190753,33.458495],[130.191019,33.458617],[130.191416,33.45865],[130.193221,33.458374],[130.193959,33.458177],[130.194313,33.458144],[130.194698,33.45817],[130.195741,33.458512],[130.197021,33.45869],[130.197546,33.458907],[130.197751,33.459124],[130.1979,33.459493],[130.197981,33.459844],[130.198083,33.461265],[130.198193,33.461824],[130.198507,33.462475],[130.198808,33.462925],[130.199082,33.463168],[130.199302,33.463234],[130.199585,33.463228],[130.200212,33.463096],[130.199937,33.463859],[130.19989,33.464162],[130.199972,33.465617],[130.199768,33.466282],[130.199407,33.466795],[130.199399,33.467953],[130.199461,33.468255],[130.200316,33.469297],[130.200379,33.469514],[130.200287,33.469811],[130.199801,33.470351],[130.199746,33.470575],[130.199824,33.470772],[130.200122,33.47118],[130.200279,33.471752],[130.200444,33.471923],[130.200727,33.472022],[130.200927,33.472406],[130.200896,33.472498],[130.200762,33.472597],[130.200024,33.472478],[130.19982,33.472551],[130.199789,33.472676],[130.20044,33.472939],[130.200527,33.473051],[130.200731,33.473708],[130.2011,33.474176],[130.20121,33.474248],[130.201445,33.474294],[130.201547,33.474222],[130.201508,33.473728],[130.201618,33.473452],[130.201728,33.473366],[130.201924,33.47334],[130.202601,33.473564],[130.202742,33.473761],[130.202789,33.474195],[130.202727,33.474636],[130.202491,33.475189],[130.202499,33.47538],[130.202617,33.47559],[130.203127,33.476008],[130.203276,33.476258],[130.203425,33.476659],[130.203716,33.476977],[130.204346,33.477244],[130.204902,33.477234],[130.206065,33.476649],[130.206791,33.476496],[130.206922,33.476427],[130.207252,33.476096],[130.207522,33.475946],[130.20829,33.475324],[130.209504,33.474834],[130.210336,33.474374],[130.212071,33.473558],[130.213199,33.472575],[130.213646,33.472312],[130.214941,33.471885],[130.21542,33.471681],[130.21586,33.471398],[130.216362,33.470931],[130.216786,33.470312],[130.217916,33.469508],[130.218504,33.469185],[130.21925,33.468909],[130.223525,33.467605],[130.224867,33.467362],[130.225464,33.467197],[130.226076,33.466901],[130.22743,33.465965],[130.227799,33.465807],[130.22834,33.46584],[130.22885,33.466096],[130.23044,33.467157],[130.231099,33.46744],[130.232245,33.467796],[130.232473,33.467809],[130.233525,33.467611],[130.236397,33.467763],[130.238419,33.467733],[130.239744,33.46758],[130.240485,33.467328],[130.241041,33.466984],[130.241512,33.46639],[130.241694,33.4659],[130.241855,33.465251],[130.242037,33.463394],[130.241885,33.460796],[130.242017,33.459601],[130.242237,33.458857],[130.24278,33.457769],[130.24307,33.457302],[130.243792,33.456631],[130.2442,33.456361],[130.247241,33.454807],[130.248567,33.454399],[130.249595,33.454175],[130.250666,33.453877],[130.251992,33.453397],[130.252361,33.453166],[130.252713,33.452863],[130.253066,33.452415],[130.253372,33.451928],[130.253427,33.451928],[130.254228,33.452955],[130.255155,33.454029],[130.256356,33.455016],[130.257482,33.455732],[130.257845,33.456356],[130.257992,33.4565],[130.258279,33.456617],[130.258488,33.456617],[130.258829,33.456541],[130.259298,33.456336],[130.259624,33.456358],[130.260098,33.45644],[130.260781,33.456934],[130.261019,33.457279],[130.261126,33.457585],[130.261343,33.457894],[130.26143,33.458177],[130.261406,33.45944],[130.261031,33.460256],[130.262165,33.460195],[130.262524,33.460077],[130.263216,33.45967],[130.263802,33.4594],[130.264404,33.45896],[130.264921,33.458692],[130.265163,33.458418],[130.265369,33.458333],[130.265716,33.458376],[130.265829,33.458453],[130.265864,33.458587],[130.265777,33.458923],[130.265917,33.459347],[130.265996,33.459446],[130.266127,33.45947],[130.266239,33.459435],[130.266428,33.459291],[130.266606,33.459046],[130.266606,33.458926],[130.266481,33.458642],[130.266515,33.458549],[130.266817,33.458399],[130.267006,33.458039],[130.267437,33.457933],[130.267804,33.457776],[130.268628,33.457734],[130.269026,33.457472],[130.269713,33.457436],[130.270159,33.45707],[130.270346,33.45701],[130.270918,33.45696],[130.271145,33.456848],[130.271465,33.45679],[130.271633,33.456629],[130.272221,33.456483],[130.272557,33.456519],[130.272801,33.456454],[130.272979,33.456493],[130.273082,33.457077],[130.275531,33.457755],[130.27619,33.457084],[130.276677,33.456498],[130.277085,33.45588],[130.277446,33.455183],[130.277702,33.454528],[130.27782,33.45393],[130.277851,33.45341],[130.278008,33.452903],[130.278283,33.452601],[130.278691,33.452324],[130.279083,33.452246],[130.280402,33.452153],[130.280739,33.452068],[130.281841,33.451553],[130.28228,33.451428],[130.282696,33.451395],[130.283653,33.451685],[130.283979,33.45173],[130.284368,33.451685],[130.284815,33.451553],[130.285718,33.451007],[130.286353,33.450415],[130.286667,33.450185],[130.287502,33.449838],[130.287813,33.449754],[130.290128,33.449704],[130.29234,33.449782],[130.29296,33.449703],[130.293604,33.449459],[130.295103,33.448782],[130.295472,33.44869],[130.296044,33.448676],[130.298822,33.44913],[130.299176,33.449058],[130.300305,33.448623],[130.300642,33.448571],[130.30098,33.448584],[130.30189,33.448768],[130.302369,33.448781],[130.303342,33.44863],[130.305898,33.447965],[130.30746,33.447695],[130.307805,33.447583],[130.308213,33.447373],[130.308417,33.447142],[130.308527,33.446932],[130.308505,33.445692],[130.308631,33.445423],[130.308952,33.445114],[130.309745,33.444982],[130.310357,33.445074],[130.310608,33.445041],[130.310781,33.444956],[130.311,33.444725],[130.311087,33.444311],[130.311063,33.442666],[130.310792,33.441762],[130.310776,33.441374],[130.310816,33.441091],[130.311341,33.440545],[130.311655,33.44044],[130.312283,33.44046],[130.31458,33.440873],[130.315616,33.440926],[130.316369,33.44088],[130.318664,33.44048],[130.319057,33.441278],[130.320099,33.441989],[130.320207,33.442134],[130.320339,33.442491],[130.320462,33.442639],[130.320664,33.442689],[130.320766,33.442664],[130.320852,33.442609],[130.321011,33.44237],[130.321129,33.442338],[130.321956,33.442614],[130.322355,33.442668],[130.322587,33.442529],[130.322936,33.441771],[130.32281,33.441393],[130.322755,33.440959],[130.322826,33.440729],[130.32303,33.440545],[130.323478,33.440309],[130.32361,33.44013],[130.32361,33.439624],[130.32372,33.439379],[130.323833,33.439299],[130.324905,33.439124],[130.325227,33.439025],[130.325548,33.438643],[130.325917,33.438023],[130.32616,33.43772],[130.326655,33.437345],[130.327384,33.436898],[130.327377,33.436799],[130.327047,33.436372],[130.326697,33.436126],[130.326705,33.436034],[130.327859,33.435645],[130.328675,33.435264],[130.3288,33.435349],[130.329232,33.436191],[130.329475,33.436244],[130.329757,33.436231],[130.329946,33.43606],[130.330001,33.435889],[130.32982,33.435172],[130.329946,33.434941],[130.330283,33.434744],[130.330733,33.434666],[130.331099,33.434698],[130.331703,33.43452],[130.331899,33.434573],[130.332611,33.435475],[130.332761,33.435521],[130.333012,33.435715],[130.333269,33.436098],[130.333754,33.436524],[130.333819,33.436488],[130.334164,33.435297],[130.334572,33.435054],[130.335051,33.434896],[130.335302,33.434876],[130.336165,33.435133],[130.336447,33.435159],[130.336557,33.435047],[130.336651,33.43485],[130.336651,33.434679],[130.336284,33.434224],[130.336253,33.43404],[130.336371,33.433783],[130.336779,33.433684],[130.336943,33.433737],[130.337461,33.434619],[130.337704,33.434744],[130.338701,33.434816],[130.338905,33.434941],[130.33925,33.435633],[130.33958,33.43606],[130.339745,33.43612],[130.339855,33.436074],[130.340227,33.43563],[130.340421,33.435233],[130.340374,33.434959],[130.340199,33.434566],[130.340122,33.434136],[130.340178,33.433718],[130.340347,33.4333],[130.34039,33.432706],[130.340361,33.432209],[130.340118,33.431781],[130.340055,33.431551],[130.340086,33.431275],[130.340167,33.431058],[130.339981,33.430539],[130.340073,33.430152],[130.340184,33.429928],[130.340396,33.42971],[130.340418,33.429523],[130.340283,33.429377],[130.340163,33.429339],[130.339613,33.429464],[130.338977,33.429425],[130.338582,33.429357],[130.338294,33.429225],[130.338126,33.429087],[130.337841,33.428682],[130.337818,33.428467],[130.337881,33.42828],[130.337895,33.427995],[130.337817,33.42757],[130.337907,33.427475],[130.338363,33.42746],[130.339204,33.427074],[130.339591,33.427012],[130.340214,33.426711],[130.340701,33.426671],[130.34262,33.425822],[130.344053,33.425311],[130.345071,33.424396],[130.345123,33.424008],[130.345017,33.423032],[130.345271,33.422411],[130.345686,33.421752],[130.345843,33.421365],[130.346051,33.421141],[130.346294,33.42095],[130.346859,33.420674],[130.348389,33.420062],[130.350091,33.418628],[130.350878,33.418053],[130.351999,33.417448],[130.352343,33.417145],[130.352714,33.417053],[130.352845,33.416898],[130.352853,33.416785],[130.35268,33.416466],[130.352658,33.416312],[130.352719,33.416207],[130.352987,33.415978],[130.353138,33.415722],[130.35335,33.415535],[130.35353,33.415612],[130.354466,33.415677],[130.354929,33.415631],[130.355517,33.415446],[130.355988,33.41519],[130.356529,33.415131],[130.356655,33.41521],[130.356788,33.415986],[130.356859,33.416946],[130.357055,33.417782],[130.357296,33.418206],[130.357562,33.418522],[130.358355,33.418989],[130.3587,33.419371],[130.358998,33.419956],[130.359202,33.420759],[130.359293,33.420911],[130.35978,33.420961],[130.360597,33.420648],[130.362381,33.420872],[130.363055,33.420727],[130.363166,33.420997],[130.363315,33.421859],[130.363433,33.422201],[130.363629,33.422425],[130.363817,33.42251],[130.364107,33.422491],[130.364343,33.422405],[130.364696,33.422043],[130.365017,33.421511],[130.365229,33.421096],[130.365308,33.420761],[130.365229,33.419787],[130.365031,33.419284],[130.364866,33.418678],[130.364803,33.418119],[130.364796,33.417382],[130.364874,33.417146],[130.365047,33.416909],[130.366012,33.416271],[130.366298,33.415919],[130.366447,33.415636],[130.36662,33.415064],[130.366839,33.41459],[130.367106,33.414262],[130.367436,33.414038],[130.367734,33.413946],[130.368032,33.413946],[130.368267,33.414018],[130.369059,33.414433],[130.369569,33.414558],[130.370346,33.414643],[130.371013,33.414893],[130.371256,33.415084],[130.371507,33.415511],[130.371664,33.415972],[130.372205,33.416321],[130.373842,33.416499],[130.374611,33.416663],[130.375388,33.416867],[130.376541,33.417302],[130.376769,33.417302],[130.37702,33.417223],[130.377294,33.416973],[130.377879,33.41585],[130.377833,33.414412],[130.377872,33.413945],[130.378002,33.413526],[130.378591,33.41287],[130.378926,33.412698],[130.379215,33.412752],[130.379467,33.412717],[130.380112,33.412248],[130.380818,33.411427],[130.381046,33.411346],[130.381521,33.411385],[130.381731,33.411338],[130.381945,33.411283],[130.382246,33.411106],[130.382336,33.410952],[130.382737,33.410573],[130.383179,33.410052],[130.383377,33.409708],[130.383791,33.409317],[130.384105,33.409179],[130.38456,33.409086],[130.384905,33.409119],[130.38565,33.409415],[130.386505,33.40954],[130.38747,33.409593],[130.388592,33.409521],[130.389337,33.409422],[130.39031,33.409179],[130.391276,33.408842],[130.391998,33.408513],[130.393017,33.407861],[130.393559,33.407438],[130.394476,33.406541],[130.394643,33.4063],[130.394946,33.406046],[130.395623,33.405058],[130.396288,33.404279],[130.396551,33.403617],[130.397349,33.402925],[130.398194,33.401857],[130.398523,33.401311],[130.398837,33.400594],[130.398951,33.399999],[130.399381,33.399262],[130.400076,33.398347],[130.401419,33.397381],[130.402351,33.397044],[130.405093,33.395898],[130.406614,33.395154],[130.407116,33.394838],[130.407626,33.394424],[130.408767,33.393191],[130.409014,33.392788],[130.409313,33.392514],[130.409799,33.392177],[130.411172,33.391619],[130.412063,33.39107],[130.412469,33.390661],[130.41271,33.390575],[130.413117,33.390555],[130.413437,33.390385],[130.413804,33.390102],[130.413995,33.389803],[130.414129,33.389685],[130.414836,33.389547],[130.415401,33.389543],[130.416002,33.389333],[130.416347,33.389154],[130.416816,33.389075],[130.41716,33.388872],[130.417379,33.388484],[130.417473,33.388102],[130.417388,33.387334],[130.417385,33.386778],[130.417785,33.385626],[130.418068,33.385232],[130.418338,33.385091],[130.418529,33.385079],[130.418993,33.385159],[130.419416,33.385449],[130.42031,33.386258],[130.421769,33.386988],[130.422655,33.38733],[130.423549,33.387607],[130.424043,33.387929],[130.424469,33.388306],[130.424932,33.388503],[130.425333,33.38859],[130.425117,33.389795],[130.424816,33.3902],[130.424491,33.391154],[130.425444,33.392075],[130.425503,33.39293],[130.43012,33.392856],[130.430404,33.39256],[130.430831,33.391497],[130.432047,33.387254],[130.432066,33.386868],[130.431874,33.385424],[130.431639,33.38438],[130.43159,33.383911],[130.432237,33.38387],[130.432766,33.383919],[130.433893,33.384347],[130.435109,33.38438],[130.43701,33.384224],[130.439781,33.383466],[130.439997,33.383861],[130.440448,33.384198],[130.440967,33.384363],[130.441546,33.384429],[130.442095,33.384429],[130.442565,33.38433],[130.442898,33.384207],[130.443108,33.384027],[130.443673,33.383333],[130.443834,33.383232],[130.444083,33.383165],[130.444685,33.382756],[130.445183,33.382687],[130.445328,33.382606],[130.445603,33.382134],[130.445762,33.381953],[130.44605,33.381944],[130.446845,33.382348],[130.447403,33.382455],[130.447796,33.382348],[130.448227,33.382069],[130.448844,33.380991],[130.449452,33.3803],[130.450709,33.37954],[130.451729,33.378192],[130.452111,33.377781],[130.452601,33.377501],[130.453463,33.377205],[130.454091,33.377139],[130.455051,33.377123],[130.455865,33.377172],[130.456629,33.377279],[130.45687,33.377573],[130.456441,33.377881],[130.456082,33.378499],[130.455858,33.379139],[130.455717,33.379958],[130.455359,33.380462],[130.45509,33.381187],[130.455048,33.381206],[130.454976,33.381426],[130.455001,33.381704],[130.455415,33.382742],[130.455732,33.383205],[130.457079,33.384521],[130.457481,33.384981],[130.457853,33.385475],[130.458098,33.386075],[130.458098,33.387218],[130.457971,33.388073],[130.457682,33.388958],[130.457633,33.389377],[130.457711,33.389698],[130.457917,33.39001],[130.458309,33.390323],[130.458692,33.390495],[130.460035,33.390528],[130.460829,33.390495],[130.461162,33.39057],[130.461623,33.39089],[130.461858,33.391285],[130.462103,33.391869],[130.462162,33.392453],[130.462142,33.393143],[130.461889,33.394347],[130.46184,33.394816],[130.46209,33.395817],[130.462174,33.395877],[130.462339,33.395862],[130.462567,33.395481],[130.462833,33.395342],[130.463786,33.394476],[130.4643,33.394515],[130.464845,33.394337],[130.465323,33.394474],[130.465976,33.394494],[130.467046,33.394024],[130.4678,33.393783],[130.467949,33.394085],[130.467857,33.395496],[130.467755,33.396081],[130.467544,33.396792],[130.467301,33.397358],[130.46673,33.398354],[130.466549,33.398854],[130.466455,33.399281],[130.466408,33.399979],[130.466424,33.40081],[130.466096,33.401644],[130.466143,33.401728],[130.465459,33.402501],[130.464761,33.403067],[130.463804,33.403587],[130.462991,33.404181],[130.46285,33.404438],[130.462881,33.40499],[130.463572,33.405602],[130.463634,33.405773],[130.463564,33.405944],[130.463268,33.406248],[130.462499,33.406734],[130.46155,33.407721],[130.46126,33.407879],[130.460617,33.408123],[130.459971,33.408697],[130.461238,33.410179],[130.461811,33.410567],[130.461968,33.410567],[130.462415,33.409698],[130.46276,33.409488],[130.463278,33.409317],[130.463937,33.409238],[130.46502,33.40871],[130.465302,33.408691],[130.4656,33.408803],[130.46589,33.409118],[130.466472,33.410087],[130.466927,33.410607],[130.467837,33.411291],[130.467978,33.411324],[130.469923,33.410837],[130.470723,33.410758],[130.472065,33.410738],[130.473686,33.410586],[130.47429,33.410448],[130.474933,33.410139],[130.475843,33.40981],[130.476925,33.409744],[130.477216,33.409652],[130.477592,33.409468],[130.478471,33.408731],[130.479335,33.408308],[130.480188,33.408196],[130.48284,33.407583],[130.483482,33.407368],[130.483953,33.407131],[130.48451,33.406736],[130.485191,33.406168],[130.486109,33.405273],[130.486163,33.404411],[130.486218,33.404267],[130.486673,33.40405],[130.487583,33.403773],[130.487936,33.403767],[130.488266,33.403839],[130.488893,33.404221],[130.489615,33.404273],[130.489999,33.404142],[130.490927,33.403398],[130.491223,33.403212],[130.491608,33.403087],[130.492125,33.403008],[130.49298,33.403041],[130.493592,33.403133],[130.494169,33.403319],[130.494776,33.403693],[130.495192,33.403763],[130.495712,33.403711],[130.496022,33.403474],[130.496414,33.402994],[130.496741,33.402718],[130.497261,33.402402],[130.497897,33.402218],[130.498265,33.402172],[130.498571,33.402225],[130.498799,33.402409],[130.499128,33.402882],[130.49971,33.404424],[130.499781,33.405733],[130.499723,33.405982],[130.499538,33.406174],[130.499035,33.406332],[130.498441,33.406716],[130.498204,33.406954],[130.497663,33.407232],[130.497406,33.407474],[130.497073,33.407948],[130.496776,33.408276],[130.496512,33.408439],[130.495192,33.409016],[130.495032,33.409236],[130.494914,33.40931],[130.494597,33.409301],[130.494372,33.409347],[130.493693,33.409614],[130.493041,33.409665],[130.49273,33.40982],[130.492454,33.410283],[130.492423,33.410502],[130.492155,33.411229],[130.49192,33.411595],[130.491614,33.411772],[130.490861,33.41191],[130.490461,33.412272],[130.49028,33.412555],[130.490155,33.412917],[130.490189,33.413409],[130.489872,33.413623],[130.489717,33.41363],[130.48929,33.413432],[130.48859,33.413254],[130.488315,33.413293],[130.488025,33.413425],[130.487687,33.413741],[130.487178,33.414622],[130.486754,33.414925],[130.486472,33.415379],[130.486039,33.417461],[130.485853,33.417895],[130.486522,33.418409],[130.489322,33.42033],[130.491644,33.422346],[130.492201,33.422721],[130.493998,33.423398],[130.495802,33.423655],[130.496783,33.423649],[130.497153,33.423544],[130.49738,33.423353],[130.497678,33.422972],[130.498125,33.423248],[130.498588,33.423643],[130.499224,33.424294],[130.499957,33.425152],[130.500577,33.426007],[130.501197,33.427178],[130.501377,33.427652],[130.501424,33.427994],[130.50134,33.428593],[130.502493,33.429918],[130.503215,33.430846],[130.503756,33.431444],[130.504227,33.431872],[130.504663,33.43252],[130.504859,33.433039],[130.504969,33.434039],[130.504812,33.435],[130.505278,33.435455],[130.505565,33.435548],[130.505803,33.435488],[130.506062,33.435278],[130.506894,33.434113],[130.507302,33.433712],[130.507718,33.433508],[130.508275,33.433357],[130.509264,33.433238],[130.510685,33.432861],[130.512936,33.431697],[130.513023,33.431762],[130.513376,33.432855],[130.513595,33.43323],[130.514011,33.433519],[130.515204,33.433841],[130.515565,33.434013],[130.515628,33.434427],[130.515581,33.434782],[130.515353,33.435183],[130.514988,33.435673],[130.514847,33.436055],[130.514855,33.436535],[130.515498,33.437963],[130.515663,33.438634],[130.515718,33.439186],[130.516585,33.43932],[130.517048,33.438899],[130.517223,33.438811],[130.517467,33.4388],[130.517911,33.438892],[130.518492,33.439076],[130.518876,33.439313],[130.51901,33.439438],[130.51908,33.439596],[130.519426,33.439721],[130.519528,33.439807],[130.519606,33.440142],[130.519732,33.440201],[130.520006,33.440155],[130.520116,33.440208],[130.520304,33.440451],[130.520508,33.4405],[130.520854,33.440843],[130.520908,33.440953],[130.520897,33.441243],[130.520591,33.442032],[130.520646,33.442164],[130.520893,33.442296],[130.520959,33.442394],[130.520978,33.442684],[130.521203,33.443466],[130.521631,33.44364],[130.521791,33.444022],[130.521799,33.444193],[130.521681,33.444436],[130.521407,33.444607],[130.521393,33.444816],[130.5213,33.444906],[130.521273,33.445008],[130.521422,33.445429],[130.521468,33.446067],[130.521028,33.446092],[130.51993,33.44604],[130.518001,33.445765],[130.517588,33.445765],[130.517306,33.44609],[130.51697,33.446719],[130.516446,33.447493],[130.516117,33.447775],[130.515565,33.447887],[130.513187,33.448772],[130.51246,33.449447],[130.511132,33.449113],[130.511244,33.448719],[130.511104,33.448391],[130.511139,33.448142],[130.511398,33.447565],[130.511454,33.447237],[130.51144,33.446896],[130.511309,33.446592],[130.511114,33.446408],[130.510757,33.446192],[130.510477,33.446093],[130.510226,33.445942],[130.510156,33.445838],[130.510198,33.445359],[130.509904,33.444769],[130.50989,33.444493],[130.509806,33.444231],[130.509632,33.443799],[130.509384,33.443667],[130.508216,33.443746],[130.507943,33.443831],[130.5074,33.444245],[130.50694,33.444477],[130.505757,33.445274],[130.505693,33.445397],[130.505657,33.445999],[130.505468,33.446203],[130.505318,33.446289],[130.504413,33.446572],[130.503921,33.446827],[130.503536,33.446926],[130.503382,33.446893],[130.503172,33.446703],[130.502508,33.446414],[130.502207,33.446205],[130.50218,33.445883],[130.5019,33.445673],[130.501516,33.445542],[130.500704,33.445529],[130.499767,33.445123],[130.499327,33.445044],[130.499138,33.445084],[130.498229,33.445071],[130.497402,33.444814],[130.497033,33.444914],[130.496821,33.444909],[130.49591,33.444767],[130.495726,33.44457],[130.495634,33.444291],[130.49489,33.444235],[130.494718,33.444124],[130.494465,33.443763],[130.494184,33.442873],[130.494178,33.442647],[130.49429,33.442312],[130.49425,33.442274],[130.493656,33.442209],[130.492966,33.442252],[130.492834,33.442238],[130.492679,33.442146],[130.492541,33.442011],[130.492564,33.441882],[130.492696,33.441756],[130.492713,33.441636],[130.492558,33.441434],[130.491504,33.440546],[130.491401,33.440354],[130.491361,33.440098],[130.49122,33.439807],[130.491116,33.439706],[130.490801,33.439653],[130.489795,33.439942],[130.489045,33.439964],[130.488816,33.440012],[130.488097,33.440372],[130.487799,33.440401],[130.487282,33.440291],[130.487149,33.44018],[130.487081,33.43993],[130.487009,33.439143],[130.486946,33.438989],[130.485754,33.438077],[130.485283,33.43799],[130.48482,33.438012],[130.484102,33.437728],[130.482542,33.437682],[130.482307,33.437629],[130.481425,33.436895],[130.480661,33.436567],[130.480376,33.436194],[130.48025,33.436117],[130.480072,33.436127],[130.479454,33.436635],[130.479107,33.437297],[130.478957,33.437407],[130.478693,33.437484],[130.47805,33.437412],[130.477872,33.437479],[130.477757,33.4376],[130.477461,33.438228],[130.477375,33.43831],[130.477168,33.438392],[130.477001,33.438522],[130.4768,33.438526],[130.476593,33.438464],[130.476171,33.438076],[130.475797,33.437451],[130.474979,33.43662],[130.474376,33.435465],[130.474137,33.435275],[130.473218,33.434717],[130.472785,33.434531],[130.471661,33.434278],[130.471391,33.434067],[130.470975,33.433535],[130.470763,33.433395],[130.470128,33.43333],[130.469068,33.432991],[130.468861,33.432842],[130.468088,33.431963],[130.467235,33.431301],[130.467034,33.431051],[130.466675,33.430356],[130.465917,33.429884],[130.465061,33.429109],[130.464475,33.428772],[130.463073,33.428021],[130.462832,33.427953],[130.462154,33.427949],[130.461965,33.428045],[130.461804,33.428199],[130.461528,33.428281],[130.461413,33.428237],[130.460951,33.427729],[130.460324,33.42732],[130.459865,33.427099],[130.459739,33.426954],[130.459101,33.425698],[130.458825,33.425544],[130.458274,33.42541],[130.458067,33.425169],[130.458009,33.425015],[130.458038,33.424769],[130.458279,33.423932],[130.458561,33.423292],[130.458619,33.423061],[130.458584,33.422907],[130.458285,33.422445],[130.458176,33.42218],[130.458188,33.420722],[130.458261,33.419975],[130.458081,33.419781],[130.457297,33.419519],[130.456054,33.419456],[130.454436,33.419596],[130.453972,33.419743],[130.453401,33.419841],[130.4529,33.41983],[130.452513,33.419781],[130.45175,33.419463],[130.451371,33.419264],[130.45109,33.418971],[130.450849,33.418848],[130.450544,33.418775],[130.449597,33.41882],[130.448831,33.419071],[130.448396,33.419086],[130.447684,33.418946],[130.446684,33.418575],[130.445347,33.417671],[130.444408,33.41685],[130.444023,33.416304],[130.443636,33.416245],[130.443386,33.41614],[130.442903,33.415819],[130.442384,33.415714],[130.442214,33.415634],[130.441647,33.414806],[130.441154,33.414222],[130.4412,33.414072],[130.441391,33.413866],[130.441452,33.41366],[130.44156,33.413171],[130.441477,33.412881],[130.441175,33.412517],[130.441117,33.412227],[130.439786,33.411197],[130.439903,33.410973],[130.440059,33.410841],[130.441229,33.410201],[130.441296,33.410086],[130.441187,33.409792],[130.440842,33.409701],[130.440561,33.409443],[130.440201,33.408908],[130.440134,33.408576],[130.439791,33.407986],[130.439389,33.407057],[130.43936,33.406543],[130.439129,33.406075],[130.438783,33.405652],[130.438212,33.405271],[130.437157,33.404932],[130.437036,33.404852],[130.437126,33.404276],[130.437263,33.403818],[130.437527,33.403186],[130.437748,33.402899],[130.43789,33.402515],[130.437904,33.401942],[130.438,33.401484],[130.43835,33.400338],[130.43815,33.400069],[130.437603,33.399783],[130.437244,33.399528],[130.436586,33.399454],[130.436064,33.39899],[130.435593,33.398784],[130.434923,33.39871],[130.434273,33.398539],[130.43375,33.398654],[130.433155,33.398721],[130.43283,33.398727],[130.432243,33.398609],[130.431554,33.398203],[130.430713,33.397886],[130.430113,33.397365],[130.42985,33.397253],[130.429249,33.39712],[130.428757,33.396876],[130.428472,33.396879],[130.428018,33.396998],[130.427668,33.397354],[130.427502,33.397417],[130.427,33.397787],[130.426587,33.397801],[130.426225,33.397885],[130.425959,33.397896],[130.425721,33.397843],[130.425007,33.397997],[130.424511,33.39828],[130.423568,33.398287],[130.423285,33.398392],[130.422839,33.398465],[130.422077,33.398451],[130.421876,33.3985],[130.421638,33.398689],[130.421386,33.398975],[130.420568,33.399422],[130.420155,33.400338],[130.419285,33.401005],[130.419006,33.40112],[130.418698,33.401075],[130.418298,33.400729],[130.417884,33.400481],[130.417501,33.400355],[130.416947,33.400082],[130.416578,33.399709],[130.416312,33.399356],[130.415966,33.399114],[130.415716,33.39902],[130.415423,33.398985],[130.414473,33.398982],[130.414277,33.398873],[130.413915,33.398569],[130.413749,33.398335],[130.413653,33.397951],[130.413646,33.397616],[130.413759,33.397413],[130.41398,33.397294],[130.414038,33.397039],[130.413357,33.396012],[130.413037,33.395764],[130.412372,33.395516],[130.412097,33.395512],[130.411664,33.395348],[130.411435,33.3951],[130.410971,33.39504],[130.410946,33.395449],[130.410477,33.396075],[130.409511,33.396616],[130.408747,33.397399],[130.408097,33.398192],[130.407852,33.398367],[130.407683,33.398604],[130.407556,33.399002],[130.407533,33.399341],[130.407635,33.399977],[130.407606,33.400522],[130.407768,33.401455],[130.407704,33.402056],[130.408081,33.402287],[130.408653,33.402489],[130.409188,33.402807],[130.409719,33.402972],[130.409911,33.403091],[130.409982,33.403276],[130.410233,33.403569],[130.410444,33.403657],[130.410948,33.40373],[130.411179,33.404135],[130.411404,33.404701],[130.411599,33.40482],[130.411801,33.405068],[130.411999,33.405459],[130.412605,33.406186],[130.412657,33.406351],[130.412632,33.406536],[130.41284,33.406756],[130.413155,33.407217],[130.413396,33.407304],[130.413713,33.407336],[130.413902,33.407482],[130.414264,33.407832],[130.414575,33.408297],[130.414666,33.408562],[130.415093,33.409289],[130.415535,33.409485],[130.415543,33.409568],[130.415193,33.410075],[130.415222,33.410232],[130.415339,33.410347],[130.41568,33.410393],[130.416542,33.410239],[130.416796,33.410309],[130.416809,33.410449],[130.416188,33.410693],[130.415257,33.410962],[130.414154,33.410983],[130.413854,33.411102],[130.413513,33.411465],[130.412378,33.411874],[130.411816,33.412154],[130.410938,33.412734],[130.410379,33.413247],[130.410045,33.413375],[130.40932,33.413307],[130.407554,33.414245],[130.40734,33.41454],[130.407357,33.414905],[130.407488,33.415335],[130.407459,33.415494],[130.407037,33.415651],[130.405457,33.415997],[130.404766,33.416241],[130.404146,33.417054],[130.403504,33.417516],[130.403431,33.417627],[130.403415,33.417866],[130.403687,33.418539],[130.403654,33.418867],[130.403502,33.419042],[130.403026,33.419332],[130.402768,33.419974],[130.402521,33.420341],[130.402102,33.42062],[130.401389,33.42076],[130.401257,33.420832],[130.401186,33.42094],[130.401134,33.421619],[130.400881,33.421782],[130.400307,33.421777],[130.39931,33.421573],[130.399046,33.421587],[130.398879,33.421636],[130.39846,33.422069],[130.398043,33.422928],[130.398012,33.423209],[130.39815,33.423546],[130.399095,33.424492],[130.399152,33.424665],[130.399123,33.424887],[130.399043,33.425041],[130.398865,33.425166],[130.398127,33.425457],[130.398081,33.425621],[130.398107,33.426287],[130.398061,33.426441],[130.397951,33.426586],[130.397029,33.427098],[130.396719,33.42743],[130.396484,33.427551],[130.396334,33.42756],[130.396243,33.427517],[130.395789,33.426877],[130.395042,33.426732],[130.393931,33.426715],[130.393312,33.426606],[130.391193,33.426077],[130.39034,33.426051],[130.38945,33.426099],[130.388737,33.42633],[130.387393,33.428116],[130.386853,33.428236],[130.385888,33.428034],[130.384081,33.427762],[130.383714,33.427594],[130.383027,33.426811],[130.382732,33.426549],[130.381488,33.425998],[130.380845,33.425805],[130.380419,33.425738],[130.379552,33.425786],[130.379391,33.425747],[130.379127,33.425594],[130.378435,33.425052],[130.378219,33.424959],[130.378033,33.425091],[130.377846,33.425849],[130.377898,33.426306],[130.377996,33.426595],[130.377947,33.427026],[130.377843,33.427141],[130.377343,33.427319],[130.376835,33.427875],[130.376602,33.428989],[130.375298,33.430202],[130.374124,33.430681],[130.372677,33.431442],[130.372463,33.431654],[130.37211,33.432415],[130.371794,33.432352],[130.371307,33.432961],[130.370646,33.433124],[130.370579,33.433205],[130.370527,33.433524],[130.370214,33.433987],[130.37027,33.434643],[130.370233,33.434874],[130.370124,33.435031],[130.369647,33.435431],[130.369237,33.435912],[130.368811,33.436281],[130.368625,33.436268],[130.368528,33.436168],[130.368476,33.435981],[130.368479,33.435724],[130.368286,33.434974],[130.367763,33.434537],[130.367376,33.434105],[130.367055,33.434005],[130.366711,33.433976],[130.365978,33.43402],[130.365271,33.433972],[130.364941,33.434037],[130.364691,33.434107],[130.364182,33.434355],[130.363384,33.434943],[130.363317,33.434935],[130.362974,33.434577],[130.362807,33.434538],[130.362025,33.434512],[130.361284,33.434342],[130.360644,33.434137],[130.360094,33.434203],[130.359964,33.434163],[130.359857,33.434059],[130.359738,33.433784],[130.359254,33.433932],[130.358906,33.433902],[130.35862,33.433571],[130.358501,33.433527],[130.358048,33.433614],[130.357271,33.434424],[130.357063,33.434507],[130.356689,33.434525],[130.356543,33.434464],[130.356465,33.434351],[130.356379,33.433741],[130.356255,33.433453],[130.356115,33.433318],[130.355787,33.43324],[130.355033,33.43361],[130.354804,33.433854],[130.353963,33.435348],[130.353833,33.435488],[130.353492,33.435653],[130.35317,33.436167],[130.352393,33.436559],[130.352122,33.436794],[130.352081,33.436947],[130.352159,33.437261],[130.352099,33.437544],[130.351709,33.438432],[130.351477,33.438833],[130.351233,33.439073],[130.351072,33.439138],[130.349947,33.439286],[130.349604,33.439487],[130.349617,33.439939],[130.349429,33.440218],[130.349032,33.44068],[130.348276,33.441347],[130.348187,33.441774],[130.348109,33.441878],[130.347511,33.442244],[130.347379,33.442383],[130.347285,33.442566],[130.347176,33.443006],[130.34701,33.44322],[130.346872,33.443521],[130.346778,33.443625],[130.346373,33.443786],[130.346217,33.443895],[130.345954,33.444178],[130.345428,33.445021],[130.345181,33.444802],[130.344814,33.444578],[130.344195,33.444434],[130.344006,33.444434],[130.343638,33.444504],[130.343159,33.444504],[130.342931,33.444603],[130.342623,33.444842],[130.342439,33.444901],[130.341935,33.444926],[130.341834,33.444976],[130.341672,33.445214],[130.341497,33.445368],[130.341254,33.445432],[130.34107,33.445407],[130.340887,33.445308],[130.340608,33.444827],[130.340425,33.444707],[130.33975,33.444613],[130.338655,33.444647],[130.33849,33.444676],[130.338173,33.444924],[130.337676,33.444963],[130.337226,33.445159],[130.336444,33.445149],[130.336373,33.445229],[130.336389,33.445402],[130.336565,33.446224],[130.336394,33.446553],[130.336099,33.446809],[130.336075,33.446966],[130.336174,33.447924],[130.335934,33.448393],[130.335237,33.449125],[130.335231,33.449337],[130.335319,33.449704],[130.335291,33.44986],[130.33511,33.450249],[130.334846,33.450495],[130.334382,33.450742],[130.331972,33.451271],[130.331617,33.451387],[130.331311,33.451573],[130.330944,33.451992],[130.330516,33.452332],[130.330013,33.452654],[130.32944,33.452891],[130.328979,33.453276],[130.328223,33.453656],[130.327435,33.454287],[130.326469,33.454687],[130.325953,33.455156],[130.325478,33.455269],[130.324764,33.455322],[130.323829,33.455738],[130.322976,33.456037],[130.322434,33.45653],[130.321541,33.458007],[130.321417,33.458133],[130.321072,33.458306],[130.320415,33.458399],[130.319994,33.458702],[130.319657,33.458732],[130.317255,33.458622],[130.316406,33.458699],[130.315747,33.458512],[130.315058,33.458499],[130.314872,33.458443],[130.314169,33.458004],[130.313999,33.457977],[130.313832,33.45802],[130.313784,33.458097],[130.313691,33.458875],[130.313619,33.459114],[130.313197,33.459471],[130.31333,33.460146],[130.313223,33.460592],[130.313026,33.460934],[130.312764,33.461187],[130.312557,33.46127],[130.311599,33.461343],[130.311025,33.462052],[130.309985,33.462139],[130.309046,33.462425],[130.308586,33.462361],[130.308374,33.462418],[130.308036,33.462355],[130.307881,33.462395],[130.307238,33.462784],[130.306617,33.462901],[130.306051,33.463349],[130.305932,33.46333],[130.305674,33.463143],[130.30497,33.462265],[130.304787,33.462135],[130.304616,33.462049],[130.303975,33.461876],[130.303257,33.461303],[130.303126,33.461244],[130.302469,33.461204],[130.302251,33.46126],[130.301737,33.462022],[130.301455,33.462169],[130.300959,33.462142],[130.30004,33.462178],[130.298381,33.462388],[130.297904,33.462614],[130.296924,33.462851],[130.296551,33.463183],[130.295882,33.463552],[130.295826,33.463622],[130.295659,33.463945],[130.295578,33.464357],[130.295171,33.465346],[130.294909,33.465489],[130.29432,33.465665],[130.293585,33.46629],[130.292819,33.466527],[130.292682,33.466689],[130.292133,33.467774],[130.291809,33.468193],[130.291545,33.468646],[130.291297,33.469361],[130.290755,33.4696],[130.290449,33.46966],[130.289447,33.46954],[130.288441,33.469557],[130.288246,33.469614],[130.287903,33.470039],[130.286978,33.470495],[130.286714,33.470778],[130.286204,33.47155],[130.286029,33.471683],[130.285499,33.471929],[130.284805,33.472069],[130.284626,33.472145],[130.283779,33.472697],[130.283453,33.473014],[130.283176,33.473438],[130.282929,33.473716],[130.282051,33.474505],[130.281562,33.474771],[130.280012,33.475442],[130.279101,33.476005],[130.278567,33.476077],[130.278463,33.476176],[130.278444,33.476284],[130.278642,33.476728],[130.278642,33.476831],[130.278321,33.477115],[130.278115,33.477389],[130.277856,33.477916],[130.277696,33.478091],[130.277329,33.478432],[130.276707,33.478881],[130.275241,33.479604],[130.274969,33.479682],[130.274489,33.479712],[130.27378,33.479661],[130.272866,33.479552],[130.272711,33.479501],[130.272508,33.479346],[130.272366,33.479331],[130.272114,33.479351],[130.271744,33.479485],[130.271528,33.479583],[130.271214,33.479878],[130.271039,33.479931],[130.270631,33.479633],[130.270479,33.479585],[130.269764,33.479454],[130.269319,33.479429],[130.268937,33.479296],[130.268281,33.478984],[130.267859,33.478596],[130.267317,33.478667],[130.267017,33.478634],[130.2665,33.478317],[130.266103,33.477905],[130.265839,33.477855],[130.265134,33.477876],[130.264679,33.477684],[130.26456,33.477434],[130.263554,33.477709],[130.262868,33.478017],[130.262634,33.478005],[130.262495,33.477922],[130.262185,33.477555],[130.261822,33.47736],[130.261435,33.477239],[130.260613,33.476752],[130.260021,33.476718],[130.259219,33.476494],[130.258588,33.476414],[130.25819,33.47626],[130.257589,33.476127],[130.257435,33.475986],[130.257328,33.475773],[130.256583,33.475232],[130.256162,33.474707],[130.255913,33.474195],[130.255734,33.474087],[130.255247,33.473982],[130.254959,33.473762],[130.254226,33.472979],[130.253711,33.472213],[130.252944,33.471655],[130.252795,33.471509],[130.252636,33.471213],[130.25237,33.470964],[130.251973,33.47083],[130.250815,33.470801],[130.250549,33.470755],[130.249918,33.470497],[130.249263,33.470718],[130.248535,33.470876],[130.248177,33.470851],[130.247685,33.4707],[130.246676,33.471254],[130.246408,33.471459],[130.245767,33.472439],[130.245562,33.473113],[130.245377,33.473464],[130.244787,33.473999],[130.244201,33.474406],[130.243952,33.474462],[130.243156,33.474449],[130.242705,33.474799],[130.242272,33.474859],[130.24197,33.474773],[130.241661,33.474811],[130.241403,33.474756],[130.239964,33.474328],[130.239546,33.474381],[130.238901,33.474284],[130.238488,33.474168],[130.238231,33.474026],[130.237915,33.474092],[130.237609,33.474389],[130.237566,33.474571],[130.237588,33.474773],[130.237767,33.475107],[130.237813,33.475302],[130.237668,33.475841],[130.237788,33.476066],[130.237747,33.476129],[130.237539,33.476217],[130.237375,33.476396],[130.237094,33.477158],[130.23687,33.477444],[130.236478,33.477782],[130.236016,33.478024],[130.235529,33.47816],[130.235194,33.478173],[130.234519,33.478084],[130.23414,33.478136],[130.233887,33.478231],[130.233733,33.478367],[130.233427,33.478869],[130.233314,33.478923],[130.233084,33.478831],[130.232792,33.478618],[130.232423,33.478482],[130.231891,33.478371],[130.23055,33.47849],[130.230347,33.478471],[130.229911,33.478302],[130.229147,33.477814],[130.228537,33.477523],[130.227258,33.47679],[130.226802,33.476695],[130.226114,33.476909],[130.22562,33.477247],[130.224881,33.477376],[130.224585,33.477479],[130.223542,33.478084],[130.223463,33.478219],[130.223342,33.478279],[130.223154,33.478229],[130.222523,33.477892],[130.221663,33.477656],[130.220824,33.477689],[130.218175,33.478186],[130.217966,33.478482],[130.217884,33.478866],[130.21776,33.479052],[130.21668,33.479477],[130.216306,33.479837],[130.216033,33.479915],[130.215185,33.479709],[130.214891,33.479697],[130.214651,33.479752],[130.213488,33.480382],[130.212779,33.480682],[130.212321,33.480757],[130.211065,33.480791],[130.210155,33.480749],[130.210061,33.480922],[130.209913,33.480964],[130.20928,33.480847],[130.20892,33.480899],[130.20852,33.481082],[130.207689,33.481232],[130.205587,33.481404],[130.205079,33.48139],[130.204521,33.481279],[130.204265,33.481327]]],[[[130.263299,33.441127],[130.26326,33.441321],[130.263114,33.44154],[130.262503,33.442132],[130.26176,33.442744],[130.261098,33.443033],[130.260384,33.443046],[130.260125,33.442915],[130.259795,33.442573],[130.259348,33.441731],[130.258987,33.44127],[130.258689,33.44102],[130.258359,33.440869],[130.257465,33.440875],[130.256445,33.441007],[130.255738,33.441007],[130.255173,33.440908],[130.253345,33.440231],[130.253188,33.44025],[130.25307,33.440389],[130.252872,33.441263],[130.2527,33.441447],[130.252598,33.441467],[130.252166,33.441342],[130.251648,33.441362],[130.251154,33.44148],[130.250848,33.441684],[130.249796,33.442769],[130.249443,33.442822],[130.24904,33.442386],[130.248658,33.442065],[130.248079,33.441777],[130.247324,33.441498],[130.24648,33.441317],[130.245841,33.44124],[130.245519,33.441062],[130.244881,33.440306],[130.244549,33.439819],[130.244029,33.439359],[130.243656,33.439137],[130.241543,33.438213],[130.240823,33.437971],[130.240066,33.43781],[130.23892,33.437464],[130.23852,33.43724],[130.238143,33.436957],[130.237673,33.436431],[130.236668,33.435655],[130.236213,33.435418],[130.233559,33.434482],[130.232641,33.434074],[130.232202,33.433784],[130.231852,33.433368],[130.231586,33.43273],[130.231523,33.432355],[130.231554,33.431887],[130.231641,33.431519],[130.231805,33.431315],[130.232176,33.431044],[130.23431,33.429727],[130.234796,33.429332],[130.235141,33.428865],[130.235283,33.428543],[130.235275,33.428207],[130.23497,33.427679],[130.234738,33.42758],[130.233467,33.427284],[130.231599,33.426346],[130.231023,33.425875],[130.230853,33.425725],[130.230569,33.425128],[130.230514,33.424723],[130.230633,33.424311],[130.231328,33.423117],[130.231924,33.422643],[130.23234,33.42242],[130.232865,33.422222],[130.236026,33.421608],[130.236535,33.421437],[130.237273,33.420918],[130.238057,33.42001],[130.241713,33.418395],[130.241995,33.418159],[130.242199,33.417889],[130.242301,33.417639],[130.242293,33.417244],[130.242168,33.417073],[130.241822,33.416863],[130.241226,33.416165],[130.240874,33.415919],[130.240499,33.415414],[130.239871,33.414845],[130.239083,33.414229],[130.238495,33.413903],[130.239215,33.41316],[130.240379,33.412208],[130.241377,33.41101],[130.241982,33.410491],[130.242384,33.409881],[130.242689,33.409753],[130.243362,33.40972],[130.244821,33.409459],[130.245131,33.409316],[130.245422,33.408928],[130.24561,33.40877],[130.245916,33.408625],[130.246779,33.408461],[130.246967,33.408494],[130.248536,33.409395],[130.248967,33.409717],[130.249948,33.410862],[130.250308,33.411125],[130.251085,33.411283],[130.251414,33.411448],[130.25184,33.412108],[130.252186,33.412457],[130.252711,33.412786],[130.253394,33.412977],[130.25366,33.413003],[130.253943,33.413003],[130.254413,33.412904],[130.254704,33.412687],[130.254782,33.412003],[130.25519,33.411799],[130.25559,33.411759],[130.256108,33.411957],[130.256406,33.412213],[130.256963,33.412865],[130.257426,33.413536],[130.257413,33.413972],[130.257476,33.41405],[130.2579,33.414024],[130.258143,33.414064],[130.258378,33.414202],[130.258559,33.414406],[130.258632,33.415486],[130.258917,33.416716],[130.259192,33.417059],[130.259796,33.417526],[130.259961,33.417762],[130.260031,33.418032],[130.260015,33.418219],[130.259757,33.419127],[130.259817,33.419615],[130.259582,33.420029],[130.259229,33.420463],[130.258813,33.420838],[130.258781,33.421049],[130.258985,33.42163],[130.259428,33.422274],[130.259572,33.422629],[130.259839,33.423974],[130.260157,33.425],[130.260308,33.425283],[130.261078,33.426093],[130.261178,33.426257],[130.261303,33.426577],[130.261423,33.427147],[130.261429,33.427456],[130.261238,33.42791],[130.261254,33.428292],[130.261466,33.42947],[130.261466,33.429726],[130.261285,33.430476],[130.261134,33.430808],[130.260781,33.431354],[130.260805,33.431466],[130.261362,33.432012],[130.26177,33.432499],[130.261814,33.433869],[130.261956,33.434895],[130.262259,33.435849],[130.262534,33.436504],[130.262559,33.43679],[130.262647,33.437027],[130.262845,33.437347],[130.263546,33.438044],[130.263838,33.438216],[130.264149,33.438265],[130.264174,33.438442],[130.264056,33.438816],[130.2639,33.439035],[130.263099,33.439693],[130.263068,33.439816],[130.26326,33.440403],[130.263299,33.441127]]]]}}]}
