{"type":"FeatureCollection","features":[{"type":"Feature","properties":{"potaRef":"JP-1452","nameJa":"Atsumi hanto","nameEn":"Atsumi Hanto Prefectural Nature Park","authority":"環境省 生物多様性「見える化」マップ","boundaryStatus":"全国GIS候補・公開前検証待ち","boundarySource":"環境省 生物多様性「見える化」マップの自然公園区域を、POTA代表座標で一意に空間照合して加工","boundaryScaleNote":"区域は概要データであり、正確性は保証されない。POTA運用可否は公式情報で最終確認すること。","candidateMethod":"POTA representative point inside one public natural-park area","sourceParkKind":"都道府県立自然公園","sourceName":"Atsumi hanto","sourceFeatureCount":1,"cautionMeters":75},"geometry":{"type":"MultiPolygon","coordinates":[[[[137.315996,34.654881],[137.315743,34.65536],[137.31572,34.657107],[137.316211,34.659807],[137.316294,34.660016],[137.316645,34.660484],[137.316675,34.661022],[137.316829,34.661728],[137.316805,34.661927],[137.316884,34.662177],[137.316871,34.662395],[137.315918,34.662472],[137.315035,34.662427],[137.314684,34.662519],[137.313245,34.663254],[137.31287,34.663272],[137.311928,34.663159],[137.311656,34.66331],[137.311153,34.663474],[137.310604,34.663811],[137.308314,34.664237],[137.307288,34.664292],[137.306996,34.664382],[137.306556,34.664608],[137.305972,34.665224],[137.305688,34.665646],[137.305459,34.665791],[137.306044,34.666078],[137.306603,34.666422],[137.306634,34.666567],[137.306434,34.66676],[137.306507,34.667485],[137.306744,34.667996],[137.307198,34.668564],[137.307543,34.6688],[137.307684,34.669132],[137.307007,34.669896],[137.305158,34.672302],[137.306117,34.672698],[137.308628,34.6735],[137.310625,34.673823],[137.310687,34.674038],[137.310607,34.674683],[137.310284,34.676172],[137.310204,34.676421],[137.310016,34.67673],[137.309334,34.677235],[137.308499,34.67768],[137.307671,34.678194],[137.307465,34.678437],[137.307089,34.678501],[137.306883,34.678484],[137.306878,34.678686],[137.307109,34.680117],[137.307074,34.68026],[137.306931,34.680486],[137.306741,34.680546],[137.306669,34.680653],[137.306458,34.680665],[137.306169,34.680774],[137.305576,34.680895],[137.30371,34.68118],[137.303687,34.681228],[137.303528,34.681205],[137.30287,34.681313],[137.302866,34.681347],[137.302854,34.681294],[137.302839,34.681351],[137.302821,34.68132],[137.300544,34.681652],[137.295009,34.683499],[137.294115,34.683749],[137.29404,34.683671],[137.294131,34.67996],[137.293817,34.679963],[137.293784,34.681009],[137.293386,34.681354],[137.292477,34.681293],[137.290478,34.681013],[137.289221,34.680777],[137.288692,34.680585],[137.288711,34.680556],[137.288455,34.680444],[137.288435,34.68047],[137.288029,34.680261],[137.287178,34.67971],[137.28487,34.677676],[137.284776,34.677643],[137.284494,34.677766],[137.284407,34.677896],[137.284192,34.678022],[137.283879,34.678304],[137.285711,34.679804],[137.28641,34.680456],[137.286794,34.681122],[137.287114,34.681851],[137.287456,34.682822],[137.28751,34.683163],[137.287498,34.683489],[137.287413,34.683854],[137.287272,34.684165],[137.287121,34.684397],[137.286831,34.6847],[137.285506,34.685844],[137.285509,34.686041],[137.285673,34.686038],[137.285671,34.685946],[137.286642,34.685164],[137.286803,34.685178],[137.289091,34.687457],[137.289456,34.688002],[137.29091,34.690624],[137.291173,34.691319],[137.291155,34.69183],[137.291016,34.692224],[137.290996,34.692422],[137.290908,34.692567],[137.288524,34.693074],[137.288633,34.693257],[137.289359,34.693118],[137.290334,34.693287],[137.290423,34.693361],[137.290469,34.693481],[137.290446,34.693944],[137.290383,34.69413],[137.288966,34.705986],[137.288829,34.706255],[137.287775,34.707165],[137.288227,34.707222],[137.289203,34.706521],[137.289447,34.706407],[137.289679,34.706358],[137.290491,34.706397],[137.290372,34.70666],[137.290057,34.709232],[137.289891,34.710162],[137.289643,34.710879],[137.289332,34.711425],[137.288892,34.71195],[137.288352,34.712409],[137.287794,34.712246],[137.286836,34.71213],[137.285777,34.711734],[137.285401,34.711478],[137.285123,34.711205],[137.285032,34.710899],[137.284874,34.710592],[137.28352,34.711007],[137.28113,34.710954],[137.281474,34.708823],[137.281227,34.708613],[137.280609,34.708963],[137.280552,34.709285],[137.280308,34.709514],[137.279584,34.709847],[137.277707,34.710357],[137.277278,34.710535],[137.276563,34.710992],[137.275662,34.711245],[137.275165,34.710606],[137.274854,34.710629],[137.274395,34.710202],[137.274159,34.710203],[137.273646,34.709432],[137.274114,34.709214],[137.274372,34.708868],[137.274945,34.708631],[137.275437,34.708318],[137.275148,34.707771],[137.27513,34.707634],[137.274742,34.706958],[137.274813,34.706851],[137.27554,34.706359],[137.275716,34.706287],[137.276041,34.705997],[137.275904,34.70568],[137.275512,34.70375],[137.275547,34.703717],[137.275401,34.703604],[137.275415,34.703471],[137.275338,34.703375],[137.274589,34.703433],[137.274153,34.703237],[137.273852,34.703327],[137.273236,34.702634],[137.273069,34.702361],[137.272638,34.702232],[137.272675,34.702149],[137.272939,34.70201],[137.274101,34.702463],[137.274178,34.702463],[137.274238,34.702404],[137.274217,34.702284],[137.273938,34.702189],[137.273821,34.701766],[137.273438,34.70132],[137.273106,34.701359],[137.272582,34.701719],[137.272273,34.701818],[137.271703,34.701685],[137.271376,34.701106],[137.271321,34.700774],[137.271162,34.700291],[137.271197,34.700013],[137.271504,34.699717],[137.2719,34.699514],[137.272136,34.699468],[137.272652,34.699489],[137.273881,34.700137],[137.274023,34.700165],[137.27404,34.699103],[137.274151,34.698846],[137.274131,34.698748],[137.273789,34.698426],[137.27362,34.698465],[137.27323,34.698727],[137.273104,34.698659],[137.27294,34.698654],[137.271879,34.698793],[137.271572,34.698779],[137.271258,34.698065],[137.270646,34.697649],[137.270615,34.697473],[137.270721,34.697287],[137.269267,34.697094],[137.269227,34.696933],[137.266878,34.694825],[137.266416,34.694511],[137.265939,34.694322],[137.264808,34.694137],[137.264252,34.694228],[137.264099,34.694153],[137.263827,34.694222],[137.262527,34.694907],[137.262363,34.693814],[137.262419,34.693483],[137.262564,34.693256],[137.262721,34.693159],[137.263439,34.693256],[137.26481,34.693159],[137.265202,34.693233],[137.265737,34.693538],[137.265812,34.693477],[137.265819,34.693359],[137.265581,34.693114],[137.265274,34.692622],[137.266389,34.692117],[137.266554,34.69197],[137.266987,34.691757],[137.267929,34.691083],[137.272282,34.688544],[137.272105,34.6877],[137.272129,34.687529],[137.272215,34.687379],[137.274894,34.687668],[137.275925,34.687847],[137.276878,34.688068],[137.278391,34.688519],[137.279607,34.688385],[137.280112,34.688197],[137.280626,34.688225],[137.281081,34.685829],[137.281002,34.685293],[137.281016,34.684939],[137.280574,34.68355],[137.280378,34.683184],[137.280024,34.682715],[137.279523,34.682283],[137.277572,34.681036],[137.277582,34.680946],[137.276749,34.680389],[137.276613,34.680249],[137.276626,34.68019],[137.276577,34.680146],[137.276547,34.680183],[137.276338,34.679933],[137.275858,34.679616],[137.275252,34.678869],[137.275122,34.678861],[137.275085,34.678547],[137.274841,34.677865],[137.274735,34.677811],[137.273814,34.677797],[137.272249,34.674393],[137.276152,34.671611],[137.276212,34.671537],[137.276048,34.671418],[137.277763,34.670449],[137.278987,34.670747],[137.279249,34.670768],[137.280056,34.670639],[137.28183,34.670199],[137.282008,34.670585],[137.281941,34.670625],[137.282043,34.670661],[137.282644,34.671938],[137.282722,34.67235],[137.283451,34.674122],[137.2838,34.674787],[137.283665,34.674755],[137.283584,34.674791],[137.283631,34.674865],[137.282537,34.675338],[137.282411,34.675431],[137.282828,34.675928],[137.28322,34.676288],[137.28346,34.676662],[137.284157,34.677508],[137.285401,34.676362],[137.288368,34.674384],[137.288768,34.674169],[137.288982,34.673745],[137.28865,34.6732],[137.288394,34.672937],[137.288395,34.672779],[137.287921,34.672784],[137.287391,34.672492],[137.287135,34.671689],[137.285983,34.671834],[137.28571,34.671331],[137.285616,34.670987],[137.285301,34.670392],[137.286689,34.670101],[137.286192,34.668693],[137.286681,34.668638],[137.286822,34.668558],[137.286764,34.668426],[137.286945,34.668377],[137.287924,34.668374],[137.28797,34.668443],[137.288611,34.668422],[137.288649,34.668375],[137.28863,34.668039],[137.286894,34.668137],[137.286212,34.668042],[137.284983,34.66799],[137.284252,34.668176],[137.281891,34.669027],[137.281491,34.669095],[137.28097,34.669102],[137.280783,34.669043],[137.27998,34.668088],[137.279965,34.667969],[137.279627,34.667684],[137.280154,34.667131],[137.280307,34.6664],[137.280136,34.666309],[137.279679,34.666748],[137.27956,34.666789],[137.279291,34.666614],[137.279537,34.666122],[137.279133,34.665858],[137.278632,34.665687],[137.278557,34.665594],[137.278857,34.665202],[137.279017,34.664863],[137.279231,34.664664],[137.279003,34.664293],[137.278803,34.664281],[137.278448,34.664108],[137.278205,34.663842],[137.278296,34.663691],[137.278617,34.66358],[137.278698,34.663326],[137.278353,34.663234],[137.278328,34.663119],[137.278441,34.662784],[137.278661,34.662756],[137.279016,34.662267],[137.279119,34.662066],[137.279178,34.661639],[137.279114,34.66156],[137.278893,34.66145],[137.278462,34.661325],[137.278276,34.661319],[137.277916,34.661094],[137.277621,34.66105],[137.277379,34.660842],[137.277056,34.661032],[137.27692,34.660808],[137.276713,34.660667],[137.275513,34.66145],[137.274906,34.661624],[137.274771,34.660855],[137.274517,34.659867],[137.273719,34.66031],[137.27327,34.660668],[137.271741,34.661609],[137.269068,34.661131],[137.264871,34.660009],[137.265152,34.661055],[137.265241,34.661233],[137.265474,34.661503],[137.266047,34.661785],[137.266128,34.662115],[137.266311,34.663515],[137.266471,34.664038],[137.266477,34.664197],[137.266531,34.664241],[137.266401,34.66454],[137.266427,34.66468],[137.266061,34.665003],[137.265171,34.665638],[137.264485,34.665892],[137.261507,34.664178],[137.259356,34.662852],[137.259016,34.662805],[137.258797,34.662719],[137.258542,34.662749],[137.257943,34.663473],[137.257058,34.662662],[137.256896,34.6626],[137.256217,34.663121],[137.255882,34.663424],[137.25611,34.663626],[137.256302,34.663981],[137.256967,34.664286],[137.257447,34.664592],[137.257811,34.66474],[137.258227,34.664784],[137.258198,34.665019],[137.258486,34.665196],[137.258636,34.665361],[137.258825,34.665449],[137.258975,34.665772],[137.2592,34.665917],[137.259308,34.666265],[137.259828,34.667054],[137.260687,34.667435],[137.260468,34.667736],[137.260286,34.66818],[137.260549,34.668405],[137.260562,34.668486],[137.260128,34.668983],[137.259964,34.669511],[137.25941,34.66977],[137.259201,34.669793],[137.258929,34.670002],[137.258821,34.670237],[137.259075,34.670449],[137.259072,34.670515],[137.259789,34.670635],[137.259842,34.670692],[137.26003,34.670745],[137.259821,34.671499],[137.259879,34.671548],[137.260188,34.671435],[137.26084,34.671567],[137.260815,34.671684],[137.260655,34.671856],[137.259914,34.672411],[137.260455,34.672926],[137.260241,34.673468],[137.259952,34.67386],[137.260297,34.674186],[137.260441,34.674507],[137.259913,34.676451],[137.260206,34.676555],[137.260182,34.677025],[137.260133,34.677138],[137.256003,34.676336],[137.25562,34.676961],[137.255383,34.677097],[137.254819,34.677279],[137.254069,34.677601],[137.252726,34.678548],[137.252004,34.678917],[137.251471,34.679507],[137.251191,34.679549],[137.250943,34.679835],[137.250633,34.679799],[137.249882,34.67995],[137.249451,34.679926],[137.248976,34.679713],[137.247727,34.679017],[137.247298,34.678939],[137.247116,34.67901],[137.246745,34.679301],[137.246295,34.679208],[137.246151,34.678942],[137.246071,34.678597],[137.246468,34.678473],[137.246536,34.678411],[137.246428,34.677981],[137.246516,34.677808],[137.246749,34.677631],[137.247189,34.677437],[137.247198,34.677382],[137.247026,34.677151],[137.247076,34.67703],[137.247173,34.676948],[137.247414,34.67695],[137.247575,34.677045],[137.247736,34.677279],[137.247847,34.677279],[137.248422,34.676638],[137.248604,34.676185],[137.248605,34.676046],[137.2488,34.675775],[137.249131,34.675711],[137.249387,34.675567],[137.24951,34.674802],[137.249411,34.67437],[137.249298,34.674142],[137.249225,34.673265],[137.249099,34.672972],[137.249005,34.672838],[137.248664,34.672551],[137.248634,34.672302],[137.248252,34.672052],[137.248325,34.671789],[137.248281,34.671748],[137.247983,34.671781],[137.247063,34.671739],[137.245398,34.671364],[137.244802,34.671316],[137.244652,34.671189],[137.244508,34.671186],[137.244097,34.670997],[137.243295,34.670753],[137.24297,34.670255],[137.242945,34.669674],[137.242782,34.668985],[137.24307,34.668542],[137.24318,34.668186],[137.243277,34.668115],[137.243621,34.668154],[137.243922,34.668057],[137.244936,34.668319],[137.245069,34.66849],[137.245119,34.6688],[137.245209,34.668944],[137.245427,34.669109],[137.246082,34.669466],[137.246657,34.669092],[137.247315,34.668982],[137.247303,34.668823],[137.247432,34.668509],[137.24832,34.668381],[137.24853,34.668113],[137.24847,34.667945],[137.248919,34.667916],[137.249353,34.667954],[137.249748,34.667892],[137.250513,34.667606],[137.250968,34.667645],[137.251243,34.667725],[137.251876,34.667612],[137.253387,34.667179],[137.253906,34.667094],[137.25424,34.666988],[137.254554,34.666959],[137.254723,34.666897],[137.25507,34.666643],[137.255131,34.666553],[137.255131,34.666424],[137.255044,34.666289],[137.254664,34.666056],[137.254246,34.665967],[137.253674,34.665928],[137.253348,34.666064],[137.253246,34.666052],[137.252911,34.665764],[137.251998,34.665477],[137.251534,34.665442],[137.250066,34.665573],[137.249793,34.665488],[137.249634,34.665376],[137.249301,34.665032],[137.248926,34.664441],[137.248408,34.663804],[137.248001,34.663529],[137.247592,34.663371],[137.247182,34.662824],[137.247006,34.662694],[137.24683,34.662644],[137.246692,34.66249],[137.246625,34.662289],[137.246191,34.661946],[137.246154,34.661843],[137.246213,34.661586],[137.245574,34.66157],[137.24531,34.661199],[137.244835,34.660899],[137.244929,34.660564],[137.244872,34.660181],[137.244703,34.659993],[137.244211,34.659636],[137.244163,34.659513],[137.244234,34.659328],[137.244621,34.658851],[137.2447,34.658597],[137.244901,34.658315],[137.244986,34.658073],[137.24493,34.657867],[137.244859,34.657888],[137.244154,34.658687],[137.244035,34.658776],[137.24395,34.65877],[137.243375,34.658387],[137.242165,34.657291],[137.242516,34.656852],[137.242367,34.656608],[137.2411,34.655797],[137.240726,34.655667],[137.240242,34.65529],[137.239569,34.655021],[137.238566,34.654721],[137.237271,34.654681],[137.236765,34.654796],[137.236604,34.654615],[137.236216,34.654333],[137.23582,34.654136],[137.235715,34.654139],[137.235408,34.653987],[137.234839,34.653933],[137.234529,34.653988],[137.233766,34.654551],[137.233469,34.654947],[137.233125,34.655228],[137.232565,34.65588],[137.232126,34.656115],[137.23162,34.656336],[137.231313,34.656358],[137.230348,34.656589],[137.230112,34.65661],[137.229428,34.656497],[137.229274,34.656417],[137.22897,34.656379],[137.228426,34.656204],[137.228239,34.656078],[137.228243,34.656016],[137.227979,34.655735],[137.227891,34.655457],[137.22766,34.655034],[137.226688,34.653618],[137.226637,34.653428],[137.225876,34.652866],[137.225626,34.652574],[137.22492,34.652002],[137.224874,34.65187],[137.224667,34.651706],[137.22435,34.651567],[137.224118,34.651526],[137.223771,34.651295],[137.223396,34.651227],[137.222715,34.651199],[137.221966,34.651413],[137.221319,34.65134],[137.220951,34.651554],[137.220739,34.651892],[137.220406,34.652039],[137.220317,34.652123],[137.22029,34.652236],[137.220338,34.652417],[137.220295,34.652581],[137.219534,34.652715],[137.219493,34.652771],[137.219527,34.652884],[137.219731,34.653081],[137.219738,34.653137],[137.219622,34.653329],[137.21922,34.653503],[137.219104,34.653616],[137.219091,34.653701],[137.219336,34.653954],[137.219193,34.654123],[137.219132,34.654365],[137.219363,34.654484],[137.219978,34.654534],[137.219949,34.654681],[137.219983,34.654822],[137.219806,34.655075],[137.219731,34.6553],[137.219731,34.655469],[137.21984,34.655627],[137.219472,34.655751],[137.2192,34.656022],[137.218662,34.65632],[137.218532,34.656568],[137.218173,34.656767],[137.218219,34.656916],[137.218416,34.657114],[137.21887,34.65742],[137.21913,34.657669],[137.219132,34.657725],[137.218993,34.657855],[137.218625,34.657943],[137.218301,34.657706],[137.21779,34.657531],[137.217572,34.657509],[137.217442,34.657644],[137.217436,34.657813],[137.217537,34.658038],[137.217572,34.65832],[137.217524,34.658399],[137.217422,34.658399],[137.216949,34.658176],[137.215831,34.657038],[137.215685,34.656973],[137.215303,34.65699],[137.215092,34.657047],[137.214705,34.657345],[137.213669,34.65739],[137.213471,34.657464],[137.213335,34.657661],[137.213348,34.657773],[137.213587,34.658134],[137.213893,34.658286],[137.214711,34.658309],[137.215085,34.658376],[137.216039,34.658376],[137.216332,34.658461],[137.216284,34.658799],[137.216393,34.659209],[137.216334,34.65939],[137.216168,34.659424],[137.21593,34.659317],[137.215658,34.659294],[137.215419,34.659317],[137.215031,34.659435],[137.214847,34.659627],[137.214847,34.659767],[137.214922,34.659914],[137.214894,34.659959],[137.214629,34.660106],[137.214458,34.660404],[137.214166,34.660483],[137.21407,34.66059],[137.214193,34.660816],[137.214342,34.660956],[137.214322,34.66121],[137.214397,34.661322],[137.214465,34.661373],[137.214943,34.661458],[137.215305,34.661688],[137.215219,34.661836],[137.21524,34.662015],[137.215041,34.662771],[137.215289,34.662928],[137.215274,34.663129],[137.215425,34.663388],[137.215541,34.664077],[137.215731,34.664268],[137.215798,34.664772],[137.216015,34.665179],[137.215897,34.665524],[137.215848,34.66592],[137.21596,34.666776],[137.216014,34.666904],[137.216179,34.667017],[137.216692,34.667148],[137.216863,34.667159],[137.217067,34.667074],[137.217646,34.667125],[137.219059,34.666864],[137.219408,34.666713],[137.219514,34.666712],[137.21945,34.666856],[137.219338,34.666951],[137.21902,34.667127],[137.218093,34.667483],[137.217553,34.667616],[137.217296,34.667775],[137.217169,34.667948],[137.217148,34.668112],[137.217374,34.668698],[137.217573,34.668975],[137.217823,34.669069],[137.218436,34.669159],[137.218913,34.669446],[137.219703,34.669705],[137.219887,34.669829],[137.220053,34.670026],[137.22038,34.6701],[137.220619,34.67001],[137.220793,34.669649],[137.221324,34.669283],[137.221719,34.668697],[137.222219,34.668724],[137.222291,34.668754],[137.222329,34.668841],[137.222392,34.669324],[137.222598,34.669846],[137.222567,34.669973],[137.222659,34.670327],[137.222828,34.670455],[137.223462,34.670708],[137.223626,34.670726],[137.223779,34.670673],[137.224114,34.670885],[137.224253,34.670813],[137.224565,34.670481],[137.224646,34.670126],[137.225183,34.668976],[137.225262,34.66888],[137.225477,34.668798],[137.225791,34.669067],[137.226134,34.66953],[137.22615,34.669721],[137.226307,34.669999],[137.226279,34.670267],[137.226392,34.67036],[137.226488,34.670366],[137.226672,34.670223],[137.226809,34.669987],[137.227196,34.66953],[137.227498,34.669328],[137.227715,34.669381],[137.228051,34.669745],[137.228207,34.669683],[137.228261,34.669471],[137.228149,34.669045],[137.228154,34.668792],[137.228245,34.668434],[137.228406,34.66812],[137.228449,34.667866],[137.228763,34.66704],[137.228829,34.66701],[137.229683,34.667064],[137.229891,34.666996],[137.23064,34.666559],[137.23094,34.66655],[137.231252,34.665978],[137.231423,34.665824],[137.231657,34.6657],[137.231796,34.665694],[137.231989,34.665791],[137.23195,34.666028],[137.23136,34.666677],[137.230941,34.66741],[137.230813,34.667727],[137.230218,34.668634],[137.230142,34.668849],[137.230154,34.669179],[137.229775,34.669716],[137.229755,34.669835],[137.229344,34.670465],[137.229307,34.670606],[137.229351,34.670687],[137.229641,34.670752],[137.230185,34.67076],[137.230909,34.670683],[137.231453,34.670693],[137.231636,34.670463],[137.23193,34.669408],[137.232024,34.669262],[137.232215,34.669137],[137.232734,34.668983],[137.232845,34.669041],[137.233232,34.669711],[137.233472,34.669918],[137.233874,34.670074],[137.234206,34.670066],[137.234483,34.669972],[137.234716,34.669801],[137.234996,34.669389],[137.235458,34.668456],[137.235506,34.668247],[137.235901,34.668081],[137.235996,34.668104],[137.235996,34.668293],[137.235763,34.668714],[137.235771,34.668807],[137.235539,34.669495],[137.235541,34.66969],[137.235616,34.669783],[137.236002,34.669897],[137.236028,34.669955],[137.235641,34.670475],[137.235545,34.670527],[137.235141,34.670559],[137.234559,34.670881],[137.234159,34.670942],[137.233692,34.671112],[137.233147,34.671098],[137.233029,34.671164],[137.232865,34.671143],[137.232041,34.671272],[137.232024,34.671549],[137.232139,34.672357],[137.232093,34.672479],[137.231811,34.672433],[137.231284,34.672169],[137.230949,34.671939],[137.230637,34.671843],[137.230468,34.671737],[137.230116,34.671703],[137.229789,34.671997],[137.229602,34.672082],[137.229531,34.672196],[137.228266,34.673261],[137.227823,34.673555],[137.227567,34.673857],[137.22729,34.674011],[137.22674,34.674499],[137.225879,34.675137],[137.225629,34.675429],[137.225341,34.675459],[137.22478,34.675408],[137.223883,34.674772],[137.222678,34.674474],[137.222553,34.6744],[137.220271,34.673891],[137.219822,34.673861],[137.21925,34.673735],[137.218895,34.673741],[137.218476,34.673889],[137.218234,34.674122],[137.21812,34.674733],[137.218314,34.675436],[137.215632,34.676654],[137.215278,34.676308],[137.215085,34.676191],[137.214475,34.676287],[137.213744,34.676488],[137.213465,34.676499],[137.21246,34.676837],[137.211626,34.676806],[137.210275,34.676633],[137.209305,34.676571],[137.208974,34.676597],[137.208409,34.676814],[137.208038,34.676864],[137.207606,34.676681],[137.206744,34.676039],[137.206407,34.676016],[137.205797,34.676089],[137.205705,34.675927],[137.205262,34.675518],[137.204746,34.674878],[137.204091,34.674264],[137.204069,34.674208],[137.204108,34.674144],[137.204283,34.674069],[137.204329,34.673993],[137.204146,34.673876],[137.203696,34.67337],[137.202838,34.672314],[137.20263,34.671994],[137.20242,34.671812],[137.202012,34.671254],[137.201605,34.670837],[137.201577,34.67023],[137.201554,34.67013],[137.201401,34.66994],[137.199982,34.668989],[137.19951,34.668413],[137.199287,34.66785],[137.198575,34.667599],[137.198188,34.667364],[137.198077,34.667229],[137.198137,34.66703],[137.198086,34.666965],[137.197198,34.667474],[137.196961,34.667468],[137.196435,34.667202],[137.196315,34.667083],[137.196533,34.666694],[137.196596,34.666489],[137.196727,34.666315],[137.19672,34.66624],[137.196123,34.665991],[137.19572,34.665876],[137.195142,34.665581],[137.194123,34.665263],[137.193714,34.665346],[137.193014,34.665599],[137.192852,34.665608],[137.191914,34.665934],[137.191705,34.665964],[137.190949,34.666237],[137.190836,34.666317],[137.190269,34.666481],[137.189038,34.666142],[137.188398,34.666111],[137.187297,34.666357],[137.186705,34.666439],[137.186539,34.666418],[137.186241,34.666075],[137.185718,34.665593],[137.185635,34.665461],[137.184935,34.664769],[137.184185,34.664119],[137.183892,34.663773],[137.183042,34.66305],[137.182732,34.66272],[137.182165,34.662266],[137.182033,34.662106],[137.181258,34.661477],[137.180257,34.660506],[137.179373,34.65981],[137.178526,34.659065],[137.178155,34.658642],[137.17799,34.658548],[137.17609,34.65811],[137.17542,34.657869],[137.173544,34.657452],[137.173441,34.657382],[137.173474,34.657275],[137.173397,34.657185],[137.172827,34.657094],[137.172735,34.656788],[137.172769,34.65665],[137.172715,34.656374],[137.172415,34.656433],[137.172098,34.656434],[137.170889,34.655983],[137.170606,34.655823],[137.170531,34.65551],[137.170341,34.655382],[137.170205,34.655387],[137.169863,34.655521],[137.169365,34.655581],[137.168465,34.655519],[137.166728,34.655079],[137.166487,34.654985],[137.16618,34.654785],[137.165945,34.65472],[137.164499,34.654828],[137.164011,34.654776],[137.162596,34.654375],[137.16165,34.653942],[137.161305,34.653978],[137.161122,34.653886],[137.160947,34.654383],[137.160944,34.65464],[137.159388,34.654165],[137.157086,34.653866],[137.156314,34.653981],[137.155839,34.65414],[137.155029,34.65376],[137.154759,34.653718],[137.154324,34.654814],[137.15211,34.654273],[137.149878,34.653986],[137.149732,34.653903],[137.148158,34.65252],[137.147989,34.652441],[137.147647,34.65242],[137.147331,34.652272],[137.147648,34.652008],[137.147468,34.651839],[137.147067,34.652068],[137.145514,34.652527],[137.144694,34.652705],[137.142644,34.652945],[137.138187,34.654458],[137.136375,34.655137],[137.134983,34.655457],[137.134093,34.655518],[137.133338,34.655469],[137.130088,34.653929],[137.129108,34.653217],[137.129065,34.653114],[137.129046,34.652858],[137.129586,34.652068],[137.129756,34.651741],[137.129671,34.651517],[137.129965,34.651618],[137.130167,34.651517],[137.130383,34.651515],[137.130782,34.651646],[137.13156,34.651695],[137.132192,34.651853],[137.132664,34.6519],[137.132884,34.65183],[137.13317,34.651563],[137.134165,34.650949],[137.134715,34.651039],[137.135688,34.651099],[137.136087,34.651042],[137.136313,34.650943],[137.137018,34.650772],[137.137334,34.650399],[137.137488,34.650459],[137.137548,34.650417],[137.137518,34.650259],[137.137769,34.649997],[137.138043,34.649586],[137.138286,34.649149],[137.138261,34.64911],[137.138375,34.649134],[137.138404,34.649101],[137.138341,34.648932],[137.138437,34.648969],[137.140245,34.64664],[137.140254,34.646456],[137.141149,34.645361],[137.141128,34.645317],[137.141614,34.644862],[137.142285,34.644504],[137.142201,34.644375],[137.142051,34.644229],[137.140548,34.645476],[137.140201,34.645347],[137.139607,34.644963],[137.139349,34.644605],[137.138858,34.643756],[137.138203,34.643299],[137.137674,34.642729],[137.137423,34.642304],[137.137135,34.64137],[137.135446,34.640874],[137.134361,34.640337],[137.13412,34.640369],[137.13395,34.640278],[137.133878,34.640342],[137.133926,34.640161],[137.133855,34.639978],[137.133637,34.639701],[137.133319,34.639412],[137.131595,34.63875],[137.130892,34.638606],[137.129342,34.638113],[137.128651,34.638078],[137.128249,34.6382],[137.127893,34.638039],[137.127234,34.63798],[137.126964,34.638018],[137.126764,34.63798],[137.126448,34.638087],[137.126471,34.638034],[137.126228,34.637835],[137.125775,34.637564],[137.125217,34.637377],[137.123477,34.636657],[137.121408,34.63558],[137.120236,34.635231],[137.119649,34.634627],[137.119544,34.634576],[137.119586,34.634483],[137.11939,34.634281],[137.1192,34.63423],[137.118947,34.634263],[137.118284,34.633821],[137.117196,34.63361],[137.116977,34.633527],[137.116905,34.633606],[137.116602,34.633426],[137.116386,34.633373],[137.115729,34.633399],[137.115593,34.63334],[137.115582,34.633383],[137.115527,34.633381],[137.113771,34.632867],[137.113131,34.632765],[137.112254,34.632431],[137.112113,34.632272],[137.112229,34.631652],[137.112281,34.631636],[137.113324,34.631743],[137.1135,34.632232],[137.114022,34.632425],[137.114131,34.632378],[137.114154,34.632081],[137.114179,34.632024],[137.114272,34.631999],[137.114472,34.632037],[137.11442,34.632372],[137.114474,34.632468],[137.114752,34.632487],[137.114825,34.632541],[137.115131,34.632507],[137.115212,34.632397],[137.115483,34.632441],[137.115543,34.632538],[137.115635,34.632557],[137.115774,34.632485],[137.116077,34.632453],[137.116141,34.632399],[137.116169,34.63228],[137.116262,34.632242],[137.116312,34.63228],[137.116317,34.632413],[137.11641,34.632436],[137.116716,34.632428],[137.116809,34.632283],[137.116902,34.632288],[137.116948,34.632326],[137.116933,34.632482],[137.117243,34.632568],[137.117899,34.632465],[137.11835,34.632541],[137.118519,34.632752],[137.119253,34.632836],[137.119563,34.632929],[137.12052,34.633502],[137.121069,34.633687],[137.121482,34.633904],[137.121827,34.63361],[137.121897,34.633602],[137.122072,34.633702],[137.122113,34.633781],[137.121827,34.634115],[137.121816,34.634208],[137.121961,34.634261],[137.12212,34.634213],[137.122625,34.634439],[137.122861,34.63421],[137.123099,34.634185],[137.123729,34.634545],[137.124889,34.633602],[137.124606,34.633451],[137.123881,34.633219],[137.123624,34.633092],[137.123483,34.632582],[137.12326,34.63237],[137.120906,34.631415],[137.120856,34.631402],[137.12077,34.631632],[137.120401,34.631507],[137.120231,34.631318],[137.119539,34.630931],[137.118119,34.630283],[137.118052,34.630167],[137.117888,34.630141],[137.117918,34.63005],[137.117773,34.629966],[137.11778,34.629854],[137.117736,34.629795],[137.11728,34.629551],[137.117193,34.629585],[137.11702,34.629831],[137.116932,34.629883],[137.115338,34.629243],[137.115168,34.629427],[137.114852,34.629981],[137.114882,34.630035],[137.116314,34.630586],[137.116506,34.630701],[137.116714,34.630626],[137.117721,34.630885],[137.117736,34.63095],[137.117464,34.631592],[137.117145,34.631662],[137.116479,34.631539],[137.115861,34.631349],[137.115787,34.631275],[137.115796,34.63104],[137.11574,34.631013],[137.115473,34.631001],[137.115336,34.631331],[137.115108,34.631359],[137.115012,34.631308],[137.114833,34.631045],[137.114414,34.63102],[137.114265,34.630898],[137.113653,34.630794],[137.112801,34.63076],[137.112691,34.630819],[137.112595,34.631033],[137.112172,34.630997],[137.112108,34.630962],[137.11221,34.630371],[137.112362,34.630064],[137.111603,34.629766],[137.111362,34.629822],[137.111293,34.629967],[137.111225,34.630007],[137.11049,34.629863],[137.110388,34.630685],[137.110339,34.630753],[137.110216,34.630636],[137.110105,34.630604],[137.110028,34.630483],[137.109413,34.630346],[137.108333,34.629855],[137.110662,34.62729],[137.110627,34.627221],[137.10975,34.62665],[137.107823,34.625473],[137.106915,34.625176],[137.104698,34.624575],[137.105481,34.62257],[137.105019,34.622105],[137.104942,34.621776],[137.104979,34.621482],[137.104835,34.621453],[137.104628,34.621943],[137.104505,34.622077],[137.104146,34.62279],[137.103501,34.622737],[137.103272,34.622885],[137.103172,34.622892],[137.103061,34.622845],[137.103002,34.62271],[137.102933,34.622675],[137.102085,34.622557],[137.101889,34.623505],[137.101846,34.623516],[137.098178,34.621786],[137.097923,34.621749],[137.097767,34.62228],[137.097659,34.622352],[137.097465,34.62227],[137.097399,34.622292],[137.096864,34.622813],[137.096534,34.623378],[137.09535,34.622687],[137.094647,34.622522],[137.09448,34.622434],[137.094159,34.624822],[137.093939,34.625411],[137.093605,34.625892],[137.093078,34.625646],[137.092641,34.625563],[137.09226,34.625325],[137.091595,34.626226],[137.091597,34.626282],[137.091811,34.626452],[137.092785,34.62659],[137.092995,34.626674],[137.093172,34.626858],[137.093314,34.626851],[137.093391,34.62707],[137.093534,34.627242],[137.093844,34.627364],[137.093865,34.627409],[137.094419,34.627184],[137.094707,34.627123],[137.094737,34.627168],[137.094934,34.627167],[137.094935,34.627224],[137.095456,34.6275],[137.095731,34.62755],[137.096682,34.627493],[137.097613,34.627332],[137.098786,34.62727],[137.09879,34.627641],[137.099236,34.627667],[137.100502,34.627908],[137.100854,34.628048],[137.102373,34.629496],[137.102786,34.630109],[137.102924,34.630481],[137.102955,34.630761],[137.102373,34.632912],[137.102162,34.633971],[137.102169,34.635861],[137.102002,34.637413],[137.10199,34.638038],[137.101922,34.638177],[137.102,34.63905],[137.102177,34.639554],[137.102306,34.639649],[137.103372,34.639463],[137.10365,34.639484],[137.106414,34.641605],[137.106522,34.641816],[137.106535,34.64199],[137.106369,34.64265],[137.105087,34.643602],[137.103253,34.644301],[137.102557,34.645069],[137.102482,34.645203],[137.102174,34.645476],[137.100989,34.645829],[137.100337,34.645982],[137.099545,34.646005],[137.098109,34.645772],[137.097452,34.645838],[137.096777,34.645782],[137.095621,34.646034],[137.094503,34.646808],[137.092938,34.646863],[137.090516,34.647163],[137.0892,34.64709],[137.087676,34.647227],[137.087434,34.646894],[137.087137,34.644577],[137.087128,34.644205],[137.087364,34.643495],[137.087391,34.643322],[137.087354,34.643187],[137.087034,34.64315],[137.086079,34.642817],[137.086017,34.642858],[137.085959,34.643134],[137.085982,34.64358],[137.086609,34.644096],[137.086682,34.645327],[137.08674,34.64548],[137.086744,34.645872],[137.086793,34.645966],[137.086752,34.646223],[137.08679,34.6465],[137.086742,34.646549],[137.085868,34.646728],[137.085345,34.646662],[137.08497,34.646678],[137.084888,34.646824],[137.08507,34.647093],[137.085632,34.64749],[137.08612,34.648147],[137.086404,34.648409],[137.086408,34.648513],[137.086494,34.648644],[137.086175,34.648905],[137.086155,34.648971],[137.08621,34.649049],[137.08633,34.649084],[137.086756,34.64887],[137.087512,34.649133],[137.08749,34.649355],[137.087554,34.649459],[137.088914,34.649891],[137.089146,34.650066],[137.089275,34.65028],[137.08939,34.650574],[137.089722,34.654005],[137.090083,34.654079],[137.090306,34.654052],[137.090321,34.65397],[137.090202,34.653891],[137.090145,34.65377],[137.090262,34.653622],[137.090423,34.653563],[137.090606,34.653636],[137.090702,34.653834],[137.090608,34.654176],[137.090562,34.654982],[137.090429,34.655494],[137.090465,34.655701],[137.09022,34.656064],[137.090287,34.656281],[137.090196,34.656393],[137.090053,34.656815],[137.089532,34.656943],[137.089399,34.657033],[137.088954,34.657095],[137.088484,34.657381],[137.088164,34.657458],[137.087869,34.657882],[137.087518,34.658056],[137.087592,34.658158],[137.086661,34.658685],[137.086363,34.658807],[137.085824,34.657704],[137.085659,34.657788],[137.085297,34.658138],[137.085021,34.658231],[137.083202,34.659331],[137.081437,34.660105],[137.080167,34.660591],[137.078715,34.660937],[137.078033,34.660885],[137.076659,34.661098],[137.074825,34.660885],[137.072742,34.660602],[137.071139,34.660036],[137.070864,34.659803],[137.071042,34.659719],[137.072158,34.65884],[137.074944,34.656247],[137.076885,34.656303],[137.077015,34.656272],[137.077214,34.656311],[137.078109,34.656202],[137.079932,34.655015],[137.080672,34.654343],[137.081155,34.653688],[137.080759,34.653284],[137.080024,34.65365],[137.079005,34.65431],[137.076957,34.655239],[137.076737,34.655295],[137.075471,34.655903],[137.075096,34.655919],[137.072226,34.656351],[137.072097,34.65617],[137.07197,34.656086],[137.069632,34.656744],[137.063339,34.651352],[137.062268,34.649496],[137.062375,34.648854],[137.060198,34.645356],[137.063803,34.643929],[137.060945,34.639354],[137.058165,34.64048],[137.055281,34.634456],[137.05411,34.632086],[137.053625,34.631243],[137.047242,34.620731],[137.047003,34.620858],[137.046877,34.620738],[137.04579,34.61898],[137.045496,34.618379],[137.044985,34.617624],[137.044596,34.616866],[137.044454,34.616733],[137.044449,34.616655],[137.043798,34.615698],[137.043243,34.614743],[137.043134,34.614643],[137.042575,34.613758],[137.042562,34.613619],[137.042161,34.613062],[137.041557,34.611955],[137.041209,34.611449],[137.041187,34.611363],[137.045601,34.609504],[137.045144,34.60872],[137.044609,34.608932],[137.044276,34.608789],[137.044227,34.608672],[137.044063,34.608539],[137.043863,34.60825],[137.043217,34.606992],[137.043119,34.60668],[137.042826,34.606113],[137.042749,34.60607],[137.042587,34.60615],[137.042492,34.606109],[137.042055,34.605447],[137.041681,34.605083],[137.040228,34.602645],[137.040107,34.602588],[137.039953,34.602712],[137.039825,34.602597],[137.039655,34.602247],[137.039264,34.601668],[137.038982,34.601337],[137.038875,34.601088],[137.038159,34.600047],[137.0381,34.599875],[137.037573,34.599158],[137.037275,34.598953],[137.037574,34.598496],[137.037823,34.598214],[137.037878,34.598061],[137.038316,34.59761],[137.038757,34.597359],[137.038945,34.597323],[137.039342,34.59712],[137.040016,34.596718],[137.04039,34.596594],[137.040858,34.596353],[137.041008,34.596214],[137.040979,34.596111],[137.040422,34.595494],[137.040331,34.595247],[137.040319,34.594812],[137.04023,34.594562],[137.040055,34.594369],[137.03969,34.59423],[137.039246,34.594186],[137.038943,34.594078],[137.038597,34.593358],[137.038436,34.592875],[137.038087,34.592218],[137.037887,34.591733],[137.037446,34.591116],[137.037182,34.590845],[137.036895,34.5907],[137.036551,34.590762],[137.035399,34.590317],[137.033599,34.589998],[137.033626,34.589523],[137.036457,34.59001],[137.037034,34.59],[137.038264,34.589834],[137.038975,34.589097],[137.038997,34.589018],[137.039505,34.58843],[137.039852,34.588125],[137.039791,34.587798],[137.039596,34.58741],[137.039445,34.586923],[137.03942,34.586729],[137.039508,34.586531],[137.039496,34.586455],[137.039367,34.586385],[137.03853,34.586174],[137.038371,34.585989],[137.038128,34.585561],[137.038038,34.585489],[137.037471,34.585374],[137.03721,34.585397],[137.037005,34.585499],[137.036905,34.585461],[137.036744,34.585501],[137.036481,34.585466],[137.036476,34.585371],[137.036703,34.584943],[137.036716,34.584802],[137.036887,34.584605],[137.036914,34.584492],[137.036784,34.583937],[137.036837,34.583854],[137.03698,34.583828],[137.037318,34.584013],[137.038259,34.584755],[137.038785,34.585019],[137.039044,34.585085],[137.039168,34.585065],[137.039691,34.584477],[137.039832,34.584379],[137.03988,34.584269],[137.040392,34.583904],[137.040418,34.583807],[137.040364,34.583572],[137.04047,34.583429],[137.040633,34.583365],[137.040861,34.583419],[137.040534,34.582912],[137.040496,34.58278],[137.040606,34.582508],[137.041059,34.581753],[137.041948,34.581307],[137.042555,34.581448],[137.043228,34.581158],[137.043584,34.581102],[137.043908,34.581149],[137.048044,34.582307],[137.049456,34.583168],[137.051368,34.584027],[137.053218,34.585088],[137.05473,34.584951],[137.055575,34.584953],[137.057733,34.585136],[137.060887,34.585529],[137.064699,34.586308],[137.06998,34.587513],[137.075907,34.588597],[137.079829,34.589241],[137.087084,34.59063],[137.087988,34.590898],[137.090298,34.591855],[137.090917,34.591638],[137.091811,34.59166],[137.09226,34.591756],[137.092777,34.591565],[137.093271,34.591604],[137.093476,34.591804],[137.093593,34.591999],[137.093623,34.592199],[137.093789,34.592482],[137.093864,34.592465],[137.093889,34.592291],[137.093975,34.59215],[137.094185,34.592056],[137.094416,34.592035],[137.095487,34.592267],[137.095555,34.591753],[137.095658,34.591634],[137.096601,34.591482],[137.09719,34.591469],[137.09733,34.591359],[137.097789,34.591185],[137.097815,34.59105],[137.097937,34.591014],[137.098048,34.590897],[137.09835,34.590721],[137.098564,34.590661],[137.100262,34.590622],[137.10048,34.590808],[137.100604,34.591217],[137.100849,34.591505],[137.101043,34.591845],[137.101819,34.591689],[137.106503,34.590217],[137.107508,34.590019],[137.108765,34.589919],[137.109768,34.589997],[137.111514,34.590569],[137.111986,34.59031],[137.112116,34.590117],[137.1124,34.589475],[137.113462,34.589206],[137.115377,34.589064],[137.115222,34.588556],[137.115346,34.588332],[137.115648,34.588214],[137.116255,34.58802],[137.116818,34.587942],[137.117189,34.588057],[137.11774,34.588086],[137.117967,34.588024],[137.118303,34.588013],[137.118559,34.588022],[137.118707,34.588101],[137.118831,34.588102],[137.119181,34.587975],[137.119638,34.587948],[137.119925,34.587698],[137.121296,34.587712],[137.121846,34.587955],[137.122456,34.588054],[137.122799,34.588207],[137.12372,34.588395],[137.12533,34.588561],[137.126754,34.588826],[137.127511,34.589098],[137.127633,34.589083],[137.127945,34.589246],[137.127968,34.589291],[137.127504,34.589849],[137.127375,34.59009],[137.126623,34.590385],[137.125781,34.590614],[137.125717,34.590682],[137.125715,34.590761],[137.12586,34.590855],[137.126781,34.59088],[137.127469,34.590815],[137.127543,34.590713],[137.127625,34.590274],[137.127735,34.590044],[137.127848,34.589925],[137.127802,34.58987],[137.127924,34.589814],[137.128237,34.58945],[137.12843,34.589146],[137.128652,34.589079],[137.128905,34.5891],[137.129776,34.588824],[137.130174,34.588813],[137.130938,34.589096],[137.131435,34.58908],[137.131863,34.589189],[137.132156,34.589437],[137.132425,34.589962],[137.132435,34.590079],[137.132915,34.590636],[137.133034,34.590879],[137.133108,34.590896],[137.133249,34.590877],[137.133332,34.590795],[137.133436,34.590774],[137.133455,34.590709],[137.133268,34.590294],[137.132861,34.589966],[137.132739,34.589802],[137.132706,34.589608],[137.132737,34.589074],[137.132826,34.589044],[137.132983,34.589155],[137.133069,34.589345],[137.133085,34.589576],[137.133356,34.589831],[137.133536,34.590276],[137.133733,34.590464],[137.133902,34.590425],[137.134105,34.590185],[137.133565,34.589356],[137.13349,34.589162],[137.133584,34.589082],[137.133825,34.589102],[137.13454,34.589327],[137.135748,34.589953],[137.136278,34.590087],[137.136561,34.590127],[137.13713,34.590083],[137.137338,34.590127],[137.138213,34.590073],[137.138968,34.590131],[137.139319,34.590013],[137.13973,34.590095],[137.140247,34.59035],[137.140696,34.590341],[137.140933,34.590279],[137.14164,34.590309],[137.141904,34.59038],[137.142625,34.590641],[137.142259,34.590996],[137.141791,34.591671],[137.141809,34.591798],[137.142046,34.591889],[137.142462,34.591874],[137.142572,34.591715],[137.142689,34.591365],[137.142892,34.591149],[137.143291,34.590893],[137.143915,34.59074],[137.144684,34.591012],[137.145208,34.591137],[137.145399,34.591272],[137.145686,34.591323],[137.145897,34.591452],[137.146471,34.59161],[137.14651,34.591806],[137.146286,34.59239],[137.146343,34.592489],[137.146583,34.59255],[137.146705,34.592488],[137.146854,34.592107],[137.14709,34.591948],[137.147709,34.592155],[137.147879,34.592306],[137.147996,34.592462],[137.147995,34.592895],[137.148087,34.592981],[137.148421,34.593016],[137.148452,34.592805],[137.148781,34.592521],[137.148903,34.592476],[137.149704,34.592609],[137.150295,34.592637],[137.150697,34.592591],[137.151171,34.592698],[137.151314,34.592752],[137.151745,34.593064],[137.152274,34.593219],[137.153583,34.593931],[137.154397,34.594244],[137.154852,34.59437],[137.15565,34.594364],[137.156041,34.594757],[137.156865,34.594726],[137.157003,34.594827],[137.157079,34.59496],[137.157245,34.595031],[137.157587,34.59532],[137.157805,34.595433],[137.15804,34.595442],[137.158207,34.595368],[137.158372,34.595359],[137.15875,34.595431],[137.158844,34.595531],[137.158879,34.595746],[137.158955,34.595851],[137.159591,34.595986],[137.159847,34.596121],[137.159949,34.596253],[137.159951,34.596406],[137.159815,34.596587],[137.159823,34.596723],[137.159693,34.597116],[137.159841,34.597248],[137.160069,34.597666],[137.16032,34.597713],[137.160495,34.597583],[137.16058,34.596709],[137.160511,34.596303],[137.160613,34.596222],[137.160871,34.596163],[137.162014,34.59665],[137.16259,34.596949],[137.163372,34.596998],[137.163854,34.59715],[137.163994,34.597329],[137.163961,34.597839],[137.164005,34.597902],[137.164195,34.59795],[137.1645,34.597679],[137.164689,34.597614],[137.164782,34.597628],[137.165331,34.597854],[137.165639,34.597927],[137.165856,34.598061],[137.165879,34.59835],[137.165801,34.598514],[137.165841,34.598587],[137.166167,34.598344],[137.166333,34.59833],[137.166875,34.598653],[137.166868,34.599058],[137.167016,34.599186],[137.167226,34.599113],[137.167379,34.59918],[137.167507,34.599337],[137.167221,34.59989],[137.167271,34.600324],[137.167428,34.600494],[137.167727,34.60023],[137.168505,34.599972],[137.168973,34.599957],[137.169303,34.600036],[137.169603,34.600204],[137.169803,34.600525],[137.169906,34.600705],[137.169971,34.601092],[137.170089,34.601304],[137.17054,34.601323],[137.170599,34.601262],[137.170741,34.601231],[137.170777,34.601057],[137.171183,34.600746],[137.171306,34.600696],[137.171588,34.600719],[137.171907,34.600998],[137.171859,34.601194],[137.171878,34.601626],[137.171829,34.601762],[137.171832,34.60184],[137.171926,34.601903],[137.173211,34.602002],[137.175095,34.60273],[137.175631,34.602816],[137.176925,34.602829],[137.177059,34.602718],[137.177682,34.602866],[137.178033,34.602991],[137.178681,34.603346],[137.178751,34.603521],[137.179473,34.60366],[137.179514,34.603754],[137.179785,34.603807],[137.179934,34.603945],[137.180172,34.603948],[137.180305,34.60401],[137.180377,34.604174],[137.180501,34.604252],[137.180666,34.604253],[137.180914,34.604344],[137.181515,34.604848],[137.181761,34.60496],[137.183388,34.605312],[137.184111,34.605649],[137.18524,34.605713],[137.185884,34.606076],[137.184802,34.607392],[137.184654,34.607468],[137.184636,34.60756],[137.184727,34.607822],[137.184856,34.607966],[137.185626,34.608426],[137.185599,34.608701],[137.185755,34.609094],[137.185717,34.609177],[137.186127,34.609661],[137.187713,34.610257],[137.188046,34.610647],[137.188162,34.611065],[137.188205,34.611076],[137.188245,34.611325],[137.188431,34.611672],[137.188906,34.611744],[137.190027,34.612236],[137.190265,34.61229],[137.190547,34.612242],[137.190943,34.612023],[137.191054,34.611903],[137.191017,34.611825],[137.190701,34.611615],[137.190575,34.611423],[137.190544,34.611093],[137.190632,34.610857],[137.190789,34.610625],[137.190285,34.610417],[137.189932,34.610181],[137.189706,34.609963],[137.189027,34.609963],[137.188164,34.60973],[137.188025,34.609324],[137.188049,34.609255],[137.188546,34.608863],[137.189123,34.608532],[137.189549,34.608492],[137.190147,34.60763],[137.191086,34.60765],[137.191877,34.60788],[137.192877,34.608249],[137.193569,34.608432],[137.193855,34.60859],[137.193614,34.608605],[137.193383,34.608554],[137.193193,34.608582],[137.192471,34.608356],[137.192218,34.608444],[137.191888,34.608432],[137.191498,34.608829],[137.191406,34.608851],[137.191189,34.608798],[137.191024,34.608896],[137.190998,34.608997],[137.191175,34.609127],[137.191,34.609362],[137.191135,34.609481],[137.191092,34.609614],[137.191246,34.609694],[137.19109,34.609948],[137.191458,34.610159],[137.191126,34.610849],[137.191101,34.611372],[137.191394,34.611379],[137.191475,34.611564],[137.191646,34.611653],[137.192548,34.61178],[137.192596,34.61182],[137.192575,34.611916],[137.192616,34.611972],[137.193141,34.612188],[137.193263,34.612149],[137.193443,34.611998],[137.194097,34.612214],[137.194188,34.61241],[137.194567,34.612542],[137.194573,34.612719],[137.195051,34.61291],[137.19517,34.613059],[137.195513,34.613149],[137.195358,34.613599],[137.199243,34.614546],[137.199309,34.614401],[137.200019,34.614605],[137.200215,34.6143],[137.200892,34.614517],[137.200887,34.614676],[137.200977,34.614739],[137.201187,34.614572],[137.202428,34.614842],[137.202584,34.614725],[137.203085,34.614836],[137.203129,34.614923],[137.202924,34.615655],[137.202751,34.615949],[137.202764,34.61602],[137.203352,34.616162],[137.203832,34.616198],[137.204687,34.616518],[137.20514,34.616113],[137.205265,34.616079],[137.205412,34.616137],[137.205488,34.61623],[137.205408,34.616775],[137.206687,34.617194],[137.206761,34.617167],[137.207055,34.616749],[137.207083,34.616595],[137.207194,34.616403],[137.20726,34.616405],[137.207356,34.616453],[137.20747,34.616608],[137.2075,34.617109],[137.208198,34.617101],[137.208418,34.616625],[137.208799,34.616347],[137.208694,34.616176],[137.208713,34.615861],[137.208784,34.61573],[137.209418,34.615795],[137.209505,34.615573],[137.209901,34.615557],[137.210299,34.615241],[137.210965,34.615349],[137.211025,34.61531],[137.211056,34.615186],[137.211123,34.61515],[137.211508,34.615441],[137.21205,34.615412],[137.212447,34.615542],[137.212334,34.616263],[137.211943,34.616545],[137.211745,34.616916],[137.212026,34.617067],[137.21233,34.617127],[137.212671,34.617368],[137.213007,34.617457],[137.213097,34.617426],[137.213264,34.617032],[137.213581,34.616672],[137.213595,34.616321],[137.213752,34.616148],[137.213957,34.616214],[137.214046,34.616407],[137.214072,34.61666],[137.214286,34.616791],[137.214852,34.616802],[137.215063,34.616877],[137.21525,34.616757],[137.215368,34.61656],[137.215589,34.616436],[137.215591,34.616185],[137.215474,34.616079],[137.215354,34.616077],[137.214979,34.616291],[137.214627,34.616298],[137.214411,34.616207],[137.214344,34.616088],[137.214309,34.615833],[137.214142,34.615662],[137.214133,34.615495],[137.215135,34.61504],[137.215372,34.615014],[137.215687,34.615199],[137.21592,34.615176],[137.216252,34.615286],[137.216416,34.615252],[137.21648,34.615112],[137.216741,34.615097],[137.216915,34.615215],[137.217145,34.615266],[137.217438,34.615447],[137.217881,34.615814],[137.217746,34.615991],[137.217907,34.616162],[137.217931,34.616337],[137.217722,34.61673],[137.218119,34.617153],[137.218156,34.617564],[137.217933,34.618311],[137.21775,34.618623],[137.217217,34.619025],[137.217633,34.619173],[137.218266,34.619153],[137.218323,34.619217],[137.218451,34.619804],[137.218311,34.619974],[137.21791,34.620006],[137.217821,34.620067],[137.217853,34.620729],[137.217434,34.621033],[137.217688,34.621322],[137.217672,34.621397],[137.217244,34.621604],[137.216642,34.621063],[137.216523,34.621042],[137.215127,34.621855],[137.214834,34.622349],[137.214585,34.622976],[137.214339,34.623274],[137.213983,34.62314],[137.213501,34.622874],[137.213412,34.622899],[137.213241,34.623488],[137.213599,34.623855],[137.213751,34.624065],[137.213767,34.624162],[137.213713,34.624286],[137.213399,34.624575],[137.213051,34.624801],[137.212808,34.625958],[137.212122,34.627828],[137.212125,34.627887],[137.212217,34.627924],[137.213869,34.627946],[137.214792,34.627773],[137.214915,34.627871],[137.215184,34.628393],[137.214475,34.628717],[137.21392,34.628897],[137.21232,34.629187],[137.211574,34.629123],[137.210982,34.630493],[137.209484,34.632537],[137.20942,34.632819],[137.209507,34.633377],[137.20934,34.634246],[137.209186,34.634676],[137.208374,34.636363],[137.208333,34.636527],[137.206539,34.63575],[137.205849,34.635522],[137.20277,34.634966],[137.202283,34.634765],[137.201572,34.634331],[137.2015,34.634721],[137.201417,34.634748],[137.201057,34.634627],[137.199853,34.634646],[137.19929,34.634776],[137.198823,34.635056],[137.198704,34.635435],[137.198483,34.635568],[137.198297,34.63557],[137.197915,34.635459],[137.197512,34.63549],[137.196272,34.635421],[137.196305,34.635846],[137.196236,34.636294],[137.1959,34.637183],[137.195626,34.637716],[137.194748,34.639093],[137.194511,34.63933],[137.194232,34.639491],[137.193029,34.639953],[137.192828,34.640209],[137.19246,34.641982],[137.192515,34.64208],[137.193905,34.642564],[137.193861,34.642663],[137.193535,34.642935],[137.193518,34.643053],[137.193597,34.643447],[137.193752,34.643696],[137.194182,34.644021],[137.194233,34.644524],[137.194116,34.644888],[137.19434,34.64542],[137.194659,34.646495],[137.19526,34.647187],[137.195724,34.648298],[137.195897,34.648433],[137.196672,34.648668],[137.197567,34.649089],[137.197864,34.649308],[137.198119,34.649705],[137.198477,34.650024],[137.198946,34.65026],[137.199457,34.650447],[137.200542,34.650719],[137.200746,34.650831],[137.201965,34.651943],[137.202004,34.651939],[137.202083,34.651742],[137.202116,34.651751],[137.202579,34.650705],[137.202858,34.649991],[137.202899,34.649737],[137.202881,34.649259],[137.202671,34.648166],[137.202609,34.646504],[137.202647,34.646032],[137.202881,34.645317],[137.203169,34.644697],[137.203707,34.644507],[137.20432,34.644429],[137.205113,34.643922],[137.205095,34.643695],[137.204952,34.643541],[137.204447,34.643279],[137.204014,34.643219],[137.203897,34.643073],[137.204669,34.641667],[137.205211,34.641718],[137.205878,34.641535],[137.206221,34.641503],[137.208808,34.641536],[137.209299,34.641502],[137.209432,34.641474],[137.210426,34.640543],[137.210898,34.640203],[137.211078,34.640153],[137.211633,34.640134],[137.212567,34.640195],[137.212621,34.640251],[137.212893,34.640083],[137.214049,34.639132],[137.214233,34.639034],[137.21442,34.638601],[137.214277,34.638346],[137.214263,34.638213],[137.214345,34.637975],[137.214682,34.637409],[137.214785,34.637286],[137.215207,34.637272],[137.215347,34.637217],[137.216041,34.636717],[137.216156,34.63652],[137.216151,34.636267],[137.2162,34.636131],[137.216492,34.63585],[137.21677,34.635725],[137.217125,34.6357],[137.217954,34.635784],[137.21854,34.635263],[137.218634,34.635236],[137.219299,34.63471],[137.220386,34.634033],[137.221509,34.633514],[137.222494,34.633223],[137.222512,34.632717],[137.222639,34.632523],[137.22308,34.632183],[137.222833,34.63179],[137.222981,34.630663],[137.223127,34.630258],[137.223049,34.630061],[137.222904,34.629816],[137.222537,34.629444],[137.222441,34.629385],[137.222074,34.629325],[137.221956,34.629033],[137.221438,34.628361],[137.221369,34.628105],[137.22086,34.627805],[137.220543,34.627498],[137.220465,34.624936],[137.220826,34.624645],[137.221157,34.624583],[137.221213,34.624535],[137.221233,34.623991],[137.221463,34.623812],[137.221575,34.623632],[137.221736,34.623491],[137.222439,34.623396],[137.222583,34.62334],[137.222798,34.623227],[137.223164,34.622785],[137.223506,34.62231],[137.223643,34.621389],[137.223669,34.620863],[137.223631,34.620648],[137.223086,34.62011],[137.222713,34.619611],[137.222591,34.619377],[137.222501,34.619321],[137.221855,34.619182],[137.22136,34.619018],[137.220588,34.619324],[137.220513,34.619238],[137.220422,34.618713],[137.220074,34.618701],[137.219809,34.618613],[137.219221,34.618533],[137.219211,34.618481],[137.219261,34.618266],[137.219236,34.617974],[137.219487,34.61793],[137.219673,34.617771],[137.219758,34.617476],[137.219755,34.61728],[137.220029,34.617001],[137.219946,34.616798],[137.219393,34.616616],[137.219278,34.616001],[137.219458,34.615906],[137.219664,34.615937],[137.219736,34.61574],[137.220042,34.615659],[137.220407,34.615315],[137.220454,34.615236],[137.220429,34.614753],[137.220571,34.614601],[137.220782,34.614488],[137.221043,34.614094],[137.22122,34.613659],[137.22133,34.613597],[137.221436,34.613661],[137.221427,34.614478],[137.221299,34.614756],[137.221016,34.615129],[137.221101,34.615362],[137.221262,34.61538],[137.221476,34.61558],[137.221661,34.615612],[137.221763,34.61568],[137.222116,34.614718],[137.22223,34.614542],[137.222416,34.614523],[137.222561,34.614613],[137.222853,34.614922],[137.223434,34.615337],[137.223793,34.615529],[137.224058,34.615737],[137.224865,34.616113],[137.224987,34.616328],[137.224935,34.616558],[137.224533,34.616806],[137.224391,34.616953],[137.224453,34.617061],[137.224732,34.617152],[137.224736,34.617296],[137.224553,34.617541],[137.224395,34.61764],[137.224147,34.617608],[137.224043,34.61755],[137.223899,34.617613],[137.223619,34.618052],[137.224134,34.618223],[137.224353,34.618243],[137.225173,34.617276],[137.225597,34.617353],[137.225865,34.617541],[137.225852,34.617613],[137.225517,34.618174],[137.225017,34.618532],[137.22514,34.618795],[137.225274,34.618877],[137.226056,34.618682],[137.226224,34.61845],[137.226228,34.618028],[137.226552,34.617613],[137.22718,34.617662],[137.226831,34.618258],[137.226663,34.618814],[137.22678,34.619417],[137.226872,34.619516],[137.227335,34.619692],[137.227438,34.619647],[137.227449,34.619323],[137.227521,34.619032],[137.227655,34.618756],[137.227891,34.618544],[137.228142,34.618582],[137.228274,34.618707],[137.22832,34.618941],[137.228492,34.61913],[137.229008,34.618873],[137.229342,34.618919],[137.229404,34.619055],[137.22939,34.619134],[137.228589,34.619873],[137.228628,34.61993],[137.228868,34.62001],[137.229273,34.620034],[137.229887,34.61979],[137.230193,34.619159],[137.230466,34.618899],[137.23017,34.618125],[137.230268,34.617688],[137.230364,34.617614],[137.230486,34.617602],[137.230624,34.617672],[137.230665,34.617887],[137.230888,34.618344],[137.231195,34.618772],[137.231529,34.61908],[137.231591,34.619273],[137.231528,34.619392],[137.231431,34.619431],[137.231144,34.619379],[137.23093,34.619286],[137.230824,34.619343],[137.230649,34.620303],[137.230658,34.620596],[137.23078,34.620767],[137.230895,34.620811],[137.231346,34.620683],[137.231978,34.620438],[137.23226,34.620376],[137.232396,34.620289],[137.232821,34.620263],[137.233344,34.620352],[137.234286,34.620298],[137.234698,34.62062],[137.234865,34.620674],[137.235077,34.620634],[137.235425,34.620374],[137.23577,34.620258],[137.235985,34.620248],[137.236439,34.620413],[137.237121,34.620245],[137.237354,34.620245],[137.238005,34.620471],[137.238693,34.620804],[137.238881,34.621203],[137.239042,34.621396],[137.239686,34.621578],[137.240726,34.62162],[137.240944,34.621814],[137.240988,34.621949],[137.241283,34.622196],[137.241806,34.622261],[137.241975,34.622374],[137.242381,34.622505],[137.243225,34.622412],[137.243459,34.622433],[137.243986,34.622597],[137.244556,34.622575],[137.245269,34.622721],[137.245551,34.62294],[137.245832,34.623362],[137.245853,34.623538],[137.245935,34.623711],[137.246362,34.624261],[137.247131,34.624472],[137.247945,34.624085],[137.248752,34.624623],[137.248908,34.624792],[137.249184,34.625274],[137.249405,34.625436],[137.250355,34.625634],[137.250542,34.625737],[137.250864,34.626083],[137.250925,34.626218],[137.251356,34.626449],[137.251387,34.626759],[137.251617,34.62704],[137.251733,34.627004],[137.25217,34.626547],[137.252631,34.626289],[137.253297,34.626292],[137.253888,34.62636],[137.254321,34.626521],[137.254776,34.626869],[137.255534,34.627694],[137.255795,34.628096],[137.255722,34.628472],[137.255573,34.628809],[137.255445,34.628966],[137.255472,34.629041],[137.256137,34.62917],[137.256478,34.629307],[137.257949,34.629697],[137.258645,34.63007],[137.25878,34.630012],[137.259176,34.629604],[137.259601,34.629593],[137.260596,34.629911],[137.260979,34.629935],[137.261144,34.629994],[137.261382,34.629986],[137.261785,34.630098],[137.262374,34.630172],[137.262955,34.630503],[137.263288,34.630618],[137.263993,34.630503],[137.26489,34.630593],[137.265701,34.630931],[137.26631,34.631252],[137.267204,34.63149],[137.267613,34.631651],[137.269019,34.631996],[137.269772,34.631855],[137.270677,34.632073],[137.271032,34.632229],[137.271773,34.632443],[137.272299,34.632692],[137.272468,34.632925],[137.272618,34.633256],[137.272694,34.633303],[137.272925,34.633208],[137.27329,34.632889],[137.273598,34.632159],[137.273793,34.632023],[137.274098,34.632101],[137.274286,34.632367],[137.274288,34.632497],[137.274161,34.632758],[137.274265,34.633005],[137.275539,34.632906],[137.276223,34.633172],[137.27695,34.633563],[137.278045,34.633821],[137.278303,34.633737],[137.278533,34.633592],[137.278768,34.633123],[137.279006,34.632948],[137.279293,34.632875],[137.27956,34.632897],[137.280451,34.633222],[137.280425,34.633597],[137.280247,34.634068],[137.280251,34.634186],[137.280115,34.634439],[137.279975,34.634502],[137.279783,34.634699],[137.279495,34.635486],[137.279519,34.635659],[137.280176,34.635745],[137.281072,34.635711],[137.281334,34.635752],[137.281853,34.63574],[137.282395,34.635686],[137.282796,34.635722],[137.283267,34.63556],[137.283503,34.635539],[137.283659,34.635627],[137.283679,34.635916],[137.2838,34.636044],[137.284225,34.636079],[137.284705,34.636344],[137.285485,34.63641],[137.285841,34.636542],[137.286074,34.63638],[137.286379,34.635966],[137.286462,34.635921],[137.286911,34.635976],[137.287295,34.636125],[137.288693,34.636398],[137.289271,34.636589],[137.28988,34.636681],[137.289973,34.636856],[137.289952,34.636953],[137.289992,34.637027],[137.290584,34.63739],[137.290421,34.63788],[137.290824,34.638106],[137.290885,34.638185],[137.290733,34.638376],[137.290476,34.638516],[137.290045,34.638884],[137.289948,34.639079],[137.289952,34.639218],[137.290105,34.639385],[137.290263,34.639381],[137.290499,34.639225],[137.290728,34.638948],[137.291025,34.638686],[137.291492,34.638405],[137.292265,34.638158],[137.293444,34.638022],[137.293704,34.638072],[137.293914,34.638174],[137.294062,34.63832],[137.294069,34.638476],[137.294212,34.638863],[137.294174,34.63898],[137.294191,34.639411],[137.294102,34.639802],[137.294125,34.639904],[137.294224,34.639955],[137.294939,34.639861],[137.295218,34.639915],[137.295246,34.63984],[137.295213,34.639782],[137.294872,34.63932],[137.294588,34.638485],[137.294594,34.63835],[137.29479,34.638131],[137.294862,34.638085],[137.294983,34.638097],[137.29526,34.638311],[137.295399,34.638546],[137.295729,34.638822],[137.296049,34.638994],[137.296257,34.639058],[137.296358,34.639034],[137.296551,34.638861],[137.296548,34.638802],[137.295909,34.638442],[137.295646,34.638189],[137.295574,34.637983],[137.295821,34.637883],[137.297039,34.638256],[137.297133,34.638236],[137.297388,34.638357],[137.297447,34.638491],[137.297417,34.638612],[137.297174,34.638802],[137.297069,34.638797],[137.297062,34.638963],[137.297618,34.639287],[137.297629,34.639374],[137.297297,34.640015],[137.297498,34.640211],[137.297613,34.640254],[137.297796,34.640122],[137.298232,34.639624],[137.298815,34.639221],[137.298908,34.6392],[137.299259,34.639292],[137.299796,34.638855],[137.300285,34.638593],[137.300544,34.63859],[137.300984,34.638691],[137.301056,34.63889],[137.300841,34.639273],[137.299621,34.640244],[137.299235,34.640739],[137.299086,34.641036],[137.299195,34.641093],[137.299577,34.641016],[137.299714,34.640676],[137.299772,34.64065],[137.300158,34.640701],[137.300224,34.640861],[137.3003,34.640915],[137.300731,34.640899],[137.301435,34.641034],[137.301607,34.641185],[137.301532,34.641642],[137.299806,34.64264],[137.299534,34.642996],[137.299461,34.643203],[137.298979,34.643622],[137.298346,34.644591],[137.297867,34.645064],[137.297541,34.645299],[137.297256,34.645819],[137.296902,34.646869],[137.296627,34.647297],[137.294608,34.647958],[137.292803,34.649054],[137.292436,34.649347],[137.290974,34.651308],[137.288901,34.65469],[137.288448,34.655192],[137.287366,34.65617],[137.28744,34.656238],[137.287844,34.657102],[137.287997,34.657811],[137.288759,34.657644],[137.289181,34.657645],[137.289811,34.659814],[137.290012,34.659985],[137.290484,34.660761],[137.291039,34.661385],[137.291292,34.661584],[137.291988,34.661742],[137.293165,34.6618],[137.293395,34.66197],[137.293585,34.662007],[137.293739,34.662108],[137.294019,34.662496],[137.294379,34.662729],[137.294524,34.662741],[137.294746,34.662403],[137.2947,34.662113],[137.295201,34.661821],[137.295806,34.660849],[137.296662,34.6602],[137.296832,34.659754],[137.297677,34.658842],[137.298204,34.657902],[137.298507,34.657101],[137.298684,34.656307],[137.298819,34.656146],[137.299541,34.656123],[137.3,34.655983],[137.300092,34.656065],[137.300006,34.656263],[137.300037,34.656372],[137.300194,34.656415],[137.300626,34.656327],[137.300855,34.656353],[137.301743,34.657232],[137.302403,34.656456],[137.302564,34.656332],[137.303298,34.656022],[137.304604,34.655879],[137.305545,34.655535],[137.306203,34.655114],[137.307184,34.654843],[137.308044,34.654014],[137.308622,34.653689],[137.30934,34.653414],[137.309929,34.653268],[137.310209,34.653257],[137.310494,34.653162],[137.310929,34.652797],[137.31109,34.652583],[137.311227,34.652521],[137.31127,34.652383],[137.311443,34.65217],[137.311845,34.65186],[137.312071,34.651604],[137.312662,34.65046],[137.312757,34.650399],[137.313104,34.650442],[137.313602,34.651129],[137.313935,34.651444],[137.315605,34.652377],[137.315924,34.652491],[137.316162,34.654475],[137.316144,34.654634],[137.315996,34.654881]],[[137.24265,34.639957],[137.244294,34.639918],[137.243967,34.637876],[137.243447,34.637273],[137.242245,34.637854],[137.24199,34.638776],[137.241228,34.638845],[137.241667,34.639511],[137.242393,34.639488],[137.24265,34.639957]],[[137.053341,34.596911],[137.052775,34.596894],[137.052103,34.597027],[137.051218,34.597354],[137.05019,34.598053],[137.049878,34.59847],[137.050175,34.59882],[137.050556,34.599101],[137.055682,34.601737],[137.058948,34.60351],[137.059553,34.603757],[137.059998,34.60388],[137.061444,34.604122],[137.063957,34.605041],[137.064086,34.60467],[137.064317,34.604314],[137.064594,34.604395],[137.064714,34.60435],[137.065065,34.60371],[137.065059,34.603584],[137.065141,34.603516],[137.065263,34.603527],[137.065343,34.603601],[137.066788,34.60417],[137.066909,34.604228],[137.066998,34.604406],[137.067187,34.605197],[137.067167,34.60546],[137.067254,34.605593],[137.067292,34.606032],[137.06747,34.60618],[137.069227,34.607345],[137.070327,34.607891],[137.071125,34.608129],[137.072338,34.608408],[137.073364,34.608744],[137.07348,34.607319],[137.073099,34.605554],[137.073013,34.605334],[137.071539,34.604383],[137.071258,34.604412],[137.071142,34.604481],[137.071021,34.604458],[137.070743,34.604598],[137.070646,34.604598],[137.070284,34.604389],[137.07019,34.604274],[137.070511,34.603854],[137.070509,34.60378],[137.069567,34.603031],[137.069474,34.603047],[137.069199,34.603331],[137.069035,34.603388],[137.067123,34.602428],[137.067087,34.602079],[137.06671,34.60177],[137.065883,34.601261],[137.065832,34.601179],[137.065904,34.601021],[137.06587,34.600947],[137.06442,34.600136],[137.063998,34.600439],[137.06347,34.600226],[137.063324,34.600281],[137.062742,34.599895],[137.061638,34.599605],[137.061495,34.599642],[137.061217,34.599837],[137.06077,34.599875],[137.060608,34.600026],[137.060479,34.600079],[137.059357,34.600004],[137.059138,34.599864],[137.058865,34.59945],[137.058465,34.599088],[137.058209,34.598942],[137.057816,34.598863],[137.057181,34.598929],[137.056682,34.59879],[137.056451,34.598848],[137.056353,34.59853],[137.055824,34.597332],[137.0554,34.597599],[137.055121,34.597617],[137.054044,34.597238],[137.05357,34.596954],[137.053341,34.596911]],[[137.214342,34.667131],[137.214431,34.666962],[137.214506,34.666483],[137.214703,34.665779],[137.214683,34.665384],[137.214785,34.665131],[137.214778,34.664905],[137.214846,34.664736],[137.214846,34.664325],[137.214601,34.663554],[137.21458,34.663282],[137.214706,34.662968],[137.214868,34.662239],[137.214878,34.661861],[137.214766,34.66174],[137.214415,34.661661],[137.213981,34.661669],[137.213844,34.661695],[137.213669,34.661873],[137.213316,34.661867],[137.212967,34.662077],[137.212694,34.661953],[137.212558,34.661948],[137.212285,34.662066],[137.211877,34.662061],[137.211604,34.662139],[137.211509,34.662224],[137.211359,34.662494],[137.211543,34.662776],[137.211413,34.662973],[137.211413,34.663086],[137.210807,34.663266],[137.210603,34.663395],[137.210494,34.663535],[137.210199,34.663574],[137.209742,34.663754],[137.209712,34.663842],[137.209781,34.664191],[137.209737,34.664361],[137.209666,34.664388],[137.209504,34.664249],[137.209147,34.664084],[137.208947,34.663846],[137.208685,34.663655],[137.208544,34.663684],[137.208334,34.663649],[137.208041,34.66397],[137.207708,34.664111],[137.207544,34.664055],[137.207456,34.663643],[137.207315,34.663525],[137.206987,34.663571],[137.206563,34.663902],[137.206148,34.662979],[137.206073,34.662866],[137.205916,34.662764],[137.205409,34.662787],[137.204826,34.66268],[137.204405,34.662728],[137.203593,34.662922],[137.203321,34.663091],[137.203198,34.663277],[137.203201,34.663506],[137.203457,34.663745],[137.203537,34.663883],[137.203568,34.664307],[137.203428,34.664599],[137.2033,34.664721],[137.203123,34.665435],[137.203035,34.665604],[137.203055,34.665857],[137.202987,34.666111],[137.203007,34.666251],[137.203191,34.666477],[137.203884,34.666796],[137.203955,34.666871],[137.203952,34.667032],[137.204023,34.667178],[137.203981,34.667334],[137.204124,34.667357],[137.204067,34.667743],[137.204381,34.668517],[137.204942,34.669575],[137.205262,34.669913],[137.205286,34.670117],[137.205619,34.670499],[137.205748,34.670753],[137.2057,34.671147],[137.205857,34.671569],[137.206078,34.671554],[137.20857,34.671826],[137.21455,34.675575],[137.214823,34.675299],[137.214864,34.675074],[137.214803,34.674961],[137.214652,34.674854],[137.214094,34.674753],[137.21393,34.674651],[137.213978,34.674296],[137.213896,34.674127],[137.213671,34.673975],[137.213694,34.673574],[137.213596,34.673421],[137.213416,34.673314],[137.213189,34.673265],[137.212898,34.67337],[137.212491,34.673254],[137.212116,34.673271],[137.211946,34.673181],[137.211618,34.672843],[137.211639,34.672758],[137.211911,34.672618],[137.212034,34.672482],[137.212103,34.672251],[137.21212,34.671772],[137.212414,34.671627],[137.212423,34.671554],[137.212625,34.671542],[137.212791,34.671423],[137.213132,34.671001],[137.213482,34.670708],[137.214107,34.669964],[137.214104,34.669671],[137.213906,34.669074],[137.213736,34.668736],[137.213852,34.668567],[137.214002,34.667948],[137.214342,34.667131]],[[137.065358,34.592684],[137.065104,34.592712],[137.064999,34.592419],[137.06521,34.592354],[137.065262,34.591112],[137.065852,34.59117],[137.067099,34.591141],[137.067103,34.590186],[137.066064,34.590207],[137.065855,34.589998],[137.065754,34.589758],[137.065519,34.589455],[137.065144,34.589158],[137.064728,34.588949],[137.064168,34.588822],[137.062635,34.5883],[137.060239,34.587778],[137.058868,34.587572],[137.058531,34.587283],[137.056998,34.58739],[137.056762,34.58745],[137.056459,34.587626],[137.056241,34.587677],[137.055772,34.5879],[137.054603,34.58866],[137.054444,34.588854],[137.054081,34.589844],[137.054065,34.590152],[137.054175,34.590461],[137.054239,34.591279],[137.054366,34.59159],[137.054381,34.59204],[137.054549,34.592923],[137.054553,34.593271],[137.054715,34.593755],[137.054894,34.593984],[137.055117,34.594158],[137.055647,34.594411],[137.056168,34.594753],[137.056633,34.594833],[137.056683,34.595009],[137.056822,34.595144],[137.057617,34.595455],[137.057813,34.595395],[137.058931,34.59463],[137.059115,34.594557],[137.059904,34.594545],[137.060272,34.594639],[137.060573,34.594775],[137.06085,34.594965],[137.061088,34.595216],[137.061345,34.595686],[137.061428,34.596008],[137.061382,34.596217],[137.061269,34.596378],[137.061079,34.596514],[137.060671,34.596694],[137.060531,34.596839],[137.060483,34.597075],[137.060623,34.597376],[137.060915,34.59753],[137.061446,34.597539],[137.061566,34.597629],[137.06166,34.597868],[137.061745,34.597912],[137.062324,34.597825],[137.06251,34.597865],[137.062642,34.598023],[137.062637,34.598442],[137.062719,34.598579],[137.063178,34.598728],[137.063443,34.598868],[137.064018,34.599417],[137.064787,34.599697],[137.065196,34.599753],[137.065443,34.599742],[137.06605,34.599599],[137.065999,34.599265],[137.066079,34.598797],[137.066536,34.598301],[137.066976,34.59812],[137.067442,34.597801],[137.067666,34.597529],[137.067932,34.597029],[137.067255,34.596064],[137.066196,34.594214],[137.065994,34.593744],[137.065792,34.593458],[137.065601,34.593292],[137.065358,34.592684]],[[137.140478,34.636263],[137.140717,34.636303],[137.142115,34.636202],[137.142376,34.636096],[137.143092,34.635647],[137.143304,34.635572],[137.143854,34.635552],[137.143969,34.635704],[137.147045,34.632838],[137.149156,34.629164],[137.14767,34.620985],[137.147659,34.620451],[137.147741,34.619428],[137.147703,34.619264],[137.147859,34.618751],[137.149173,34.619273],[137.150746,34.619261],[137.151886,34.619493],[137.152197,34.619497],[137.15274,34.619593],[137.153945,34.619632],[137.154078,34.619706],[137.153419,34.620325],[137.15324,34.62062],[137.152771,34.620768],[137.152206,34.621007],[137.152109,34.621088],[137.151624,34.622056],[137.151142,34.622633],[137.151006,34.622867],[137.150516,34.62342],[137.150029,34.624426],[137.150375,34.625262],[137.150548,34.626017],[137.150618,34.626154],[137.150605,34.626366],[137.151004,34.62785],[137.151565,34.628542],[137.151558,34.628655],[137.151929,34.629254],[137.152102,34.629701],[137.152071,34.629737],[137.152219,34.630383],[137.152011,34.631008],[137.152027,34.631265],[137.151966,34.631577],[137.152178,34.632471],[137.152182,34.632842],[137.1524,34.633697],[137.152541,34.633991],[137.152691,34.6341],[137.153281,34.634377],[137.153476,34.6344],[137.153545,34.634462],[137.153883,34.634547],[137.154141,34.634569],[137.154588,34.634518],[137.155342,34.634332],[137.155667,34.634184],[137.156263,34.633649],[137.156445,34.632493],[137.156406,34.630954],[137.156315,34.630873],[137.155674,34.63087],[137.155628,34.630813],[137.156201,34.630232],[137.156992,34.629537],[137.157017,34.629457],[137.156476,34.628961],[137.156358,34.62894],[137.156171,34.629041],[137.156078,34.629022],[137.155668,34.628661],[137.155169,34.62834],[137.155067,34.628183],[137.155047,34.627777],[137.155183,34.627439],[137.15593,34.626936],[137.156329,34.626985],[137.156989,34.626971],[137.157202,34.626858],[137.157784,34.626381],[137.157958,34.626043],[137.157991,34.625576],[137.157911,34.624404],[137.157969,34.623697],[137.158014,34.623601],[137.158107,34.62352],[137.158293,34.62347],[137.158502,34.623596],[137.158584,34.623726],[137.158574,34.623944],[137.158625,34.624156],[137.158996,34.624814],[137.159603,34.625375],[137.159681,34.625542],[137.160062,34.626003],[137.160273,34.626088],[137.160443,34.626099],[137.160769,34.626086],[137.161006,34.625989],[137.161716,34.625617],[137.162349,34.625006],[137.162721,34.625064],[137.162643,34.625568],[137.162529,34.625922],[137.162635,34.626002],[137.162899,34.626074],[137.164062,34.62552],[137.164951,34.624987],[137.165136,34.624942],[137.165953,34.624478],[137.166132,34.624182],[137.166105,34.624045],[137.16673,34.622976],[137.16707,34.622151],[137.166972,34.621608],[137.166991,34.621375],[137.166931,34.621158],[137.166966,34.621044],[137.166845,34.620777],[137.166258,34.620815],[137.166158,34.620745],[137.166111,34.620625],[137.166016,34.620588],[137.165447,34.620602],[137.164597,34.620536],[137.164123,34.620548],[137.163935,34.620506],[137.163202,34.620524],[137.16242,34.620458],[137.162303,34.620343],[137.16232,34.620146],[137.162393,34.620077],[137.162429,34.61995],[137.16363,34.619693],[137.163958,34.619685],[137.164852,34.619496],[137.165599,34.618958],[137.165848,34.618658],[137.165856,34.61854],[137.166101,34.618151],[137.166138,34.617992],[137.166158,34.61758],[137.166106,34.617272],[137.166105,34.616722],[137.165864,34.615889],[137.165581,34.615283],[137.16556,34.615074],[137.165287,34.614453],[137.164298,34.613651],[137.16344,34.613151],[137.162313,34.612774],[137.16199,34.612708],[137.161536,34.612742],[137.160935,34.612977],[137.160599,34.613199],[137.160014,34.613153],[137.159963,34.613066],[137.160007,34.612866],[137.160084,34.612785],[137.160133,34.612298],[137.160004,34.611831],[137.159819,34.611603],[137.159867,34.611373],[137.159864,34.611014],[137.159792,34.610918],[137.159429,34.610751],[137.15812,34.610386],[137.156626,34.610139],[137.155244,34.609633],[137.15392,34.609558],[137.153636,34.609484],[137.153394,34.609356],[137.152846,34.608944],[137.151841,34.608599],[137.151243,34.60808],[137.151063,34.607814],[137.151069,34.607776],[137.151204,34.607755],[137.151609,34.607902],[137.152018,34.607957],[137.152485,34.607924],[137.153283,34.607753],[137.154036,34.607726],[137.154296,34.607784],[137.154424,34.607908],[137.154524,34.608065],[137.154508,34.608217],[137.154591,34.608285],[137.156855,34.609075],[137.157408,34.609022],[137.158516,34.609082],[137.160025,34.608976],[137.160445,34.608898],[137.160612,34.608959],[137.160893,34.608943],[137.160719,34.607602],[137.160517,34.607032],[137.160394,34.606966],[137.16021,34.606944],[137.159664,34.606934],[137.158706,34.60663],[137.158356,34.606474],[137.158373,34.606141],[137.158882,34.605899],[137.158998,34.60574],[137.159076,34.605365],[137.159148,34.605295],[137.158819,34.604878],[137.15877,34.60475],[137.158343,34.604285],[137.158075,34.604106],[137.157185,34.604269],[137.157021,34.604266],[137.156658,34.604147],[137.156325,34.603977],[137.156058,34.603762],[137.155008,34.602784],[137.155136,34.602701],[137.15544,34.602615],[137.155996,34.603078],[137.156193,34.603127],[137.15641,34.60346],[137.156596,34.603562],[137.157098,34.603684],[137.15733,34.60367],[137.157758,34.603484],[137.157914,34.603471],[137.158291,34.603139],[137.158294,34.603049],[137.158248,34.603009],[137.158318,34.602946],[137.159376,34.603116],[137.160014,34.603007],[137.160361,34.60309],[137.161306,34.603154],[137.161146,34.602244],[137.161142,34.601912],[137.161004,34.60131],[137.161087,34.599981],[137.161166,34.599798],[137.161266,34.599719],[137.161211,34.599453],[137.161107,34.599261],[137.160532,34.598646],[137.16029,34.598456],[137.160129,34.598479],[137.159852,34.598643],[137.159469,34.598751],[137.158909,34.598811],[137.158695,34.598754],[137.157859,34.59848],[137.157023,34.598103],[137.156086,34.597576],[137.15425,34.596867],[137.153946,34.596785],[137.152695,34.596851],[137.15177,34.596504],[137.150647,34.595996],[137.150191,34.595857],[137.149931,34.595845],[137.149734,34.595989],[137.14972,34.59608],[137.149498,34.5964],[137.149236,34.596425],[137.149084,34.596285],[137.149083,34.596174],[137.148774,34.595468],[137.148237,34.595149],[137.1479,34.595024],[137.147308,34.59506],[137.14673,34.595328],[137.144645,34.595097],[137.142516,34.594083],[137.14113,34.593526],[137.140355,34.593451],[137.139265,34.593268],[137.138979,34.593288],[137.138632,34.593412],[137.137898,34.593497],[137.137837,34.593578],[137.137747,34.594123],[137.137676,34.594281],[137.137202,34.594508],[137.136796,34.594496],[137.136813,34.59479],[137.137088,34.595526],[137.13716,34.597233],[137.137273,34.598037],[137.137138,34.599165],[137.137152,34.599476],[137.137314,34.599745],[137.137836,34.60019],[137.138183,34.600587],[137.137792,34.601193],[137.137597,34.601388],[137.137208,34.601958],[137.136895,34.602282],[137.136773,34.602514],[137.136323,34.60307],[137.13627,34.603201],[137.135837,34.603718],[137.135641,34.60412],[137.135714,34.604237],[137.135777,34.604585],[137.135919,34.604956],[137.13593,34.605263],[137.136122,34.605401],[137.136473,34.605837],[137.137278,34.60612],[137.13801,34.606254],[137.138393,34.606601],[137.138632,34.606739],[137.140077,34.607159],[137.14053,34.607062],[137.140797,34.607132],[137.140634,34.607668],[137.140147,34.608277],[137.140053,34.608553],[137.140129,34.608925],[137.14009,34.609254],[137.140224,34.610424],[137.140119,34.61076],[137.140048,34.611461],[137.140299,34.611616],[137.140754,34.611781],[137.140843,34.611877],[137.139978,34.612925],[137.139678,34.61317],[137.139369,34.613556],[137.138848,34.614071],[137.138253,34.614453],[137.137851,34.614627],[137.136682,34.615286],[137.136285,34.615929],[137.135981,34.616066],[137.13585,34.616208],[137.135707,34.616803],[137.13561,34.616968],[137.135492,34.617045],[137.13515,34.617056],[137.134473,34.616863],[137.133727,34.616836],[137.133231,34.616967],[137.132978,34.617111],[137.132852,34.61713],[137.132684,34.61706],[137.132516,34.616877],[137.132038,34.616796],[137.131767,34.616683],[137.130917,34.617653],[137.130344,34.618622],[137.130129,34.619331],[137.130006,34.620734],[137.13023,34.621487],[137.130447,34.62178],[137.130439,34.621902],[137.13113,34.622454],[137.131239,34.62248],[137.131402,34.622421],[137.131844,34.623001],[137.133643,34.624409],[137.134283,34.625173],[137.134468,34.625546],[137.135022,34.626289],[137.135352,34.626518],[137.136002,34.627343],[137.136008,34.628104],[137.135859,34.628784],[137.135867,34.629069],[137.135727,34.629125],[137.135191,34.629155],[137.135173,34.62919],[137.134779,34.629149],[137.134745,34.629559],[137.1351,34.629789],[137.135106,34.630504],[137.135932,34.631254],[137.135889,34.632409],[137.136387,34.633502],[137.136456,34.634491],[137.13654,34.634786],[137.13678,34.635025],[137.138326,34.63582],[137.138904,34.636236],[137.139266,34.635967],[137.139264,34.635843],[137.139394,34.635707],[137.139423,34.635507],[137.139523,34.635444],[137.139636,34.635461],[137.139717,34.635678],[137.139981,34.636012],[137.140478,34.636263]]],[[[137.10856,34.636661],[137.108715,34.636459],[137.108727,34.636102],[137.108548,34.635805],[137.108334,34.636459],[137.107977,34.636459],[137.108073,34.636304],[137.107977,34.636245],[137.10787,34.63634],[137.107502,34.63609],[137.107704,34.635864],[137.10699,34.635388],[137.107287,34.634984],[137.106669,34.634508],[137.106764,34.63427],[137.106574,34.634187],[137.106466,34.634258],[137.106371,34.634222],[137.106276,34.634317],[137.106193,34.63427],[137.106395,34.633877],[137.106217,34.633723],[137.106907,34.633009],[137.106359,34.632331],[137.107264,34.63145],[137.107573,34.630998],[137.10837,34.631331],[137.110238,34.631902],[137.111475,34.63239],[137.111832,34.632354],[137.112249,34.632592],[137.112106,34.632902],[137.112225,34.633032],[137.112498,34.633175],[137.112439,34.63333],[137.11257,34.633413],[137.11257,34.633841],[137.112891,34.633901],[137.112855,34.633699],[137.112986,34.633711],[137.113177,34.63333],[137.113319,34.633425],[137.113605,34.633865],[137.113617,34.63396],[137.114069,34.634424],[137.114057,34.634555],[137.114247,34.63471],[137.11458,34.635162],[137.114759,34.635174],[137.114937,34.635424],[137.114925,34.63565],[137.113724,34.635697],[137.113462,34.635793],[137.113046,34.63609],[137.112522,34.636328],[137.111237,34.636495],[137.110868,34.636649],[137.109881,34.63659],[137.10856,34.636661]]],[[[137.238276,34.687166],[137.237988,34.687401],[137.238011,34.687424],[137.237722,34.687622],[137.237211,34.687847],[137.236691,34.687864],[137.236185,34.68768],[137.235958,34.687519],[137.235696,34.687235],[137.233643,34.684398],[137.233074,34.683521],[137.233114,34.683504],[137.23307,34.683432],[137.233263,34.683154],[137.233472,34.682655],[137.233585,34.681947],[137.23381,34.681754],[137.234051,34.681078],[137.234534,34.680982],[137.234888,34.680982],[137.235307,34.681062],[137.235934,34.681674],[137.235709,34.681851],[137.235274,34.682028],[137.234647,34.682623],[137.235677,34.683299],[137.235934,34.683621],[137.235017,34.684232],[137.234936,34.684473],[137.23721,34.686649],[137.237544,34.687035],[137.238333,34.687024],[137.239688,34.686124],[137.239754,34.686198],[137.238276,34.687166]]],[[[137.262538,34.678978],[137.262181,34.678997],[137.2619,34.67895],[137.261234,34.678753],[137.261337,34.678321],[137.260615,34.678321],[137.260569,34.677806],[137.260287,34.677796],[137.260137,34.677431],[137.260175,34.677299],[137.261093,34.677467],[137.262165,34.677586],[137.263635,34.677384],[137.263916,34.677271],[137.263316,34.6785],[137.263316,34.67865],[137.263128,34.679072],[137.262538,34.678978]]],[[[137.321863,34.660089],[137.320406,34.660475],[137.320196,34.660826],[137.319283,34.660861],[137.31909,34.660352],[137.319739,34.65972],[137.321231,34.659562],[137.321916,34.659667],[137.321863,34.660089]]],[[[137.208235,34.614414],[137.207935,34.614596],[137.207777,34.614599],[137.207133,34.614392],[137.206945,34.614549],[137.206457,34.614405],[137.205867,34.614342],[137.206023,34.613728],[137.206001,34.613489],[137.20604,34.613364],[137.206421,34.61378],[137.206669,34.613851],[137.206829,34.613984],[137.206988,34.613957],[137.207254,34.61409],[137.207431,34.614064],[137.207856,34.613842],[137.208653,34.613674],[137.208839,34.6137],[137.208928,34.613904],[137.208902,34.6142],[137.208235,34.614414]]]]}}]}
