{"type":"FeatureCollection","features":[{"type":"Feature","properties":{"potaRef":"JP-1455","nameJa":"Furikusa kogen","nameEn":"Furikusa Keikoku Prefectural Nature Park","authority":"環境省 生物多様性「見える化」マップ","boundaryStatus":"全国GIS候補・公開前検証待ち","boundarySource":"環境省 生物多様性「見える化」マップの自然公園区域を、POTA代表座標で一意に空間照合して加工","boundaryScaleNote":"区域は概要データであり、正確性は保証されない。POTA運用可否は公式情報で最終確認すること。","candidateMethod":"POTA representative point inside one public natural-park area","sourceParkKind":"都道府県立自然公園","sourceName":"Furikusa kogen","sourceFeatureCount":1,"cautionMeters":75},"geometry":{"type":"MultiPolygon","coordinates":[[[[137.667473,35.115279],[137.667188,35.115507],[137.667102,35.115512],[137.666879,35.115426],[137.666167,35.114845],[137.665916,35.114881],[137.66575,35.11482],[137.665657,35.114615],[137.665521,35.114533],[137.665238,35.114508],[137.664934,35.114645],[137.664376,35.114399],[137.664335,35.114349],[137.664371,35.114232],[137.664304,35.114167],[137.663796,35.113983],[137.663357,35.113708],[137.662952,35.113883],[137.66287,35.113871],[137.662384,35.113363],[137.662158,35.113343],[137.661722,35.112829],[137.661805,35.112454],[137.661906,35.112388],[137.661838,35.112274],[137.661347,35.111932],[137.661111,35.11203],[137.661023,35.112019],[137.660018,35.111277],[137.65974,35.111403],[137.659616,35.111351],[137.659207,35.110767],[137.659474,35.110589],[137.659531,35.11047],[137.659207,35.109927],[137.659007,35.109739],[137.658706,35.109158],[137.658224,35.108527],[137.658097,35.108218],[137.657758,35.107719],[137.658041,35.107283],[137.658568,35.106254],[137.658748,35.105627],[137.658786,35.105274],[137.658608,35.10471],[137.658432,35.104381],[137.658338,35.104075],[137.658336,35.10388],[137.65852,35.102956],[137.658474,35.102892],[137.658052,35.102696],[137.657767,35.102041],[137.657254,35.101617],[137.657429,35.101432],[137.657926,35.101593],[137.658078,35.101522],[137.658015,35.101367],[137.65772,35.101062],[137.657646,35.100848],[137.65781,35.099517],[137.657713,35.099407],[137.65743,35.099365],[137.657291,35.099278],[137.657455,35.09888],[137.657581,35.098334],[137.657498,35.098102],[137.657328,35.09787],[137.65682,35.09753],[137.656813,35.096748],[137.656615,35.096305],[137.656698,35.096125],[137.657218,35.095493],[137.657362,35.095193],[137.658006,35.094535],[137.658329,35.094291],[137.659062,35.093574],[137.659182,35.093417],[137.659255,35.093202],[137.659264,35.092926],[137.659146,35.092383],[137.659193,35.092185],[137.659116,35.09207],[137.659176,35.091718],[137.659115,35.091407],[137.659186,35.091249],[137.65913,35.091115],[137.659181,35.090902],[137.659401,35.090544],[137.65989,35.089981],[137.659968,35.089731],[137.659984,35.089441],[137.659814,35.089053],[137.659327,35.088555],[137.659305,35.088359],[137.659352,35.088242],[137.659919,35.087717],[137.659981,35.087527],[137.65988,35.087318],[137.659539,35.087091],[137.659406,35.087085],[137.659042,35.086924],[137.65859,35.08691],[137.658422,35.086853],[137.658303,35.086659],[137.658296,35.08645],[137.658427,35.086134],[137.658653,35.085912],[137.659461,35.085464],[137.659661,35.084952],[137.659702,35.084659],[137.659693,35.08421],[137.659616,35.084077],[137.659611,35.083957],[137.659513,35.083885],[137.658893,35.083776],[137.658653,35.083787],[137.658445,35.083887],[137.658207,35.083893],[137.658036,35.083838],[137.657851,35.083884],[137.657532,35.083831],[137.65719,35.083958],[137.656818,35.084166],[137.656696,35.084175],[137.656407,35.08393],[137.656272,35.0837],[137.656384,35.083403],[137.65655,35.083207],[137.656672,35.082928],[137.656691,35.082734],[137.656647,35.082657],[137.656505,35.082605],[137.656014,35.08274],[137.655678,35.082774],[137.65527,35.08247],[137.655138,35.082316],[137.654666,35.082264],[137.654566,35.082156],[137.654355,35.081619],[137.653389,35.081152],[137.651695,35.079855],[137.651493,35.079786],[137.651106,35.0794],[137.650648,35.07911],[137.650548,35.079117],[137.65033,35.07946],[137.650024,35.079705],[137.64972,35.07983],[137.649335,35.079865],[137.648731,35.080067],[137.648475,35.080241],[137.647967,35.080763],[137.647891,35.080783],[137.647829,35.080743],[137.64767,35.080452],[137.647676,35.080294],[137.647521,35.079557],[137.647616,35.079361],[137.647747,35.079239],[137.647757,35.079127],[137.6484,35.077959],[137.648424,35.077668],[137.648383,35.077548],[137.648408,35.077313],[137.648345,35.077197],[137.648366,35.076905],[137.648264,35.07671],[137.648249,35.076419],[137.647947,35.075958],[137.647899,35.075802],[137.647748,35.075648],[137.647626,35.075338],[137.646449,35.073981],[137.646645,35.072141],[137.646586,35.071946],[137.646606,35.071727],[137.646527,35.071616],[137.646312,35.070956],[137.646387,35.070825],[137.646851,35.070608],[137.647826,35.069921],[137.647968,35.069749],[137.648184,35.069331],[137.648279,35.06881],[137.648968,35.068495],[137.649163,35.067087],[137.649155,35.066833],[137.648695,35.066589],[137.648093,35.066348],[137.6474,35.066209],[137.646916,35.065847],[137.646582,35.064746],[137.646448,35.064043],[137.646274,35.063774],[137.646245,35.063596],[137.646071,35.063388],[137.646018,35.063174],[137.645602,35.062714],[137.645412,35.062774],[137.645133,35.062957],[137.64493,35.06318],[137.644628,35.063404],[137.644225,35.063503],[137.644032,35.063432],[137.643716,35.063145],[137.643396,35.062947],[137.642846,35.062675],[137.642268,35.062498],[137.641915,35.062558],[137.641685,35.062669],[137.641164,35.062755],[137.64076,35.062759],[137.640161,35.06264],[137.639542,35.062341],[137.639821,35.062064],[137.639921,35.061609],[137.640342,35.061147],[137.641245,35.060808],[137.642085,35.060069],[137.642534,35.05991],[137.643224,35.05989],[137.64419,35.059631],[137.644547,35.059586],[137.644969,35.059407],[137.645588,35.058966],[137.645864,35.058469],[137.645921,35.058016],[137.645821,35.057506],[137.645474,35.056531],[137.645451,35.056307],[137.645523,35.055906],[137.645755,35.055831],[137.646354,35.055867],[137.647189,35.055668],[137.647827,35.055583],[137.649546,35.055631],[137.649976,35.055573],[137.650372,35.055391],[137.651069,35.054856],[137.651282,35.054784],[137.651584,35.0546],[137.651911,35.054529],[137.652068,35.054448],[137.652359,35.053972],[137.652704,35.053195],[137.652845,35.05228],[137.652951,35.052146],[137.653349,35.052009],[137.65346,35.051924],[137.653597,35.051686],[137.653724,35.05113],[137.653926,35.050884],[137.654208,35.050369],[137.654446,35.050071],[137.654644,35.049923],[137.655367,35.049941],[137.655671,35.049882],[137.656264,35.049622],[137.656959,35.048991],[137.657684,35.048879],[137.658427,35.048572],[137.658643,35.04857],[137.659251,35.048848],[137.659184,35.049086],[137.659222,35.049219],[137.65918,35.049631],[137.659214,35.049888],[137.659264,35.049933],[137.659556,35.050022],[137.659839,35.049984],[137.660149,35.050056],[137.660364,35.050045],[137.660556,35.050154],[137.660694,35.050142],[137.661032,35.050296],[137.661497,35.050668],[137.662055,35.050987],[137.662585,35.051191],[137.663463,35.051295],[137.663794,35.051243],[137.66413,35.050923],[137.664231,35.050749],[137.664432,35.049985],[137.66441,35.049926],[137.664573,35.04955],[137.664547,35.049417],[137.664658,35.049183],[137.664758,35.049115],[137.664738,35.048998],[137.66481,35.048825],[137.665196,35.048384],[137.665681,35.047983],[137.66597,35.047623],[137.666209,35.046857],[137.666248,35.046489],[137.666207,35.046389],[137.666184,35.045888],[137.666077,35.045438],[137.666117,35.045029],[137.66632,35.044732],[137.666586,35.044504],[137.666634,35.044373],[137.666812,35.044224],[137.667066,35.043757],[137.667548,35.043181],[137.668056,35.042819],[137.66826,35.042783],[137.668663,35.042475],[137.669132,35.042198],[137.669684,35.041953],[137.669892,35.041779],[137.669897,35.041664],[137.669405,35.040557],[137.66991,35.040449],[137.67082,35.040483],[137.671175,35.040552],[137.671564,35.040696],[137.671773,35.040716],[137.672261,35.040616],[137.673255,35.040604],[137.674282,35.040302],[137.674564,35.040299],[137.675071,35.040548],[137.675086,35.040778],[137.675534,35.041023],[137.675904,35.04141],[137.675971,35.041585],[137.676635,35.041896],[137.676994,35.041915],[137.677416,35.041849],[137.677758,35.041977],[137.678333,35.041747],[137.67892,35.041799],[137.679704,35.04174],[137.679894,35.041805],[137.680111,35.042149],[137.680274,35.042276],[137.680629,35.042447],[137.680879,35.042477],[137.681019,35.042434],[137.681364,35.042191],[137.681924,35.042026],[137.682259,35.041811],[137.682662,35.041761],[137.682864,35.041825],[137.682961,35.04164],[137.683205,35.041486],[137.68392,35.041288],[137.684014,35.041212],[137.68409,35.041039],[137.684081,35.040877],[137.684194,35.040416],[137.684393,35.040122],[137.684552,35.039995],[137.685155,35.039873],[137.685349,35.040426],[137.685393,35.040734],[137.685785,35.041669],[137.685843,35.041958],[137.686215,35.042886],[137.686245,35.043077],[137.686184,35.043335],[137.686192,35.043531],[137.686123,35.043649],[137.686171,35.043726],[137.686183,35.044099],[137.686269,35.044387],[137.6862,35.044545],[137.686308,35.044735],[137.68638,35.045088],[137.686576,35.045587],[137.68663,35.045899],[137.68684,35.046429],[137.687279,35.046979],[137.688001,35.047682],[137.688265,35.048052],[137.688271,35.048169],[137.688376,35.048307],[137.688446,35.048536],[137.688402,35.048694],[137.688503,35.048848],[137.688412,35.049163],[137.688432,35.049552],[137.688385,35.049689],[137.688352,35.050216],[137.688194,35.050906],[137.688173,35.05188],[137.688105,35.052134],[137.687955,35.052413],[137.687584,35.05279],[137.687445,35.053009],[137.687419,35.053087],[137.687503,35.053229],[137.68779,35.052995],[137.688032,35.052897],[137.688496,35.05295],[137.688861,35.053109],[137.689126,35.053326],[137.689478,35.054016],[137.689601,35.054047],[137.689938,35.053999],[137.690282,35.053765],[137.690346,35.053769],[137.69067,35.054103],[137.690775,35.054156],[137.691612,35.054206],[137.692036,35.05451],[137.693079,35.054908],[137.693452,35.055308],[137.693642,35.055627],[137.693795,35.056004],[137.693756,35.056273],[137.693793,35.056349],[137.69396,35.056454],[137.694131,35.056753],[137.694505,35.057026],[137.694658,35.057056],[137.695307,35.056876],[137.695987,35.057275],[137.69665,35.058122],[137.696668,35.058466],[137.696735,35.058644],[137.697659,35.059289],[137.697729,35.059414],[137.697773,35.059712],[137.698138,35.060117],[137.698646,35.060573],[137.699582,35.06085],[137.69993,35.061001],[137.700044,35.061391],[137.700149,35.061514],[137.700472,35.061518],[137.701095,35.061369],[137.701686,35.061598],[137.703034,35.06163],[137.70374,35.061103],[137.704047,35.060933],[137.704287,35.060963],[137.704373,35.061089],[137.705811,35.060442],[137.706096,35.060233],[137.70642,35.059843],[137.706705,35.059719],[137.706905,35.059747],[137.707143,35.060185],[137.7074,35.060319],[137.707781,35.060423],[137.708066,35.060414],[137.708323,35.060385],[137.708613,35.060252],[137.708949,35.059724],[137.709144,35.059588],[137.709533,35.059491],[137.709883,35.059471],[137.71008,35.059751],[137.710299,35.059819],[137.710665,35.060125],[137.711133,35.060661],[137.712085,35.0615],[137.712645,35.061897],[137.712914,35.062145],[137.713941,35.062859],[137.714853,35.063353],[137.715049,35.063503],[137.715701,35.063801],[137.715784,35.063915],[137.715441,35.064412],[137.715296,35.064509],[137.715069,35.064771],[137.714768,35.06492],[137.714313,35.065032],[137.713999,35.065284],[137.713788,35.065598],[137.713637,35.065973],[137.713623,35.066225],[137.713709,35.066657],[137.713679,35.066705],[137.713498,35.066735],[137.712756,35.066553],[137.712175,35.066276],[137.711241,35.065442],[137.71095,35.065258],[137.710873,35.0651],[137.71055,35.064834],[137.710484,35.06471],[137.710294,35.064583],[137.710022,35.064257],[137.709676,35.064048],[137.709191,35.064357],[137.708745,35.064753],[137.707227,35.065925],[137.706388,35.066321],[137.706013,35.06658],[137.705343,35.066366],[137.704814,35.066343],[137.703475,35.06671],[137.702714,35.066557],[137.702573,35.06665],[137.702484,35.066829],[137.702365,35.066902],[137.702174,35.066811],[137.70186,35.066746],[137.701158,35.066348],[137.701152,35.066272],[137.701302,35.066074],[137.701248,35.065975],[137.700711,35.065695],[137.700189,35.065569],[137.700248,35.065141],[137.699738,35.064957],[137.699334,35.06434],[137.698384,35.064949],[137.698051,35.065085],[137.697776,35.065122],[137.69771,35.065219],[137.697782,35.066425],[137.697743,35.066635],[137.697763,35.066992],[137.697684,35.067597],[137.69762,35.067739],[137.697679,35.068028],[137.697612,35.068207],[137.69766,35.068319],[137.697602,35.068618],[137.697672,35.068772],[137.697756,35.069743],[137.698034,35.070889],[137.698023,35.07112],[137.698189,35.071919],[137.698174,35.072137],[137.698091,35.072484],[137.697412,35.072376],[137.69713,35.072398],[137.696883,35.072562],[137.696652,35.072539],[137.696562,35.073295],[137.696305,35.074239],[137.696124,35.075834],[137.695842,35.076257],[137.695053,35.076724],[137.694325,35.076905],[137.69416,35.076886],[137.694116,35.077264],[137.693654,35.07825],[137.692842,35.078403],[137.691667,35.079013],[137.689866,35.079836],[137.689519,35.080247],[137.688435,35.081099],[137.688293,35.081284],[137.688035,35.081817],[137.687677,35.081877],[137.686513,35.081691],[137.685965,35.081702],[137.685677,35.081625],[137.685425,35.081488],[137.685067,35.081016],[137.684374,35.0808],[137.684011,35.080901],[137.683753,35.081138],[137.683586,35.081401],[137.683492,35.081559],[137.683537,35.081697],[137.683063,35.082278],[137.683146,35.08231],[137.681953,35.083618],[137.681796,35.084004],[137.681453,35.084261],[137.680411,35.084546],[137.679911,35.084789],[137.679437,35.085101],[137.679506,35.085236],[137.679565,35.085694],[137.679734,35.085996],[137.681486,35.087308],[137.681722,35.087302],[137.681828,35.087231],[137.682054,35.086868],[137.682167,35.086795],[137.682962,35.087035],[137.683123,35.087128],[137.683321,35.087333],[137.683644,35.087479],[137.683891,35.087746],[137.68414,35.087805],[137.684278,35.088123],[137.684713,35.088406],[137.684787,35.088573],[137.684782,35.088695],[137.684334,35.089146],[137.68415,35.089404],[137.684187,35.089379],[137.684179,35.089591],[137.684544,35.090468],[137.684533,35.090681],[137.684387,35.090733],[137.684144,35.090713],[137.68331,35.090492],[137.682672,35.090533],[137.681369,35.09074],[137.680306,35.090724],[137.679948,35.090604],[137.678801,35.09001],[137.677671,35.09004],[137.677586,35.090096],[137.677519,35.090307],[137.677526,35.090986],[137.677711,35.091953],[137.677704,35.092523],[137.677576,35.093104],[137.677806,35.093712],[137.677416,35.093895],[137.677269,35.094016],[137.676907,35.094584],[137.676485,35.094657],[137.675938,35.094909],[137.67573,35.094924],[137.675177,35.094803],[137.674959,35.094625],[137.674459,35.094352],[137.674015,35.094222],[137.673101,35.095397],[137.672573,35.095754],[137.670874,35.096453],[137.670388,35.096767],[137.670246,35.097039],[137.670346,35.097824],[137.670189,35.098095],[137.669803,35.098495],[137.669332,35.098809],[137.668961,35.09888],[137.668532,35.098766],[137.666619,35.098466],[137.666448,35.098381],[137.666291,35.098038],[137.665591,35.097581],[137.665334,35.097524],[137.665063,35.097552],[137.664892,35.09751],[137.664066,35.097197],[137.663709,35.097362],[137.663614,35.09759],[137.663338,35.097904],[137.662881,35.098113],[137.662171,35.098339],[137.662004,35.098529],[137.662028,35.099457],[137.661826,35.099957],[137.661612,35.100052],[137.660838,35.099993],[137.660493,35.100171],[137.660327,35.100362],[137.660291,35.100588],[137.660576,35.101004],[137.660588,35.101504],[137.659886,35.102146],[137.659851,35.102455],[137.659886,35.102789],[137.660077,35.103157],[137.66035,35.103467],[137.660672,35.103728],[137.660814,35.103955],[137.661005,35.104811],[137.661445,35.105525],[137.661504,35.105775],[137.661433,35.105989],[137.66104,35.10637],[137.660481,35.107179],[137.660315,35.107571],[137.660196,35.108261],[137.660208,35.108832],[137.660362,35.109296],[137.660862,35.109986],[137.661588,35.111129],[137.662087,35.111605],[137.664229,35.11214],[137.664943,35.112449],[137.666478,35.113472],[137.666941,35.113675],[137.667429,35.113996],[137.667739,35.114448],[137.668131,35.115221],[137.667806,35.115343],[137.667473,35.115279]]]]}}]}
