{"type":"FeatureCollection","features":[{"type":"Feature","properties":{"potaRef":"JP-1762","nameJa":"Imuta ike","nameEn":"Imutaike Prefectural Nature Park","authority":"環境省 生物多様性「見える化」マップ","boundaryStatus":"全国GIS候補・公開前検証待ち","boundarySource":"環境省 生物多様性「見える化」マップの自然公園区域を、POTA代表座標で一意に空間照合して加工","boundaryScaleNote":"区域は概要データであり、正確性は保証されない。POTA運用可否は公式情報で最終確認すること。","candidateMethod":"POTA representative point inside one public natural-park area","sourceParkKind":"都道府県立自然公園","sourceName":"Imuta ike","sourceFeatureCount":1,"cautionMeters":75},"geometry":{"type":"MultiPolygon","coordinates":[[[[130.471648,31.853786],[130.471257,31.853941],[130.470738,31.854282],[130.470498,31.854525],[130.469648,31.854179],[130.465328,31.853256],[130.464554,31.853053],[130.458512,31.852879],[130.458179,31.852805],[130.457266,31.851916],[130.457024,31.851594],[130.456916,31.851181],[130.456815,31.849652],[130.45669,31.84942],[130.456022,31.848966],[130.454824,31.848275],[130.45466,31.848128],[130.454426,31.847315],[130.454534,31.84671],[130.454477,31.8463],[130.453508,31.845233],[130.453032,31.844897],[130.452691,31.844768],[130.451143,31.844546],[130.449914,31.844229],[130.44853,31.844181],[130.448335,31.844033],[130.447542,31.842951],[130.447356,31.842663],[130.447088,31.842025],[130.446841,31.841722],[130.44653,31.841534],[130.446145,31.84143],[130.445038,31.841482],[130.444845,31.840891],[130.444539,31.840189],[130.444228,31.839687],[130.443614,31.839071],[130.441347,31.837383],[130.440361,31.83656],[130.437617,31.833407],[130.437172,31.832791],[130.437029,31.832543],[130.436834,31.83196],[130.436845,31.830147],[130.43676,31.82966],[130.436669,31.829423],[130.436328,31.828899],[130.435688,31.828172],[130.435463,31.828054],[130.435444,31.827659],[130.435235,31.82709],[130.43466,31.82579],[130.43437,31.825336],[130.434054,31.825037],[130.43254,31.823992],[130.431926,31.823257],[130.431368,31.822796],[130.430797,31.822508],[130.42985,31.822301],[130.429422,31.822069],[130.429301,31.821943],[130.42917,31.821566],[130.429126,31.820437],[130.429057,31.820127],[130.428932,31.81978],[130.428431,31.818753],[130.428348,31.818462],[130.4273,31.813211],[130.427317,31.812901],[130.427399,31.812584],[130.427586,31.812239],[130.428445,31.811307],[130.428634,31.811155],[130.428412,31.810458],[130.428308,31.810325],[130.426778,31.810099],[130.425216,31.809721],[130.42416,31.809189],[130.423574,31.808666],[130.423226,31.808179],[130.422983,31.807674],[130.422867,31.807179],[130.422867,31.806665],[130.422973,31.805908],[130.423417,31.804203],[130.424247,31.80428],[130.424424,31.804232],[130.424697,31.803992],[130.424801,31.803966],[130.425016,31.804273],[130.425371,31.804383],[130.42557,31.804531],[130.426351,31.804885],[130.426757,31.804897],[130.427385,31.804787],[130.428189,31.804902],[130.428604,31.805035],[130.429029,31.805099],[130.429995,31.805428],[130.430583,31.805549],[130.431501,31.805849],[130.432194,31.804206],[130.434438,31.80198],[130.435018,31.801611],[130.436447,31.801289],[130.437177,31.800883],[130.439142,31.799004],[130.44074,31.797368],[130.442106,31.795692],[130.442579,31.795777],[130.446927,31.794476],[130.447689,31.794282],[130.449368,31.793954],[130.450076,31.793617],[130.450487,31.793354],[130.450911,31.792953],[130.451333,31.792362],[130.451538,31.792228],[130.452094,31.792062],[130.453008,31.791928],[130.454239,31.791928],[130.456055,31.792385],[130.456611,31.792399],[130.457233,31.79226],[130.458405,31.791684],[130.458843,31.79154],[130.465379,31.790087],[130.466345,31.790059],[130.467939,31.790447],[130.469895,31.790788],[130.470413,31.790913],[130.470656,31.791033],[130.471496,31.791845],[130.471728,31.792163],[130.471847,31.792422],[130.471994,31.793649],[130.472086,31.793936],[130.472983,31.795463],[130.473523,31.795971],[130.474031,31.796202],[130.474691,31.796322],[130.47666,31.796363],[130.477139,31.796571],[130.477494,31.796962],[130.477814,31.797031],[130.478971,31.796561],[130.479406,31.796532],[130.480254,31.796082],[130.480838,31.795554],[130.481239,31.795456],[130.481514,31.795681],[130.481628,31.795984],[130.481514,31.796365],[130.481571,31.796561],[130.481903,31.796727],[130.483529,31.797866],[130.483941,31.798264],[130.484066,31.798722],[130.484495,31.799288],[130.484818,31.799609],[130.48494,31.800073],[130.48495,31.801382],[130.485538,31.802675],[130.485916,31.804316],[130.485926,31.80531],[130.48614,31.805891],[130.486429,31.806225],[130.486606,31.807205],[130.486772,31.807602],[130.487159,31.807922],[130.4872,31.808103],[130.487171,31.808248],[130.486749,31.808458],[130.486641,31.80884],[130.486373,31.809452],[130.486318,31.809874],[130.486615,31.81008],[130.486999,31.810277],[130.487447,31.810323],[130.487891,31.810241],[130.489587,31.809512],[130.49003,31.809443],[130.490554,31.809512],[130.492104,31.810052],[130.492882,31.810061],[130.494611,31.809738],[130.495073,31.809521],[130.495554,31.809096],[130.495932,31.808847],[130.496386,31.808732],[130.496618,31.808741],[130.496921,31.808815],[130.49724,31.808976],[130.499514,31.810209],[130.500254,31.810463],[130.501097,31.810606],[130.501637,31.810629],[130.504838,31.810624],[130.505324,31.810832],[130.505508,31.810998],[130.505691,31.811233],[130.506681,31.813232],[130.505827,31.813098],[130.50533,31.813227],[130.505119,31.813333],[130.504984,31.813472],[130.504843,31.81385],[130.504786,31.814395],[130.504483,31.814805],[130.503949,31.815327],[130.503739,31.815608],[130.503536,31.816513],[130.503293,31.816919],[130.502778,31.817288],[130.50201,31.817653],[130.501389,31.81793],[130.500437,31.81823],[130.500301,31.818322],[130.49802,31.821571],[130.496896,31.822702],[130.496258,31.823177],[130.494907,31.823722],[130.494335,31.824206],[130.493828,31.824529],[130.493661,31.824746],[130.493079,31.825808],[130.492501,31.826519],[130.492409,31.826879],[130.492468,31.8274],[130.492398,31.827649],[130.491723,31.828194],[130.491302,31.828406],[130.490907,31.828425],[130.490696,31.828369],[130.490372,31.82818],[130.489778,31.827723],[130.489334,31.827612],[130.488507,31.827751],[130.48814,31.827963],[130.488016,31.828083],[130.487853,31.828392],[130.487697,31.8292],[130.48753,31.829675],[130.486685,31.831355],[130.486377,31.831646],[130.485072,31.832292],[130.484829,31.832551],[130.48478,31.83286],[130.484942,31.833271],[130.485258,31.833838],[130.485334,31.834166],[130.485312,31.834314],[130.485118,31.834627],[130.48495,31.834752],[130.483809,31.835412],[130.483701,31.835537],[130.48362,31.835832],[130.483733,31.83615],[130.484317,31.836589],[130.484615,31.836958],[130.485064,31.838786],[130.485143,31.839174],[130.485137,31.839459],[130.485049,31.839606],[130.48351,31.840766],[130.482804,31.841409],[130.482569,31.841683],[130.482493,31.841896],[130.482525,31.842196],[130.482688,31.842387],[130.48273,31.842548],[130.482949,31.842907],[130.48293,31.843234],[130.48315,31.843525],[130.483141,31.843607],[130.48295,31.843791],[130.482916,31.843899],[130.482935,31.844038],[130.483104,31.844306],[130.483089,31.844516],[130.483142,31.844617],[130.483162,31.844903],[130.483393,31.845241],[130.483459,31.845667],[130.483921,31.845954],[130.484007,31.846078],[130.483937,31.846253],[130.483526,31.846787],[130.483493,31.847028],[130.483356,31.847186],[130.483068,31.847724],[130.483096,31.847822],[130.483379,31.848078],[130.483379,31.848152],[130.483282,31.848274],[130.48264,31.848488],[130.482261,31.84877],[130.48205,31.848767],[130.481641,31.84858],[130.481125,31.848572],[130.480943,31.848287],[130.48052,31.847841],[130.480266,31.847866],[130.47994,31.84771],[130.479604,31.847657],[130.47941,31.847679],[130.47868,31.847923],[130.478179,31.847972],[130.476999,31.848202],[130.476885,31.848301],[130.47688,31.848408],[130.477063,31.84889],[130.476712,31.849415],[130.47668,31.849558],[130.476761,31.850147],[130.477165,31.850556],[130.477188,31.850717],[130.477134,31.850836],[130.47697,31.850966],[130.476483,31.851055],[130.476351,31.85112],[130.476039,31.851467],[130.475965,31.851593],[130.475912,31.852048],[130.475488,31.852807],[130.47513,31.853143],[130.473675,31.85355],[130.473196,31.853644],[130.472241,31.853739],[130.471989,31.853712],[130.471648,31.853786]]],[[[130.622102,31.761443],[130.622102,31.761822],[130.621988,31.762103],[130.621258,31.76324],[130.620843,31.763497],[130.620385,31.763583],[130.619796,31.763509],[130.618978,31.763323],[130.619025,31.762935],[130.619561,31.761798],[130.619548,31.76154],[130.618825,31.758922],[130.618382,31.758375],[130.618235,31.758102],[130.617475,31.755182],[130.617522,31.754757],[130.617708,31.754229],[130.61772,31.754078],[130.617594,31.753033],[130.617599,31.752712],[130.617689,31.75245],[130.618394,31.751073],[130.618521,31.750906],[130.619014,31.751128],[130.619292,31.75136],[130.619841,31.751482],[130.620114,31.751464],[130.620296,31.751314],[130.620466,31.751255],[130.621144,31.751259],[130.621331,31.751213],[130.621428,31.751436],[130.621391,31.751894],[130.621795,31.752325],[130.622718,31.752346],[130.622935,31.752453],[130.622912,31.752776],[130.622992,31.753138],[130.623073,31.753255],[130.623427,31.753373],[130.623645,31.753539],[130.623828,31.753598],[130.624034,31.753558],[130.624183,31.753461],[130.624664,31.753353],[130.624709,31.753275],[130.624675,31.753167],[130.62432,31.75304],[130.624217,31.752825],[130.624217,31.751993],[130.624309,31.751749],[130.62457,31.751434],[130.624628,31.7513],[130.624618,31.750608],[130.624781,31.750073],[130.62488,31.749385],[130.625026,31.749062],[130.625136,31.747832],[130.625672,31.747888],[130.625857,31.747951],[130.62592,31.74783],[130.626049,31.746616],[130.626213,31.745768],[130.626281,31.745636],[130.626236,31.745451],[130.6264,31.744962],[130.626379,31.744664],[130.626547,31.744502],[130.626655,31.744079],[130.626785,31.743811],[130.626997,31.743694],[130.627117,31.743473],[130.627489,31.743157],[130.627492,31.743061],[130.62733,31.742827],[130.628557,31.74251],[130.630665,31.741779],[130.632452,31.741292],[130.632676,31.741111],[130.632858,31.740638],[130.633082,31.740328],[130.634296,31.739649],[130.634394,31.740276],[130.634562,31.740886],[130.634596,31.741739],[130.634729,31.742215],[130.634839,31.74326],[130.634821,31.743581],[130.634765,31.743718],[130.63437,31.744319],[130.634223,31.744667],[130.634777,31.746405],[130.635208,31.746937],[130.635947,31.747173],[130.636513,31.747118],[130.636712,31.747048],[130.637541,31.746295],[130.637731,31.746191],[130.638574,31.746387],[130.638643,31.746494],[130.63869,31.747269],[130.638541,31.748202],[130.638591,31.748575],[130.638759,31.749145],[130.638899,31.749302],[130.639299,31.749421],[130.639666,31.749391],[130.64002,31.749215],[130.640455,31.749196],[130.640971,31.749323],[130.641142,31.749518],[130.641165,31.750125],[130.640809,31.750686],[130.640845,31.750801],[130.640998,31.750927],[130.641025,31.751011],[130.640704,31.751367],[130.640374,31.751594],[130.639542,31.752009],[130.639277,31.752072],[130.639176,31.752228],[130.639158,31.752385],[130.639294,31.752601],[130.639253,31.752832],[130.639048,31.75301],[130.638774,31.75305],[130.638646,31.753172],[130.638624,31.753336],[130.638698,31.753499],[130.63869,31.753686],[130.638563,31.753902],[130.638691,31.754186],[130.638,31.75418],[130.637682,31.754337],[130.637282,31.754799],[130.637231,31.755195],[130.63736,31.755378],[130.637274,31.75572],[130.636917,31.756051],[130.636587,31.756197],[130.636344,31.756417],[130.635915,31.756527],[130.635757,31.75665],[130.635529,31.756723],[130.635099,31.756589],[130.634799,31.756662],[130.634155,31.756637],[130.63404,31.75654],[130.633811,31.756124],[130.633611,31.755965],[130.633282,31.756075],[130.633167,31.756197],[130.633225,31.756368],[130.632996,31.756442],[130.632538,31.756283],[130.632423,31.756148],[130.632008,31.756026],[130.631837,31.755733],[130.631708,31.755659],[130.63155,31.755794],[130.630892,31.756075],[130.630663,31.756295],[130.630449,31.756906],[130.629372,31.75753],[130.628671,31.757738],[130.627283,31.758337],[130.627054,31.758509],[130.627068,31.75879],[130.626825,31.758814],[130.626582,31.758582],[130.626539,31.758325],[130.62631,31.758288],[130.626009,31.758301],[130.625852,31.758753],[130.625651,31.758802],[130.625179,31.758802],[130.624693,31.75868],[130.624507,31.758484],[130.624578,31.758203],[130.624693,31.758019],[130.624635,31.757714],[130.624492,31.757567],[130.624149,31.757579],[130.623605,31.756907],[130.623276,31.756858],[130.622517,31.756907],[130.622374,31.757029],[130.622374,31.757188],[130.622546,31.757408],[130.622646,31.757665],[130.622632,31.757995],[130.622589,31.75824],[130.622503,31.758411],[130.622217,31.758692],[130.62206,31.759805],[130.621916,31.760086],[130.621745,31.760281],[130.621344,31.760343],[130.620829,31.760575],[130.620772,31.760758],[130.620857,31.761076],[130.621072,31.761198],[130.621315,31.761198],[130.621645,31.761113],[130.621988,31.761186],[130.622102,31.761443]]],[[[130.566834,31.770536],[130.566483,31.770536],[130.565867,31.769406],[130.56577,31.768769],[130.565842,31.768455],[130.565956,31.768243],[130.566544,31.767897],[130.566501,31.767781],[130.566499,31.767011],[130.56638,31.766821],[130.566229,31.766701],[130.56637,31.766609],[130.566567,31.76624],[130.566907,31.766124],[130.566999,31.766018],[130.567042,31.76552],[130.567544,31.765405],[130.56769,31.765331],[130.56776,31.765243],[130.56782,31.764915],[130.568203,31.765128],[130.568387,31.765142],[130.568619,31.765843],[130.569019,31.7657],[130.569402,31.765695],[130.56958,31.765529],[130.569704,31.765506],[130.57011,31.765575],[130.571309,31.765442],[130.571092,31.766055],[130.571221,31.767075],[130.571109,31.768428],[130.57085,31.768741],[130.570704,31.768898],[130.570283,31.769101],[130.569251,31.769304],[130.569003,31.769392],[130.568938,31.769535],[130.568959,31.76983],[130.568327,31.769969],[130.567993,31.769987],[130.567409,31.770144],[130.56739,31.770499],[130.566926,31.770486],[130.566834,31.770536]]],[[[130.588431,31.782768],[130.588156,31.782973],[130.587858,31.783022],[130.587618,31.782973],[130.587434,31.782876],[130.587286,31.782504],[130.586896,31.78225],[130.586577,31.781891],[130.586447,31.781655],[130.585877,31.78123],[130.585842,31.780828],[130.585704,31.780684],[130.585423,31.780525],[130.585267,31.780248],[130.585038,31.779583],[130.585596,31.779174],[130.585768,31.779096],[130.586062,31.779033],[130.58663,31.779033],[130.586509,31.778553],[130.586539,31.778313],[130.586953,31.777944],[130.586979,31.777789],[130.58723,31.777471],[130.5876,31.776729],[130.587504,31.776522],[130.587344,31.776389],[130.587158,31.776264],[130.586592,31.77605],[130.585914,31.775548],[130.585866,31.77547],[130.585866,31.775252],[130.586009,31.775042],[130.58603,31.774928],[130.585985,31.774447],[130.585922,31.774248],[130.585739,31.774179],[130.585304,31.774355],[130.584766,31.774434],[130.584502,31.774404],[130.584056,31.77415],[130.58377,31.773739],[130.583489,31.773598],[130.583369,31.773485],[130.583241,31.773142],[130.582913,31.77278],[130.582819,31.772613],[130.582848,31.772199],[130.582805,31.772107],[130.582624,31.772008],[130.582259,31.771939],[130.582132,31.77181],[130.582045,31.771512],[130.582049,31.771246],[130.581967,31.770962],[130.581943,31.770548],[130.581718,31.770212],[130.581684,31.769998],[130.581889,31.769698],[130.581965,31.769487],[130.581994,31.769042],[130.582153,31.768546],[130.582326,31.768369],[130.582295,31.768168],[130.582336,31.768097],[130.582453,31.768053],[130.582669,31.768109],[130.583143,31.768348],[130.583958,31.768573],[130.584468,31.768518],[130.584667,31.768548],[130.585359,31.768909],[130.585881,31.768791],[130.586145,31.768784],[130.587632,31.769371],[130.588001,31.769404],[130.588567,31.769803],[130.588861,31.769814],[130.588986,31.769729],[130.588951,31.769511],[130.589025,31.769419],[130.590065,31.768835],[130.589771,31.768304],[130.58968,31.768027],[130.589697,31.767887],[130.589987,31.767551],[130.590108,31.766871],[130.59035,31.766155],[130.5903,31.765908],[130.589937,31.765202],[130.589933,31.764826],[130.590313,31.764649],[130.590879,31.764124],[130.591173,31.764331],[130.591484,31.764468],[130.592197,31.764615],[130.592914,31.764564],[130.593575,31.764346],[130.594158,31.763977],[130.595018,31.763094],[130.595048,31.762743],[130.594988,31.762378],[130.59504,31.761913],[130.595469,31.76182],[130.595931,31.762215],[130.596536,31.762238],[130.596908,31.7623],[130.597474,31.762197],[130.597469,31.762418],[130.597577,31.762802],[130.597927,31.763009],[130.598083,31.763005],[130.598346,31.76288],[130.598878,31.762736],[130.599098,31.762603],[130.599219,31.762607],[130.599427,31.762717],[130.599617,31.762954],[130.599915,31.762921],[130.601632,31.763382],[130.602043,31.763563],[130.603037,31.764161],[130.603446,31.764357],[130.605044,31.76486],[130.605568,31.764961],[130.60627,31.765003],[130.608265,31.764937],[130.608418,31.765004],[130.606783,31.766207],[130.606256,31.76696],[130.605947,31.767312],[130.605523,31.767518],[130.605237,31.767557],[130.605237,31.767831],[130.604504,31.769298],[130.604002,31.769804],[130.603537,31.769957],[130.603233,31.770278],[130.603036,31.770324],[130.602392,31.770018],[130.601909,31.770048],[130.601784,31.770308],[130.601819,31.770553],[130.601998,31.770813],[130.60198,31.771057],[130.601891,31.771256],[130.601623,31.771378],[130.601265,31.772219],[130.601175,31.773304],[130.60139,31.773609],[130.60148,31.773876],[130.601595,31.773974],[130.601858,31.774062],[130.602053,31.774375],[130.602282,31.774541],[130.602516,31.775007],[130.602598,31.775502],[130.602558,31.776224],[130.602714,31.777033],[130.602648,31.777895],[130.602423,31.778109],[130.602276,31.778529],[130.602335,31.779074],[130.602159,31.779455],[130.602128,31.779962],[130.601996,31.780263],[130.601696,31.780507],[130.601469,31.780607],[130.601242,31.780864],[130.601227,31.781058],[130.60111,31.781265],[130.600905,31.78134],[130.60048,31.781252],[130.598279,31.778677],[130.598043,31.778711],[130.597912,31.778649],[130.597989,31.778022],[130.597925,31.777416],[130.597312,31.777465],[130.596289,31.777735],[130.596058,31.777859],[130.595939,31.777983],[130.595754,31.778457],[130.595491,31.778784],[130.595517,31.779043],[130.595444,31.779229],[130.595246,31.779381],[130.595161,31.779522],[130.595313,31.780078],[130.595232,31.780391],[130.594958,31.780469],[130.593664,31.780029],[130.59324,31.78001],[130.592496,31.780088],[130.59182,31.780411],[130.590984,31.780988],[130.590457,31.781761],[130.589896,31.782778],[130.58961,31.782964],[130.589083,31.782934],[130.588671,31.782709],[130.588431,31.782768]]]]}}]}
