{"type":"FeatureCollection","features":[{"type":"Feature","properties":{"potaRef":"JP-1420","nameJa":"Okuhida zugo nagareha","nameEn":"Okuhida Sugo Nagareha Prefectural Nature Park","authority":"環境省 生物多様性「見える化」マップ","boundaryStatus":"全国GIS候補・公開前検証待ち","boundarySource":"環境省 生物多様性「見える化」マップの自然公園区域を、POTA代表座標で一意に空間照合して加工","boundaryScaleNote":"区域は概要データであり、正確性は保証されない。POTA運用可否は公式情報で最終確認すること。","candidateMethod":"POTA representative point inside one public natural-park area","sourceParkKind":"都道府県立自然公園","sourceName":"Okuhida zugo nagareha","sourceFeatureCount":1,"cautionMeters":75},"geometry":{"type":"MultiPolygon","coordinates":[[[[137.247417,36.372704],[137.24701,36.374116],[137.247453,36.374736],[137.248102,36.375022],[137.248808,36.37588],[137.248809,36.376547],[137.249608,36.377143],[137.250166,36.377834],[137.250465,36.37905],[137.249048,36.379981],[137.24917,36.380959],[137.247812,36.380053],[137.245246,36.379316],[137.24324,36.378626],[137.242363,36.377637],[137.240938,36.376314],[137.237347,36.373896],[137.236306,36.372922],[137.235075,36.372276],[137.233827,36.372098],[137.231065,36.373351],[137.229886,36.373018],[137.230149,36.370991],[137.228075,36.368905],[137.226816,36.369609],[137.226424,36.369288],[137.226364,36.368406],[137.225745,36.367881],[137.225793,36.367853],[137.225877,36.367261],[137.225431,36.366388],[137.225404,36.366117],[137.226907,36.364518],[137.227154,36.363806],[137.227066,36.363787],[137.22155,36.357415],[137.221284,36.355626],[137.220779,36.355134],[137.222693,36.353843],[137.220826,36.355078],[137.219942,36.354864],[137.218819,36.355254],[137.217553,36.354698],[137.215988,36.354588],[137.215016,36.354827],[137.214163,36.354839],[137.212362,36.354518],[137.211448,36.353851],[137.210866,36.351862],[137.21354,36.351704],[137.214555,36.351426],[137.215451,36.351075],[137.21538,36.350663],[137.215365,36.350126],[137.213773,36.347316],[137.212946,36.34667],[137.211973,36.346265],[137.211502,36.345481],[137.210383,36.343231],[137.210644,36.339972],[137.210466,36.337516],[137.210053,36.336062],[137.208637,36.333797],[137.205732,36.333582],[137.204923,36.332558],[137.20277,36.328696],[137.201898,36.327264],[137.201456,36.326847],[137.201914,36.326359],[137.199968,36.324381],[137.200674,36.322234],[137.200073,36.321286],[137.198019,36.319943],[137.197373,36.319255],[137.196766,36.318763],[137.195931,36.317816],[137.193834,36.316928],[137.192979,36.316284],[137.193126,36.315032],[137.193452,36.314391],[137.193052,36.313697],[137.192934,36.312135],[137.193036,36.31167],[137.192079,36.31143],[137.19146,36.310859],[137.191268,36.31012],[137.191607,36.30907],[137.191945,36.308522],[137.194273,36.307328],[137.196218,36.307709],[137.197278,36.306898],[137.19713,36.305372],[137.197307,36.304823],[137.198092,36.305081],[137.198505,36.306464],[137.199242,36.307585],[137.200372,36.30766],[137.200038,36.309492],[137.20051,36.309898],[137.201187,36.309754],[137.202848,36.31045],[137.203201,36.310105],[137.203583,36.309223],[137.205194,36.309753],[137.206314,36.310182],[137.207964,36.310205],[137.20815,36.309245],[137.206971,36.307253],[137.205969,36.306442],[137.205909,36.305454],[137.206262,36.304691],[137.207058,36.303962],[137.207616,36.301519],[137.206849,36.300661],[137.206643,36.300637],[137.206555,36.299837],[137.205553,36.299193],[137.204609,36.298897],[137.204462,36.298206],[137.204137,36.297967],[137.203754,36.296942],[137.205963,36.296941],[137.207259,36.294842],[137.209173,36.295247],[137.209321,36.294794],[137.210339,36.29428],[137.212117,36.292199],[137.217889,36.288696],[137.21891,36.288715],[137.219028,36.28924],[137.218852,36.290552],[137.219383,36.291291],[137.220336,36.291318],[137.221454,36.290316],[137.221915,36.290407],[137.223606,36.292104],[137.225393,36.292957],[137.227425,36.292336],[137.228692,36.292383],[137.232032,36.293196],[137.233377,36.294241],[137.235893,36.295436],[137.237898,36.297557],[137.239567,36.298458],[137.24057,36.29984],[137.240925,36.301175],[137.241367,36.301652],[137.241114,36.303254],[137.242735,36.303444],[137.243137,36.303678],[137.244021,36.303677],[137.244433,36.303486],[137.24736,36.303513],[137.248236,36.306345],[137.248944,36.306702],[137.250508,36.308824],[137.252336,36.310945],[137.253547,36.313352],[137.252586,36.313787],[137.249435,36.31541],[137.249572,36.315954],[137.248689,36.317123],[137.247924,36.317577],[137.246718,36.319342],[137.245668,36.319491],[137.243279,36.320109],[137.240719,36.321068],[137.239088,36.321565],[137.236437,36.322854],[137.236172,36.323498],[137.236126,36.325577],[137.238178,36.326192],[137.240371,36.327482],[137.240284,36.328651],[137.240019,36.329247],[137.239728,36.329472],[137.240405,36.331727],[137.240777,36.331865],[137.241132,36.333415],[137.242872,36.334702],[137.24308,36.33618],[137.243582,36.336967],[137.243346,36.337324],[137.243653,36.33783],[137.242935,36.339018],[137.242818,36.339757],[137.241964,36.340664],[137.241623,36.341933],[137.240621,36.342195],[137.240404,36.34293],[137.239874,36.343431],[137.239827,36.344581],[137.240742,36.345248],[137.241823,36.34653],[137.242527,36.347669],[137.243062,36.348127],[137.243417,36.3492],[137.244446,36.349981],[137.244775,36.350653],[137.245778,36.351392],[137.245716,36.352961],[137.246264,36.354711],[137.247252,36.355511],[137.247223,36.356012],[137.246619,36.356785],[137.2454,36.357258],[137.244719,36.358136],[137.243688,36.358685],[137.243103,36.359406],[137.241865,36.359693],[137.241537,36.360165],[137.242397,36.361386],[137.241776,36.363007],[137.24185,36.363016],[137.242644,36.363749],[137.243505,36.363531],[137.2438,36.363936],[137.243887,36.365542],[137.243784,36.366125],[137.244122,36.366905],[137.245644,36.367226],[137.246618,36.368251],[137.247739,36.368608],[137.248475,36.36946],[137.248035,36.371774],[137.247417,36.372704]],[[137.235501,36.36923],[137.235467,36.369127],[137.235458,36.369172],[137.231063,36.366599],[137.228704,36.366243],[137.22864,36.366284],[137.230989,36.366599],[137.235501,36.36923]],[[137.24387,36.366429],[137.243708,36.366038],[137.243699,36.366106],[137.24387,36.366429]],[[137.228977,36.364182],[137.229088,36.364207],[137.230809,36.364139],[137.228977,36.364182]],[[137.23193,36.364094],[137.234233,36.363961],[137.23423,36.363879],[137.23193,36.364094]],[[137.220348,36.351806],[137.220363,36.351829],[137.221112,36.351175],[137.220348,36.351806]],[[137.218696,36.350912],[137.219035,36.350483],[137.218132,36.349361],[137.218976,36.350495],[137.218343,36.351318],[137.21622,36.351342],[137.215589,36.351587],[137.215602,36.351641],[137.216265,36.351342],[137.218358,36.351353],[137.218696,36.350912]],[[137.220139,36.349075],[137.220161,36.349122],[137.220487,36.348998],[137.220139,36.349075]],[[137.218149,36.348051],[137.218532,36.348337],[137.218547,36.348766],[137.218257,36.348881],[137.218562,36.348778],[137.218562,36.348349],[137.218149,36.348051]],[[137.220799,36.348798],[137.220847,36.348431],[137.22083,36.348424],[137.220799,36.348798]],[[137.219871,36.343853],[137.219547,36.344605],[137.219488,36.34501],[137.219017,36.345773],[137.219489,36.346524],[137.218252,36.347419],[137.21816,36.347986],[137.218295,36.347459],[137.219534,36.346548],[137.219061,36.345773],[137.219518,36.345046],[137.219576,36.344616],[137.21993,36.343853],[137.219514,36.343647],[137.219871,36.343853]],[[137.220435,36.347647],[137.22041,36.347772],[137.221833,36.346893],[137.220435,36.347647]],[[137.220904,36.345868],[137.220929,36.345894],[137.221242,36.345539],[137.220904,36.345868]],[[137.221456,36.344503],[137.22161,36.34421],[137.221607,36.344167],[137.221456,36.344503]],[[137.219577,36.343164],[137.219473,36.343624],[137.219635,36.342973],[137.219577,36.343164]],[[137.221285,36.34303],[137.221305,36.343058],[137.221785,36.3423],[137.221285,36.34303]],[[137.218616,36.340229],[137.218629,36.340246],[137.218497,36.338262],[137.218616,36.340229]],[[137.218128,36.337881],[137.218133,36.337886],[137.218142,36.337785],[137.218128,36.337881]],[[137.218923,36.337666],[137.218924,36.337666],[137.218928,36.337653],[137.218923,36.337666]],[[137.217774,36.33738],[137.217795,36.337391],[137.217771,36.337376],[137.217774,36.33738]],[[137.217304,36.336631],[137.21773,36.33731],[137.217329,36.336511],[137.217304,36.336631]],[[137.217374,36.335377],[137.217375,36.335388],[137.217541,36.335156],[137.217374,36.335377]],[[137.217195,36.331789],[137.217667,36.332575],[137.217638,36.333362],[137.217243,36.334295],[137.217403,36.334451],[137.217315,36.334352],[137.217683,36.333398],[137.217667,36.332551],[137.217195,36.331789]],[[137.218161,36.333979],[137.21839,36.333684],[137.218389,36.333678],[137.218161,36.333979]],[[137.215026,36.326973],[137.215621,36.328373],[137.216418,36.329589],[137.217519,36.330823],[137.217244,36.331644],[137.217548,36.330811],[137.216347,36.329442],[137.215484,36.327962],[137.215056,36.326949],[137.214103,36.325697],[137.215026,36.326973]],[[137.216692,36.328438],[137.216817,36.328599],[137.216612,36.328221],[137.216692,36.328438]],[[137.215984,36.327151],[137.215992,36.32717],[137.216033,36.327071],[137.215984,36.327151]],[[137.213583,36.324304],[137.21399,36.325541],[137.21361,36.324279],[137.213625,36.323669],[137.213583,36.324304]],[[137.212522,36.322302],[137.213638,36.323109],[137.21253,36.32219],[137.212522,36.322302]],[[137.212488,36.319736],[137.212636,36.320654],[137.212624,36.320828],[137.21265,36.320571],[137.212488,36.319713],[137.212272,36.319579],[137.212488,36.319736]],[[137.200406,36.31881],[137.200406,36.318821],[137.200442,36.318734],[137.200406,36.31881]],[[137.20739,36.316772],[137.210184,36.31794],[137.210371,36.318092],[137.21013,36.317877],[137.207358,36.316727],[137.20739,36.316772]],[[137.201628,36.316245],[137.201492,36.316529],[137.20171,36.316142],[137.201628,36.316245]],[[137.20621,36.315271],[137.205689,36.314691],[137.204642,36.314164],[137.205649,36.314731],[137.20621,36.315271]],[[137.206238,36.314326],[137.206318,36.314376],[137.206187,36.314279],[137.206238,36.314326]],[[137.202806,36.314816],[137.202643,36.314982],[137.202621,36.31501],[137.202806,36.314816]],[[137.203497,36.314111],[137.203486,36.314123],[137.204541,36.314113],[137.203497,36.314111]],[[137.202658,36.313359],[137.20267,36.31336],[137.202538,36.31316],[137.202658,36.313359]],[[137.198075,36.311382],[137.198171,36.311376],[137.198057,36.311371],[137.198075,36.311382]],[[137.194929,36.310338],[137.194877,36.310095],[137.194851,36.310094],[137.194929,36.310338]],[[137.219374,36.307142],[137.219727,36.30719],[137.219694,36.307092],[137.219388,36.307072],[137.219374,36.307142]],[[137.219108,36.306141],[137.219433,36.306856],[137.219418,36.306928],[137.219462,36.306785],[137.219117,36.306101],[137.219108,36.306141]],[[137.219432,36.306308],[137.219815,36.305688],[137.220669,36.30552],[137.221008,36.30515],[137.220551,36.30552],[137.219727,36.305671],[137.219432,36.306308]],[[137.218311,36.303876],[137.218076,36.303865],[137.219144,36.305202],[137.218311,36.303876]],[[137.21769,36.304158],[137.21763,36.304211],[137.217635,36.30422],[137.21769,36.304158]],[[137.221303,36.304386],[137.22118,36.304884],[137.221434,36.304447],[137.222034,36.304267],[137.221303,36.304386]],[[137.223865,36.304108],[137.224852,36.304135],[137.224817,36.304069],[137.223865,36.304108]],[[137.219284,36.305426],[137.219276,36.305413],[137.21926,36.305484],[137.219284,36.305426]],[[137.215128,36.299333],[137.216483,36.30185],[137.217371,36.303712],[137.216558,36.301746],[137.215681,36.30028],[137.21517,36.299278],[137.215128,36.299333]],[[137.224066,36.302155],[137.223393,36.302822],[137.223441,36.302843],[137.223996,36.302228],[137.225203,36.301488],[137.225064,36.301462],[137.224066,36.302155]],[[137.219887,36.298804],[137.220063,36.298922],[137.219899,36.298796],[137.219887,36.298804]],[[137.215808,36.298453],[137.216325,36.298523],[137.215892,36.298345],[137.215808,36.298453]]]]}}]}
