{"type":"FeatureCollection","features":[{"type":"Feature","properties":{"potaRef":"JP-1011","nameJa":"Teshio dake","nameEn":"Teshiodake Prefectural Nature Park","authority":"環境省 生物多様性「見える化」マップ","boundaryStatus":"全国GIS候補・公開前検証待ち","boundarySource":"環境省 生物多様性「見える化」マップの自然公園区域を、POTA代表座標で一意に空間照合して加工","boundaryScaleNote":"区域は概要データであり、正確性は保証されない。POTA運用可否は公式情報で最終確認すること。","candidateMethod":"POTA representative point inside one public natural-park area","sourceParkKind":"都道府県立自然公園","sourceName":"Teshio dake","sourceFeatureCount":1,"cautionMeters":75},"geometry":{"type":"MultiPolygon","coordinates":[[[[142.923552,44.063445],[142.923757,44.064481],[142.923083,44.06473],[142.922433,44.065149],[142.922176,44.065507],[142.92209,44.066099],[142.922416,44.066765],[142.923049,44.067468],[142.923938,44.068036],[142.925393,44.068616],[142.925984,44.069121],[142.927874,44.070974],[142.926471,44.071838],[142.925855,44.071727],[142.925495,44.071591],[142.924383,44.070444],[142.922176,44.069482],[142.918565,44.067804],[142.915995,44.066705],[142.913686,44.066001],[142.912043,44.065323],[142.910999,44.064681],[142.910469,44.064212],[142.910366,44.063929],[142.910349,44.063435],[142.908655,44.063694],[142.908176,44.063941],[142.906191,44.065347],[142.904566,44.065471],[142.902558,44.06573],[142.898315,44.066421],[142.898417,44.066112],[142.899153,44.065076],[142.899478,44.064102],[142.899581,44.063398],[142.899666,44.063263],[142.900316,44.062683],[142.900375,44.06183],[142.900478,44.061472],[142.900717,44.061213],[142.90094,44.060781],[142.901025,44.060288],[142.901008,44.060115],[142.899964,44.059634],[142.898681,44.059313],[142.897142,44.059005],[142.894952,44.05877],[142.894108,44.057423],[142.893013,44.056424],[142.891319,44.055437],[142.890105,44.054388],[142.888291,44.053068],[142.886906,44.052501],[142.886233,44.05203],[142.884317,44.050513],[142.882196,44.049834],[142.880673,44.049649],[142.879154,44.049556],[142.879134,44.049256],[142.878988,44.049016],[142.878032,44.04866],[142.877544,44.048373],[142.876527,44.047932],[142.875212,44.047623],[142.874347,44.047586],[142.873437,44.047346],[142.873376,44.047158],[142.873341,44.046403],[142.873215,44.045858],[142.872921,44.044933],[142.8727,44.044501],[142.872423,44.044138],[142.871296,44.043088],[142.869441,44.041917],[142.867326,44.040862],[142.86661,44.040588],[142.866519,44.0405],[142.866473,44.040335],[142.866504,44.039808],[142.866595,44.039214],[142.867311,44.037643],[142.867478,44.037129],[142.867676,44.036964],[142.868787,44.036305],[142.871126,44.035322],[142.872663,44.034828],[142.874003,44.034727],[142.87577,44.033624],[142.876286,44.033188],[142.876512,44.032805],[142.87656,44.032609],[142.876534,44.032415],[142.876339,44.031924],[142.875824,44.029613],[142.875609,44.029303],[142.875309,44.02851],[142.874981,44.028038],[142.874546,44.026752],[142.874439,44.024481],[142.874351,44.024205],[142.874311,44.023765],[142.874459,44.023021],[142.874446,44.022769],[142.874291,44.022459],[142.874131,44.021279],[142.874064,44.020203],[142.874064,44.019691],[142.874137,44.019304],[142.874312,44.018839],[142.874439,44.018704],[142.873805,44.018241],[142.872074,44.017423],[142.868762,44.016606],[142.867138,44.01639],[142.863762,44.016297],[142.862886,44.016158],[142.859937,44.014909],[142.858505,44.013707],[142.857458,44.01238],[142.856753,44.011686],[142.854011,44.010759],[142.852152,44.009494],[142.850976,44.008245],[142.850015,44.006426],[142.849203,44.005978],[142.84604,44.00502],[142.844716,44.004218],[142.842942,44.002537],[142.839844,43.999792],[142.839817,43.999466],[142.839902,43.99891],[142.841376,43.997029],[142.841504,43.996751],[142.841504,43.99578],[142.841633,43.99487],[142.84159,43.994392],[142.841483,43.99413],[142.840436,43.993359],[142.840041,43.992893],[142.838994,43.991443],[142.837456,43.99024],[142.836773,43.989361],[142.835705,43.987403],[142.833633,43.985105],[142.831984,43.983498],[142.831151,43.982943],[142.829421,43.982465],[142.829272,43.980738],[142.82845,43.978737],[142.83176,43.978274],[142.833202,43.978293],[142.833976,43.978159],[142.83427,43.977908],[142.834937,43.977175],[142.835498,43.97704],[142.836993,43.976828],[142.837286,43.976693],[142.837819,43.975399],[142.838299,43.974647],[142.838806,43.974397],[142.840034,43.974185],[142.840702,43.974011],[142.841129,43.973761],[142.841235,43.973414],[142.841422,43.971717],[142.841716,43.971409],[142.844599,43.969828],[142.848111,43.96809],[142.84686,43.967401],[142.84452,43.96634],[142.843564,43.966131],[142.839994,43.966044],[142.838421,43.965871],[142.836782,43.965328],[142.836457,43.964761],[142.836167,43.963663],[142.836201,43.963095],[142.836341,43.962686],[142.836546,43.96239],[142.837553,43.961736],[142.838168,43.961403],[142.836375,43.960552],[142.835111,43.960034],[142.834872,43.959985],[142.835187,43.959686],[142.835699,43.959526],[142.83669,43.959106],[142.837185,43.958699],[142.838244,43.957515],[142.838756,43.957157],[142.839439,43.956836],[142.839866,43.956713],[142.839132,43.955578],[142.839098,43.955343],[142.839542,43.95406],[142.841923,43.950291],[142.843203,43.94871],[142.844309,43.947595],[142.844943,43.947186],[142.84621,43.946872],[142.847632,43.946761],[142.848859,43.946973],[142.849926,43.946954],[142.850407,43.946819],[142.85062,43.946511],[142.85078,43.945431],[142.8507,43.944776],[142.850617,43.94457],[142.85163,43.944366],[142.852453,43.944374],[142.854703,43.944706],[142.855738,43.944758],[142.856327,43.944724],[142.856893,43.944562],[142.85767,43.944068],[142.859883,43.943362],[142.860896,43.942903],[142.861479,43.942573],[142.861915,43.942445],[142.862174,43.942453],[142.862515,43.942513],[142.862833,43.942632],[142.863586,43.942989],[142.86414,43.943321],[142.864834,43.943883],[142.865058,43.944419],[142.865353,43.945756],[142.865682,43.946828],[142.866,43.948139],[142.866165,43.948573],[142.866389,43.948896],[142.86705,43.949432],[142.868604,43.950403],[142.869064,43.950598],[142.869758,43.950666],[142.870465,43.950811],[142.871758,43.950929],[142.872527,43.950922],[142.873414,43.950803],[142.874375,43.950744],[142.87508,43.950763],[142.876873,43.951425],[142.878047,43.952175],[142.878392,43.952285],[142.879731,43.952492],[142.88191,43.953121],[142.881769,43.952265],[142.881624,43.951794],[142.880937,43.950353],[142.880681,43.949927],[142.880573,43.949626],[142.880477,43.948657],[142.880356,43.948384],[142.879738,43.947976],[142.87962,43.947782],[142.879932,43.946836],[142.879856,43.94645],[142.879869,43.946201],[142.880014,43.945909],[142.880201,43.945169],[142.880221,43.944503],[142.880149,43.944063],[142.880215,43.943776],[142.880311,43.94376],[142.881132,43.944018],[142.883073,43.944433],[142.883559,43.944404],[142.884422,43.944189],[142.885566,43.944329],[142.885846,43.944291],[142.886487,43.94403],[142.886704,43.943843],[142.88688,43.943581],[142.887107,43.943364],[142.887335,43.943245],[142.888618,43.942983],[142.88898,43.942923],[142.89049,43.943222],[142.891473,43.943282],[142.891835,43.943245],[142.892001,43.943133],[142.892073,43.943006],[142.892228,43.941884],[142.892311,43.941667],[142.893334,43.940606],[142.893562,43.940105],[142.893541,43.939933],[142.895066,43.939983],[142.896006,43.940346],[142.896869,43.940852],[142.898125,43.941894],[142.899393,43.942613],[142.900209,43.943143],[142.901684,43.94387],[142.903881,43.944422],[142.906749,43.944802],[142.907274,43.944936],[142.909065,43.945214],[142.91091,43.945254],[142.911743,43.945412],[142.912918,43.945876],[142.916688,43.94854],[142.915749,43.94895],[142.915254,43.949345],[142.915134,43.949554],[142.915134,43.949826],[142.915783,43.950356],[142.916312,43.951096],[142.916876,43.952565],[142.917661,43.953613],[142.918823,43.954872],[142.91901,43.954958],[142.920599,43.955143],[142.921927,43.955429],[142.9236,43.955984],[142.923822,43.955984],[142.924557,43.955725],[142.924969,43.955362],[142.925606,43.955311],[142.925935,43.956089],[142.926753,43.95711],[142.927311,43.957616],[142.926538,43.959117],[142.926063,43.960356],[142.92553,43.961474],[142.925276,43.961752],[142.923404,43.962568],[142.923255,43.962593],[142.922302,43.961968],[142.921795,43.961746],[142.921375,43.961683],[142.920702,43.961696],[142.920378,43.961753],[142.919783,43.962144],[142.918699,43.963244],[142.916678,43.965778],[142.916162,43.966467],[142.916066,43.966732],[142.915883,43.967932],[142.915994,43.969367],[142.917296,43.972374],[142.913837,43.97424],[142.911189,43.975967],[142.910587,43.976417],[142.910395,43.976895],[142.910957,43.981111],[142.911001,43.983582],[142.913342,43.985951],[142.913598,43.986309],[142.913649,43.986506],[142.913427,43.987246],[142.913325,43.988023],[142.913495,43.988936],[142.91394,43.989849],[142.914111,43.990084],[142.915514,43.99095],[142.916608,43.991554],[142.918522,43.992122],[142.919154,43.992492],[142.91953,43.99285],[142.919718,43.993355],[142.919718,43.99417],[142.918607,43.994712],[142.918419,43.994848],[142.918351,43.995008],[142.918351,43.995206],[142.919052,43.996119],[142.919218,43.996414],[142.919253,43.996673],[142.919183,43.996856],[142.918973,43.99704],[142.918544,43.997254],[142.917993,43.997412],[142.917371,43.997488],[142.915157,43.997526],[142.915026,43.997583],[142.914869,43.99776],[142.914729,43.998215],[142.914729,43.998644],[142.914816,43.998846],[142.916129,44.000154],[142.917265,44.00152],[142.917702,44.002145],[142.917886,44.003143],[142.918008,44.003452],[142.918507,44.004237],[142.91961,44.005443],[142.919732,44.005633],[142.919767,44.005816],[142.91947,44.006315],[142.919137,44.007022],[142.919109,44.007276],[142.919223,44.008047],[142.919179,44.008356],[142.918916,44.008843],[142.918479,44.009278],[142.918435,44.009405],[142.92074,44.011547],[142.921262,44.011951],[142.921796,44.012247],[142.922014,44.012543],[142.922056,44.012829],[142.921878,44.013106],[142.921358,44.013333],[142.920497,44.01351],[142.918103,44.013648],[142.917898,44.013698],[142.917406,44.014596],[142.917091,44.01507],[142.916859,44.015198],[142.916626,44.015228],[142.915669,44.01504],[142.914806,44.015052],[142.914245,44.015239],[142.913985,44.015407],[142.913917,44.015654],[142.914669,44.017687],[142.914669,44.01821],[142.914478,44.018851],[142.91404,44.019483],[142.913479,44.019799],[142.909781,44.021439],[142.907825,44.022229],[142.906648,44.022525],[142.906088,44.022574],[142.904528,44.022554],[142.902737,44.022811],[142.902477,44.02289],[142.902354,44.023011],[142.901872,44.023902],[142.901592,44.024262],[142.900743,44.025013],[142.898625,44.026131],[142.901853,44.026524],[142.90586,44.026662],[142.909655,44.026573],[142.910278,44.028301],[142.911108,44.029297],[142.91171,44.029786],[142.913735,44.030149],[142.91438,44.030481],[142.914545,44.030489],[142.916296,44.029952],[142.916088,44.031642],[142.916164,44.031689],[142.916589,44.031714],[142.918416,44.031564],[142.921634,44.030979],[142.921875,44.031019],[142.923855,44.03259],[142.925836,44.034059],[142.927642,44.035891],[142.930256,44.037587],[142.932543,44.038882],[142.934424,44.039437],[142.934531,44.039422],[142.934873,44.035428],[142.934959,44.035073],[142.935643,44.034518],[142.938431,44.032944],[142.939393,44.034625],[142.939906,44.035288],[142.940248,44.035535],[142.942001,44.036414],[142.942322,44.036676],[142.943326,44.037724],[142.943412,44.03794],[142.943412,44.038804],[142.943497,44.039097],[142.94462,44.040448],[142.944745,44.040486],[142.948577,44.040521],[142.9494,44.041027],[142.949557,44.041184],[142.947079,44.042555],[142.945074,44.043553],[142.940997,44.045718],[142.94045,44.046281],[142.940066,44.047149],[142.943698,44.049983],[142.944601,44.050733],[142.944794,44.05106],[142.94478,44.051287],[142.944315,44.051889],[142.943686,44.052254],[142.943001,44.052531],[142.942714,44.052777],[142.94255,44.053162],[142.942563,44.053597],[142.942796,44.054169],[142.943302,44.054771],[142.94411,44.055324],[142.942687,44.055501],[142.942148,44.055642],[142.939808,44.0573],[142.939383,44.057557],[142.938676,44.05684],[142.938468,44.056706],[142.938362,44.056545],[142.938159,44.055572],[142.93808,44.054922],[142.938001,44.054795],[142.93759,44.054568],[142.937493,44.054467],[142.937432,44.052888],[142.937388,44.052774],[142.936723,44.052736],[142.935803,44.052843],[142.934016,44.053399],[142.932334,44.054208],[142.932255,44.054322],[142.93208,44.055636],[142.93201,44.057234],[142.931835,44.057752],[142.931616,44.058074],[142.931529,44.058118],[142.928489,44.057335],[142.92672,44.056944],[142.926194,44.056906],[142.925117,44.056969],[142.924241,44.057184],[142.922704,44.057708],[142.920759,44.058536],[142.92068,44.058605],[142.922833,44.061508],[142.923552,44.063445]]],[[[142.852828,44.265367],[142.850574,44.26876],[142.85036,44.268952],[142.849448,44.269145],[142.84934,44.269203],[142.849126,44.270225],[142.848563,44.270764],[142.846363,44.272287],[142.845558,44.272518],[142.844592,44.27248],[142.843761,44.272345],[142.842822,44.271902],[142.841695,44.271054],[142.840234,44.26894],[142.841355,44.268661],[142.842165,44.268312],[142.842133,44.268175],[142.841539,44.267315],[142.839507,44.265728],[142.840126,44.264147],[142.840203,44.264115],[142.842499,44.265094],[142.842796,44.265157],[142.843279,44.265126],[142.843873,44.26496],[142.844147,44.264778],[142.843818,44.264439],[142.844356,44.264186],[142.844609,44.263918],[142.844719,44.263602],[142.844817,44.26301],[142.844598,44.261889],[142.844609,44.261691],[142.846103,44.262473],[142.846289,44.262473],[142.847992,44.261604],[142.848004,44.260996],[142.848212,44.258943],[142.848432,44.257056],[142.848487,44.256914],[142.849465,44.256764],[142.84986,44.256629],[142.85029,44.256328],[142.850982,44.25542],[142.851817,44.254023],[142.851894,44.253967],[142.852443,44.256297],[142.852784,44.25726],[142.85285,44.257299],[142.854728,44.25621],[142.855651,44.25561],[142.856627,44.254701],[142.858286,44.253375],[142.859236,44.251527],[142.860809,44.249472],[142.86141,44.248781],[142.862165,44.245278],[142.862121,44.243265],[142.861967,44.242574],[142.861521,44.242056],[142.859667,44.241439],[142.856767,44.241846],[142.856492,44.241809],[142.856456,44.241691],[142.856525,44.241523],[142.857747,44.240704],[142.859216,44.240013],[142.86042,44.239617],[142.862356,44.23938],[142.86237,44.239301],[142.861779,44.238314],[142.860695,44.236992],[142.859418,44.235847],[142.859803,44.235837],[142.861258,44.236242],[142.863358,44.237071],[142.864731,44.23636],[142.8655,44.235767],[142.866008,44.233112],[142.866214,44.232549],[142.866379,44.232342],[142.867463,44.231562],[142.869228,44.230387],[142.869517,44.230022],[142.869447,44.228324],[142.869133,44.227445],[142.868666,44.226833],[142.866552,44.225342],[142.865162,44.22467],[142.862143,44.223634],[142.861951,44.223535],[142.860867,44.222617],[142.860451,44.222419],[142.860039,44.222459],[142.856842,44.222449],[142.857006,44.221344],[142.857253,44.220732],[142.857807,44.220454],[142.862665,44.218786],[142.864689,44.218536],[142.864723,44.218223],[142.865344,44.217094],[142.865395,44.216846],[142.865406,44.215335],[142.865609,44.214604],[142.865543,44.213909],[142.865543,44.2131],[142.865611,44.211963],[142.865705,44.211526],[142.866039,44.210893],[142.86656,44.210124],[142.866586,44.209644],[142.866654,44.209484],[142.866987,44.209189],[142.868482,44.208282],[142.868662,44.208128],[142.868918,44.206893],[142.869123,44.206524],[142.871115,44.204753],[142.871448,44.204649],[142.871914,44.20436],[142.87237,44.203948],[142.872469,44.203787],[142.875462,44.203874],[142.876984,44.204075],[142.880071,44.203813],[142.882279,44.203751],[142.88498,44.204013],[142.886545,44.20409],[142.889182,44.203998],[142.889791,44.20406],[142.890649,44.204368],[142.891121,44.20443],[142.891592,44.204384],[142.892814,44.203936],[142.893372,44.203844],[142.895172,44.203859],[142.896759,44.203381],[142.897976,44.203242],[142.899841,44.203181],[142.900485,44.203088],[142.901213,44.203103],[142.902521,44.203335],[142.903057,44.203489],[142.903829,44.204106],[142.904343,44.204954],[142.904198,44.205926],[142.904241,44.206219],[142.90542,44.20733],[142.907114,44.208378],[142.908143,44.20918],[142.910008,44.211231],[142.91153,44.212788],[142.912244,44.213199],[142.910136,44.21301],[142.909039,44.21297],[142.909115,44.214518],[142.909016,44.215253],[142.908885,44.215506],[142.908149,44.216035],[142.907062,44.216587],[142.907205,44.216911],[142.907296,44.217346],[142.907054,44.217741],[142.907339,44.218065],[142.907361,44.218207],[142.906955,44.218673],[142.906922,44.21876],[142.906966,44.218847],[142.907603,44.219147],[142.907779,44.219139],[142.908042,44.219004],[142.908229,44.218973],[142.908602,44.219107],[142.909272,44.219842],[142.9093,44.220118],[142.909259,44.220473],[142.909369,44.220533],[142.910494,44.220562],[142.91129,44.220473],[142.911756,44.220316],[142.912168,44.21997],[142.912621,44.219102],[142.913033,44.21773],[142.914347,44.218144],[142.91561,44.218756],[142.916901,44.219457],[142.916077,44.219645],[142.915501,44.219872],[142.915089,44.220138],[142.914526,44.220661],[142.914225,44.221145],[142.914142,44.22151],[142.914156,44.221826],[142.914691,44.223178],[142.914719,44.223405],[142.914472,44.223721],[142.913593,44.224382],[142.91319,44.225026],[142.912367,44.225786],[142.911735,44.226131],[142.910445,44.226723],[142.910116,44.227029],[142.909196,44.228184],[142.909004,44.228332],[142.908034,44.228679],[142.907277,44.22906],[142.906775,44.229244],[142.905006,44.229176],[142.903727,44.229058],[142.90401,44.230139],[142.904872,44.23139],[142.906662,44.232882],[142.908321,44.23439],[142.90899,44.235116],[142.909215,44.235631],[142.909281,44.236255],[142.908864,44.238339],[142.908567,44.239279],[142.90819,44.240007],[142.907478,44.241074],[142.911107,44.244036],[142.908528,44.246065],[142.908115,44.246716],[142.907753,44.247507],[142.907788,44.247772],[142.907955,44.248151],[142.909546,44.249926],[142.910138,44.250723],[142.910331,44.251064],[142.910901,44.254191],[142.910866,44.25433],[142.910435,44.254766],[142.910092,44.255227],[142.90975,44.255915],[142.909679,44.256371],[142.909662,44.257729],[142.908089,44.258323],[142.906559,44.257969],[142.905724,44.257894],[142.905355,44.257812],[142.904723,44.257319],[142.903796,44.256731],[142.902882,44.256453],[142.901924,44.25634],[142.900729,44.256416],[142.899147,44.25675],[142.897978,44.25723],[142.895519,44.257818],[142.893093,44.257989],[142.893418,44.25838],[142.893445,44.258475],[142.89298,44.261828],[142.892994,44.262242],[142.893079,44.262439],[142.893458,44.262854],[142.894576,44.263648],[142.89471,44.263809],[142.894738,44.263991],[142.893766,44.265984],[142.893646,44.266473],[142.893492,44.266584],[142.893206,44.266607],[142.891844,44.266536],[142.891701,44.266599],[142.891712,44.267965],[142.890646,44.267136],[142.89002,44.266205],[142.887614,44.263686],[142.886863,44.262839],[142.886544,44.262674],[142.885808,44.262618],[142.88507,44.262476],[142.884365,44.262263],[142.883181,44.261752],[142.882237,44.261537],[142.881763,44.26153],[142.881522,44.261745],[142.881492,44.261962],[142.881591,44.262077],[142.881723,44.26215],[142.882433,44.262326],[142.882657,44.262434],[142.883634,44.263075],[142.884613,44.263618],[142.885262,44.264127],[142.881501,44.264215],[142.87817,44.264783],[142.876368,44.265215],[142.875372,44.264684],[142.874771,44.264512],[142.872745,44.264326],[142.871099,44.26403],[142.870361,44.26382],[142.869966,44.26366],[142.868902,44.262846],[142.867855,44.262192],[142.866705,44.261698],[142.862886,44.260489],[142.862559,44.260279],[142.861203,44.259157],[142.860933,44.259466],[142.859377,44.260025],[142.85669,44.260857],[142.855671,44.261339],[142.855215,44.261917],[142.854384,44.263941],[142.854115,44.264211],[142.853525,44.264403],[142.853364,44.264538],[142.852828,44.265367]]]]}}]}
