{"type":"FeatureCollection","features":[{"type":"Feature","properties":{"potaRef":"JP-1153","nameJa":"Ryokami","nameEn":"Ryogami Prefectural Nature Park","authority":"環境省 生物多様性「見える化」マップ","boundaryStatus":"全国GIS候補・公開前検証待ち","boundarySource":"環境省 生物多様性「見える化」マップの自然公園区域を、POTA代表座標で一意に空間照合して加工","boundaryScaleNote":"区域は概要データであり、正確性は保証されない。POTA運用可否は公式情報で最終確認すること。","candidateMethod":"POTA representative point inside one public natural-park area","sourceParkKind":"都道府県立自然公園","sourceName":"Ryokami","sourceFeatureCount":1,"cautionMeters":75},"geometry":{"type":"MultiPolygon","coordinates":[[[[138.983794,36.029057],[138.983769,36.029194],[138.983452,36.029476],[138.983308,36.029514],[138.982638,36.029511],[138.981043,36.029104],[138.98028,36.028822],[138.979486,36.028791],[138.978429,36.028854],[138.978116,36.028832],[138.976929,36.028486],[138.975348,36.028193],[138.975172,36.028115],[138.975132,36.028055],[138.975344,36.027711],[138.975393,36.027475],[138.975322,36.027046],[138.975152,36.026651],[138.975346,36.026342],[138.975616,36.026034],[138.97569,36.025838],[138.975591,36.025466],[138.975562,36.025023],[138.974891,36.024345],[138.974741,36.02393],[138.974368,36.023398],[138.974142,36.022674],[138.973819,36.022275],[138.973393,36.021958],[138.972679,36.021638],[138.972278,36.021319],[138.97157,36.020969],[138.971259,36.020867],[138.970611,36.020962],[138.969635,36.021343],[138.968934,36.021481],[138.968013,36.021203],[138.967911,36.021048],[138.967867,36.020775],[138.967707,36.020514],[138.967189,36.020315],[138.966521,36.020333],[138.966038,36.020294],[138.96582,36.020218],[138.964756,36.020702],[138.964247,36.020809],[138.963699,36.020552],[138.963299,36.020287],[138.962581,36.020438],[138.961467,36.020506],[138.960852,36.020147],[138.960303,36.020154],[138.959561,36.019989],[138.959166,36.019643],[138.958449,36.019345],[138.95723,36.018306],[138.956848,36.018232],[138.956067,36.01852],[138.955191,36.019055],[138.954301,36.019221],[138.953221,36.019791],[138.952644,36.019882],[138.952287,36.020025],[138.950515,36.02155],[138.949794,36.021631],[138.949123,36.021523],[138.948731,36.021772],[138.948191,36.022211],[138.94763,36.022474],[138.947502,36.022687],[138.947449,36.022903],[138.947381,36.022958],[138.947069,36.022974],[138.945369,36.022766],[138.944741,36.022834],[138.944212,36.023025],[138.943271,36.024002],[138.942757,36.024468],[138.942461,36.02465],[138.942004,36.024703],[138.941163,36.024681],[138.940124,36.024984],[138.939222,36.025392],[138.93881,36.0255],[138.937176,36.025674],[138.936643,36.025902],[138.936221,36.026175],[138.935577,36.02617],[138.935136,36.026332],[138.934174,36.026537],[138.933928,36.026707],[138.933551,36.027228],[138.933339,36.027388],[138.931528,36.028398],[138.930951,36.028591],[138.928925,36.028764],[138.928218,36.02898],[138.92717,36.028748],[138.926487,36.028442],[138.925774,36.028001],[138.924788,36.027931],[138.921164,36.028002],[138.919556,36.027813],[138.918115,36.027521],[138.917429,36.028552],[138.916968,36.028571],[138.916082,36.028448],[138.915693,36.028201],[138.914291,36.027668],[138.91337,36.027626],[138.912095,36.027282],[138.91135,36.026841],[138.910646,36.026054],[138.908553,36.025509],[138.907939,36.02507],[138.907256,36.024764],[138.906505,36.02451],[138.905793,36.02407],[138.90491,36.023814],[138.903883,36.022833],[138.903442,36.023333],[138.902534,36.02404],[138.901603,36.024371],[138.90123,36.024792],[138.900749,36.02556],[138.900057,36.025548],[138.899336,36.025428],[138.898679,36.02539],[138.897314,36.025927],[138.896425,36.025939],[138.895402,36.026028],[138.894156,36.025845],[138.893523,36.026128],[138.891219,36.027318],[138.890321,36.02765],[138.889528,36.027743],[138.887829,36.028489],[138.886803,36.028685],[138.885937,36.029071],[138.885165,36.029099],[138.885068,36.028234],[138.884909,36.027492],[138.884857,36.026751],[138.884477,36.02534],[138.884904,36.025196],[138.88565,36.025131],[138.887038,36.024474],[138.88799,36.023664],[138.888533,36.023266],[138.888554,36.023207],[138.888159,36.022755],[138.887517,36.022527],[138.886873,36.022519],[138.885615,36.022707],[138.882122,36.022365],[138.881335,36.022006],[138.880964,36.02168],[138.880181,36.021204],[138.879539,36.020939],[138.878903,36.020573],[138.877951,36.0203],[138.877504,36.019908],[138.876919,36.019197],[138.876451,36.018797],[138.875841,36.018371],[138.875125,36.018],[138.874163,36.017235],[138.873792,36.016664],[138.873261,36.015576],[138.872765,36.015004],[138.872632,36.014611],[138.872569,36.013775],[138.87245,36.013539],[138.872449,36.013463],[138.873078,36.012885],[138.87342,36.012612],[138.873688,36.012467],[138.87391,36.012038],[138.8746,36.011061],[138.874674,36.010869],[138.874648,36.010729],[138.874073,36.010246],[138.873965,36.009544],[138.87377,36.009058],[138.873857,36.008021],[138.873967,36.007359],[138.873886,36.006477],[138.873547,36.005362],[138.873115,36.004341],[138.87287,36.003382],[138.872061,36.002565],[138.870789,36.001643],[138.870041,36.000872],[138.869568,36.000609],[138.868893,36.000528],[138.86811,36.000367],[138.867143,35.999799],[138.866453,35.999555],[138.865731,35.999453],[138.86334,35.998353],[138.863093,35.997878],[138.862761,35.997523],[138.862201,35.997062],[138.861719,35.99635],[138.861406,35.995997],[138.860988,35.995696],[138.860137,35.994829],[138.859119,35.994458],[138.858626,35.994225],[138.858194,35.993931],[138.858111,35.99383],[138.857972,35.993456],[138.857437,35.993073],[138.857135,35.99262],[138.856002,35.991571],[138.85525,35.991069],[138.854876,35.990714],[138.854336,35.990395],[138.854309,35.990336],[138.854395,35.990198],[138.854508,35.989497],[138.854656,35.98916],[138.854943,35.988849],[138.855577,35.988419],[138.855884,35.988144],[138.856221,35.987689],[138.856528,35.987155],[138.856869,35.986776],[138.857359,35.986413],[138.858399,35.985834],[138.859149,35.985308],[138.859594,35.985163],[138.859925,35.985096],[138.860324,35.985086],[138.860714,35.984959],[138.861083,35.984775],[138.861808,35.984263],[138.86214,35.984133],[138.862408,35.983959],[138.862829,35.983651],[138.863685,35.982789],[138.864657,35.98169],[138.865535,35.981114],[138.866058,35.980464],[138.866115,35.980521],[138.866187,35.980869],[138.866264,35.981],[138.866583,35.981243],[138.867105,35.981448],[138.867654,35.981555],[138.868055,35.98176],[138.868344,35.982032],[138.868869,35.982785],[138.86957,35.983461],[138.869992,35.983994],[138.870367,35.984487],[138.870686,35.985078],[138.871262,35.985851],[138.871686,35.986167],[138.872395,35.986515],[138.873033,35.986749],[138.873612,35.986829],[138.874014,35.987244],[138.874523,35.988292],[138.874863,35.988858],[138.875403,35.990079],[138.875988,35.990474],[138.876455,35.990898],[138.876798,35.991354],[138.876655,35.99211],[138.876289,35.993237],[138.876539,35.993924],[138.876296,35.994346],[138.876406,35.994584],[138.876937,35.995219],[138.876571,35.995741],[138.876339,35.996224],[138.876338,35.996377],[138.876727,35.996833],[138.877351,35.996866],[138.878078,35.996728],[138.878534,35.99651],[138.87879,35.996071],[138.87923,35.995707],[138.880084,35.995195],[138.880764,35.994875],[138.881183,35.994513],[138.881742,35.994129],[138.882669,35.99368],[138.884267,35.993119],[138.885873,35.992432],[138.886186,35.992256],[138.886509,35.991994],[138.887102,35.991424],[138.888578,35.990794],[138.889315,35.990309],[138.889724,35.990153],[138.890398,35.990025],[138.891079,35.989727],[138.891497,35.989368],[138.891971,35.988831],[138.892611,35.988382],[138.893236,35.98813],[138.894027,35.987886],[138.893902,35.987383],[138.893506,35.987044],[138.893032,35.986745],[138.892153,35.986417],[138.891083,35.986214],[138.890751,35.986089],[138.89009,35.98567],[138.889524,35.984888],[138.888993,35.984388],[138.888735,35.984205],[138.888167,35.983923],[138.887993,35.983692],[138.887475,35.982879],[138.887145,35.982175],[138.887145,35.981354],[138.886632,35.980075],[138.886464,35.979465],[138.885802,35.977605],[138.885703,35.977112],[138.885766,35.976743],[138.885717,35.975728],[138.885615,35.975314],[138.885308,35.974823],[138.884172,35.973688],[138.883835,35.973156],[138.88492,35.973895],[138.885649,35.974212],[138.885911,35.974416],[138.886252,35.974494],[138.886804,35.974428],[138.887595,35.974459],[138.887877,35.9744],[138.888986,35.974463],[138.890071,35.97431],[138.890893,35.974264],[138.891477,35.974311],[138.891786,35.974115],[138.891943,35.973907],[138.892162,35.973782],[138.893051,35.973622],[138.893999,35.973211],[138.894806,35.973219],[138.895139,35.973117],[138.896318,35.973105],[138.89649,35.97325],[138.896608,35.973646],[138.897274,35.974354],[138.897826,35.974698],[138.8981,35.974816],[138.898437,35.975105],[138.898695,35.975422],[138.899408,35.975348],[138.899806,35.975434],[138.90035,35.975403],[138.900812,35.974964],[138.901286,35.974647],[138.902003,35.974377],[138.902849,35.974366],[138.903108,35.974299],[138.903354,35.974158],[138.903542,35.973916],[138.903574,35.973708],[138.903719,35.973509],[138.904118,35.973246],[138.904424,35.972898],[138.904623,35.972816],[138.904854,35.9728],[138.905046,35.972699],[138.905246,35.972511],[138.905399,35.972452],[138.905724,35.972362],[138.90742,35.972347],[138.908869,35.972241],[138.909339,35.972108],[138.909531,35.972022],[138.909907,35.971564],[138.910373,35.971196],[138.911697,35.97109],[138.912187,35.971004],[138.912688,35.970742],[138.91299,35.970445],[138.913131,35.970237],[138.914106,35.970327],[138.9144,35.970445],[138.914639,35.970452],[138.914909,35.970456],[138.915614,35.970222],[138.916042,35.970421],[138.916562,35.970421],[138.916981,35.970316],[138.917334,35.969987],[138.917502,35.96994],[138.917757,35.969963],[138.917905,35.969905],[138.918023,35.969689],[138.918049,35.968988],[138.918113,35.968696],[138.918328,35.968104],[138.918689,35.967803],[138.919987,35.9674],[138.920818,35.96722],[138.921582,35.967216],[138.921754,35.967252],[138.922682,35.966711],[138.922984,35.966672],[138.924276,35.966966],[138.924625,35.967428],[138.924645,35.967545],[138.925109,35.968194],[138.925379,35.968668],[138.92552,35.968825],[138.92588,35.968931],[138.926111,35.969369],[138.926652,35.969932],[138.92702,35.970131],[138.927854,35.97035],[138.928383,35.97046],[138.929147,35.970468],[138.929727,35.970397],[138.930191,35.970281],[138.930426,35.970115],[138.930743,35.97013],[138.931312,35.970266],[138.931839,35.970318],[138.9321,35.970291],[138.933153,35.970015],[138.934034,35.969583],[138.934441,35.969281],[138.934817,35.969187],[138.936121,35.96925],[138.936788,35.969182],[138.937905,35.968483],[138.938473,35.968306],[138.938812,35.967983],[138.939067,35.967618],[138.939208,35.967165],[138.939542,35.966858],[138.939726,35.966805],[138.941211,35.96679],[138.942254,35.966587],[138.943141,35.96665],[138.943434,35.966766],[138.943581,35.966883],[138.943546,35.967391],[138.943626,35.967719],[138.943878,35.968157],[138.944475,35.968534],[138.944965,35.968634],[138.945651,35.968878],[138.945877,35.969003],[138.946237,35.969366],[138.946611,35.969411],[138.947359,35.969375],[138.94816,35.969621],[138.948521,35.969631],[138.949195,35.969767],[138.949537,35.969772],[138.949769,35.969712],[138.950379,35.969762],[138.950811,35.969878],[138.951008,35.969998],[138.951132,35.970135],[138.951201,35.970336],[138.951175,35.970627],[138.951317,35.97114],[138.951269,35.971384],[138.951043,35.971602],[138.951021,35.971897],[138.951081,35.972731],[138.951282,35.97356],[138.95207,35.973945],[138.952528,35.974424],[138.952652,35.974878],[138.95287,35.975198],[138.953055,35.975628],[138.953356,35.976003],[138.953773,35.976285],[138.953975,35.97664],[138.954304,35.977046],[138.955122,35.977602],[138.955764,35.978239],[138.957104,35.979223],[138.957771,35.979599],[138.958148,35.979649],[138.959676,35.979236],[138.960652,35.979069],[138.961238,35.978577],[138.961431,35.978521],[138.961923,35.978556],[138.962506,35.978398],[138.962908,35.978231],[138.963066,35.978218],[138.963717,35.97835],[138.964624,35.978368],[138.965091,35.978517],[138.965506,35.978774],[138.966122,35.978761],[138.966666,35.978945],[138.967192,35.979317],[138.967835,35.979475],[138.968362,35.979758],[138.969,35.980369],[138.969458,35.98058],[138.969813,35.98087],[138.969982,35.980907],[138.970447,35.980724],[138.971041,35.980297],[138.971302,35.98025],[138.971585,35.980275],[138.971812,35.980404],[138.972043,35.980455],[138.972236,35.980412],[138.972561,35.979942],[138.973452,35.979527],[138.973717,35.97918],[138.973923,35.9791],[138.974504,35.979369],[138.975211,35.979886],[138.975771,35.980211],[138.976242,35.980408],[138.976846,35.98116],[138.977304,35.981563],[138.978447,35.981982],[138.979226,35.982123],[138.979846,35.982166],[138.980227,35.982473],[138.981447,35.983239],[138.981239,35.983697],[138.980805,35.984043],[138.980729,35.984261],[138.980735,35.984389],[138.980954,35.984623],[138.981444,35.984928],[138.981565,35.985142],[138.981659,35.985578],[138.981845,35.985931],[138.981875,35.986087],[138.981831,35.986186],[138.981277,35.986719],[138.981316,35.986937],[138.981616,35.987392],[138.981667,35.987644],[138.981269,35.988001],[138.980528,35.988328],[138.980502,35.989068],[138.980415,35.989417],[138.980463,35.989613],[138.98108,35.990426],[138.981148,35.991087],[138.981028,35.991827],[138.981172,35.992764],[138.980464,35.993261],[138.97993,35.993782],[138.980127,35.994019],[138.980219,35.994255],[138.980073,35.994796],[138.980105,35.995264],[138.980281,35.995678],[138.980549,35.995933],[138.980609,35.99621],[138.980546,35.996793],[138.980655,35.997031],[138.980822,35.997207],[138.981362,35.997646],[138.981667,35.997791],[138.981855,35.998143],[138.981684,35.99836],[138.980589,35.998765],[138.980195,35.999267],[138.979992,35.999731],[138.979978,36.000177],[138.980385,36.0012],[138.980633,36.001964],[138.980758,36.00238],[138.980731,36.00267],[138.981431,36.003501],[138.981333,36.00366],[138.980636,36.00388],[138.980591,36.004226],[138.980383,36.005005],[138.980126,36.005606],[138.980297,36.006135],[138.979862,36.006692],[138.979917,36.007028],[138.980101,36.007383],[138.980012,36.007907],[138.980521,36.009413],[138.980907,36.009775],[138.980914,36.0103],[138.980725,36.011394],[138.980747,36.011445],[138.98117,36.011676],[138.982814,36.012264],[138.983234,36.012609],[138.983713,36.012769],[138.984024,36.012816],[138.984188,36.012971],[138.984558,36.013525],[138.985005,36.013828],[138.985813,36.014118],[138.986749,36.014264],[138.987646,36.014939],[138.988312,36.015259],[138.988932,36.015411],[138.989218,36.015376],[138.989625,36.015402],[138.989944,36.015802],[138.990044,36.016169],[138.99035,36.016564],[138.990477,36.016863],[138.990175,36.018457],[138.990153,36.019159],[138.990208,36.019333],[138.990343,36.01941],[138.991301,36.019449],[138.992081,36.019549],[138.991751,36.019968],[138.991841,36.020353],[138.992205,36.020622],[138.992938,36.020846],[138.993075,36.021528],[138.993036,36.021917],[138.99292,36.022113],[138.992568,36.022574],[138.99193,36.023113],[138.99157,36.023209],[138.991229,36.023234],[138.990655,36.023169],[138.990366,36.023358],[138.990141,36.023646],[138.989817,36.024149],[138.989384,36.025176],[138.989277,36.025306],[138.988968,36.025438],[138.988953,36.025481],[138.989268,36.02644],[138.989165,36.026724],[138.987979,36.027277],[138.986694,36.0277],[138.985809,36.027753],[138.985106,36.027856],[138.984438,36.027808],[138.984107,36.028047],[138.984001,36.028534],[138.983794,36.029057]]]]}}]}
