{"type":"FeatureCollection","features":[{"type":"Feature","properties":{"potaRef":"JP-1862","nameJa":"Otosan","nameEn":"Otosan Prefectural Nature Park","authority":"環境省 生物多様性「見える化」マップ","boundaryStatus":"全国GIS候補・公開前検証待ち","boundarySource":"環境省 生物多様性「見える化」マップの自然公園区域を、POTA代表座標で一意に空間照合して加工","boundaryScaleNote":"区域は概要データであり、正確性は保証されない。POTA運用可否は公式情報で最終確認すること。","candidateMethod":"POTA representative point inside one public natural-park area","sourceParkKind":"都道府県立自然公園","sourceName":"Otosan","sourceFeatureCount":1,"cautionMeters":75},"geometry":{"type":"MultiPolygon","coordinates":[[[[135.717893,33.787221],[135.717382,33.787544],[135.71653,33.787819],[135.715883,33.789004],[135.715747,33.789971],[135.715125,33.790881],[135.713751,33.79181],[135.713739,33.792198],[135.713683,33.792426],[135.713501,33.792729],[135.713274,33.792938],[135.712456,33.793336],[135.711389,33.793677],[135.710826,33.794211],[135.709838,33.794296],[135.709645,33.795234],[135.708873,33.795424],[135.707953,33.795832],[135.705055,33.794729],[135.703875,33.794511],[135.702762,33.794141],[135.701649,33.793477],[135.701317,33.793179],[135.701135,33.792743],[135.701101,33.792089],[135.700613,33.791416],[135.699333,33.790211],[135.698665,33.790018],[135.698317,33.789793],[135.697985,33.789322],[135.697537,33.788894],[135.697145,33.788302],[135.695943,33.787301],[135.693367,33.786574],[135.692742,33.786293],[135.692471,33.786067],[135.692117,33.785366],[135.690894,33.784368],[135.690913,33.783316],[135.69069,33.782827],[135.689972,33.782765],[135.688712,33.782469],[135.687816,33.782414],[135.687359,33.782243],[135.685895,33.782039],[135.684673,33.781431],[135.683758,33.781174],[135.682732,33.78055],[135.682247,33.780449],[135.680574,33.779923],[135.67977,33.780238],[135.678399,33.780322],[135.678072,33.780427],[135.677669,33.780742],[135.677393,33.780889],[135.676978,33.781036],[135.675178,33.781469],[135.67475,33.781532],[135.673832,33.781417],[135.673518,33.781459],[135.671304,33.782572],[135.669745,33.784074],[135.669441,33.784502],[135.669063,33.785678],[135.668762,33.786256],[135.668158,33.787232],[135.667215,33.788433],[135.665919,33.788968],[135.665517,33.788674],[135.661971,33.788641],[135.660713,33.788168],[135.65952,33.787606],[135.657143,33.786136],[135.656133,33.785765],[135.655806,33.785303],[135.655906,33.784274],[135.654548,33.782636],[135.654487,33.78143],[135.654097,33.780842],[135.653669,33.780453],[135.652363,33.779546],[135.652501,33.778485],[135.652896,33.777653],[135.652883,33.777034],[135.649902,33.776043],[135.649148,33.775465],[135.647421,33.77454],[135.646943,33.774551],[135.645975,33.774771],[135.64561,33.775023],[135.645057,33.775727],[135.644051,33.775538],[135.643217,33.773989],[135.640899,33.772442],[135.639893,33.77136],[135.64071,33.770552],[135.641376,33.769509],[135.641904,33.768932],[135.642254,33.768182],[135.642417,33.768035],[135.643034,33.767794],[135.643235,33.767657],[135.643838,33.766723],[135.644077,33.766467],[135.644466,33.766205],[135.644932,33.766005],[135.645875,33.765774],[135.647475,33.765499],[135.648066,33.764869],[135.648204,33.764403],[135.648242,33.763909],[135.647428,33.761488],[135.647466,33.760091],[135.647189,33.760112],[135.644612,33.758411],[135.642695,33.756881],[135.640458,33.754739],[135.63881,33.756021],[135.637591,33.755338],[135.636082,33.755474],[135.634234,33.755495],[135.633291,33.756],[135.633153,33.75496],[135.632187,33.754209],[135.631936,33.753243],[135.631488,33.752808],[135.631143,33.752994],[135.630976,33.752847],[135.63065,33.752387],[135.630204,33.751918],[135.629851,33.751341],[135.627752,33.746873],[135.627646,33.746576],[135.627646,33.746246],[135.627872,33.745385],[135.628122,33.744703],[135.628089,33.743884],[135.627654,33.742093],[135.627141,33.741235],[135.627128,33.740701],[135.627786,33.740053],[135.627891,33.739415],[135.628977,33.736452],[135.629395,33.734259],[135.63004,33.73305],[135.630156,33.732529],[135.630854,33.730545],[135.631249,33.729995],[135.631643,33.729589],[135.631749,33.729182],[135.632262,33.728435],[135.631538,33.728237],[135.631071,33.727848],[135.630708,33.727652],[135.630595,33.726498],[135.630666,33.725981],[135.631178,33.724821],[135.631344,33.724541],[135.63169,33.724139],[135.63298,33.723756],[135.633081,33.723661],[135.63326,33.723232],[135.633486,33.723125],[135.633468,33.722988],[135.63351,33.722905],[135.634075,33.722739],[135.634414,33.722869],[135.634646,33.72284],[135.635104,33.723084],[135.635355,33.723035],[135.636181,33.722614],[135.636645,33.722173],[135.636782,33.722095],[135.636949,33.722078],[135.637396,33.722227],[135.637652,33.7224],[135.638319,33.72261],[135.638495,33.7226],[135.638604,33.722512],[135.638848,33.722112],[135.639046,33.72203],[135.63938,33.721747],[135.639544,33.721681],[135.639774,33.721679],[135.640351,33.721791],[135.641222,33.721678],[135.641705,33.72136],[135.641839,33.721171],[135.641833,33.720877],[135.641616,33.720171],[135.64162,33.71992],[135.641308,33.719607],[135.641275,33.719352],[135.641907,33.719758],[135.642191,33.719824],[135.643137,33.720197],[135.6437,33.720333],[135.644108,33.720618],[135.645325,33.720646],[135.645529,33.720869],[135.645562,33.72116],[135.645507,33.721271],[135.645148,33.721601],[135.645192,33.72167],[135.645433,33.721648],[135.645576,33.721475],[135.646119,33.720538],[135.647097,33.71961],[135.647154,33.718993],[135.647266,33.71876],[135.647436,33.718554],[135.647513,33.718353],[135.647839,33.717908],[135.647859,33.717504],[135.647778,33.717302],[135.647723,33.7169],[135.647396,33.716633],[135.647322,33.716515],[135.647365,33.716311],[135.647568,33.716225],[135.647949,33.716273],[135.648226,33.716398],[135.648816,33.716413],[135.649223,33.715865],[135.649294,33.715661],[135.649399,33.715542],[135.64954,33.715456],[135.650302,33.715269],[135.650617,33.715098],[135.650787,33.714868],[135.650965,33.714459],[135.65103,33.714438],[135.651485,33.714665],[135.651687,33.714839],[135.651883,33.715356],[135.652221,33.715708],[135.652338,33.715995],[135.652246,33.716698],[135.652278,33.716773],[135.652792,33.716898],[135.653316,33.716892],[135.653874,33.716982],[135.65422,33.716938],[135.655094,33.716717],[135.655753,33.716502],[135.656068,33.716473],[135.656856,33.716105],[135.657458,33.71592],[135.6578,33.715878],[135.658495,33.715912],[135.658811,33.716053],[135.659406,33.716139],[135.65993,33.716077],[135.660757,33.71571],[135.661008,33.715665],[135.661797,33.715263],[135.662221,33.715101],[135.663026,33.714879],[135.663819,33.714568],[135.664226,33.714462],[135.662388,33.713749],[135.661336,33.711902],[135.661392,33.710631],[135.660682,33.709994],[135.660261,33.709466],[135.659669,33.708477],[135.658893,33.70785],[135.657946,33.707444],[135.657249,33.706795],[135.656244,33.706144],[135.654903,33.705848],[135.654219,33.705089],[135.653203,33.703408],[135.653163,33.701616],[135.653045,33.699813],[135.652159,33.698174],[135.650581,33.696932],[135.651055,33.696228],[135.65191,33.695514],[135.654375,33.69298],[135.654914,33.69264],[135.655966,33.692321],[135.655752,33.691841],[135.655713,33.690972],[135.655503,33.689961],[135.655161,33.68906],[135.655568,33.68917],[135.656226,33.689027],[135.656502,33.689027],[135.658146,33.689631],[135.659369,33.689873],[135.660798,33.689907],[135.662021,33.690182],[135.663308,33.690303],[135.66394,33.690237],[135.664545,33.689808],[135.665044,33.689632],[135.665491,33.689545],[135.665833,33.689545],[135.666747,33.689711],[135.66847,33.689733],[135.668956,33.689931],[135.669206,33.689975],[135.669403,33.689964],[135.669906,33.689818],[135.671555,33.689896],[135.672693,33.690024],[135.673698,33.690019],[135.674147,33.690194],[135.674591,33.690503],[135.675405,33.691538],[135.676927,33.691831],[135.677606,33.692064],[135.678299,33.693166],[135.679126,33.693895],[135.679862,33.695006],[135.67998,33.695352],[135.681058,33.695726],[135.681452,33.695814],[135.682005,33.696066],[135.682871,33.69663],[135.683491,33.697149],[135.683855,33.697558],[135.684058,33.698221],[135.684202,33.698449],[135.685116,33.699204],[135.685893,33.700643],[135.687046,33.701898],[135.687839,33.702391],[135.688254,33.702903],[135.688493,33.703083],[135.689167,33.703437],[135.689233,33.703597],[135.689192,33.704403],[135.689252,33.705046],[135.689604,33.705794],[135.690157,33.706675],[135.690142,33.707607],[135.690506,33.708195],[135.690434,33.70841],[135.690034,33.708883],[135.691203,33.711128],[135.691579,33.711532],[135.692101,33.71197],[135.693038,33.712442],[135.693603,33.712856],[135.694074,33.713095],[135.69476,33.71325],[135.69522,33.713444],[135.696343,33.714208],[135.697049,33.714343],[135.697888,33.714109],[135.699197,33.713579],[135.700064,33.71393],[135.700764,33.713961],[135.701547,33.714421],[135.702004,33.714881],[135.702033,33.715116],[135.702183,33.715474],[135.702649,33.715692],[135.703087,33.715817],[135.703703,33.715872],[135.705521,33.714905],[135.706483,33.714653],[135.706697,33.714529],[135.706958,33.714248],[135.707667,33.713212],[135.708357,33.712464],[135.708585,33.71203],[135.708802,33.711259],[135.709563,33.710295],[135.709489,33.709126],[135.70971,33.708388],[135.71052,33.707444],[135.710789,33.706985],[135.711869,33.706534],[135.712581,33.705077],[135.713047,33.704257],[135.713244,33.703457],[135.713685,33.703149],[135.713906,33.701631],[135.714021,33.699754],[135.714193,33.698851],[135.714561,33.698092],[135.714536,33.696985],[135.713358,33.696287],[135.713393,33.694844],[135.716632,33.693469],[135.717491,33.692854],[135.71862,33.692505],[135.720656,33.692464],[135.722055,33.691275],[135.723896,33.690987],[135.726889,33.692649],[135.727675,33.692751],[135.728386,33.693203],[135.729007,33.693132],[135.730521,33.692585],[135.733876,33.694084],[135.734718,33.694541],[135.736122,33.695111],[135.737425,33.695718],[135.738774,33.695744],[135.739787,33.69559],[135.740891,33.695744],[135.742241,33.695385],[135.744357,33.695334],[135.747885,33.69477],[135.749449,33.695334],[135.750584,33.696154],[135.750554,33.696795],[135.751198,33.697923],[135.749911,33.698885],[135.749174,33.70009],[135.749021,33.701808],[135.748684,33.70209],[135.748837,33.70268],[135.74896,33.704577],[135.74882,33.705285],[135.750078,33.706772],[135.750232,33.707515],[135.751091,33.708156],[135.751152,33.708592],[135.750815,33.70931],[135.750293,33.710105],[135.749833,33.711028],[135.749158,33.711336],[135.749219,33.7119],[135.749557,33.71231],[135.749127,33.712746],[135.749127,33.713361],[135.748452,33.713848],[135.747898,33.715052],[135.747134,33.715892],[135.74634,33.715573],[135.744013,33.715457],[135.743302,33.715244],[135.743626,33.715419],[135.743902,33.715676],[135.744125,33.716209],[135.744248,33.717051],[135.744217,33.717834],[135.74456,33.71935],[135.744541,33.719522],[135.744638,33.720312],[135.744956,33.72097],[135.745176,33.721639],[135.745053,33.722109],[135.745178,33.722831],[135.745032,33.72316],[135.745003,33.723339],[135.745104,33.723653],[135.745118,33.724061],[135.744907,33.724499],[135.744905,33.725196],[135.744816,33.725405],[135.744622,33.725604],[135.744573,33.725719],[135.74464,33.725868],[135.744822,33.726016],[135.744945,33.726247],[135.74493,33.726382],[135.744707,33.726884],[135.744672,33.727098],[135.744806,33.727666],[135.745807,33.728309],[135.746093,33.728682],[135.746342,33.728914],[135.746391,33.729027],[135.746201,33.73011],[135.746317,33.730427],[135.746317,33.730631],[135.746202,33.730952],[135.746111,33.731536],[135.74613,33.732991],[135.745889,33.733635],[135.7455,33.734154],[135.745234,33.734346],[135.744402,33.734727],[135.744016,33.73503],[135.743737,33.735405],[135.744408,33.735676],[135.744976,33.736077],[135.746387,33.73662],[135.746606,33.737156],[135.746795,33.737315],[135.747087,33.7374],[135.746956,33.737875],[135.746795,33.738958],[135.746781,33.739798],[135.746693,33.740127],[135.746416,33.740712],[135.746387,33.740992],[135.746518,33.7416],[135.746725,33.742027],[135.746725,33.742429],[135.746608,33.742782],[135.745953,33.743683],[135.746259,33.744754],[135.746477,33.744961],[135.74674,33.745107],[135.748095,33.745132],[135.749043,33.745339],[135.749378,33.745472],[135.749582,33.745655],[135.749914,33.746327],[135.75022,33.746668],[135.750556,33.746948],[135.750774,33.747034],[135.751022,33.747046],[135.751488,33.746924],[135.751882,33.747034],[135.752873,33.746364],[135.753442,33.746157],[135.753587,33.746157],[135.753791,33.746839],[135.754039,33.747375],[135.754112,33.74875],[135.755268,33.74948],[135.755457,33.749663],[135.755487,33.749906],[135.755385,33.750612],[135.754772,33.751598],[135.754933,33.752207],[135.75521,33.752889],[135.75518,33.753108],[135.754146,33.754119],[135.753979,33.754361],[135.753935,33.75458],[135.754008,33.75542],[135.753979,33.755615],[135.753687,33.75609],[135.753745,33.756626],[135.753935,33.757235],[135.754605,33.757661],[135.754795,33.757965],[135.75577,33.758689],[135.755785,33.758908],[135.755508,33.75931],[135.755478,33.759578],[135.756382,33.760771],[135.756791,33.760861],[135.757156,33.761299],[135.757608,33.762152],[135.758891,33.762286],[135.760246,33.76203],[135.760873,33.762006],[135.762425,33.763568],[135.762571,33.763677],[135.763344,33.763787],[135.763591,33.763921],[135.764583,33.764883],[135.764758,33.764919],[135.766449,33.764931],[135.766857,33.764834],[135.768016,33.764897],[135.768482,33.765652],[135.768934,33.766687],[135.76962,33.767064],[135.769867,33.767283],[135.770115,33.767697],[135.770407,33.768026],[135.771369,33.768878],[135.771465,33.769404],[135.771961,33.770353],[135.772063,33.770645],[135.772005,33.77112],[135.771699,33.772021],[135.771261,33.772801],[135.770707,33.773482],[135.769789,33.773848],[135.768039,33.775223],[135.767358,33.775594],[135.766425,33.775874],[135.765303,33.776069],[135.763947,33.776154],[135.763028,33.775302],[135.76243,33.775911],[135.761803,33.776325],[135.760681,33.776471],[135.759573,33.777299],[135.758388,33.778013],[135.755982,33.778817],[135.754656,33.778695],[135.752818,33.779437],[135.751529,33.779681],[135.750392,33.779718],[135.749283,33.779523],[135.748409,33.779231],[135.747388,33.779486],[135.746848,33.779085],[135.745207,33.779465],[135.744332,33.77871],[135.74353,33.778491],[135.742699,33.77938],[135.741853,33.779647],[135.741139,33.779599],[135.740468,33.77972],[135.739943,33.779903],[135.73952,33.780147],[135.739375,33.780463],[135.73936,33.780816],[135.739651,33.781225],[135.740132,33.781578],[135.739461,33.782442],[135.737828,33.783696],[135.736417,33.785865],[135.736338,33.786481],[135.736463,33.787116],[135.73644,33.787752],[135.734226,33.788055],[135.73376,33.788349],[135.732761,33.788159],[135.731984,33.787741],[135.730224,33.78776],[135.728621,33.786907],[135.727497,33.786793],[135.726225,33.787381],[135.724965,33.7883],[135.724272,33.78813],[135.72322,33.788169],[135.722118,33.78833],[135.721744,33.788103],[135.721356,33.787458],[135.71921,33.785894],[135.717893,33.787221]]]]}}]}
