{"type":"FeatureCollection","features":[{"type":"Feature","properties":{"potaRef":"JP-1453","nameJa":"Minamichita","nameEn":"Minami Chita Prefectural Nature Park","authority":"環境省 生物多様性「見える化」マップ","boundaryStatus":"全国GIS候補・公開前検証待ち","boundarySource":"環境省 生物多様性「見える化」マップの自然公園区域を、POTA代表座標で一意に空間照合して加工","boundaryScaleNote":"区域は概要データであり、正確性は保証されない。POTA運用可否は公式情報で最終確認すること。","candidateMethod":"POTA representative point inside one public natural-park area","sourceParkKind":"都道府県立自然公園","sourceName":"Minamichita","sourceFeatureCount":1,"cautionMeters":75},"geometry":{"type":"MultiPolygon","coordinates":[[[[136.865633,34.850654],[136.865472,34.850991],[136.865635,34.851278],[136.865541,34.851424],[136.865052,34.851777],[136.864418,34.852638],[136.863784,34.852632],[136.864222,34.851709],[136.864188,34.851517],[136.86396,34.85136],[136.863459,34.851175],[136.863468,34.850725],[136.864086,34.850256],[136.864355,34.850293],[136.864859,34.850173],[136.864954,34.850067],[136.864967,34.84977],[136.864654,34.849542],[136.864789,34.849285],[136.864906,34.849216],[136.86509,34.849181],[136.865257,34.849211],[136.865534,34.849424],[136.865701,34.849445],[136.865798,34.849266],[136.865613,34.849049],[136.865642,34.848937],[136.865584,34.848827],[136.865452,34.848723],[136.865562,34.848503],[136.865564,34.84837],[136.865492,34.848273],[136.865456,34.848021],[136.865321,34.847843],[136.865414,34.847623],[136.865504,34.847497],[136.865666,34.847482],[136.866232,34.847488],[136.866664,34.847627],[136.867046,34.847547],[136.867057,34.847377],[136.86683,34.846804],[136.866494,34.846769],[136.866062,34.846608],[136.865758,34.846608],[136.865637,34.846656],[136.86561,34.846614],[136.865585,34.846086],[136.865646,34.845907],[136.866043,34.84557],[136.866024,34.845386],[136.865614,34.845165],[136.865584,34.844576],[136.865874,34.844323],[136.865849,34.844147],[136.865634,34.843898],[136.865787,34.843639],[136.866302,34.843533],[136.866441,34.843221],[136.866598,34.843043],[136.866809,34.842978],[136.867157,34.842739],[136.867479,34.842193],[136.867674,34.842103],[136.86801,34.84171],[136.868208,34.841688],[136.868469,34.841488],[136.86863,34.841446],[136.868809,34.841292],[136.869059,34.840908],[136.86918,34.840858],[136.86959,34.840866],[136.86991,34.84112],[136.870121,34.841178],[136.870476,34.841069],[136.870745,34.841311],[136.870872,34.841161],[136.870793,34.840969],[136.870813,34.84045],[136.871895,34.839996],[136.872155,34.839763],[136.873043,34.839763],[136.873052,34.839629],[136.872254,34.83935],[136.871902,34.839105],[136.871725,34.839094],[136.871604,34.838401],[136.871425,34.837994],[136.871102,34.837471],[136.870783,34.836597],[136.870612,34.836299],[136.870262,34.835849],[136.869818,34.835463],[136.869707,34.835273],[136.869569,34.835176],[136.869108,34.83549],[136.868412,34.836284],[136.8682,34.83636],[136.867892,34.836607],[136.867909,34.836786],[136.868307,34.83737],[136.868295,34.837806],[136.868083,34.83797],[136.867215,34.837277],[136.866784,34.837512],[136.866785,34.837679],[136.866611,34.838484],[136.866566,34.839481],[136.866379,34.840032],[136.865838,34.840725],[136.865207,34.842043],[136.865362,34.842143],[136.865349,34.842202],[136.865212,34.842318],[136.864657,34.842049],[136.863664,34.843968],[136.863427,34.844844],[136.863639,34.845531],[136.863648,34.845826],[136.863579,34.846303],[136.863405,34.846873],[136.862771,34.848185],[136.862202,34.849224],[136.861821,34.850803],[136.861631,34.851113],[136.861415,34.851261],[136.861283,34.851281],[136.86082,34.851179],[136.860931,34.851039],[136.860913,34.850857],[136.861211,34.850731],[136.861358,34.850582],[136.861644,34.849459],[136.861545,34.849425],[136.861771,34.849469],[136.861935,34.849318],[136.862151,34.848744],[136.862308,34.848548],[136.862665,34.847848],[136.862728,34.847525],[136.862805,34.847489],[136.862862,34.847515],[136.863349,34.845956],[136.863639,34.845608],[136.863585,34.84533],[136.863379,34.844897],[136.863594,34.84387],[136.863397,34.843839],[136.863604,34.843852],[136.863778,34.843466],[136.8635,34.843339],[136.863643,34.84338],[136.86389,34.842913],[136.863972,34.842629],[136.86359,34.84246],[136.864009,34.841651],[136.863673,34.842353],[136.863811,34.842453],[136.864252,34.84259],[136.86457,34.841987],[136.864352,34.841856],[136.864384,34.841834],[136.864614,34.841939],[136.864609,34.841759],[136.863947,34.841385],[136.863958,34.840564],[136.86401,34.840563],[136.864022,34.840609],[136.864014,34.841363],[136.864627,34.84171],[136.865356,34.840497],[136.865513,34.840562],[136.865809,34.840078],[136.865101,34.839789],[136.864426,34.840577],[136.864322,34.840464],[136.865015,34.839645],[136.865126,34.839666],[136.865109,34.839739],[136.865848,34.840043],[136.866036,34.840075],[136.866134,34.839978],[136.866362,34.839633],[136.866202,34.83958],[136.866331,34.839611],[136.866535,34.839166],[136.866546,34.839004],[136.866472,34.839001],[136.866459,34.838885],[136.866517,34.838536],[136.866418,34.838529],[136.866515,34.838521],[136.866609,34.838011],[136.866518,34.83794],[136.866584,34.837696],[136.866089,34.83482],[136.865623,34.832878],[136.865634,34.832699],[136.865772,34.832381],[136.865625,34.832014],[136.865476,34.832024],[136.865515,34.831798],[136.865469,34.831597],[136.865231,34.831612],[136.865608,34.831552],[136.865602,34.831494],[136.865291,34.831526],[136.865384,34.831261],[136.865339,34.831206],[136.865394,34.831178],[136.86529,34.831002],[136.865199,34.83069],[136.865297,34.830589],[136.865506,34.830548],[136.865747,34.830065],[136.865805,34.830067],[136.865863,34.829428],[136.865083,34.829396],[136.864701,34.827162],[136.864705,34.827094],[136.864822,34.827087],[136.865191,34.827155],[136.865294,34.826994],[136.865362,34.826711],[136.865364,34.826568],[136.865306,34.826518],[136.865495,34.826493],[136.865513,34.826204],[136.865382,34.825261],[136.865033,34.824176],[136.86498,34.824098],[136.864678,34.824147],[136.864858,34.824094],[136.864933,34.823661],[136.864461,34.822312],[136.864023,34.8224],[136.864265,34.822312],[136.864241,34.821956],[136.864201,34.82186],[136.863957,34.821824],[136.863655,34.820998],[136.863578,34.82102],[136.863543,34.820954],[136.863635,34.820932],[136.863474,34.820747],[136.862923,34.820834],[136.862917,34.820788],[136.863022,34.82075],[136.863081,34.820077],[136.863055,34.819897],[136.862932,34.819657],[136.862968,34.81923],[136.862618,34.819334],[136.862588,34.81926],[136.862959,34.819145],[136.862922,34.818909],[136.862843,34.818724],[136.862535,34.81875],[136.862485,34.818656],[136.862947,34.818571],[136.862985,34.818483],[136.862787,34.818538],[136.862747,34.818462],[136.863003,34.818389],[136.863009,34.818221],[136.862836,34.817668],[136.862541,34.817752],[136.862504,34.817679],[136.862803,34.817567],[136.862623,34.817031],[136.862074,34.81714],[136.862043,34.817049],[136.862436,34.81696],[136.862457,34.816669],[136.862435,34.816575],[136.862295,34.816488],[136.862208,34.816364],[136.862208,34.816206],[136.862279,34.816087],[136.862205,34.81562],[136.861855,34.81434],[136.861827,34.814211],[136.861878,34.814209],[136.861831,34.814009],[136.861035,34.812136],[136.860621,34.812252],[136.860938,34.812146],[136.860957,34.812057],[136.860875,34.811679],[136.859972,34.809814],[136.859084,34.807646],[136.858816,34.80772],[136.85863,34.807269],[136.858407,34.807302],[136.858663,34.807205],[136.858682,34.807084],[136.85838,34.806295],[136.858418,34.806264],[136.858009,34.806319],[136.858386,34.80624],[136.858367,34.806176],[136.858447,34.806139],[136.858416,34.806038],[136.858322,34.806039],[136.85831,34.806001],[136.857893,34.806044],[136.857893,34.805968],[136.858086,34.805967],[136.85798,34.805707],[136.858021,34.805703],[136.858002,34.805656],[136.858124,34.805624],[136.857461,34.803971],[136.857336,34.804005],[136.857319,34.803965],[136.857272,34.803977],[136.857169,34.803746],[136.858333,34.803559],[136.858333,34.803717],[136.85793,34.803785],[136.858662,34.80592],[136.858524,34.806228],[136.858832,34.806844],[136.860003,34.809633],[136.860424,34.810471],[136.861528,34.812966],[136.862076,34.812798],[136.86221,34.812691],[136.862272,34.812409],[136.86215,34.812093],[136.862006,34.812156],[136.861831,34.811934],[136.861306,34.810992],[136.861141,34.810511],[136.861127,34.810172],[136.860998,34.809811],[136.860904,34.809355],[136.860779,34.809257],[136.860662,34.809051],[136.860659,34.808694],[136.861085,34.808732],[136.861312,34.808881],[136.861636,34.808956],[136.862456,34.80904],[136.862623,34.809126],[136.863269,34.80971],[136.863544,34.809632],[136.863559,34.809688],[136.863687,34.809758],[136.863876,34.810155],[136.864133,34.810364],[136.864274,34.810987],[136.864351,34.811085],[136.864959,34.811415],[136.866069,34.811481],[136.866366,34.811751],[136.866368,34.811822],[136.866434,34.811872],[136.866515,34.81189],[136.87007,34.811113],[136.869949,34.810983],[136.869845,34.810964],[136.869176,34.810067],[136.869,34.809628],[136.868565,34.809321],[136.868244,34.8089],[136.868045,34.808734],[136.867797,34.808553],[136.867216,34.808273],[136.867069,34.807785],[136.866878,34.807531],[136.866964,34.807458],[136.866118,34.806635],[136.865074,34.805719],[136.864819,34.805643],[136.864558,34.805269],[136.864251,34.804623],[136.864196,34.804367],[136.863953,34.80437],[136.863406,34.80474],[136.863263,34.804667],[136.862997,34.804764],[136.862852,34.804656],[136.862582,34.804774],[136.862575,34.804849],[136.862793,34.805131],[136.862764,34.805233],[136.862637,34.805293],[136.862293,34.805334],[136.862015,34.805437],[136.861785,34.805282],[136.861094,34.805091],[136.861074,34.804878],[136.86112,34.804793],[136.860864,34.804263],[136.860858,34.803996],[136.861128,34.803737],[136.861207,34.803611],[136.86122,34.803484],[136.861157,34.803394],[136.860917,34.803384],[136.861347,34.801997],[136.86152,34.801632],[136.861494,34.801552],[136.861553,34.801489],[136.861751,34.800828],[136.861777,34.800516],[136.861735,34.800235],[136.861541,34.800165],[136.860818,34.796565],[136.860924,34.796334],[136.861692,34.795781],[136.861835,34.796035],[136.861942,34.796083],[136.862425,34.795757],[136.862417,34.79552],[136.862652,34.795469],[136.862689,34.795403],[136.862554,34.794614],[136.863002,34.794394],[136.863427,34.794094],[136.863187,34.793672],[136.863196,34.793439],[136.862976,34.793249],[136.862957,34.792584],[136.862565,34.791966],[136.862565,34.791773],[136.862713,34.791654],[136.86262,34.79144],[136.862926,34.790793],[136.862774,34.790672],[136.862606,34.790748],[136.862463,34.790696],[136.862277,34.790754],[136.862154,34.790726],[136.862073,34.79063],[136.861994,34.790293],[136.861881,34.790188],[136.861737,34.790166],[136.86172,34.789926],[136.861807,34.789834],[136.861892,34.789575],[136.862049,34.789394],[136.862003,34.789221],[136.862064,34.789089],[136.861791,34.78893],[136.861481,34.788254],[136.861338,34.788165],[136.861105,34.788118],[136.861006,34.787499],[136.861324,34.787477],[136.861343,34.787085],[136.861401,34.786927],[136.860844,34.786195],[136.860715,34.785955],[136.860572,34.785851],[136.860527,34.785672],[136.860522,34.785378],[136.860571,34.785307],[136.86075,34.785258],[136.860926,34.784983],[136.86094,34.784712],[136.860866,34.784395],[136.860976,34.784177],[136.861483,34.784217],[136.861505,34.783702],[136.86135,34.783491],[136.861302,34.783317],[136.861297,34.782532],[136.861082,34.782209],[136.86101,34.781916],[136.861014,34.78178],[136.861135,34.781538],[136.861393,34.781233],[136.861045,34.78087],[136.861256,34.780638],[136.861256,34.780449],[136.860998,34.780098],[136.860828,34.779728],[136.860624,34.779146],[136.8607,34.778934],[136.860549,34.778876],[136.860269,34.778312],[136.859907,34.777124],[136.859737,34.776984],[136.85884,34.776616],[136.858712,34.776342],[136.858531,34.776341],[136.858437,34.776236],[136.857757,34.776415],[136.857867,34.776629],[136.857919,34.77661],[136.858029,34.776805],[136.857429,34.776993],[136.855203,34.778041],[136.855451,34.778378],[136.855675,34.778308],[136.855827,34.778454],[136.856054,34.778396],[136.856277,34.778491],[136.856341,34.778571],[136.856231,34.778728],[136.856304,34.778969],[136.856143,34.779048],[136.855921,34.779306],[136.855807,34.779362],[136.855596,34.77941],[136.855155,34.779412],[136.854531,34.779708],[136.853618,34.780325],[136.853484,34.780197],[136.853358,34.780276],[136.853249,34.780095],[136.853071,34.780008],[136.852946,34.779789],[136.8528,34.7797],[136.852756,34.779461],[136.852517,34.779077],[136.852064,34.779196],[136.851664,34.779015],[136.851208,34.778327],[136.852094,34.7779],[136.852267,34.77802],[136.852502,34.777951],[136.852664,34.777847],[136.852219,34.777247],[136.852439,34.777049],[136.852224,34.776717],[136.851838,34.777005],[136.851566,34.777106],[136.850743,34.777697],[136.850136,34.776721],[136.850228,34.77661],[136.850153,34.776459],[136.85024,34.776359],[136.850336,34.776354],[136.850544,34.776526],[136.850728,34.776389],[136.850796,34.776213],[136.850748,34.776097],[136.850788,34.775998],[136.85076,34.775934],[136.850652,34.775879],[136.850376,34.775987],[136.850247,34.775868],[136.850159,34.775855],[136.84963,34.776314],[136.84939,34.776458],[136.84881,34.775121],[136.848834,34.774971],[136.849594,34.775344],[136.850005,34.775436],[136.850125,34.775412],[136.85073,34.775067],[136.851059,34.774747],[136.850745,34.774482],[136.851121,34.77412],[136.851425,34.773652],[136.852211,34.773406],[136.852497,34.773167],[136.852844,34.772771],[136.8534,34.772795],[136.853677,34.772741],[136.853955,34.772521],[136.854545,34.772257],[136.854633,34.772136],[136.854461,34.771851],[136.854701,34.771701],[136.854918,34.771687],[136.855023,34.771618],[136.855074,34.771422],[136.855027,34.771279],[136.854855,34.771258],[136.854687,34.771106],[136.854213,34.771164],[136.85398,34.770687],[136.853852,34.770269],[136.853439,34.770272],[136.853389,34.770215],[136.853274,34.770215],[136.853193,34.770091],[136.853027,34.770015],[136.852679,34.770079],[136.852363,34.770077],[136.852181,34.769935],[136.851996,34.770046],[136.851917,34.769924],[136.852055,34.769832],[136.852144,34.76965],[136.852069,34.769458],[136.851934,34.76942],[136.851683,34.769124],[136.851309,34.769242],[136.850941,34.76895],[136.850521,34.768709],[136.8505,34.768639],[136.850585,34.76847],[136.851159,34.768183],[136.851247,34.768235],[136.85137,34.76847],[136.851593,34.768372],[136.851507,34.768117],[136.851518,34.767949],[136.851661,34.767838],[136.851496,34.767727],[136.851413,34.767579],[136.851204,34.767577],[136.851137,34.767476],[136.851127,34.767339],[136.850812,34.76711],[136.85027,34.767075],[136.850185,34.76701],[136.850121,34.766868],[136.850003,34.76683],[136.849369,34.766903],[136.849199,34.766962],[136.848301,34.766976],[136.847734,34.767043],[136.847023,34.766902],[136.8466,34.766985],[136.84651,34.766754],[136.84631,34.766632],[136.846186,34.766402],[136.846033,34.766268],[136.846101,34.766162],[136.846753,34.765826],[136.846773,34.765636],[136.8465,34.765461],[136.846533,34.765264],[136.846629,34.76515],[136.846958,34.765062],[136.847044,34.764982],[136.847222,34.764316],[136.84729,34.764253],[136.84793,34.764014],[136.849439,34.764011],[136.849974,34.763879],[136.850066,34.763707],[136.850161,34.763657],[136.850176,34.763297],[136.850295,34.763255],[136.850215,34.762889],[136.850084,34.762875],[136.850058,34.762789],[136.849716,34.762785],[136.849532,34.762734],[136.849434,34.762563],[136.849645,34.762311],[136.85001,34.762067],[136.850386,34.761458],[136.850474,34.761433],[136.850923,34.761616],[136.851161,34.761599],[136.851252,34.761465],[136.851178,34.761328],[136.850991,34.761175],[136.85115,34.761007],[136.851813,34.761087],[136.851983,34.761261],[136.852051,34.761235],[136.852122,34.761119],[136.852321,34.761078],[136.852538,34.760547],[136.852434,34.760098],[136.852469,34.759571],[136.852298,34.759082],[136.852058,34.758812],[136.85194,34.75829],[136.851727,34.758003],[136.851674,34.758045],[136.851593,34.758017],[136.851438,34.757827],[136.851355,34.757596],[136.85161,34.757163],[136.852235,34.756393],[136.852395,34.756315],[136.852672,34.756297],[136.852865,34.75615],[136.853355,34.755943],[136.853666,34.756016],[136.853881,34.756288],[136.854729,34.756127],[136.854943,34.755942],[136.854998,34.755568],[136.85527,34.755344],[136.855487,34.755015],[136.855604,34.754992],[136.856175,34.755199],[136.856597,34.754919],[136.856967,34.754583],[136.857532,34.754549],[136.857685,34.754475],[136.85782,34.753981],[136.857979,34.753711],[136.858077,34.753646],[136.858084,34.753531],[136.858319,34.75314],[136.858439,34.753034],[136.858551,34.752797],[136.858814,34.752627],[136.858938,34.752646],[136.859147,34.752572],[136.859468,34.752545],[136.859525,34.752349],[136.859562,34.751831],[136.859742,34.751669],[136.859802,34.75155],[136.860048,34.751355],[136.860227,34.751074],[136.860229,34.750958],[136.860319,34.750824],[136.860756,34.750377],[136.860609,34.750297],[136.860491,34.750137],[136.86044,34.75001],[136.860414,34.74963],[136.860689,34.748682],[136.860959,34.748502],[136.860954,34.748244],[136.860807,34.748191],[136.860217,34.748256],[136.859818,34.748109],[136.859686,34.748108],[136.859074,34.748256],[136.858925,34.748064],[136.858777,34.747501],[136.858576,34.747074],[136.858404,34.746939],[136.858041,34.74683],[136.857684,34.74644],[136.857862,34.746455],[136.858093,34.746644],[136.858455,34.746574],[136.858548,34.74668],[136.859291,34.746261],[136.859432,34.746163],[136.86,34.745453],[136.860159,34.745327],[136.860438,34.744734],[136.860647,34.744521],[136.861207,34.744288],[136.861385,34.743867],[136.861972,34.743687],[136.862218,34.743683],[136.862304,34.743752],[136.862289,34.744245],[136.862602,34.744309],[136.8628,34.744446],[136.86298,34.744652],[136.863174,34.744649],[136.863607,34.744573],[136.863792,34.744431],[136.864305,34.74385],[136.864465,34.743767],[136.866074,34.743186],[136.865975,34.743358],[136.865688,34.743572],[136.865469,34.743618],[136.86559,34.743884],[136.865608,34.744128],[136.865754,34.744394],[136.865089,34.744515],[136.865115,34.744718],[136.86556,34.744658],[136.865637,34.744788],[136.866278,34.744746],[136.86705,34.745307],[136.867149,34.745302],[136.867255,34.745165],[136.867755,34.745244],[136.867824,34.745308],[136.867898,34.745548],[136.868045,34.745699],[136.868358,34.745775],[136.86842,34.74565],[136.868395,34.745399],[136.868277,34.745347],[136.868243,34.744962],[136.868353,34.744671],[136.868454,34.744568],[136.868658,34.744404],[136.868987,34.744313],[136.869837,34.74429],[136.870114,34.744534],[136.870476,34.744745],[136.87219,34.745314],[136.873136,34.74551],[136.874277,34.745571],[136.874625,34.746857],[136.875431,34.746516],[136.875436,34.746391],[136.875656,34.746344],[136.87574,34.74644],[136.876328,34.746216],[136.876525,34.7455],[136.877643,34.74525],[136.878441,34.745245],[136.87852,34.745192],[136.878435,34.744053],[136.878267,34.743359],[136.878275,34.743307],[136.87878,34.743124],[136.878869,34.742986],[136.878869,34.742816],[136.878776,34.742558],[136.878666,34.741961],[136.878677,34.741749],[136.879011,34.741635],[136.879601,34.741226],[136.880128,34.741094],[136.880119,34.741009],[136.879649,34.740634],[136.87932,34.740842],[136.87916,34.740834],[136.878931,34.741027],[136.87852,34.741051],[136.878233,34.740973],[136.877925,34.740732],[136.87783,34.740754],[136.877566,34.74053],[136.877627,34.740368],[136.877308,34.74023],[136.877269,34.740045],[136.877019,34.739496],[136.876681,34.73948],[136.876533,34.739516],[136.876428,34.739327],[136.876436,34.739242],[136.876529,34.739134],[136.876751,34.73848],[136.875849,34.737679],[136.874761,34.738342],[136.873791,34.73866],[136.873759,34.738407],[136.874107,34.738305],[136.87422,34.73815],[136.874231,34.738036],[136.874167,34.737915],[136.873663,34.737434],[136.873516,34.737417],[136.873738,34.737185],[136.87396,34.73662],[136.874123,34.736549],[136.87481,34.736484],[136.875395,34.735989],[136.875476,34.735735],[136.875793,34.735594],[136.87562,34.735411],[136.875435,34.735428],[136.875225,34.735346],[136.874558,34.73531],[136.874498,34.735311],[136.874422,34.735397],[136.87421,34.735419],[136.87411,34.735392],[136.874065,34.735282],[136.87431,34.735053],[136.874956,34.734797],[136.875032,34.734678],[136.875033,34.734542],[136.875379,34.734373],[136.875696,34.734025],[136.875794,34.73397],[136.876272,34.733888],[136.876562,34.733712],[136.876974,34.733548],[136.876887,34.732946],[136.876927,34.732813],[136.87712,34.732546],[136.877725,34.732133],[136.877974,34.732076],[136.879557,34.730895],[136.879839,34.730772],[136.88009,34.730594],[136.880191,34.73046],[136.880399,34.729878],[136.880533,34.729898],[136.881109,34.728975],[136.881301,34.729036],[136.88166,34.728859],[136.882207,34.728747],[136.882274,34.729057],[136.882528,34.729178],[136.882675,34.72939],[136.882947,34.729371],[136.883148,34.729464],[136.883207,34.729364],[136.883326,34.729297],[136.883404,34.729118],[136.883125,34.728819],[136.883636,34.728668],[136.883911,34.728931],[136.88387,34.729232],[136.883948,34.729241],[136.88416,34.729813],[136.884883,34.729466],[136.884916,34.729612],[136.88526,34.729328],[136.885434,34.729368],[136.885928,34.729207],[136.886002,34.729024],[136.887502,34.728829],[136.887523,34.72908],[136.887725,34.729248],[136.885806,34.730683],[136.885549,34.730808],[136.885271,34.731028],[136.884748,34.731026],[136.884567,34.731103],[136.88426,34.731373],[136.884249,34.731956],[136.884494,34.73218],[136.884872,34.732108],[136.885012,34.732129],[136.8851,34.732204],[136.885092,34.7324],[136.885136,34.732467],[136.885417,34.732231],[136.885507,34.732231],[136.8855,34.732433],[136.885323,34.732821],[136.885842,34.733186],[136.886094,34.733494],[136.885971,34.734086],[136.885818,34.734396],[136.885499,34.734735],[136.884814,34.735191],[136.884523,34.735589],[136.884342,34.736253],[136.884135,34.736662],[136.883816,34.736806],[136.883478,34.737074],[136.883489,34.73717],[136.883676,34.737356],[136.883781,34.737331],[136.883917,34.737432],[136.883747,34.737634],[136.883784,34.737671],[136.88557,34.737011],[136.885666,34.737054],[136.885753,34.737173],[136.885746,34.737245],[136.885046,34.737577],[136.884702,34.737893],[136.884707,34.738007],[136.884607,34.738098],[136.884537,34.738114],[136.884396,34.738037],[136.88417,34.738096],[136.884281,34.738404],[136.884424,34.738563],[136.884497,34.73859],[136.884944,34.738376],[136.885641,34.737914],[136.886269,34.737625],[136.887985,34.737167],[136.888201,34.737056],[136.88857,34.736717],[136.888847,34.736531],[136.889153,34.736412],[136.890743,34.7354],[136.892415,34.735496],[136.892707,34.736252],[136.892909,34.73631],[136.893344,34.736321],[136.89372,34.736398],[136.89431,34.736355],[136.895089,34.736138],[136.895278,34.736199],[136.895535,34.736197],[136.895833,34.735994],[136.896178,34.735628],[136.896206,34.735486],[136.896081,34.735096],[136.895238,34.734406],[136.894953,34.733873],[136.894641,34.73362],[136.894027,34.733393],[136.893587,34.732991],[136.893548,34.73287],[136.893444,34.732777],[136.893514,34.731721],[136.89321,34.731312],[136.893109,34.731103],[136.893132,34.730359],[136.893373,34.729608],[136.893379,34.728579],[136.893421,34.728422],[136.893393,34.72774],[136.893437,34.72752],[136.893689,34.727028],[136.893862,34.726443],[136.8941,34.726106],[136.89457,34.725847],[136.894717,34.725831],[136.894871,34.725699],[136.894518,34.725478],[136.894438,34.725301],[136.894417,34.725063],[136.894309,34.724949],[136.894223,34.724949],[136.894207,34.725073],[136.894005,34.725338],[136.893799,34.72533],[136.893768,34.725193],[136.893816,34.725042],[136.893807,34.724765],[136.893282,34.724478],[136.893136,34.724509],[136.893026,34.72445],[136.892596,34.724469],[136.892346,34.724181],[136.892369,34.723869],[136.89262,34.72359],[136.892691,34.723415],[136.89269,34.722845],[136.892821,34.722479],[136.89295,34.722332],[136.893179,34.722474],[136.893103,34.722823],[136.893198,34.722995],[136.893482,34.722961],[136.894026,34.723149],[136.894104,34.722918],[136.894404,34.72241],[136.894476,34.721935],[136.894707,34.721885],[136.894971,34.721739],[136.895087,34.721758],[136.895329,34.721926],[136.89582,34.721804],[136.895989,34.721735],[136.896495,34.721385],[136.896639,34.721348],[136.896776,34.721168],[136.897118,34.721623],[136.898178,34.721274],[136.899817,34.72359],[136.900024,34.723538],[136.900239,34.72366],[136.90032,34.723614],[136.900433,34.723419],[136.900659,34.723453],[136.900826,34.723291],[136.900796,34.723212],[136.900618,34.723097],[136.900609,34.723038],[136.900797,34.722718],[136.901011,34.722128],[136.901485,34.722157],[136.901622,34.722322],[136.901944,34.722541],[136.902081,34.722563],[136.902337,34.722509],[136.902887,34.722853],[136.903,34.722626],[136.90317,34.722492],[136.904111,34.722247],[136.905096,34.721836],[136.905182,34.721872],[136.905245,34.722027],[136.90543,34.722122],[136.905541,34.722006],[136.905465,34.721709],[136.905563,34.721652],[136.905705,34.721668],[136.905925,34.721855],[136.906485,34.721833],[136.9066,34.721635],[136.906592,34.721442],[136.906506,34.721264],[136.906273,34.721032],[136.905974,34.72048],[136.905522,34.719973],[136.905525,34.719872],[136.90569,34.719778],[136.905866,34.719517],[136.90717,34.719556],[136.907649,34.71968],[136.909104,34.720419],[136.909966,34.719745],[136.910058,34.719744],[136.910255,34.719955],[136.91035,34.719962],[136.910509,34.719818],[136.910691,34.719772],[136.9108,34.719594],[136.910788,34.719442],[136.910147,34.718636],[136.90976,34.718545],[136.909727,34.718481],[136.909687,34.718074],[136.909635,34.717954],[136.909871,34.717758],[136.909987,34.717561],[136.909942,34.716938],[136.909852,34.71684],[136.909376,34.716809],[136.909154,34.716699],[136.909091,34.716538],[136.909071,34.71608],[136.909263,34.715969],[136.909477,34.716021],[136.909689,34.715953],[136.9105,34.716141],[136.911203,34.71621],[136.911527,34.716044],[136.911694,34.715831],[136.911788,34.715836],[136.911917,34.715979],[136.912099,34.715982],[136.912712,34.715857],[136.913983,34.715714],[136.914241,34.715472],[136.914941,34.71588],[136.915205,34.716387],[136.915324,34.716485],[136.915328,34.716557],[136.914883,34.716698],[136.914739,34.716801],[136.914679,34.716935],[136.914348,34.717141],[136.914314,34.71723],[136.914215,34.717249],[136.914017,34.717392],[136.913968,34.717441],[136.913983,34.7175],[136.913701,34.717737],[136.913647,34.717925],[136.913453,34.718132],[136.913365,34.718406],[136.913283,34.719206],[136.913286,34.719832],[136.913362,34.720358],[136.913245,34.720967],[136.913384,34.721393],[136.913198,34.721726],[136.912706,34.722324],[136.91267,34.722599],[136.912742,34.72326],[136.913031,34.723661],[136.912966,34.723956],[136.912606,34.724471],[136.912477,34.724789],[136.912606,34.725001],[136.91264,34.72515],[136.912321,34.725451],[136.912275,34.725821],[136.911975,34.726136],[136.911815,34.726178],[136.911542,34.726423],[136.911035,34.727112],[136.910663,34.727393],[136.910652,34.727501],[136.910211,34.727947],[136.910057,34.728276],[136.910029,34.728509],[136.910574,34.72918],[136.91122,34.729338],[136.911427,34.729455],[136.911622,34.729468],[136.91199,34.729398],[136.912148,34.729468],[136.912684,34.729516],[136.91316,34.729484],[136.91328,34.729619],[136.914069,34.729631],[136.914607,34.730619],[136.914432,34.731039],[136.91357,34.730669],[136.91327,34.730865],[136.913007,34.730852],[136.91292,34.730775],[136.912769,34.73048],[136.912408,34.730384],[136.912225,34.73049],[136.912086,34.730747],[136.911954,34.730868],[136.911772,34.731306],[136.911837,34.731594],[136.911998,34.731849],[136.912072,34.732113],[136.91189,34.732662],[136.911629,34.73314],[136.911578,34.73347],[136.911708,34.733605],[136.912573,34.733997],[136.912812,34.734258],[136.91295,34.734533],[136.913187,34.734686],[136.914552,34.73499],[136.914729,34.735108],[136.914846,34.735585],[136.915117,34.734862],[136.915521,34.734761],[136.915683,34.734664],[136.916018,34.734301],[136.916758,34.734422],[136.917481,34.7343],[136.917921,34.734279],[136.918233,34.733825],[136.918362,34.73372],[136.918822,34.733542],[136.918978,34.733386],[136.919109,34.732946],[136.919078,34.732717],[136.918479,34.73205],[136.918463,34.731772],[136.918635,34.730856],[136.918122,34.730256],[136.917989,34.729837],[136.918007,34.729666],[136.918103,34.729567],[136.918481,34.729397],[136.918609,34.729298],[136.918677,34.729149],[136.918428,34.727914],[136.918513,34.727733],[136.91872,34.727545],[136.919119,34.727034],[136.919096,34.726767],[136.918866,34.7264],[136.918765,34.726053],[136.918528,34.726035],[136.917892,34.726163],[136.917424,34.726189],[136.91733,34.726152],[136.917252,34.724983],[136.917117,34.724419],[136.917114,34.724185],[136.916683,34.724101],[136.915784,34.723694],[136.915713,34.723292],[136.915618,34.723075],[136.915167,34.722574],[136.915177,34.722359],[136.9154,34.721946],[136.9156,34.721335],[136.915575,34.721066],[136.915371,34.720522],[136.915438,34.72015],[136.915461,34.719486],[136.915385,34.719056],[136.915433,34.718764],[136.915903,34.718353],[136.91637,34.717634],[136.916853,34.71712],[136.917024,34.71677],[136.917032,34.716513],[136.917315,34.716452],[136.917548,34.71647],[136.918098,34.716798],[136.918788,34.716832],[136.91883,34.716972],[136.918801,34.717325],[136.919058,34.717406],[136.919155,34.717393],[136.919224,34.717243],[136.919542,34.717034],[136.919716,34.716843],[136.919804,34.716703],[136.919751,34.716525],[136.919937,34.71647],[136.920063,34.716235],[136.920254,34.716089],[136.920713,34.715418],[136.9208,34.714852],[136.921094,34.714513],[136.921445,34.714251],[136.921478,34.713944],[136.921629,34.713761],[136.921694,34.713761],[136.921967,34.714244],[136.922279,34.71432],[136.922518,34.714514],[136.922708,34.714528],[136.923084,34.71446],[136.923349,34.714139],[136.923435,34.713932],[136.923748,34.713923],[136.923695,34.713692],[136.923713,34.713438],[136.923621,34.713325],[136.923637,34.713109],[136.923498,34.712896],[136.923544,34.71272],[136.923509,34.712348],[136.923378,34.71198],[136.923363,34.711747],[136.923472,34.71174],[136.923658,34.711884],[136.924191,34.712424],[136.924718,34.712568],[136.924862,34.712583],[136.925002,34.712537],[136.925443,34.712295],[136.926001,34.711471],[136.926394,34.711192],[136.926127,34.711001],[136.926092,34.710469],[136.926223,34.710416],[136.926324,34.710531],[136.926615,34.710663],[136.926735,34.710661],[136.926901,34.710559],[136.927398,34.709767],[136.92784,34.709541],[136.927771,34.709371],[136.927792,34.709314],[136.928213,34.709021],[136.928109,34.70888],[136.928208,34.708665],[136.928361,34.708539],[136.928575,34.708556],[136.928783,34.708419],[136.928596,34.708152],[136.928501,34.70776],[136.928542,34.707674],[136.928647,34.707603],[136.928958,34.707669],[136.929147,34.707653],[136.92934,34.707437],[136.929436,34.70704],[136.929513,34.706924],[136.930016,34.706523],[136.930571,34.706233],[136.930786,34.705932],[136.931063,34.705827],[136.931134,34.705956],[136.930903,34.7069],[136.930975,34.707364],[136.931226,34.707565],[136.931263,34.707812],[136.931187,34.70805],[136.931264,34.708458],[136.931184,34.708637],[136.931346,34.708941],[136.930656,34.709523],[136.929955,34.710019],[136.929626,34.710336],[136.929503,34.710536],[136.929506,34.710907],[136.929458,34.711043],[136.929718,34.711178],[136.929874,34.711526],[136.929744,34.711706],[136.929564,34.711762],[136.929295,34.71212],[136.929263,34.712248],[136.929018,34.712476],[136.929013,34.712555],[136.929109,34.712732],[136.928783,34.713215],[136.928206,34.713115],[136.928089,34.712986],[136.927827,34.713024],[136.927897,34.713235],[136.927524,34.713772],[136.927491,34.71432],[136.927133,34.71481],[136.926925,34.714851],[136.926936,34.715203],[136.927055,34.715415],[136.926756,34.716005],[136.926385,34.7164],[136.926403,34.716775],[136.926264,34.717068],[136.925755,34.717778],[136.925361,34.718473],[136.925094,34.718784],[136.924882,34.718841],[136.924795,34.719102],[136.924336,34.719484],[136.92376,34.719476],[136.922988,34.719366],[136.922845,34.719615],[136.922633,34.719568],[136.922548,34.71961],[136.922593,34.719716],[136.92278,34.719766],[136.922971,34.719783],[136.923063,34.719676],[136.923137,34.719666],[136.923489,34.719748],[136.923571,34.719923],[136.923573,34.720195],[136.923667,34.720372],[136.923632,34.720633],[136.923325,34.720633],[136.92326,34.720766],[136.923284,34.720903],[136.922886,34.721089],[136.922507,34.721082],[136.922322,34.721254],[136.922058,34.7213],[136.922077,34.721503],[136.921756,34.722025],[136.921796,34.722072],[136.921974,34.722097],[136.922017,34.722467],[136.922112,34.722536],[136.922476,34.722425],[136.922448,34.722018],[136.922479,34.72194],[136.922688,34.72187],[136.923162,34.721886],[136.923749,34.721828],[136.924124,34.72161],[136.924291,34.721204],[136.924565,34.720808],[136.924563,34.720647],[136.924693,34.720359],[136.924733,34.720142],[136.92527,34.71951],[136.925629,34.719207],[136.925932,34.719131],[136.926182,34.719483],[136.926407,34.719431],[136.926193,34.71915],[136.926473,34.718843],[136.926675,34.718042],[136.92678,34.717842],[136.926922,34.717683],[136.927279,34.7177],[136.927522,34.717553],[136.927529,34.717324],[136.927681,34.717064],[136.927789,34.716711],[136.927782,34.716352],[136.928284,34.715968],[136.928584,34.716012],[136.928749,34.715914],[136.92878,34.715837],[136.928678,34.715603],[136.928758,34.715371],[136.928805,34.715293],[136.928939,34.715268],[136.929083,34.715133],[136.929177,34.715125],[136.930655,34.715553],[136.930891,34.715546],[136.931353,34.717145],[136.932013,34.71702],[136.931895,34.716684],[136.931718,34.716394],[136.931655,34.716086],[136.9317,34.715636],[136.931618,34.715365],[136.93173,34.715011],[136.931717,34.714818],[136.931324,34.714021],[136.931851,34.713075],[136.93214,34.712962],[136.932395,34.712459],[136.932537,34.712318],[136.933078,34.712222],[136.933291,34.712262],[136.933587,34.71248],[136.933868,34.712433],[136.933773,34.711755],[136.93385,34.711676],[136.933943,34.711664],[136.933967,34.711953],[136.934045,34.711988],[136.934143,34.711964],[136.934335,34.711666],[136.934362,34.711471],[136.934433,34.711411],[136.934633,34.711445],[136.934744,34.711586],[136.934823,34.711855],[136.935071,34.712054],[136.935573,34.711779],[136.93551,34.71173],[136.935396,34.711467],[136.93496,34.711195],[136.934939,34.71104],[136.934582,34.71071],[136.935104,34.710682],[136.935453,34.710588],[136.936185,34.710259],[136.93658,34.710241],[136.93719,34.709995],[136.937737,34.709902],[136.937918,34.709747],[136.938018,34.709912],[136.938204,34.709904],[136.938464,34.709787],[136.938394,34.709588],[136.938586,34.709562],[136.938684,34.709411],[136.938699,34.709254],[136.93922,34.708912],[136.939342,34.708766],[136.939711,34.708701],[136.939907,34.709121],[136.939572,34.709498],[136.939424,34.70989],[136.939962,34.710037],[136.940148,34.710539],[136.940177,34.710831],[136.940342,34.711045],[136.940886,34.711047],[136.941111,34.710976],[136.941013,34.710651],[136.941121,34.710218],[136.941077,34.709759],[136.941451,34.709594],[136.94143,34.709018],[136.94136,34.708705],[136.941538,34.708368],[136.94163,34.708286],[136.941678,34.708002],[136.941622,34.707844],[136.941471,34.707665],[136.941423,34.70748],[136.941962,34.706957],[136.942319,34.706518],[136.942722,34.706729],[136.943268,34.706789],[136.943333,34.706759],[136.943427,34.7062],[136.943673,34.706169],[136.943857,34.706268],[136.943893,34.706196],[136.943969,34.706171],[136.944229,34.706303],[136.945603,34.704691],[136.945649,34.704272],[136.945732,34.703994],[136.945849,34.703801],[136.946034,34.703635],[136.94573,34.703503],[136.945918,34.703015],[136.945831,34.702929],[136.945825,34.702806],[136.945912,34.702736],[136.946846,34.702714],[136.947482,34.7026],[136.94776,34.70292],[136.947574,34.703161],[136.947718,34.703367],[136.947894,34.703371],[136.947994,34.703734],[136.947953,34.703943],[136.947997,34.704151],[136.948123,34.704324],[136.94829,34.704429],[136.948551,34.704333],[136.948762,34.704311],[136.948929,34.704117],[136.949111,34.703997],[136.950027,34.703908],[136.950554,34.704193],[136.950893,34.704295],[136.952382,34.704444],[136.952566,34.704626],[136.95266,34.704854],[136.953042,34.705076],[136.953724,34.704965],[136.954646,34.705038],[136.955382,34.705023],[136.955434,34.705062],[136.95546,34.705278],[136.956074,34.705586],[136.95646,34.705916],[136.95676,34.705377],[136.957288,34.704662],[136.95764,34.704564],[136.957729,34.704579],[136.957896,34.704734],[136.957925,34.704849],[136.957955,34.705063],[136.957866,34.705456],[136.957885,34.705653],[136.958227,34.706465],[136.958156,34.706894],[136.958182,34.706994],[136.95834,34.707225],[136.958432,34.70728],[136.959019,34.707238],[136.96,34.707469],[136.960222,34.707818],[136.960014,34.708058],[136.95995,34.708257],[136.960017,34.708448],[136.960209,34.708721],[136.960319,34.709205],[136.960586,34.709534],[136.961064,34.709605],[136.961414,34.709483],[136.961607,34.709721],[136.962036,34.709897],[136.962536,34.709981],[136.964961,34.710822],[136.965335,34.710887],[136.965867,34.711065],[136.966092,34.710956],[136.966244,34.711011],[136.966523,34.710947],[136.96669,34.710807],[136.966835,34.710773],[136.966813,34.711097],[136.9669,34.711233],[136.966162,34.711692],[136.966002,34.711923],[136.965794,34.711593],[136.965722,34.711559],[136.965294,34.711635],[136.965251,34.711719],[136.965325,34.711818],[136.965184,34.711873],[136.964973,34.711894],[136.964643,34.711833],[136.964406,34.711873],[136.964169,34.711977],[136.964172,34.712049],[136.964634,34.712629],[136.964621,34.712673],[136.964448,34.712728],[136.964422,34.71279],[136.964496,34.712868],[136.964689,34.712869],[136.964567,34.713174],[136.964589,34.713746],[136.964396,34.714044],[136.964007,34.713977],[136.963918,34.714098],[136.963392,34.714019],[136.96335,34.714176],[136.963383,34.714244],[136.96366,34.714306],[136.963661,34.714442],[136.963806,34.714475],[136.963896,34.714374],[136.963967,34.714361],[136.964209,34.714465],[136.964519,34.714507],[136.964637,34.71462],[136.964707,34.714624],[136.965007,34.714385],[136.965316,34.714304],[136.96621,34.714211],[136.966469,34.714241],[136.966651,34.714208],[136.96675,34.714057],[136.967058,34.713963],[136.967622,34.713952],[136.967703,34.714024],[136.967721,34.71432],[136.967937,34.714408],[136.968166,34.71443],[136.968185,34.714673],[136.96826,34.714881],[136.968553,34.715296],[136.968318,34.715322],[136.968074,34.715416],[136.968026,34.715467],[136.968044,34.715661],[136.967976,34.715746],[136.96785,34.715732],[136.967514,34.715565],[136.967359,34.715769],[136.967296,34.715949],[136.966682,34.716077],[136.966139,34.716261],[136.966041,34.716091],[136.965562,34.715833],[136.965112,34.715904],[136.964558,34.715582],[136.96435,34.7156],[136.96425,34.715793],[136.964416,34.71593],[136.96448,34.716207],[136.964625,34.716326],[136.964648,34.716694],[136.964735,34.71682],[136.964077,34.717582],[136.963572,34.717602],[136.963517,34.717508],[136.963382,34.717425],[136.962272,34.717686],[136.961902,34.71808],[136.961365,34.718326],[136.9604,34.718351],[136.960357,34.718412],[136.959631,34.718048],[136.95906,34.71762],[136.958944,34.717835],[136.959085,34.717952],[136.959179,34.718243],[136.959501,34.718307],[136.96023,34.718736],[136.960227,34.718794],[136.959958,34.71903],[136.95971,34.719383],[136.959341,34.719538],[136.958314,34.719379],[136.958018,34.719608],[136.957376,34.719619],[136.956997,34.719542],[136.956916,34.719493],[136.956838,34.719322],[136.957065,34.719334],[136.957102,34.719296],[136.956844,34.718845],[136.956724,34.718746],[136.956144,34.718399],[136.95588,34.718475],[136.955661,34.718327],[136.955435,34.718425],[136.95513,34.717897],[136.955026,34.717796],[136.954588,34.717629],[136.954205,34.717542],[136.953352,34.717558],[136.951798,34.717444],[136.951707,34.717479],[136.951524,34.717772],[136.951374,34.717756],[136.951215,34.717672],[136.950757,34.718168],[136.951234,34.718436],[136.951559,34.718545],[136.95335,34.718569],[136.954669,34.718894],[136.954608,34.719129],[136.955313,34.72],[136.955418,34.720191],[136.955718,34.720462],[136.956066,34.720885],[136.955503,34.721445],[136.955772,34.721646],[136.955983,34.721629],[136.956139,34.721692],[136.95621,34.72202],[136.956364,34.722096],[136.956447,34.722229],[136.956544,34.722281],[136.956614,34.722253],[136.956749,34.721955],[136.956812,34.721627],[136.957492,34.721511],[136.957566,34.721569],[136.957473,34.721882],[136.95795,34.72195],[136.9583,34.721729],[136.959173,34.721735],[136.95895,34.722435],[136.958806,34.722522],[136.958271,34.722575],[136.958204,34.722632],[136.958229,34.722885],[136.958397,34.722969],[136.958409,34.72302],[136.958192,34.723297],[136.958157,34.72347],[136.958222,34.723579],[136.958584,34.723718],[136.958814,34.72364],[136.95902,34.723337],[136.959144,34.723293],[136.959279,34.723308],[136.959526,34.723603],[136.95989,34.72417],[136.959949,34.724345],[136.960352,34.724537],[136.960387,34.724611],[136.960317,34.724823],[136.960372,34.724977],[136.960635,34.725208],[136.960715,34.725438],[136.961086,34.725538],[136.96082,34.725787],[136.96071,34.726129],[136.960715,34.726383],[136.96046,34.726901],[136.960142,34.727079],[136.960202,34.727309],[136.960585,34.727414],[136.960733,34.727591],[136.960874,34.727658],[136.960967,34.727645],[136.96106,34.727524],[136.961154,34.727488],[136.961531,34.727512],[136.961679,34.727629],[136.962561,34.727716],[136.962324,34.72991],[136.962532,34.73035],[136.962738,34.7315],[136.963056,34.732069],[136.963604,34.732551],[136.963903,34.732436],[136.964105,34.732528],[136.964264,34.732725],[136.964488,34.732794],[136.96457,34.733153],[136.964765,34.733344],[136.964805,34.733594],[136.964919,34.733721],[136.964406,34.734252],[136.963365,34.734733],[136.96225,34.735409],[136.960663,34.736108],[136.960399,34.736304],[136.960265,34.736548],[136.960093,34.736478],[136.960303,34.736611],[136.960106,34.736607],[136.959854,34.736728],[136.959221,34.736908],[136.959036,34.73701],[136.958256,34.737229],[136.957223,34.737649],[136.956769,34.737771],[136.955686,34.737905],[136.953709,34.737922],[136.95216,34.73804],[136.951805,34.738117],[136.951089,34.738415],[136.95064,34.738699],[136.950185,34.739018],[136.949886,34.739398],[136.949823,34.739137],[136.950087,34.738793],[136.950034,34.738806],[136.949797,34.739128],[136.949846,34.739426],[136.949683,34.739645],[136.949522,34.740021],[136.949523,34.740119],[136.94977,34.740273],[136.949705,34.740862],[136.949668,34.74086],[136.949729,34.740283],[136.949307,34.740019],[136.948788,34.740648],[136.949094,34.740806],[136.949146,34.740942],[136.949394,34.740902],[136.949082,34.74099],[136.949114,34.741079],[136.949082,34.741089],[136.948998,34.740871],[136.94867,34.740703],[136.948348,34.740855],[136.949009,34.741203],[136.948332,34.740868],[136.947302,34.741712],[136.947181,34.741947],[136.946969,34.741934],[136.94686,34.741781],[136.946738,34.741817],[136.946986,34.741971],[136.947152,34.741959],[136.947098,34.742052],[136.947226,34.742152],[136.946981,34.741989],[136.94669,34.742176],[136.946409,34.742233],[136.94607,34.742564],[136.945618,34.742817],[136.945173,34.74319],[136.944921,34.743484],[136.944764,34.743879],[136.944385,34.744182],[136.944354,34.744281],[136.943915,34.744581],[136.943886,34.744725],[136.94403,34.744819],[136.944042,34.744914],[136.943629,34.7452],[136.943562,34.745299],[136.943571,34.745414],[136.943255,34.7455],[136.943153,34.74559],[136.943098,34.74572],[136.942853,34.747064],[136.942861,34.74735],[136.942953,34.747551],[136.942927,34.74759],[136.942669,34.747608],[136.942805,34.747705],[136.942256,34.747439],[136.942144,34.747431],[136.941999,34.747563],[136.94137,34.74793],[136.941077,34.748385],[136.940827,34.74862],[136.940727,34.74863],[136.940901,34.748764],[136.940764,34.748686],[136.940235,34.749065],[136.939967,34.749165],[136.939975,34.749375],[136.939898,34.749252],[136.93969,34.749257],[136.938922,34.74957],[136.938331,34.749697],[136.938303,34.74983],[136.938265,34.749802],[136.937869,34.749888],[136.937413,34.750072],[136.936607,34.75105],[136.936513,34.75133],[136.936501,34.751545],[136.936727,34.751613],[136.936738,34.751666],[136.93685,34.751711],[136.936872,34.752223],[136.936772,34.752253],[136.936742,34.751735],[136.936447,34.751602],[136.936184,34.751767],[136.936014,34.752001],[136.935976,34.752167],[136.936511,34.752353],[136.936523,34.752397],[136.936152,34.752268],[136.935964,34.752465],[136.936247,34.752594],[136.936226,34.752625],[136.93595,34.752487],[136.935694,34.752557],[136.934933,34.753671],[136.93506,34.753764],[136.935032,34.753789],[136.934893,34.753718],[136.934157,34.754029],[136.929933,34.755538],[136.92886,34.756373],[136.927895,34.756739],[136.92743,34.757102],[136.927128,34.758289],[136.927228,34.758405],[136.927266,34.75893],[136.927417,34.75893],[136.927438,34.759075],[136.927439,34.75965],[136.927317,34.759792],[136.927261,34.760356],[136.927282,34.760813],[136.927302,34.760915],[136.92734,34.760916],[136.927328,34.762959],[136.927305,34.763153],[136.92718,34.763152],[136.927025,34.763233],[136.927008,34.76409],[136.92619,34.764168],[136.92592,34.764339],[136.925951,34.764486],[136.925808,34.764538],[136.925411,34.76458],[136.92537,34.764393],[136.925186,34.764369],[136.924542,34.764498],[136.924087,34.764647],[136.92429,34.765554],[136.922753,34.766978],[136.922718,34.766953],[136.924238,34.765543],[136.924006,34.764494],[136.923614,34.764545],[136.923574,34.764357],[136.923333,34.764393],[136.923366,34.764577],[136.923305,34.764587],[136.923377,34.764932],[136.922082,34.765115],[136.922137,34.765381],[136.922232,34.765519],[136.922113,34.765581],[136.922122,34.765627],[136.922465,34.766118],[136.922437,34.766131],[136.922559,34.766317],[136.922505,34.76635],[136.92203,34.765707],[136.921976,34.765453],[136.92159,34.765431],[136.921152,34.765211],[136.920789,34.765145],[136.919621,34.765766],[136.919579,34.76574],[136.91907,34.766087],[136.918949,34.76619],[136.918984,34.766242],[136.918932,34.766204],[136.91817,34.767017],[136.918325,34.767054],[136.91817,34.767038],[136.917493,34.767977],[136.917644,34.768076],[136.917365,34.767943],[136.917232,34.768086],[136.917369,34.768171],[136.917266,34.768132],[136.91692,34.76853],[136.916816,34.768583],[136.916818,34.768641],[136.916555,34.768887],[136.916624,34.768965],[136.916517,34.768879],[136.915941,34.769074],[136.915585,34.769272],[136.915379,34.769478],[136.915333,34.769549],[136.915375,34.769588],[136.915319,34.769561],[136.915165,34.769693],[136.915035,34.769981],[136.915105,34.770021],[136.914945,34.769965],[136.914812,34.770032],[136.914646,34.770455],[136.91463,34.770736],[136.914863,34.770817],[136.914615,34.770824],[136.914517,34.771113],[136.914527,34.772035],[136.914636,34.772838],[136.914933,34.774189],[136.915523,34.775641],[136.915639,34.775806],[136.916988,34.775601],[136.918013,34.776595],[136.917948,34.776682],[136.916947,34.775687],[136.91585,34.775851],[136.916173,34.777341],[136.917513,34.777141],[136.917521,34.77718],[136.915819,34.777413],[136.915224,34.777663],[136.915134,34.777825],[136.915149,34.778152],[136.916941,34.777913],[136.91513,34.778231],[136.915116,34.778505],[136.915211,34.779039],[136.915433,34.779677],[136.915477,34.779773],[136.915586,34.779757],[136.915318,34.779872],[136.915482,34.780503],[136.915825,34.781436],[136.9159,34.781438],[136.91572,34.781487],[136.915723,34.781603],[136.915839,34.782151],[136.915996,34.782544],[136.916039,34.782555],[136.915943,34.782566],[136.91604,34.783026],[136.916562,34.78438],[136.91723,34.785717],[136.917234,34.785831],[136.917571,34.786606],[136.916881,34.786829],[136.916631,34.786945],[136.916283,34.787226],[136.915782,34.787393],[136.915661,34.787484],[136.915592,34.787591],[136.915667,34.787962],[136.915669,34.788059],[136.915609,34.78812],[136.915398,34.788098],[136.915181,34.787868],[136.915039,34.787799],[136.914684,34.788047],[136.914429,34.788041],[136.913726,34.788424],[136.913442,34.788526],[136.913398,34.788598],[136.913499,34.788854],[136.913505,34.789243],[136.913731,34.78963],[136.913744,34.790038],[136.913956,34.79023],[136.914559,34.790546],[136.91527,34.790818],[136.91596,34.790962],[136.916554,34.790945],[136.916984,34.791221],[136.917365,34.791225],[136.917508,34.791307],[136.917686,34.791498],[136.917715,34.791713],[136.917895,34.791839],[136.918084,34.791777],[136.918443,34.791975],[136.918795,34.79194],[136.919133,34.792187],[136.919376,34.792261],[136.919415,34.79218],[136.918642,34.790492],[136.918516,34.790062],[136.918545,34.789946],[136.919128,34.789838],[136.919896,34.791266],[136.919906,34.791353],[136.92093,34.792946],[136.921106,34.793172],[136.921254,34.793158],[136.921457,34.793282],[136.92146,34.793331],[136.921218,34.793183],[136.920776,34.793245],[136.920727,34.793368],[136.920682,34.793346],[136.920698,34.79343],[136.920733,34.793396],[136.920849,34.793489],[136.920963,34.793475],[136.920862,34.793501],[136.920813,34.793628],[136.921093,34.794718],[136.921027,34.795443],[136.920876,34.795893],[136.920935,34.796129],[136.920857,34.796112],[136.920692,34.796248],[136.920507,34.796541],[136.920611,34.796602],[136.920472,34.796777],[136.920127,34.797131],[136.920064,34.797129],[136.919533,34.797566],[136.919546,34.797608],[136.919234,34.797964],[136.91921,34.798115],[136.919064,34.798153],[136.919217,34.798188],[136.919289,34.798385],[136.919256,34.798391],[136.919748,34.79949],[136.92063,34.801227],[136.920845,34.801509],[136.920859,34.801555],[136.920637,34.80162],[136.920834,34.80161],[136.920902,34.801652],[136.92128,34.802366],[136.921171,34.802416],[136.921097,34.802338],[136.921056,34.802354],[136.921339,34.80249],[136.921639,34.803013],[136.921557,34.803048],[136.921398,34.802991],[136.921538,34.803071],[136.921686,34.803088],[136.92224,34.803954],[136.922331,34.803947],[136.922315,34.803906],[136.922548,34.803884],[136.922705,34.803996],[136.922677,34.804044],[136.922484,34.803963],[136.92176,34.804029],[136.921546,34.80429],[136.921545,34.804388],[136.922125,34.80434],[136.921546,34.80442],[136.921574,34.805371],[136.921652,34.805675],[136.921731,34.805801],[136.921249,34.805894],[136.921201,34.806048],[136.921179,34.806506],[136.921362,34.807467],[136.921399,34.807471],[136.921261,34.807611],[136.921027,34.809084],[136.920756,34.809735],[136.920441,34.810204],[136.920332,34.810488],[136.920022,34.810983],[136.920064,34.811145],[136.920617,34.81217],[136.921317,34.813124],[136.921285,34.81319],[136.921322,34.813337],[136.92114,34.813452],[136.921011,34.813414],[136.920655,34.813576],[136.920562,34.813711],[136.92051,34.813917],[136.920745,34.81464],[136.920747,34.814787],[136.920698,34.814845],[136.92082,34.814841],[136.920941,34.815593],[136.921155,34.81613],[136.921111,34.816143],[136.921401,34.816839],[136.921421,34.817207],[136.921559,34.817729],[136.921558,34.81795],[136.921756,34.818764],[136.921316,34.820114],[136.918624,34.81997],[136.917828,34.82055],[136.917085,34.826972],[136.916976,34.827219],[136.916913,34.82679],[136.916765,34.826317],[136.916523,34.825864],[136.916004,34.825247],[136.915798,34.825792],[136.915283,34.82649],[136.914241,34.827194],[136.914096,34.827412],[136.913911,34.82739],[136.912302,34.826401],[136.911472,34.825972],[136.911432,34.826122],[136.91144,34.826436],[136.910734,34.826629],[136.910732,34.826865],[136.910399,34.827093],[136.910453,34.827301],[136.910615,34.827283],[136.910597,34.827485],[136.910766,34.827656],[136.9108,34.827935],[136.91091,34.828064],[136.91112,34.828141],[136.91092,34.828518],[136.910642,34.828472],[136.910445,34.828629],[136.910281,34.828846],[136.910007,34.828977],[136.909986,34.829463],[136.909836,34.829979],[136.911532,34.829997],[136.911716,34.830131],[136.911726,34.830514],[136.911518,34.830747],[136.911664,34.831003],[136.912044,34.830947],[136.912552,34.830993],[136.91345,34.830788],[136.913954,34.830959],[136.914072,34.83087],[136.914179,34.830855],[136.914959,34.830927],[136.915158,34.830849],[136.91561,34.830507],[136.915764,34.830283],[136.915789,34.830101],[136.9178,34.830337],[136.9184,34.830215],[136.918838,34.83031],[136.918675,34.830499],[136.918988,34.83083],[136.918911,34.83135],[136.918708,34.83141],[136.918883,34.832548],[136.918918,34.833154],[136.919116,34.83314],[136.919078,34.833381],[136.919614,34.833266],[136.919783,34.833302],[136.919819,34.833516],[136.920012,34.833808],[136.920135,34.83378],[136.920186,34.83446],[136.920138,34.8345],[136.918963,34.834862],[136.916235,34.835304],[136.915535,34.83473],[136.915549,34.834318],[136.915517,34.834301],[136.915306,34.834298],[136.914789,34.834401],[136.914572,34.834253],[136.914334,34.834234],[136.914189,34.83427],[136.914079,34.834426],[136.913086,34.83471],[136.912946,34.834405],[136.912314,34.834457],[136.912241,34.83432],[136.912234,34.834129],[136.912173,34.834101],[136.910706,34.83411],[136.910925,34.834523],[136.910999,34.8349],[136.911306,34.835305],[136.911638,34.835476],[136.912033,34.835484],[136.912054,34.835685],[136.912244,34.835866],[136.912358,34.836129],[136.912511,34.836183],[136.912672,34.836144],[136.912768,34.836274],[136.912919,34.83636],[136.913529,34.836339],[136.91371,34.836487],[136.914095,34.836646],[136.914692,34.836501],[136.914797,34.836434],[136.915379,34.836374],[136.915935,34.836082],[136.916433,34.836583],[136.917717,34.836272],[136.917745,34.836428],[136.917863,34.836516],[136.918466,34.836713],[136.918607,34.836822],[136.918785,34.837069],[136.918881,34.837089],[136.920126,34.836922],[136.920054,34.83706],[136.919805,34.837302],[136.918901,34.837913],[136.918387,34.837912],[136.917981,34.838288],[136.91791,34.838445],[136.917744,34.838594],[136.918355,34.839199],[136.918129,34.839411],[136.917942,34.839689],[136.917622,34.840005],[136.917456,34.840264],[136.917216,34.840516],[136.917219,34.840617],[136.917289,34.840691],[136.917654,34.840979],[136.917137,34.8413],[136.916669,34.841459],[136.914409,34.841583],[136.911606,34.841182],[136.910843,34.841192],[136.910791,34.841295],[136.910721,34.841287],[136.909869,34.840889],[136.909402,34.840735],[136.908559,34.84066],[136.907087,34.840438],[136.907023,34.840415],[136.906908,34.840119],[136.904683,34.839903],[136.904753,34.839347],[136.904727,34.839188],[136.903622,34.839328],[136.903456,34.839306],[136.902028,34.838978],[136.90035,34.838763],[136.899822,34.838625],[136.897689,34.838338],[136.896991,34.838226],[136.896639,34.838123],[136.893953,34.837764],[136.89362,34.837589],[136.893541,34.837482],[136.893426,34.837468],[136.893042,34.837105],[136.892923,34.836989],[136.892682,34.836523],[136.892311,34.836362],[136.891491,34.836185],[136.891118,34.835772],[136.890399,34.835447],[136.889662,34.835272],[136.889392,34.835264],[136.889256,34.835307],[136.888917,34.835265],[136.888156,34.834706],[136.887318,34.834381],[136.886833,34.834073],[136.886535,34.833945],[136.88616,34.833888],[136.885497,34.833588],[136.88531,34.83368],[136.885148,34.833942],[136.885056,34.834252],[136.884754,34.834913],[136.884494,34.835829],[136.884407,34.835992],[136.884107,34.836216],[136.884092,34.836317],[136.884743,34.837295],[136.884807,34.83752],[136.88482,34.837809],[136.884722,34.838813],[136.884501,34.84033],[136.884037,34.841302],[136.883748,34.842081],[136.882829,34.845432],[136.882752,34.845762],[136.883229,34.845867],[136.883192,34.846085],[136.882726,34.846088],[136.882386,34.847689],[136.881895,34.850737],[136.88058,34.850542],[136.880058,34.850532],[136.879891,34.850414],[136.879281,34.849783],[136.878611,34.849342],[136.877724,34.848907],[136.877099,34.848491],[136.876483,34.848175],[136.875915,34.847645],[136.875728,34.847559],[136.875609,34.847566],[136.874386,34.848014],[136.874312,34.848095],[136.874096,34.848707],[136.873729,34.849006],[136.873615,34.849492],[136.873404,34.849632],[136.871681,34.849715],[136.871446,34.84979],[136.87062,34.849227],[136.870367,34.849365],[136.869933,34.849094],[136.86979,34.849231],[136.869228,34.849015],[136.868674,34.849565],[136.867917,34.849541],[136.8668,34.849733],[136.86671,34.849816],[136.866693,34.849975],[136.866502,34.850035],[136.866333,34.850175],[136.866205,34.850476],[136.865921,34.850554],[136.865783,34.850541],[136.865633,34.850654]],[[136.918267,34.813434],[136.918385,34.813624],[136.918483,34.813668],[136.920184,34.813585],[136.919767,34.812515],[136.919786,34.811342],[136.920084,34.81068],[136.920915,34.809135],[136.921155,34.807729],[136.920939,34.80658],[136.920986,34.805944],[136.921407,34.805819],[136.921418,34.804449],[136.921605,34.80399],[136.91967,34.799903],[136.91899,34.798004],[136.919216,34.797657],[136.920051,34.796944],[136.920431,34.796517],[136.920878,34.795666],[136.920998,34.794887],[136.920978,34.794668],[136.919316,34.794833],[136.918882,34.79477],[136.917824,34.794762],[136.916863,34.794866],[136.916074,34.795115],[136.915814,34.795282],[136.915555,34.795681],[136.915328,34.796226],[136.915334,34.796302],[136.915725,34.796721],[136.915874,34.796677],[136.916028,34.796851],[136.916095,34.797005],[136.916127,34.79744],[136.916357,34.798032],[136.916546,34.79799],[136.916667,34.797801],[136.917898,34.798007],[136.917714,34.798447],[136.917953,34.798511],[136.917979,34.798757],[136.917871,34.799015],[136.917925,34.799023],[136.917693,34.799866],[136.917375,34.802357],[136.916358,34.805633],[136.916133,34.806488],[136.916319,34.806592],[136.916421,34.806738],[136.916636,34.806816],[136.916601,34.806964],[136.916684,34.80724],[136.916919,34.807195],[136.917082,34.807499],[136.917211,34.807503],[136.917243,34.80793],[136.916977,34.807991],[136.917043,34.808266],[136.916875,34.808383],[136.916851,34.808642],[136.916892,34.80874],[136.916814,34.808861],[136.917135,34.808585],[136.917183,34.808872],[136.917468,34.80906],[136.917471,34.809197],[136.917125,34.809228],[136.917185,34.809629],[136.9166,34.809601],[136.916434,34.809852],[136.917243,34.809968],[136.917267,34.810051],[136.917954,34.81006],[136.918004,34.810562],[136.917837,34.81061],[136.91778,34.81079],[136.917674,34.810794],[136.917678,34.810953],[136.91796,34.810937],[136.918014,34.811215],[136.917825,34.81122],[136.917832,34.811435],[136.918111,34.811456],[136.918404,34.812097],[136.918489,34.812141],[136.918362,34.813085],[136.917975,34.813168],[136.917758,34.813166],[136.917841,34.813308],[136.917966,34.813396],[136.918267,34.813434]],[[136.891938,34.79409],[136.892033,34.794009],[136.892153,34.794081],[136.892361,34.794007],[136.892529,34.79386],[136.892123,34.792697],[136.89225,34.791975],[136.891926,34.791419],[136.891535,34.79133],[136.891451,34.790875],[136.890858,34.79011],[136.890693,34.790071],[136.890304,34.790344],[136.889738,34.790299],[136.889454,34.79011],[136.888525,34.790153],[136.888332,34.790282],[136.88782,34.7909],[136.886131,34.79094],[136.88625,34.791717],[136.886663,34.79271],[136.886894,34.793076],[136.887501,34.793638],[136.887509,34.793984],[136.887388,34.794122],[136.886984,34.794376],[136.886529,34.794447],[136.886093,34.794828],[136.886258,34.795009],[136.886195,34.796715],[136.885991,34.797037],[136.886551,34.79765],[136.886556,34.797894],[136.886299,34.798172],[136.885545,34.79842],[136.885243,34.798853],[136.884702,34.799275],[136.884576,34.799576],[136.883808,34.799917],[136.883815,34.800123],[136.884175,34.800136],[136.883938,34.800637],[136.883375,34.80061],[136.882855,34.800306],[136.882623,34.80058],[136.882482,34.80048],[136.882312,34.800702],[136.882413,34.800972],[136.882491,34.801732],[136.882617,34.801812],[136.883212,34.801848],[136.884079,34.80232],[136.885472,34.802707],[136.88617,34.80318],[136.886749,34.803394],[136.887907,34.803497],[136.887276,34.804872],[136.888437,34.805236],[136.888789,34.805487],[136.888877,34.806064],[136.88898,34.806267],[136.889888,34.806952],[136.889912,34.807031],[136.891903,34.807029],[136.892406,34.80693],[136.892947,34.806206],[136.89318,34.805426],[136.893686,34.804881],[136.893913,34.804379],[136.893729,34.802969],[136.893399,34.802521],[136.892398,34.802122],[136.891835,34.802135],[136.891842,34.802302],[136.891324,34.802343],[136.890895,34.801852],[136.890772,34.801506],[136.890756,34.801189],[136.891074,34.800026],[136.890442,34.79965],[136.891001,34.798835],[136.892105,34.797571],[136.892303,34.796434],[136.891679,34.795952],[136.89156,34.795107],[136.891938,34.79409]],[[136.905975,34.787582],[136.906344,34.78774],[136.906423,34.787925],[136.906626,34.788018],[136.907225,34.78748],[136.908017,34.786655],[136.908256,34.78651],[136.908139,34.78628],[136.907949,34.786101],[136.907374,34.785746],[136.907153,34.785028],[136.906798,34.784308],[136.90679,34.783976],[136.906813,34.783883],[136.907025,34.783877],[136.907039,34.783199],[136.907135,34.782738],[136.907734,34.781245],[136.908105,34.78064],[136.908653,34.780074],[136.908803,34.780043],[136.908882,34.780079],[136.908899,34.780315],[136.908971,34.780372],[136.909204,34.780232],[136.90944,34.780206],[136.910227,34.78019],[136.910414,34.780313],[136.910532,34.780181],[136.910695,34.780264],[136.911008,34.780227],[136.911287,34.780053],[136.912108,34.779874],[136.913626,34.780102],[136.91382,34.780782],[136.913733,34.781132],[136.912851,34.782399],[136.91345,34.78261],[136.913483,34.782736],[136.913572,34.782781],[136.913722,34.782764],[136.913833,34.782548],[136.913856,34.782247],[136.91403,34.782046],[136.913858,34.781815],[136.914512,34.78154],[136.915003,34.781707],[136.915065,34.781838],[136.915201,34.781953],[136.915162,34.782187],[136.915216,34.782305],[136.915573,34.782526],[136.915776,34.782484],[136.915525,34.781246],[136.915104,34.779899],[136.915327,34.779774],[136.914813,34.778474],[136.914522,34.778178],[136.915084,34.777744],[136.915161,34.777625],[136.915161,34.777441],[136.914946,34.776485],[136.914915,34.776134],[136.915036,34.775918],[136.915324,34.775895],[136.91469,34.774171],[136.914469,34.773062],[136.91439,34.772188],[136.914385,34.771187],[136.914452,34.770747],[136.914655,34.770101],[136.914719,34.769974],[136.914851,34.769951],[136.915007,34.769656],[136.915237,34.76941],[136.91584,34.769031],[136.91648,34.768815],[136.916688,34.768639],[136.917171,34.768126],[136.917225,34.767968],[136.917389,34.767915],[136.918267,34.766753],[136.918912,34.766101],[136.91975,34.765494],[136.921549,34.764582],[136.921548,34.764505],[136.922585,34.764291],[136.923499,34.764235],[136.924302,34.764432],[136.926973,34.764055],[136.927011,34.759014],[136.927035,34.758566],[136.927104,34.758284],[136.927013,34.758239],[136.925123,34.758287],[136.921661,34.758249],[136.921239,34.758736],[136.920882,34.759467],[136.92051,34.76095],[136.920561,34.761626],[136.920451,34.761951],[136.920224,34.761625],[136.920139,34.761661],[136.919883,34.761627],[136.919325,34.761428],[136.918706,34.761417],[136.918155,34.762313],[136.917979,34.762359],[136.917932,34.762469],[136.917509,34.762779],[136.916993,34.763005],[136.916713,34.763208],[136.916048,34.763023],[136.916094,34.763195],[136.916286,34.763428],[136.916329,34.764069],[136.915748,34.764459],[136.914523,34.766026],[136.914068,34.766075],[136.913118,34.765869],[136.912434,34.765472],[136.912381,34.765304],[136.912101,34.765169],[136.911832,34.765241],[136.911725,34.765468],[136.911251,34.765385],[136.91125,34.76549],[136.910641,34.765428],[136.910586,34.765486],[136.910611,34.765562],[136.910822,34.765679],[136.910697,34.766228],[136.911184,34.766521],[136.911363,34.766507],[136.911512,34.766785],[136.911452,34.766856],[136.911161,34.766958],[136.910757,34.767005],[136.911069,34.767437],[136.91141,34.768232],[136.911773,34.768612],[136.911619,34.768917],[136.911432,34.768756],[136.910956,34.768619],[136.909755,34.768796],[136.909474,34.769402],[136.90948,34.769513],[136.909569,34.769623],[136.9099,34.769854],[136.910085,34.770401],[136.90994,34.770614],[136.910189,34.770943],[136.910203,34.771135],[136.910263,34.771236],[136.910224,34.771401],[136.910494,34.771541],[136.910522,34.771658],[136.910432,34.771833],[136.910417,34.772052],[136.910289,34.772269],[136.910198,34.772797],[136.910141,34.772891],[136.909991,34.772934],[136.909694,34.773651],[136.909439,34.773763],[136.909436,34.774037],[136.909271,34.773983],[136.909246,34.773846],[136.908984,34.773594],[136.90897,34.773515],[136.909186,34.773486],[136.90936,34.773358],[136.909427,34.7732],[136.909914,34.772627],[136.909922,34.772351],[136.909429,34.77224],[136.909419,34.772165],[136.909537,34.771924],[136.909294,34.771851],[136.909294,34.771616],[136.908841,34.771469],[136.908781,34.771237],[136.90856,34.771134],[136.908291,34.771094],[136.907861,34.771138],[136.907423,34.771078],[136.907362,34.771005],[136.907432,34.770727],[136.906756,34.770373],[136.906281,34.769866],[136.905431,34.769399],[136.905362,34.7691],[136.905465,34.768783],[136.90455,34.768448],[136.904251,34.768382],[136.903719,34.768481],[136.90334,34.768342],[136.903018,34.769538],[136.902677,34.769819],[136.902528,34.770105],[136.902567,34.770229],[136.902741,34.770395],[136.902763,34.770478],[136.902652,34.770845],[136.902662,34.771093],[136.902778,34.771323],[136.902624,34.771591],[136.902636,34.771991],[136.902404,34.772574],[136.902347,34.77295],[136.902515,34.773315],[136.902903,34.773688],[136.903504,34.773731],[136.903944,34.774045],[136.904019,34.774337],[136.904228,34.774572],[136.904286,34.774733],[136.904503,34.774885],[136.905349,34.775845],[136.905235,34.776278],[136.90549,34.776411],[136.905177,34.776452],[136.905066,34.777221],[136.905245,34.778158],[136.905285,34.778607],[136.905092,34.780651],[136.905107,34.780692],[136.905227,34.780694],[136.905599,34.7806],[136.905125,34.780998],[136.904794,34.781629],[136.904381,34.782158],[136.904079,34.782888],[136.903598,34.783567],[136.903476,34.784027],[136.903086,34.784679],[136.903382,34.784804],[136.904024,34.78534],[136.903964,34.785862],[136.90406,34.785887],[136.904202,34.785841],[136.90422,34.785657],[136.904331,34.785637],[136.904478,34.785911],[136.904977,34.786565],[136.905086,34.786627],[136.905419,34.786633],[136.905673,34.787121],[136.90596,34.787252],[136.905975,34.787582]],[[136.920628,34.750353],[136.921492,34.750675],[136.921741,34.75049],[136.92188,34.750293],[136.92186,34.750136],[136.921687,34.749825],[136.921761,34.74926],[136.921602,34.749148],[136.921661,34.748954],[136.921895,34.748875],[136.921971,34.748922],[136.922009,34.749142],[136.922274,34.749472],[136.922497,34.749993],[136.922556,34.750021],[136.922751,34.749912],[136.922831,34.749613],[136.923061,34.749259],[136.923256,34.749056],[136.923423,34.74855],[136.923529,34.748429],[136.923514,34.748256],[136.923409,34.748006],[136.923567,34.747552],[136.923348,34.747448],[136.923112,34.747457],[136.922829,34.747387],[136.922771,34.747202],[136.922634,34.747203],[136.922497,34.747281],[136.922261,34.747218],[136.922101,34.74709],[136.922162,34.746874],[136.922389,34.746738],[136.922682,34.746895],[136.922868,34.746932],[136.923529,34.746795],[136.923826,34.746817],[136.923926,34.746626],[136.923931,34.746494],[136.923716,34.746317],[136.923634,34.745849],[136.923507,34.74551],[136.923133,34.74508],[136.922867,34.744837],[136.922749,34.744811],[136.922629,34.744696],[136.921908,34.744463],[136.921652,34.744334],[136.921226,34.744236],[136.920582,34.744215],[136.920317,34.744134],[136.919842,34.744094],[136.919755,34.74412],[136.919634,34.744295],[136.919455,34.744978],[136.91937,34.745007],[136.919084,34.744968],[136.918874,34.745053],[136.918744,34.745192],[136.918721,34.74533],[136.918756,34.745404],[136.918671,34.745501],[136.918534,34.745515],[136.918267,34.745364],[136.917697,34.745358],[136.917588,34.745421],[136.917264,34.745974],[136.917434,34.746375],[136.917381,34.746572],[136.917415,34.746691],[136.917348,34.746759],[136.917267,34.74701],[136.917215,34.747323],[136.917508,34.747673],[136.917577,34.747677],[136.917595,34.74825],[136.917699,34.748548],[136.918007,34.748677],[136.918134,34.748948],[136.91828,34.749081],[136.91852,34.749236],[136.91868,34.749269],[136.919028,34.749557],[136.919111,34.749722],[136.919289,34.749697],[136.919477,34.749776],[136.919714,34.74968],[136.919809,34.749687],[136.920628,34.750353]]],[[[136.964077,34.705391],[136.963858,34.70562],[136.963582,34.705815],[136.963397,34.706245],[136.96319,34.706463],[136.962931,34.706677],[136.962607,34.706754],[136.962501,34.706534],[136.96195,34.706013],[136.96152,34.705885],[136.961233,34.705695],[136.96092,34.705564],[136.961371,34.705168],[136.961687,34.704736],[136.96238,34.704459],[136.962312,34.704311],[136.962801,34.70374],[136.963072,34.703547],[136.96333,34.703492],[136.963433,34.703686],[136.963628,34.703786],[136.963912,34.703823],[136.964085,34.703769],[136.96472,34.703294],[136.965245,34.702632],[136.965343,34.702642],[136.965788,34.702968],[136.966413,34.702637],[136.966761,34.70252],[136.967108,34.702202],[136.967304,34.701748],[136.967614,34.701297],[136.96804,34.700954],[136.968375,34.700518],[136.968458,34.700498],[136.96856,34.700649],[136.968884,34.700651],[136.969077,34.700825],[136.969116,34.700959],[136.969025,34.7011],[136.969028,34.701173],[136.969095,34.701226],[136.969334,34.701265],[136.969435,34.701444],[136.969395,34.701584],[136.968641,34.701775],[136.968427,34.701893],[136.968036,34.702189],[136.96793,34.702206],[136.967773,34.70247],[136.967445,34.702639],[136.966914,34.703006],[136.966168,34.703382],[136.965683,34.70387],[136.965113,34.70415],[136.964865,34.704325],[136.964484,34.704482],[136.964749,34.704742],[136.967212,34.703504],[136.967934,34.703027],[136.968358,34.70308],[136.968579,34.703227],[136.968692,34.703224],[136.96898,34.703383],[136.969471,34.703267],[136.969811,34.703282],[136.970071,34.703522],[136.969807,34.703977],[136.969819,34.704368],[136.969707,34.704556],[136.969323,34.704879],[136.969285,34.705039],[136.969094,34.70539],[136.969047,34.705681],[136.96886,34.706158],[136.968629,34.706449],[136.966771,34.70612],[136.966105,34.705889],[136.965779,34.705954],[136.965397,34.705944],[136.96473,34.705599],[136.964567,34.705578],[136.964139,34.705366],[136.964077,34.705391]]],[[[136.919879,34.709539],[136.918394,34.710111],[136.91732,34.710764],[136.917272,34.710737],[136.917294,34.710397],[136.917529,34.71008],[136.918106,34.709757],[136.91831,34.7095],[136.918118,34.709132],[136.918671,34.70818],[136.918709,34.708191],[136.918523,34.708528],[136.918617,34.708567],[136.918338,34.709058],[136.918601,34.709534],[136.920225,34.708915],[136.920077,34.708468],[136.920556,34.708305],[136.920522,34.708197],[136.921088,34.708023],[136.921386,34.708541],[136.921761,34.708564],[136.922346,34.708329],[136.922244,34.708141],[136.922489,34.708035],[136.922822,34.707802],[136.922913,34.707926],[136.923228,34.707749],[136.922579,34.706966],[136.921591,34.707122],[136.921069,34.707451],[136.920403,34.707746],[136.919544,34.708049],[136.919107,34.70811],[136.9191,34.708079],[136.91954,34.708017],[136.920385,34.70772],[136.921434,34.7072],[136.921657,34.706975],[136.922006,34.706881],[136.922652,34.70682],[136.922888,34.706896],[136.923107,34.70715],[136.923459,34.707241],[136.924361,34.706898],[136.925151,34.70676],[136.925782,34.706489],[136.92737,34.706428],[136.927788,34.706325],[136.927876,34.706281],[136.927966,34.706089],[136.928096,34.706008],[136.928263,34.706025],[136.928481,34.705936],[136.928687,34.705934],[136.928904,34.705831],[136.928939,34.705661],[136.92931,34.705424],[136.929634,34.705474],[136.929667,34.705563],[136.929368,34.705844],[136.928013,34.706428],[136.926999,34.706627],[136.926075,34.706715],[136.924769,34.707028],[136.924549,34.707118],[136.92353,34.707562],[136.923463,34.707865],[136.923322,34.707862],[136.922609,34.708198],[136.922725,34.708383],[136.921076,34.708974],[136.919879,34.709539]]],[[[136.964368,34.719833],[136.964329,34.720668],[136.963764,34.720638],[136.963815,34.719745],[136.964048,34.719326],[136.964509,34.7195],[136.96454,34.719454],[136.96458,34.71947],[136.964368,34.719833]]],[[[136.889735,34.721179],[136.889732,34.720819],[136.890091,34.720423],[136.890489,34.720279],[136.891695,34.720206],[136.892531,34.720021],[136.892995,34.719835],[136.893464,34.71987],[136.894771,34.719793],[136.896324,34.719117],[136.897173,34.71909],[136.899358,34.718678],[136.900954,34.717968],[136.901145,34.717743],[136.901201,34.717428],[136.900828,34.717313],[136.900853,34.717234],[136.901778,34.717573],[136.901816,34.717552],[136.901949,34.717289],[136.901799,34.717267],[136.901547,34.717142],[136.901522,34.717022],[136.901293,34.716983],[136.901266,34.716893],[136.901079,34.716794],[136.901041,34.716579],[136.901144,34.716473],[136.901259,34.716497],[136.901324,34.716452],[136.901509,34.716514],[136.901761,34.716475],[136.902073,34.716644],[136.902265,34.716649],[136.902427,34.716843],[136.902455,34.717018],[136.902864,34.717117],[136.903907,34.716571],[136.904043,34.716244],[136.903942,34.716169],[136.903924,34.716077],[136.903999,34.716004],[136.903981,34.715909],[136.904141,34.715791],[136.904421,34.715728],[136.904486,34.715789],[136.904638,34.715756],[136.9047,34.715863],[136.905461,34.71598],[136.906034,34.715974],[136.906754,34.715898],[136.906487,34.716166],[136.904914,34.71626],[136.904083,34.716535],[136.902838,34.717207],[136.901055,34.718425],[136.900578,34.718702],[136.899003,34.719124],[136.897526,34.719595],[136.894252,34.720765],[136.893824,34.72083],[136.893094,34.720805],[136.891092,34.721152],[136.889735,34.721179]]],[[[136.961989,34.720797],[136.961975,34.721189],[136.961869,34.721165],[136.961774,34.720773],[136.96175,34.720079],[136.961819,34.720024],[136.961962,34.720024],[136.962235,34.719138],[136.962552,34.718657],[136.962966,34.718297],[136.963944,34.717687],[136.964651,34.717855],[136.963179,34.718782],[136.962667,34.719443],[136.962454,34.720292],[136.962073,34.72047],[136.961989,34.720797]]],[[[136.965928,34.723449],[136.964278,34.723385],[136.963228,34.723281],[136.963138,34.723062],[136.962336,34.722028],[136.962486,34.721887],[136.963073,34.721744],[136.963858,34.722937],[136.964961,34.722987],[136.964959,34.723042],[136.965749,34.723075],[136.965744,34.722349],[136.965815,34.722326],[136.9658,34.723079],[136.965871,34.723107],[136.965911,34.723194],[136.96672,34.723114],[136.966786,34.723201],[136.966111,34.723428],[136.965928,34.723449]]],[[[137.049631,34.724142],[137.049706,34.724297],[137.049032,34.72435],[137.049032,34.724007],[137.046132,34.724047],[137.046329,34.723655],[137.046413,34.723208],[137.0463,34.722656],[137.04679,34.720744],[137.046762,34.720661],[137.046829,34.720618],[137.047474,34.720551],[137.047445,34.72037],[137.048676,34.720118],[137.048728,34.720285],[137.049367,34.720141],[137.049323,34.719994],[137.04964,34.719928],[137.049739,34.71983],[137.050193,34.719791],[137.050402,34.719867],[137.05025,34.720419],[137.049964,34.720657],[137.049508,34.720774],[137.04949,34.720994],[137.04927,34.721028],[137.04927,34.721789],[137.04907,34.721923],[137.048889,34.721942],[137.048651,34.721723],[137.04847,34.721875],[137.048384,34.722056],[137.04844,34.722362],[137.048362,34.72258],[137.04827,34.722647],[137.048402,34.723006],[137.048533,34.723069],[137.048894,34.723102],[137.049098,34.722827],[137.049431,34.722789],[137.049565,34.723055],[137.049917,34.723103],[137.049926,34.723312],[137.049498,34.723398],[137.049336,34.7236],[137.049331,34.723812],[137.049631,34.724142]]],[[[137.036277,34.726392],[137.03378,34.727097],[137.033019,34.727075],[137.032825,34.72698],[137.032712,34.726821],[137.032726,34.726669],[137.033089,34.726013],[137.033552,34.726157],[137.033515,34.726245],[137.033791,34.726328],[137.033941,34.726295],[137.034209,34.725959],[137.0342,34.725655],[137.033653,34.725623],[137.033625,34.724903],[137.033479,34.724787],[137.033509,34.724759],[137.033708,34.724652],[137.034115,34.724544],[137.03436,34.724675],[137.034628,34.724644],[137.035487,34.724276],[137.035694,34.724399],[137.035901,34.724337],[137.035886,34.724311],[137.036635,34.724122],[137.037115,34.724687],[137.037183,34.724961],[137.037366,34.725123],[137.037343,34.725215],[137.037032,34.725578],[137.037014,34.725763],[137.037919,34.725948],[137.036277,34.726392]]],[[[136.861773,34.741717],[136.861708,34.742534],[136.860652,34.742152],[136.861035,34.741796],[136.861035,34.741466],[136.861233,34.741427],[136.861338,34.741347],[136.861773,34.741717]]],[[[136.863026,34.741545],[136.863066,34.742416],[136.862736,34.742825],[136.86238,34.74268],[136.862578,34.74235],[136.862552,34.741413],[136.862829,34.741136],[136.863079,34.74111],[136.863026,34.741545]]],[[[136.855731,34.782314],[136.854571,34.783416],[136.853973,34.784138],[136.853921,34.784131],[136.853935,34.783743],[136.85388,34.783551],[136.853409,34.782687],[136.852923,34.781982],[136.85534,34.782211],[136.855842,34.78219],[136.855731,34.782314]]],[[[136.857855,34.784091],[136.857863,34.784385],[136.857782,34.784737],[136.857866,34.784988],[136.85777,34.785088],[136.855778,34.78516],[136.855711,34.785274],[136.855436,34.785513],[136.854523,34.786062],[136.854205,34.785663],[136.854232,34.785608],[136.854939,34.785304],[136.856166,34.784194],[136.856782,34.784026],[136.857823,34.784051],[136.857855,34.784091]]],[[[136.835179,34.964804],[136.838299,34.968085],[136.838273,34.968105],[136.836761,34.966549],[136.835652,34.96551],[136.835086,34.964856],[136.834563,34.964371],[136.834463,34.964376],[136.834348,34.964466],[136.833561,34.963896],[136.830554,34.962051],[136.830221,34.961692],[136.83001,34.961386],[136.82984,34.960985],[136.829754,34.960613],[136.82861,34.960912],[136.828583,34.960869],[136.828626,34.96071],[136.828559,34.960189],[136.82882,34.959667],[136.828759,34.959422],[136.828613,34.959151],[136.828673,34.959115],[136.828716,34.958994],[136.828554,34.958368],[136.82841,34.958192],[136.828465,34.958023],[136.828334,34.957517],[136.828123,34.957265],[136.827986,34.956754],[136.827766,34.956527],[136.827694,34.956524],[136.827747,34.956513],[136.827848,34.95613],[136.827837,34.956026],[136.827764,34.955884],[136.827498,34.955698],[136.827515,34.955556],[136.827468,34.955387],[136.827145,34.955085],[136.826989,34.955005],[136.826809,34.955089],[136.826776,34.955016],[136.826848,34.955022],[136.827166,34.954451],[136.826988,34.954068],[136.826745,34.953255],[136.826574,34.953083],[136.826277,34.952903],[136.826056,34.952961],[136.826043,34.952881],[136.82612,34.952897],[136.826186,34.952837],[136.826506,34.952434],[136.826628,34.952017],[136.826611,34.951886],[136.826495,34.951755],[136.826302,34.951739],[136.826372,34.951728],[136.826434,34.951253],[136.826406,34.95106],[136.826312,34.951049],[136.826387,34.951033],[136.826598,34.950662],[136.826471,34.950297],[136.82621,34.95031],[136.826464,34.950282],[136.826368,34.949809],[136.826258,34.949795],[136.826353,34.949795],[136.826356,34.949573],[136.826428,34.949311],[136.826119,34.949294],[136.826429,34.949302],[136.826459,34.949091],[136.826271,34.949083],[136.826273,34.949042],[136.826466,34.949049],[136.826473,34.948855],[136.826558,34.948826],[136.826494,34.948748],[136.826495,34.9481],[136.826544,34.948045],[136.826475,34.947989],[136.826523,34.947254],[136.8266,34.947256],[136.826531,34.947237],[136.826551,34.947064],[136.826294,34.947042],[136.826487,34.947044],[136.826586,34.946751],[136.826569,34.946485],[136.826356,34.946465],[136.826572,34.946467],[136.826673,34.946182],[136.826707,34.945796],[136.826662,34.94477],[136.826578,34.943941],[136.826491,34.943609],[136.826271,34.94363],[136.82649,34.943584],[136.826212,34.942496],[136.826146,34.942319],[136.82601,34.942347],[136.826127,34.942303],[136.826026,34.941917],[136.825863,34.941952],[136.825856,34.94192],[136.826016,34.941886],[136.825907,34.941502],[136.825714,34.941511],[136.825904,34.941472],[136.825825,34.941038],[136.82562,34.941035],[136.825619,34.941004],[136.825831,34.941007],[136.825828,34.94065],[136.825601,34.939892],[136.825423,34.93965],[136.82526,34.939671],[136.825414,34.939635],[136.825209,34.939429],[136.824846,34.939487],[136.824835,34.9394],[136.824994,34.939383],[136.825015,34.939244],[136.824963,34.93901],[136.824774,34.938689],[136.824399,34.938484],[136.824066,34.93879],[136.823984,34.938734],[136.824257,34.938463],[136.82459,34.938276],[136.825018,34.938154],[136.82542,34.938265],[136.82552,34.938801],[136.825776,34.939641],[136.825899,34.939771],[136.826152,34.939884],[136.825997,34.94062],[136.826027,34.941176],[136.826706,34.943772],[136.826904,34.944177],[136.827399,34.94451],[136.82817,34.947057],[136.828626,34.948748],[136.828655,34.949373],[136.828525,34.950352],[136.828262,34.951107],[136.827809,34.952761],[136.827709,34.953374],[136.827714,34.953799],[136.827805,34.954365],[136.828145,34.955296],[136.828988,34.957396],[136.829304,34.957955],[136.832045,34.961567],[136.835179,34.964804]]],[[[136.845867,34.974376],[136.845134,34.974936],[136.845044,34.975155],[136.844898,34.975242],[136.838325,34.968075],[136.83891,34.967598],[136.839405,34.967379],[136.839762,34.967265],[136.839986,34.967421],[136.840215,34.967694],[136.84029,34.967891],[136.840514,34.968195],[136.840982,34.968575],[136.841205,34.968817],[136.841409,34.969328],[136.841709,34.969444],[136.841854,34.970003],[136.842277,34.970119],[136.842392,34.9702],[136.842549,34.970822],[136.842703,34.971117],[136.843253,34.971412],[136.843581,34.971726],[136.844137,34.972522],[136.844185,34.97269],[136.844127,34.973092],[136.844657,34.973912],[136.844886,34.974122],[136.845313,34.97434],[136.845768,34.974108],[136.84595,34.974068],[136.845867,34.974376]]],[[[136.856468,34.985441],[136.856434,34.985763],[136.856143,34.986144],[136.856083,34.986447],[136.855939,34.986663],[136.855771,34.986515],[136.855731,34.986359],[136.855531,34.986289],[136.854538,34.985295],[136.853989,34.985629],[136.85389,34.985635],[136.852433,34.984098],[136.852014,34.983618],[136.85194,34.983468],[136.851658,34.98323],[136.851375,34.98287],[136.851237,34.98279],[136.851208,34.982702],[136.851115,34.982655],[136.850871,34.98235],[136.850726,34.982251],[136.850693,34.982117],[136.850559,34.981959],[136.850215,34.981671],[136.849836,34.981206],[136.849555,34.980943],[136.849319,34.980544],[136.85,34.980124],[136.849764,34.979899],[136.849742,34.979787],[136.849864,34.979486],[136.849977,34.979432],[136.850303,34.979111],[136.850243,34.978864],[136.850361,34.978601],[136.850362,34.978464],[136.850271,34.978196],[136.850502,34.977836],[136.850494,34.97763],[136.850706,34.977395],[136.850901,34.977268],[136.850875,34.9771],[136.851364,34.977016],[136.85164,34.977317],[136.851981,34.97742],[136.851994,34.977305],[136.852234,34.976965],[136.852458,34.977151],[136.852443,34.97702],[136.852517,34.976656],[136.852907,34.976001],[136.853006,34.975951],[136.853132,34.975973],[136.853218,34.975624],[136.85396,34.975995],[136.854249,34.976198],[136.855199,34.977074],[136.855282,34.977071],[136.855569,34.976875],[136.857386,34.978645],[136.857194,34.97883],[136.85724,34.979254],[136.856958,34.979488],[136.856731,34.979993],[136.856797,34.980272],[136.857053,34.980524],[136.856108,34.981305],[136.857088,34.982258],[136.857971,34.982853],[136.85847,34.983267],[136.858231,34.98354],[136.857414,34.982838],[136.857198,34.982766],[136.857008,34.982777],[136.856802,34.982933],[136.856569,34.983292],[136.856814,34.983835],[136.856677,34.984062],[136.856511,34.984166],[136.856665,34.984412],[136.856685,34.984578],[136.856668,34.984792],[136.856457,34.985137],[136.856468,34.985441]]]]}}]}
