{"type":"FeatureCollection","features":[{"type":"Feature","properties":{"potaRef":"JP-1187","nameJa":"Tomi san","nameEn":"Tomisan Prefectural Nature Park","authority":"環境省 生物多様性「見える化」マップ","boundaryStatus":"全国GIS候補・公開前検証待ち","boundarySource":"環境省 生物多様性「見える化」マップの自然公園区域を、POTA代表座標で一意に空間照合して加工","boundaryScaleNote":"区域は概要データであり、正確性は保証されない。POTA運用可否は公式情報で最終確認すること。","candidateMethod":"POTA representative point inside one public natural-park area","sourceParkKind":"都道府県立自然公園","sourceName":"Tomi san","sourceFeatureCount":1,"cautionMeters":75},"geometry":{"type":"MultiPolygon","coordinates":[[[[139.876262,35.104879],[139.874507,35.10482],[139.873035,35.10483],[139.871533,35.104532],[139.870309,35.104431],[139.869047,35.104407],[139.867697,35.10419],[139.866784,35.103868],[139.864879,35.103045],[139.864255,35.102577],[139.863514,35.102184],[139.862374,35.101971],[139.861292,35.101877],[139.861266,35.101795],[139.861565,35.10105],[139.861433,35.100926],[139.86099,35.100737],[139.860858,35.100388],[139.86074,35.100253],[139.860363,35.100084],[139.859997,35.099839],[139.859784,35.09959],[139.859487,35.099363],[139.859121,35.099232],[139.858442,35.099136],[139.857511,35.098709],[139.85707,35.098623],[139.856608,35.098367],[139.856114,35.097933],[139.855771,35.09777],[139.855571,35.097575],[139.855391,35.097242],[139.855341,35.096885],[139.855366,35.096726],[139.855135,35.096209],[139.855019,35.09565],[139.854918,35.095528],[139.854737,35.095438],[139.854642,35.095107],[139.854491,35.094891],[139.854551,35.09453],[139.854532,35.094375],[139.854437,35.094244],[139.854231,35.094197],[139.854152,35.094103],[139.854189,35.092724],[139.854252,35.092399],[139.854196,35.09224],[139.853862,35.091777],[139.853803,35.09149],[139.853817,35.091318],[139.855259,35.091162],[139.85684,35.091241],[139.857499,35.091326],[139.857819,35.091439],[139.858521,35.091799],[139.85922,35.092282],[139.859589,35.092384],[139.862762,35.092479],[139.864027,35.092435],[139.866693,35.092091],[139.867835,35.092057],[139.868426,35.09184],[139.86941,35.09162],[139.870798,35.090605],[139.871386,35.090284],[139.87172,35.090162],[139.872647,35.090074],[139.873259,35.089915],[139.873795,35.089671],[139.874678,35.089134],[139.875726,35.089149],[139.876923,35.088919],[139.877711,35.088952],[139.879073,35.088689],[139.879381,35.08871],[139.880827,35.089176],[139.881056,35.089133],[139.881575,35.088869],[139.882504,35.08909],[139.882878,35.088933],[139.883351,35.088576],[139.88366,35.088471],[139.884337,35.088394],[139.885033,35.088445],[139.885528,35.088572],[139.887266,35.089569],[139.888148,35.08999],[139.888753,35.090093],[139.889127,35.089982],[139.889501,35.089741],[139.889649,35.089744],[139.889728,35.089984],[139.890003,35.090177],[139.890075,35.090312],[139.890072,35.090793],[139.890591,35.091889],[139.89048,35.092424],[139.891005,35.093082],[139.891117,35.093315],[139.891089,35.093739],[139.890985,35.094272],[139.891185,35.095023],[139.890905,35.095885],[139.890877,35.096254],[139.891072,35.096502],[139.891405,35.096744],[139.892166,35.097472],[139.892089,35.097536],[139.890874,35.097601],[139.890281,35.097758],[139.889952,35.097932],[139.889458,35.098428],[139.888796,35.0989],[139.887055,35.099767],[139.88707,35.099846],[139.887166,35.099912],[139.887949,35.100303],[139.888934,35.10065],[139.88919,35.100923],[139.88917,35.100998],[139.887416,35.102283],[139.885981,35.103141],[139.885808,35.103363],[139.885202,35.103591],[139.884874,35.104109],[139.884568,35.104433],[139.884283,35.104491],[139.883879,35.104477],[139.883789,35.104558],[139.883722,35.104733],[139.883597,35.104805],[139.882574,35.104715],[139.881826,35.104578],[139.880776,35.104512],[139.879749,35.104386],[139.877928,35.104329],[139.877717,35.104331],[139.877294,35.104439],[139.87663,35.104796],[139.876262,35.104879]]],[[[139.914553,35.114585],[139.914381,35.114726],[139.913778,35.114926],[139.913277,35.114958],[139.913097,35.1149],[139.912448,35.114463],[139.911043,35.114334],[139.910362,35.114373],[139.91001,35.114308],[139.909564,35.114141],[139.909024,35.114148],[139.908769,35.114096],[139.908214,35.113878],[139.907196,35.113794],[139.906492,35.113595],[139.905557,35.113826],[139.904806,35.113852],[139.904266,35.113993],[139.903373,35.11389],[139.902786,35.113916],[139.902121,35.114012],[139.900684,35.114077],[139.900309,35.114025],[139.899878,35.113852],[139.899088,35.113177],[139.89883,35.113087],[139.897792,35.113169],[139.897494,35.113163],[139.897267,35.113092],[139.897283,35.112777],[139.89722,35.112673],[139.897525,35.112156],[139.89783,35.111156],[139.897968,35.110509],[139.898155,35.110202],[139.89874,35.109817],[139.89991,35.109712],[139.900046,35.109639],[139.900014,35.109564],[139.899913,35.109512],[139.899218,35.109381],[139.898839,35.109172],[139.898798,35.109075],[139.898917,35.10902],[139.899551,35.109053],[139.900062,35.108906],[139.900404,35.108915],[139.900721,35.109021],[139.900835,35.109],[139.900881,35.108939],[139.900842,35.108821],[139.900523,35.10853],[139.90049,35.108359],[139.900623,35.108],[139.900855,35.107731],[139.900985,35.107497],[139.901044,35.107366],[139.901027,35.107286],[139.900786,35.107159],[139.900294,35.107264],[139.900023,35.106876],[139.899726,35.106565],[139.899613,35.106372],[139.899629,35.105973],[139.899382,35.105471],[139.899483,35.105069],[139.899258,35.104718],[139.899262,35.104606],[139.899333,35.10449],[139.900012,35.104172],[139.90032,35.103948],[139.900715,35.103885],[139.901765,35.104067],[139.902184,35.104094],[139.903377,35.104025],[139.903845,35.104069],[139.90664,35.104615],[139.907292,35.104554],[139.907721,35.104398],[139.90889,35.104099],[139.910013,35.104126],[139.910238,35.104029],[139.910349,35.103861],[139.91042,35.103553],[139.910306,35.103412],[139.910031,35.103259],[139.90984,35.102914],[139.909682,35.10249],[139.90969,35.102244],[139.909762,35.102088],[139.910209,35.101768],[139.911172,35.101489],[139.911825,35.101458],[139.912678,35.102173],[139.912958,35.102191],[139.913237,35.102075],[139.913385,35.101889],[139.913344,35.101409],[139.913498,35.101087],[139.914434,35.100228],[139.915184,35.100044],[139.916002,35.099735],[139.91636,35.099656],[139.91755,35.099621],[139.918132,35.099752],[139.918174,35.099837],[139.918148,35.100359],[139.918213,35.100418],[139.918449,35.100459],[139.918549,35.100595],[139.918568,35.100727],[139.918359,35.100918],[139.91833,35.101129],[139.918128,35.101373],[139.918123,35.101897],[139.918156,35.102006],[139.918325,35.102204],[139.918583,35.102423],[139.919003,35.102632],[139.919097,35.102824],[139.919328,35.102999],[139.91934,35.103066],[139.919142,35.103298],[139.9193,35.103461],[139.919419,35.1035],[139.919974,35.103467],[139.920561,35.103581],[139.920954,35.103818],[139.921391,35.104211],[139.921835,35.104172],[139.922146,35.104212],[139.922194,35.104271],[139.922123,35.104443],[139.922149,35.104504],[139.922321,35.104656],[139.922715,35.104835],[139.922783,35.104987],[139.922711,35.105039],[139.922292,35.105059],[139.921149,35.104782],[139.92096,35.10486],[139.920979,35.104954],[139.921332,35.105148],[139.921535,35.105324],[139.92164,35.105494],[139.921677,35.105651],[139.921645,35.106131],[139.921746,35.106532],[139.921712,35.10663],[139.921566,35.1067],[139.921268,35.106688],[139.920865,35.106831],[139.920539,35.106827],[139.920042,35.107089],[139.919275,35.107171],[139.918614,35.107427],[139.918356,35.107677],[139.917957,35.107941],[139.917675,35.108305],[139.917621,35.108495],[139.917661,35.108976],[139.917564,35.109189],[139.917447,35.10917],[139.917318,35.108912],[139.917196,35.108779],[139.916893,35.108602],[139.916609,35.108675],[139.916261,35.10893],[139.915669,35.109049],[139.915648,35.109243],[139.91576,35.109534],[139.915698,35.110076],[139.915796,35.110132],[139.916386,35.110128],[139.916615,35.110272],[139.91672,35.110429],[139.916795,35.110715],[139.916839,35.111118],[139.9168,35.111564],[139.916992,35.111618],[139.917273,35.11155],[139.917417,35.111621],[139.917623,35.111913],[139.918057,35.112129],[139.918152,35.11262],[139.918121,35.112974],[139.917986,35.113284],[139.917531,35.113413],[139.916694,35.113509],[139.916264,35.113606],[139.915465,35.113959],[139.914709,35.11418],[139.914553,35.114585]],[[139.901508,35.107679],[139.901541,35.107765],[139.90151,35.107665],[139.901508,35.107679]]]]}}]}
