{"type":"FeatureCollection","features":[{"type":"Feature","properties":{"potaRef":"JP-1708","nameJa":"Kurokami zan","nameEn":"Kurokamiyama Prefectural Nature Park","authority":"環境省 生物多様性「見える化」マップ","boundaryStatus":"全国GIS候補・公開前検証待ち","boundarySource":"環境省 生物多様性「見える化」マップの自然公園区域を、POTA代表座標で一意に空間照合して加工","boundaryScaleNote":"区域は概要データであり、正確性は保証されない。POTA運用可否は公式情報で最終確認すること。","candidateMethod":"POTA representative point inside one public natural-park area","sourceParkKind":"都道府県立自然公園","sourceName":"Kurokami zan","sourceFeatureCount":1,"cautionMeters":75},"geometry":{"type":"MultiPolygon","coordinates":[[[[129.869295,33.253359],[129.869119,33.253463],[129.869027,33.253666],[129.868962,33.253925],[129.868979,33.254245],[129.868905,33.25438],[129.868666,33.254588],[129.86796,33.254832],[129.867666,33.255054],[129.867152,33.255166],[129.866203,33.254938],[129.865764,33.254779],[129.865667,33.254588],[129.865356,33.254358],[129.865687,33.254334],[129.865886,33.253539],[129.865649,33.253492],[129.865687,33.252816],[129.865593,33.25226],[129.865653,33.252125],[129.866186,33.251767],[129.866167,33.251333],[129.866423,33.251194],[129.866461,33.251123],[129.866574,33.250368],[129.866631,33.250185],[129.866735,33.250058],[129.866413,33.249597],[129.86681,33.249351],[129.866584,33.248993],[129.866291,33.249105],[129.866094,33.248563],[129.865763,33.247945],[129.865656,33.247532],[129.865719,33.247404],[129.866019,33.247373],[129.866108,33.247259],[129.866107,33.247186],[129.865868,33.246881],[129.865895,33.246323],[129.865971,33.246051],[129.866316,33.245609],[129.866309,33.244791],[129.866471,33.244367],[129.866546,33.243849],[129.866484,33.243726],[129.866103,33.243614],[129.865522,33.243146],[129.864668,33.243034],[129.864262,33.242796],[129.864156,33.242515],[129.864072,33.242076],[129.863964,33.241081],[129.86402,33.241006],[129.864062,33.240306],[129.864335,33.240042],[129.865599,33.239387],[129.866148,33.239249],[129.866644,33.23927],[129.867662,33.240169],[129.867882,33.23881],[129.868355,33.236854],[129.868839,33.235106],[129.868973,33.234334],[129.868897,33.234132],[129.86893,33.23389],[129.869498,33.233123],[129.869923,33.232692],[129.870162,33.232554],[129.870274,33.232246],[129.870213,33.231868],[129.870961,33.230918],[129.870979,33.230728],[129.870936,33.230647],[129.87048,33.230587],[129.870436,33.230542],[129.870501,33.230276],[129.870531,33.229788],[129.871267,33.229628],[129.871747,33.229287],[129.871872,33.229035],[129.87186,33.228778],[129.871713,33.228711],[129.871145,33.228719],[129.871057,33.228654],[129.870724,33.227649],[129.870688,33.227056],[129.870733,33.226904],[129.870854,33.22677],[129.871096,33.226618],[129.871255,33.225989],[129.871512,33.225361],[129.87171,33.225177],[129.871766,33.224877],[129.871906,33.224714],[129.871922,33.224576],[129.871845,33.224175],[129.872084,33.22368],[129.872237,33.222271],[129.87213,33.222138],[129.871273,33.222053],[129.870705,33.222073],[129.870619,33.221939],[129.8706,33.221762],[129.870692,33.22169],[129.871272,33.221496],[129.871418,33.221392],[129.871801,33.22066],[129.872749,33.220314],[129.872783,33.220206],[129.872701,33.219848],[129.872888,33.219601],[129.872906,33.219503],[129.872645,33.219184],[129.872701,33.219108],[129.873102,33.218928],[129.873199,33.218801],[129.873243,33.218553],[129.873129,33.218422],[129.873126,33.218299],[129.873224,33.218151],[129.873266,33.217751],[129.873336,33.217649],[129.87339,33.217649],[129.873539,33.217813],[129.873831,33.217899],[129.874898,33.217751],[129.87532,33.217546],[129.87563,33.217494],[129.875839,33.217402],[129.876369,33.217329],[129.876414,33.217267],[129.876905,33.217168],[129.877027,33.21708],[129.877133,33.216798],[129.877314,33.216725],[129.877756,33.216168],[129.877793,33.215963],[129.877652,33.215837],[129.877565,33.215649],[129.877978,33.214172],[129.878019,33.213798],[129.877777,33.213301],[129.877777,33.212817],[129.878004,33.212491],[129.878275,33.211595],[129.878595,33.211368],[129.878932,33.210929],[129.879017,33.210773],[129.879091,33.210444],[129.879115,33.209695],[129.879068,33.20937],[129.878962,33.208956],[129.878535,33.207799],[129.878508,33.207112],[129.878703,33.207091],[129.878705,33.206719],[129.878769,33.206552],[129.87889,33.206379],[129.879204,33.206135],[129.879513,33.205977],[129.879833,33.205932],[129.880547,33.205927],[129.881394,33.206049],[129.883109,33.206044],[129.883559,33.206086],[129.883596,33.205907],[129.884027,33.206307],[129.884302,33.206905],[129.885016,33.206465],[129.88526,33.206859],[129.885628,33.206703],[129.885589,33.205925],[129.884474,33.205915],[129.884338,33.205878],[129.884154,33.205732],[129.884101,33.205496],[129.884106,33.204882],[129.884256,33.20469],[129.884071,33.203746],[129.88395,33.203612],[129.883669,33.203457],[129.883074,33.203771],[129.883079,33.203067],[129.882624,33.203124],[129.881869,33.202961],[129.880829,33.203579],[129.881286,33.202501],[129.881054,33.202546],[129.880952,33.202505],[129.880284,33.201976],[129.879664,33.200612],[129.879378,33.200198],[129.879363,33.200097],[129.879658,33.199111],[129.879953,33.198457],[129.880068,33.198316],[129.880446,33.198094],[129.880734,33.19777],[129.880991,33.197979],[129.8809,33.19803],[129.880734,33.198456],[129.881527,33.198494],[129.88186,33.199467],[129.882321,33.199333],[129.882034,33.198463],[129.882987,33.197897],[129.883123,33.197833],[129.883369,33.198049],[129.884118,33.198335],[129.884488,33.197382],[129.884769,33.19645],[129.885161,33.196523],[129.88527,33.196254],[129.884912,33.195967],[129.884854,33.195354],[129.88432,33.195452],[129.88362,33.195485],[129.883585,33.194993],[129.884533,33.194822],[129.884577,33.194757],[129.884683,33.194326],[129.88476,33.193385],[129.884717,33.193284],[129.884359,33.193149],[129.884344,33.192816],[129.885162,33.19258],[129.88521,33.192535],[129.885234,33.192336],[129.886412,33.192311],[129.886663,33.192697],[129.887457,33.192644],[129.887665,33.192392],[129.887297,33.192071],[129.887016,33.191623],[129.886937,33.191277],[129.886593,33.190765],[129.886443,33.190622],[129.885916,33.190378],[129.886084,33.190235],[129.886573,33.190044],[129.886911,33.189458],[129.886887,33.189214],[129.886336,33.188221],[129.886312,33.188075],[129.886403,33.187765],[129.886582,33.187627],[129.886984,33.187468],[129.88741,33.187367],[129.890427,33.187367],[129.891794,33.187179],[129.892543,33.18697],[129.892498,33.187207],[129.89205,33.187774],[129.891228,33.188203],[129.890998,33.188836],[129.891342,33.188797],[129.891508,33.18872],[129.89182,33.188391],[129.892199,33.188466],[129.892655,33.188732],[129.892821,33.188947],[129.892636,33.189474],[129.892648,33.189582],[129.892715,33.189637],[129.892963,33.189647],[129.893188,33.189476],[129.893275,33.189895],[129.893848,33.189322],[129.893836,33.190055],[129.89393,33.190336],[129.893435,33.191645],[129.89328,33.19192],[129.892956,33.192034],[129.891413,33.192075],[129.890948,33.192331],[129.891345,33.192734],[129.89149,33.192376],[129.892869,33.192624],[129.89314,33.192762],[129.89315,33.192872],[129.892971,33.193035],[129.892197,33.193381],[129.892347,33.193751],[129.8927,33.193791],[129.892843,33.193918],[129.892862,33.194579],[129.893096,33.194713],[129.89322,33.195159],[129.89339,33.195412],[129.893549,33.195819],[129.894149,33.195826],[129.893991,33.196165],[129.893972,33.196531],[129.894347,33.196617],[129.89468,33.197309],[129.895426,33.197145],[129.895527,33.197438],[129.89476,33.197697],[129.894739,33.198235],[129.895283,33.1985],[129.896042,33.197753],[129.896301,33.197444],[129.896398,33.197257],[129.896426,33.19702],[129.896379,33.196911],[129.896006,33.196278],[129.895766,33.196008],[129.895549,33.195885],[129.894973,33.195862],[129.894599,33.195668],[129.895173,33.195399],[129.896112,33.195239],[129.89659,33.194588],[129.896255,33.194445],[129.896107,33.19445],[129.895837,33.194561],[129.895488,33.194579],[129.895169,33.194534],[129.894792,33.194407],[129.894554,33.194244],[129.894969,33.193891],[129.895377,33.194014],[129.895668,33.194018],[129.895898,33.193964],[129.896581,33.193429],[129.897422,33.193176],[129.896972,33.192852],[129.895603,33.192185],[129.896817,33.192059],[129.896222,33.191518],[129.896546,33.191221],[129.898249,33.19192],[129.898133,33.192319],[129.89852,33.192303],[129.898593,33.192356],[129.898656,33.192551],[129.899314,33.192714],[129.899599,33.192543],[129.899767,33.192535],[129.899888,33.192584],[129.900473,33.192933],[129.900555,33.193113],[129.900569,33.19345],[129.901547,33.193686],[129.901934,33.19387],[129.902384,33.194191],[129.902607,33.194468],[129.902699,33.194695],[129.902589,33.196808],[129.90212,33.196804],[129.902075,33.197478],[129.902304,33.197438],[129.90257,33.197308],[129.902759,33.19754],[129.903078,33.197247],[129.904128,33.197019],[129.905068,33.196755],[129.905186,33.196494],[129.905727,33.196629],[129.906022,33.196812],[129.906531,33.196833],[129.907147,33.197067],[129.907398,33.197007],[129.907703,33.19684],[129.907897,33.197817],[129.90749,33.198004],[129.908078,33.198536],[129.908349,33.198554],[129.910046,33.198278],[129.910411,33.198779],[129.910837,33.199117],[129.912348,33.199147],[129.912634,33.199202],[129.912982,33.199368],[129.913631,33.200084],[129.914093,33.200096],[129.914224,33.200202],[129.914248,33.20034],[129.914071,33.200631],[129.91422,33.200772],[129.914456,33.200824],[129.914636,33.200673],[129.914712,33.200661],[129.915083,33.200963],[129.915491,33.200983],[129.915744,33.20106],[129.915575,33.201138],[129.915321,33.201416],[129.915677,33.201673],[129.915677,33.201868],[129.915966,33.202676],[129.916154,33.202936],[129.917747,33.203648],[129.917989,33.203722],[129.918454,33.203714],[129.918671,33.204157],[129.918783,33.204503],[129.918855,33.204885],[129.918879,33.205536],[129.91903,33.206111],[129.918522,33.206505],[129.918271,33.206786],[129.917719,33.207734],[129.917308,33.208679],[129.917298,33.208522],[129.917154,33.208549],[129.916523,33.208395],[129.916024,33.208189],[129.915686,33.208144],[129.91451,33.2086],[129.913504,33.209401],[129.91378,33.209831],[129.914414,33.21049],[129.915179,33.210744],[129.915907,33.211563],[129.916606,33.212468],[129.915955,33.212315],[129.914975,33.21231],[129.914055,33.212173],[129.912604,33.212666],[129.912283,33.212676],[129.912041,33.212453],[129.911829,33.212076],[129.91155,33.212094],[129.911669,33.212554],[129.912018,33.212922],[129.912059,33.213018],[129.911594,33.213507],[129.911613,33.213584],[129.911753,33.213719],[129.911658,33.214018],[129.911979,33.21418],[129.912021,33.214256],[129.911928,33.214449],[129.911891,33.214726],[129.911606,33.214952],[129.911613,33.215254],[129.912013,33.215544],[129.912049,33.215713],[129.911937,33.215872],[129.912072,33.216074],[129.912249,33.216208],[129.912431,33.216193],[129.912815,33.216485],[129.91303,33.216758],[129.91313,33.217036],[129.912671,33.217232],[129.912352,33.217499],[129.912069,33.217637],[129.911723,33.217695],[129.911385,33.217644],[129.911085,33.217366],[129.910785,33.217372],[129.910631,33.217321],[129.910478,33.21714],[129.910362,33.21734],[129.910272,33.217681],[129.911008,33.217979],[129.911435,33.218055],[129.911621,33.218181],[129.911534,33.219011],[129.911482,33.219124],[129.910969,33.219427],[129.910353,33.219641],[129.909957,33.219928],[129.909321,33.220075],[129.909106,33.220171],[129.908885,33.220345],[129.908738,33.220548],[129.908597,33.220926],[129.908574,33.221647],[129.908852,33.221591],[129.909205,33.221267],[129.909713,33.220942],[129.910018,33.220663],[129.910311,33.220154],[129.910507,33.220402],[129.910353,33.221013],[129.910527,33.221488],[129.910063,33.222673],[129.910327,33.22283],[129.910272,33.223049],[129.910292,33.223193],[129.910111,33.223397],[129.90954,33.223866],[129.909856,33.224091],[129.910404,33.223862],[129.911031,33.223817],[129.911385,33.223744],[129.911528,33.223762],[129.911565,33.223876],[129.911472,33.224039],[129.911472,33.2242],[129.911559,33.224566],[129.911549,33.224757],[129.91161,33.224814],[129.910328,33.226281],[129.91021,33.22654],[129.910163,33.226808],[129.910198,33.227254],[129.910152,33.227356],[129.908458,33.228932],[129.908186,33.229441],[129.907982,33.229612],[129.907006,33.229898],[129.90577,33.230066],[129.904718,33.230394],[129.903442,33.23097],[129.902993,33.231119],[129.900846,33.231656],[129.90003,33.231805],[129.899522,33.231984],[129.898943,33.232361],[129.897761,33.233315],[129.89706,33.233648],[129.896644,33.233698],[129.896046,33.233668],[129.895476,33.233527],[129.89506,33.233361],[129.894542,33.23349],[129.894214,33.233478],[129.893856,33.233379],[129.893459,33.233181],[129.892496,33.232261],[129.891898,33.231814],[129.891482,33.23161],[129.890851,33.231487],[129.890439,33.231478],[129.889913,33.232338],[129.889863,33.232602],[129.889912,33.232913],[129.890217,33.233451],[129.890569,33.234537],[129.89063,33.234927],[129.890567,33.235187],[129.89045,33.235318],[129.890251,33.235393],[129.889537,33.235412],[129.889158,33.235319],[129.888803,33.235114],[129.888342,33.235169],[129.887946,33.235678],[129.887163,33.23633],[129.886998,33.236576],[129.886758,33.237212],[129.886515,33.237372],[129.886173,33.237359],[129.885494,33.237129],[129.885266,33.237104],[129.884733,33.237311],[129.884271,33.23735],[129.883955,33.237261],[129.883606,33.237024],[129.883409,33.236951],[129.88195,33.236756],[129.881877,33.236677],[129.881835,33.236367],[129.881236,33.235869],[129.881227,33.235801],[129.881346,33.235563],[129.881264,33.234987],[129.881099,33.234419],[129.880858,33.234231],[129.880234,33.234155],[129.880355,33.233777],[129.880361,33.233345],[129.879788,33.23335],[129.879769,33.233918],[129.877244,33.2341],[129.87716,33.233238],[129.874698,33.233326],[129.874565,33.233274],[129.874425,33.233142],[129.874328,33.233477],[129.874449,33.233909],[129.874364,33.234163],[129.87411,33.234428],[129.873765,33.234982],[129.873378,33.235333],[129.872997,33.235389],[129.872386,33.235674],[129.872326,33.23602],[129.872362,33.236406],[129.872622,33.236635],[129.872641,33.236737],[129.872604,33.236895],[129.872271,33.237139],[129.872247,33.237205],[129.87229,33.237261],[129.873444,33.237607],[129.873511,33.237719],[129.87336,33.2381],[129.873596,33.238287],[129.874091,33.237846],[129.874253,33.237499],[129.874688,33.237116],[129.874767,33.236952],[129.875205,33.236709],[129.875569,33.236578],[129.875702,33.236455],[129.876114,33.236494],[129.87684,33.236273],[129.877384,33.236283],[129.87757,33.236375],[129.877703,33.236572],[129.877732,33.236741],[129.877511,33.237004],[129.877512,33.237083],[129.877565,33.237203],[129.877869,33.237422],[129.87802,33.237887],[129.877973,33.238041],[129.877369,33.238432],[129.877341,33.238615],[129.87734,33.238897],[129.877692,33.239341],[129.877669,33.239637],[129.877767,33.239752],[129.87803,33.239871],[129.878088,33.239975],[129.878073,33.240094],[129.877954,33.240289],[129.877938,33.240541],[129.87782,33.240666],[129.877754,33.240834],[129.877738,33.241107],[129.877796,33.241175],[129.878017,33.241259],[129.878092,33.241348],[129.878099,33.241523],[129.87799,33.241796],[129.878064,33.242009],[129.878219,33.242104],[129.878884,33.242256],[129.8791,33.242431],[129.879266,33.242651],[129.879376,33.243297],[129.879344,33.244136],[129.879234,33.244388],[129.878943,33.244662],[129.878922,33.244837],[129.878986,33.244955],[129.879079,33.245012],[129.879543,33.245047],[129.880264,33.245312],[129.880346,33.245736],[129.880311,33.246283],[129.88016,33.246507],[129.87965,33.246955],[129.879595,33.247202],[129.879793,33.247565],[129.879792,33.247984],[129.879671,33.248226],[129.879274,33.248538],[129.879216,33.249061],[129.878882,33.24939],[129.878538,33.249484],[129.877911,33.249344],[129.877598,33.249407],[129.876899,33.250012],[129.87627,33.250808],[129.875781,33.251061],[129.875472,33.251388],[129.875217,33.251523],[129.874857,33.251559],[129.873595,33.251104],[129.873262,33.251035],[129.872997,33.251075],[129.87275,33.251284],[129.872797,33.251625],[129.872728,33.251851],[129.872438,33.252153],[129.872221,33.252308],[129.871489,33.252652],[129.870864,33.252877],[129.870289,33.252895],[129.870209,33.252952],[129.870081,33.25333],[129.86998,33.253399],[129.869841,33.253421],[129.869295,33.253359]]]]}}]}
