{"type":"FeatureCollection","features":[{"type":"Feature","properties":{"potaRef":"JP-1672","nameJa":"Nakatsu keikoku","nameEn":"Nakatsu Keikoku Prefectural Nature Park","authority":"環境省 生物多様性「見える化」マップ","boundaryStatus":"全国GIS候補・公開前検証待ち","boundarySource":"環境省 生物多様性「見える化」マップの自然公園区域を、POTA代表座標で一意に空間照合して加工","boundaryScaleNote":"区域は概要データであり、正確性は保証されない。POTA運用可否は公式情報で最終確認すること。","candidateMethod":"POTA representative point inside one public natural-park area","sourceParkKind":"都道府県立自然公園","sourceName":"Nakatsu keikoku","sourceFeatureCount":1,"cautionMeters":75},"geometry":{"type":"MultiPolygon","coordinates":[[[[133.08356,33.607702],[133.082394,33.607938],[133.080982,33.60834],[133.080399,33.608561],[133.079794,33.608637],[133.079621,33.608702],[133.078139,33.608501],[133.077403,33.608461],[133.07703,33.608365],[133.076804,33.608246],[133.076726,33.608158],[133.076706,33.608007],[133.07702,33.607076],[133.07706,33.606801],[133.076981,33.606604],[133.076858,33.606454],[133.076311,33.605983],[133.075719,33.605643],[133.075264,33.605117],[133.074584,33.604565],[133.073792,33.60421],[133.073253,33.603654],[133.071924,33.602463],[133.069951,33.601142],[133.069667,33.601006],[133.069392,33.600946],[133.068081,33.600794],[133.067738,33.600723],[133.067027,33.600479],[133.066258,33.600405],[133.066021,33.600333],[133.065489,33.599865],[133.065285,33.599751],[133.064375,33.599758],[133.064186,33.599712],[133.064019,33.599481],[133.063803,33.598159],[133.063636,33.59769],[133.06343,33.597456],[133.063185,33.597355],[133.062969,33.597307],[133.061743,33.597315],[133.060214,33.597219],[133.059299,33.596814],[133.057416,33.59636],[133.057023,33.596129],[133.056611,33.595755],[133.055846,33.594935],[133.054619,33.593518],[133.054462,33.593255],[133.054413,33.59308],[133.05457,33.592602],[133.054433,33.592331],[133.054394,33.592077],[133.054757,33.591567],[133.054874,33.59097],[133.055198,33.589951],[133.055189,33.589784],[133.053952,33.589242],[133.053393,33.5889],[133.053069,33.588598],[133.052176,33.587563],[133.051656,33.587141],[133.050882,33.586682],[133.050334,33.586182],[133.049987,33.585742],[133.0495,33.585342],[133.049214,33.584962],[133.048947,33.584326],[133.048709,33.583921],[133.048101,33.583294],[133.047846,33.5828],[133.047572,33.581852],[133.047499,33.579665],[133.047377,33.578959],[133.046593,33.576328],[133.046599,33.575519],[133.046757,33.575217],[133.047146,33.574956],[133.047943,33.574546],[133.048448,33.573885],[133.0486,33.573509],[133.048923,33.573154],[133.049446,33.572744],[133.050395,33.572172],[133.05163,33.571816],[133.052208,33.57156],[133.052573,33.571293],[133.053103,33.571096],[133.05348,33.570859],[133.053997,33.570424],[133.054679,33.569521],[133.054916,33.568568],[133.05508,33.568114],[133.055476,33.567448],[133.056437,33.56692],[133.058201,33.565424],[133.059887,33.56416],[133.060617,33.563509],[133.061207,33.562852],[133.06184,33.562043],[133.06215,33.561816],[133.062327,33.561623],[133.062309,33.56145],[133.061329,33.559767],[133.061915,33.55919],[133.062782,33.558494],[133.063358,33.558333],[133.064708,33.558452],[133.065251,33.55877],[133.065853,33.559262],[133.066702,33.559758],[133.068084,33.560386],[133.069589,33.561356],[133.071018,33.562433],[133.071509,33.562886],[133.072085,33.563521],[133.074831,33.565237],[133.075747,33.565861],[133.077607,33.567279],[133.079733,33.568483],[133.080729,33.569229],[133.081691,33.569724],[133.081991,33.57017],[133.083304,33.570954],[133.084971,33.572079],[133.085479,33.572299],[133.08642,33.572592],[133.087267,33.572792],[133.087843,33.572818],[133.089076,33.572412],[133.08977,33.57124],[133.090499,33.570592],[133.091645,33.569862],[133.092698,33.569304],[133.093833,33.568483],[133.094784,33.567964],[133.095392,33.567766],[133.096147,33.567647],[133.09693,33.567743],[133.097341,33.568037],[133.098173,33.56807],[133.098806,33.568027],[133.099506,33.567883],[133.100148,33.567509],[133.100922,33.566811],[133.101647,33.566504],[133.102079,33.566504],[133.10274,33.566625],[133.103139,33.566896],[133.103759,33.566919],[133.104228,33.566819],[133.104971,33.56654],[133.105335,33.56656],[133.105984,33.566702],[133.106644,33.56696],[133.10714,33.567063],[133.107831,33.566828],[133.108248,33.566053],[133.108233,33.565259],[133.108299,33.564312],[133.109401,33.563562],[133.110015,33.563276],[133.111078,33.563105],[133.112683,33.563069],[133.113617,33.562821],[133.11404,33.562616],[133.114956,33.562441],[133.116331,33.562563],[133.117072,33.562547],[133.117435,33.562261],[133.11825,33.561771],[133.118958,33.56166],[133.119925,33.561615],[133.121609,33.561727],[133.124164,33.561706],[133.125125,33.56185],[133.125834,33.561799],[133.126145,33.561637],[133.126508,33.561558],[133.126852,33.561395],[133.128372,33.560851],[133.12977,33.559961],[133.131181,33.559648],[133.132023,33.559736],[133.132137,33.560039],[133.132892,33.560287],[133.132829,33.560833],[133.132513,33.561395],[133.132114,33.561641],[133.131916,33.561745],[133.131365,33.561881],[133.130939,33.561862],[133.129701,33.561933],[133.127109,33.562935],[133.126946,33.563093],[133.126699,33.563865],[133.124902,33.563835],[133.124799,33.563792],[133.124503,33.563396],[133.123934,33.563029],[133.119811,33.562948],[133.119447,33.56298],[133.118946,33.563145],[133.117992,33.563762],[133.117704,33.563888],[133.116515,33.564033],[133.115414,33.563864],[133.114599,33.563998],[133.113984,33.564291],[133.112403,33.564664],[133.111799,33.564679],[133.1114,33.56462],[133.110881,33.564742],[133.110411,33.56507],[133.110362,33.565438],[133.110445,33.566252],[133.110179,33.566715],[133.109567,33.567311],[133.109303,33.567673],[133.108758,33.56802],[133.108304,33.568432],[133.107566,33.568857],[133.10639,33.568793],[133.105653,33.568436],[133.105045,33.568393],[133.104546,33.568433],[133.103504,33.56869],[133.103146,33.568717],[133.102658,33.568614],[133.102089,33.568353],[133.101808,33.568334],[133.101252,33.568581],[133.10074,33.569018],[133.100062,33.569275],[133.098463,33.569349],[133.097574,33.569258],[133.097066,33.569123],[133.096636,33.569084],[133.096305,33.568969],[133.095625,33.568978],[133.095122,33.569218],[133.094711,33.569645],[133.094047,33.570182],[133.093943,33.570317],[133.093816,33.570853],[133.093764,33.571316],[133.093641,33.573151],[133.093779,33.574598],[133.093569,33.575587],[133.09341,33.577281],[133.093431,33.577775],[133.093549,33.578216],[133.094187,33.579646],[133.094963,33.581672],[133.095504,33.583903],[133.096557,33.585707],[133.09675,33.586138],[133.097505,33.586671],[133.098257,33.587459],[133.098968,33.588384],[133.099147,33.589082],[133.099085,33.589911],[133.098721,33.590956],[133.097808,33.591785],[133.097275,33.5925],[133.096927,33.594216],[133.096451,33.594826],[133.096127,33.595047],[133.095576,33.595734],[133.094917,33.596286],[133.094779,33.596662],[133.094832,33.597228],[133.094184,33.597822],[133.09406,33.599167],[133.093241,33.600638],[133.093079,33.60107],[133.093334,33.602817],[133.093193,33.604062],[133.093193,33.604624],[133.093144,33.604702],[133.092594,33.604807],[133.091411,33.605411],[133.090479,33.606417],[133.090078,33.607193],[133.089599,33.607789],[133.089356,33.607988],[133.088936,33.607874],[133.08771,33.60785],[133.087251,33.607913],[133.085024,33.60763],[133.084381,33.607626],[133.08356,33.607702]]]]}}]}
