{"type":"FeatureCollection","features":[{"type":"Feature","properties":{"potaRef":"JP-1387","nameJa":"Io Zen","nameEn":"Iozen Prefectural Nature Park","authority":"環境省 生物多様性「見える化」マップ","boundaryStatus":"全国GIS候補・公開前検証待ち","boundarySource":"環境省 生物多様性「見える化」マップの自然公園区域を、POTA代表座標で一意に空間照合して加工","boundaryScaleNote":"区域は概要データであり、正確性は保証されない。POTA運用可否は公式情報で最終確認すること。","candidateMethod":"POTA representative point inside one public natural-park area","sourceParkKind":"都道府県立自然公園","sourceName":"Io Zen","sourceFeatureCount":1,"cautionMeters":75},"geometry":{"type":"MultiPolygon","coordinates":[[[[136.790737,36.565077],[136.789066,36.564973],[136.788475,36.56504],[136.787293,36.564992],[136.786418,36.565043],[136.785692,36.564826],[136.78502,36.564738],[136.783926,36.564257],[136.783059,36.564174],[136.782741,36.563958],[136.782145,36.563257],[136.782,36.563165],[136.781704,36.563084],[136.781393,36.563099],[136.781053,36.56335],[136.780696,36.563061],[136.780559,36.563092],[136.780296,36.563302],[136.779893,36.56305],[136.779341,36.563035],[136.778853,36.563105],[136.778473,36.563091],[136.777451,36.562837],[136.776929,36.56261],[136.776186,36.562146],[136.77537,36.561511],[136.775081,36.561179],[136.775047,36.560899],[136.775165,36.560751],[136.775302,36.560441],[136.775287,36.55983],[136.775152,36.559548],[136.774688,36.559021],[136.774435,36.558518],[136.774197,36.558187],[136.77443,36.556918],[136.774366,36.556584],[136.774246,36.556386],[136.773954,36.556056],[136.773678,36.555874],[136.773467,36.555918],[136.773163,36.556215],[136.773017,36.556219],[136.772916,36.556155],[136.772828,36.555992],[136.772856,36.55554],[136.772784,36.555373],[136.772462,36.554984],[136.772079,36.554682],[136.771283,36.554603],[136.770692,36.553885],[136.770618,36.553268],[136.770205,36.552322],[136.770146,36.551953],[136.770215,36.551878],[136.770344,36.551918],[136.77093,36.552676],[136.77106,36.552744],[136.771129,36.552726],[136.771186,36.552665],[136.771231,36.552416],[136.77124,36.55208],[136.771097,36.551407],[136.770557,36.5506],[136.76946,36.549689],[136.768924,36.549164],[136.768902,36.54888],[136.768775,36.548518],[136.768638,36.548236],[136.768397,36.547939],[136.768379,36.547511],[136.768115,36.547323],[136.768026,36.547187],[136.768057,36.54699],[136.768288,36.5467],[136.768214,36.546646],[136.767896,36.546584],[136.76773,36.546425],[136.767805,36.546332],[136.768126,36.54619],[136.768257,36.546082],[136.7683,36.545969],[136.768285,36.54574],[136.768427,36.545633],[136.769122,36.545624],[136.769647,36.545728],[136.77007,36.545889],[136.770558,36.54572],[136.771025,36.545714],[136.77014,36.544377],[136.770869,36.544222],[136.771005,36.544156],[136.771052,36.544071],[136.770985,36.543828],[136.769921,36.543835],[136.767927,36.543357],[136.767395,36.543327],[136.76719,36.543228],[136.767114,36.543096],[136.767247,36.542755],[136.767526,36.54236],[136.76764,36.542072],[136.767631,36.541931],[136.767485,36.54166],[136.767479,36.541549],[136.76801,36.541115],[136.768117,36.540944],[136.768105,36.540554],[136.768039,36.540351],[136.768063,36.540273],[136.768813,36.539585],[136.769705,36.538983],[136.770218,36.538387],[136.770512,36.537875],[136.771389,36.536819],[136.771701,36.536147],[136.771781,36.535859],[136.771866,36.534541],[136.772154,36.533666],[136.772144,36.533333],[136.772069,36.533164],[136.771898,36.533057],[136.771268,36.532867],[136.771028,36.532876],[136.770018,36.533356],[136.769788,36.53395],[136.7696,36.534212],[136.76908,36.534444],[136.768776,36.534643],[136.76858,36.535182],[136.768163,36.535662],[136.767788,36.535975],[136.767483,36.536681],[136.766883,36.537145],[136.766777,36.53748],[136.766493,36.537941],[136.766276,36.538087],[136.765926,36.538138],[136.765773,36.538428],[136.765586,36.538606],[136.765479,36.538584],[136.764844,36.538131],[136.763966,36.537779],[136.763436,36.537421],[136.763233,36.53743],[136.762678,36.53763],[136.762401,36.537604],[136.762046,36.537496],[136.760705,36.536762],[136.760497,36.53662],[136.760358,36.536422],[136.760168,36.535864],[136.760129,36.535578],[136.760154,36.535384],[136.760573,36.534908],[136.760701,36.534624],[136.760745,36.534287],[136.760729,36.533887],[136.760787,36.533752],[136.760916,36.53364],[136.761259,36.533488],[136.761439,36.533322],[136.761526,36.533119],[136.761546,36.532723],[136.761834,36.532611],[136.762457,36.532573],[136.763907,36.532342],[136.764362,36.532179],[136.76495,36.531837],[136.765069,36.531575],[136.765326,36.531353],[136.765328,36.531208],[136.765177,36.531133],[136.764689,36.531273],[136.763573,36.531328],[136.762698,36.531205],[136.762148,36.531054],[136.7618,36.531016],[136.761384,36.531324],[136.761078,36.531449],[136.760831,36.531612],[136.760486,36.531953],[136.760219,36.532437],[136.76009,36.53258],[136.759233,36.533048],[136.758382,36.53395],[136.758275,36.533935],[136.75803,36.533704],[136.757741,36.53355],[136.757396,36.533487],[136.757078,36.533569],[136.756938,36.533981],[136.756553,36.534655],[136.756452,36.534964],[136.756469,36.53513],[136.756558,36.535304],[136.756994,36.535684],[136.756898,36.535835],[136.756789,36.535854],[136.756577,36.535719],[136.755904,36.535553],[136.755465,36.535715],[136.754779,36.536121],[136.753488,36.536213],[136.753234,36.536646],[136.752838,36.537066],[136.752638,36.537406],[136.752622,36.538],[136.752713,36.538529],[136.75285,36.538896],[136.752858,36.539258],[136.752674,36.539661],[136.752153,36.540171],[136.752014,36.54062],[136.751993,36.540795],[136.752077,36.541237],[136.751882,36.542223],[136.75191,36.542677],[136.751965,36.542926],[136.752217,36.543404],[136.752212,36.543479],[136.752157,36.54351],[136.751772,36.543401],[136.751104,36.54331],[136.750619,36.543279],[136.750208,36.543323],[136.749817,36.543394],[136.749372,36.54355],[136.748579,36.543925],[136.748066,36.54409],[136.747716,36.544143],[136.747227,36.544116],[136.74622,36.544244],[136.745535,36.54465],[136.745355,36.544602],[136.745179,36.544487],[136.744861,36.544152],[136.744332,36.543709],[136.744015,36.5436],[136.742933,36.543386],[136.742717,36.543309],[136.742624,36.543227],[136.742439,36.54278],[136.742414,36.54258],[136.742525,36.542451],[136.743244,36.542013],[136.743507,36.541613],[136.743582,36.541363],[136.743528,36.540632],[136.743777,36.540266],[136.743789,36.540182],[136.743647,36.539993],[136.742986,36.539573],[136.742901,36.539465],[136.742791,36.539101],[136.742448,36.53902],[136.741963,36.539113],[136.741823,36.539222],[136.741756,36.5397],[136.741458,36.539876],[136.741074,36.539872],[136.740935,36.539934],[136.740675,36.540537],[136.740535,36.540624],[136.740329,36.540622],[136.740216,36.540579],[136.739902,36.540294],[136.739415,36.54012],[136.7392,36.539964],[136.739158,36.539883],[136.739121,36.539205],[136.738712,36.538795],[136.738465,36.538455],[136.73856,36.538387],[136.73909,36.53834],[136.739548,36.538231],[136.739716,36.538134],[136.739981,36.537846],[136.740152,36.537424],[136.740247,36.537307],[136.740601,36.537092],[136.741115,36.537013],[136.741245,36.536953],[136.741304,36.536646],[136.74151,36.536421],[136.741404,36.536055],[136.741451,36.53577],[136.74099,36.534999],[136.740671,36.534723],[136.74078,36.53466],[136.741415,36.534579],[136.741585,36.534517],[136.741972,36.534144],[136.742069,36.533859],[136.742074,36.533775],[136.74197,36.533606],[136.74178,36.533462],[136.741719,36.533355],[136.741701,36.532771],[136.741295,36.532433],[136.741072,36.532158],[136.740985,36.531656],[136.740875,36.531377],[136.740625,36.531072],[136.740286,36.530839],[136.73996,36.530695],[136.739749,36.530491],[136.7396,36.53024],[136.739365,36.529491],[136.739337,36.52926],[136.739458,36.528467],[136.739418,36.528027],[136.739473,36.527825],[136.740306,36.526863],[136.740331,36.526413],[136.740392,36.526268],[136.74087,36.525903],[136.741625,36.525494],[136.741772,36.525354],[136.741865,36.525148],[136.741895,36.524898],[136.741783,36.524532],[136.741346,36.52395],[136.740888,36.523478],[136.74078,36.523311],[136.740698,36.523034],[136.740762,36.522952],[136.741842,36.522687],[136.742736,36.522358],[136.744765,36.521035],[136.744866,36.520921],[136.744717,36.520614],[136.744038,36.519808],[136.743631,36.519608],[136.743521,36.519449],[136.743325,36.519293],[136.742803,36.519099],[136.742709,36.518596],[136.742166,36.518233],[136.742039,36.518044],[136.741933,36.517622],[136.742071,36.517482],[136.74266,36.517254],[136.742827,36.517133],[136.743288,36.516196],[136.743675,36.515662],[136.744402,36.514216],[136.744874,36.513786],[136.745755,36.513124],[136.74612,36.51236],[136.746268,36.512165],[136.746465,36.512041],[136.747562,36.512626],[136.748584,36.513377],[136.749049,36.513583],[136.749583,36.514048],[136.75025,36.514407],[136.750884,36.51465],[136.751847,36.515678],[136.752475,36.516185],[136.754554,36.517306],[136.755011,36.517495],[136.755338,36.517704],[136.755579,36.518183],[136.756474,36.518982],[136.756528,36.519143],[136.756459,36.519436],[136.756479,36.519575],[136.756702,36.519823],[136.757166,36.520121],[136.75737,36.520319],[136.75755,36.520597],[136.757787,36.521122],[136.75798,36.521167],[136.758366,36.520921],[136.758604,36.520957],[136.758735,36.521059],[136.758771,36.521168],[136.758771,36.522036],[136.759081,36.522617],[136.75911,36.523045],[136.759154,36.523127],[136.759284,36.523135],[136.759561,36.522955],[136.759899,36.522416],[136.760244,36.522192],[136.760484,36.522157],[136.760689,36.522183],[136.760893,36.522296],[136.761221,36.522591],[136.761257,36.522647],[136.761242,36.522877],[136.760968,36.523412],[136.760736,36.524144],[136.759992,36.525387],[136.760036,36.525528],[136.760358,36.525777],[136.760261,36.526031],[136.760301,36.526138],[136.760956,36.52604],[136.761362,36.525896],[136.761672,36.525647],[136.761813,36.52559],[136.76226,36.525789],[136.762588,36.52576],[136.762894,36.525852],[136.763319,36.525782],[136.763664,36.525807],[136.764087,36.525907],[136.76454,36.526166],[136.764891,36.526442],[136.765815,36.527469],[136.766495,36.528049],[136.767381,36.52853],[136.767991,36.529196],[136.768438,36.529458],[136.768799,36.529781],[136.769254,36.529884],[136.769606,36.529871],[136.770328,36.529729],[136.770749,36.529809],[136.770858,36.529727],[136.770841,36.529472],[136.771005,36.529235],[136.773129,36.528987],[136.774935,36.528679],[136.775281,36.528672],[136.776681,36.528955],[136.777131,36.529077],[136.77802,36.529472],[136.778139,36.529422],[136.778163,36.529249],[136.778256,36.529158],[136.778848,36.529315],[136.77944,36.529345],[136.780136,36.529228],[136.78048,36.529054],[136.78078,36.528977],[136.781554,36.529007],[136.7819,36.528913],[136.782364,36.528452],[136.783263,36.527684],[136.784008,36.527334],[136.78353,36.526864],[136.783298,36.526564],[136.782453,36.52576],[136.781828,36.525004],[136.781694,36.52462],[136.781764,36.523017],[136.78155,36.522427],[136.781157,36.521921],[136.780515,36.522247],[136.780561,36.521662],[136.780875,36.520419],[136.781261,36.517548],[136.781368,36.517185],[136.781314,36.516955],[136.781146,36.516683],[136.781135,36.51648],[136.781012,36.516174],[136.780906,36.516069],[136.780769,36.516039],[136.779798,36.516217],[136.778857,36.51624],[136.778578,36.516158],[136.777312,36.51544],[136.776708,36.515152],[136.774866,36.514881],[136.774544,36.514786],[136.774124,36.514536],[136.77378,36.514169],[136.773554,36.51401],[136.773338,36.513936],[136.772782,36.513858],[136.772296,36.513628],[136.771218,36.512755],[136.770321,36.511646],[136.770029,36.511089],[136.769966,36.510859],[136.770124,36.509988],[136.770078,36.509567],[136.769818,36.509208],[136.769666,36.508903],[136.769527,36.50817],[136.769303,36.507669],[136.769233,36.506962],[136.768614,36.506388],[136.767708,36.506027],[136.767478,36.505505],[136.766337,36.504821],[136.766375,36.504676],[136.766896,36.50441],[136.767041,36.504277],[136.766989,36.504276],[136.766967,36.504162],[136.766851,36.504027],[136.766221,36.503696],[136.765748,36.503286],[136.76566,36.503111],[136.765686,36.502948],[136.765821,36.502749],[136.766158,36.50246],[136.766188,36.502375],[136.766126,36.502298],[136.766045,36.502283],[136.765744,36.502342],[136.76569,36.502246],[136.765719,36.502129],[136.765801,36.502057],[136.766424,36.501978],[136.7674,36.502023],[136.767918,36.502109],[136.768029,36.502071],[136.768838,36.501352],[136.769312,36.500811],[136.769486,36.500528],[136.769654,36.499996],[136.769635,36.499745],[136.769478,36.499382],[136.770054,36.499208],[136.770493,36.49964],[136.770683,36.499661],[136.770958,36.499544],[136.771509,36.499148],[136.771623,36.499014],[136.771713,36.498783],[136.77176,36.49794],[136.771936,36.497604],[136.771991,36.497178],[136.771877,36.496616],[136.771722,36.496369],[136.771479,36.496146],[136.771064,36.495952],[136.770768,36.495624],[136.770294,36.49445],[136.770185,36.493245],[136.770233,36.492911],[136.770425,36.492568],[136.770895,36.492081],[136.771869,36.491537],[136.77201,36.491286],[136.772094,36.49072],[136.772188,36.490409],[136.772424,36.490161],[136.773047,36.490102],[136.773571,36.490183],[136.774437,36.49044],[136.774894,36.490517],[136.775036,36.49048],[136.775194,36.489657],[136.775604,36.488983],[136.77572,36.488703],[136.775678,36.48825],[136.775442,36.48761],[136.775319,36.487069],[136.77523,36.48691],[136.775235,36.486707],[136.775601,36.486579],[136.77759,36.486341],[136.777685,36.486227],[136.777564,36.485946],[136.777608,36.485838],[136.778124,36.485705],[136.778637,36.485387],[136.780069,36.485364],[136.780445,36.485574],[136.781097,36.486256],[136.781627,36.486671],[136.783075,36.487461],[136.783814,36.488127],[136.784025,36.488406],[136.784112,36.488711],[136.784145,36.489218],[136.784278,36.489492],[136.784816,36.490327],[136.784989,36.490523],[136.785301,36.49075],[136.78642,36.491153],[136.78663,36.491165],[136.787188,36.490808],[136.787739,36.490575],[136.788084,36.490456],[136.788462,36.490421],[136.78862,36.490353],[136.788493,36.489545],[136.788569,36.489067],[136.788537,36.488783],[136.78762,36.487485],[136.787851,36.486465],[136.788019,36.486182],[136.78836,36.485784],[136.78845,36.485363],[136.788539,36.483934],[136.788835,36.482849],[136.788826,36.482633],[136.788701,36.482205],[136.78872,36.481874],[136.788929,36.48148],[136.789175,36.480602],[136.789145,36.479962],[136.78883,36.479596],[136.788752,36.479433],[136.788704,36.478891],[136.788836,36.47858],[136.789058,36.478302],[136.789146,36.477626],[136.789253,36.47746],[136.789687,36.47714],[136.79,36.476661],[136.790518,36.476083],[136.79131,36.47487],[136.791577,36.474054],[136.791895,36.473509],[136.792016,36.473111],[136.792761,36.471449],[136.793818,36.47006],[136.794582,36.46895],[136.7954,36.46708],[136.796241,36.46587],[136.797755,36.467618],[136.798132,36.468147],[136.798293,36.468453],[136.798304,36.468632],[136.798185,36.468863],[136.796908,36.469676],[136.795998,36.470847],[136.795804,36.471214],[136.795697,36.471538],[136.795707,36.471774],[136.795767,36.471966],[136.796197,36.472639],[136.796176,36.47281],[136.796122,36.472862],[136.795497,36.473098],[136.795368,36.473181],[136.795287,36.473369],[136.795551,36.474885],[136.795777,36.475278],[136.796602,36.476135],[136.796709,36.476332],[136.796785,36.476778],[136.796865,36.476983],[136.797307,36.477424],[136.797431,36.47773],[136.797663,36.478748],[136.79818,36.479561],[136.798277,36.48002],[136.798503,36.480278],[136.799295,36.480973],[136.799446,36.481917],[136.799602,36.482419],[136.799882,36.483036],[136.800292,36.483411],[136.800637,36.4836],[136.801418,36.483739],[136.801585,36.483857],[136.80173,36.484242],[136.801843,36.48436],[136.802037,36.484487],[136.802635,36.484731],[136.802764,36.484858],[136.802823,36.485216],[136.802791,36.485435],[136.802673,36.485601],[136.802048,36.485977],[136.801951,36.486318],[136.802026,36.486886],[136.802123,36.487153],[136.802441,36.487677],[136.802506,36.487926],[136.802495,36.488319],[136.802339,36.488673],[136.802285,36.488944],[136.802393,36.489665],[136.80256,36.490155],[136.802517,36.490347],[136.801978,36.490635],[136.80173,36.490732],[136.801514,36.490753],[136.800502,36.490579],[136.799898,36.490286],[136.799413,36.49019],[136.799182,36.490185],[136.798934,36.490334],[136.798788,36.490605],[136.798589,36.491173],[136.79839,36.491492],[136.798104,36.491872],[136.79763,36.492379],[136.797064,36.492925],[136.796854,36.493026],[136.796299,36.493078],[136.795788,36.493389],[136.795599,36.493594],[136.795502,36.493808],[136.795491,36.494398],[136.795443,36.494638],[136.794931,36.496334],[136.794629,36.496601],[136.793977,36.496911],[136.79395,36.496981],[136.794382,36.4972],[136.795782,36.497514],[136.796046,36.497728],[136.796116,36.497881],[136.796154,36.498638],[136.796531,36.499721],[136.79666,36.500228],[136.796698,36.500748],[136.796951,36.501308],[136.797059,36.501653],[136.797091,36.501994],[136.796956,36.502308],[136.796531,36.502614],[136.796428,36.502837],[136.796387,36.503065],[136.796438,36.503423],[136.796393,36.503966],[136.796304,36.504129],[136.795925,36.504545],[136.795836,36.504732],[136.795717,36.505251],[136.795709,36.505516],[136.795887,36.50586],[136.796125,36.506186],[136.796252,36.506524],[136.796244,36.506868],[136.796125,36.507139],[136.795962,36.507296],[136.795196,36.507833],[136.795025,36.508038],[136.794869,36.50878],[136.794832,36.509329],[136.79501,36.509565],[136.795173,36.510011],[136.795107,36.510808],[136.795255,36.510971],[136.796178,36.51161],[136.796378,36.511797],[136.796468,36.511948],[136.796494,36.512115],[136.796142,36.512636],[136.796258,36.512689],[136.796921,36.512714],[136.797159,36.512817],[136.797955,36.513553],[136.798274,36.513909],[136.799152,36.515279],[136.799353,36.515448],[136.799494,36.515665],[136.799494,36.515834],[136.799219,36.516624],[136.79924,36.51697],[136.799479,36.517517],[136.7998,36.518093],[136.799997,36.518312],[136.800096,36.51864],[136.799821,36.520257],[136.799806,36.521035],[136.799908,36.521054],[136.800048,36.520993],[136.800345,36.520794],[136.80121,36.520618],[136.802,36.521083],[136.802357,36.521162],[136.802617,36.521379],[136.80316,36.522001],[136.803308,36.522109],[136.80348,36.522151],[136.803963,36.522501],[136.804052,36.522809],[136.804235,36.524466],[136.804283,36.524589],[136.804396,36.524687],[136.805108,36.524903],[136.805361,36.525168],[136.805658,36.525965],[136.805785,36.526448],[136.806327,36.527479],[136.806603,36.527787],[136.807383,36.528385],[136.807465,36.528505],[136.807525,36.528765],[136.807532,36.53011],[136.807651,36.530539],[136.807963,36.530871],[136.808201,36.531046],[136.808261,36.531522],[136.808781,36.532283],[136.809681,36.532904],[136.810217,36.533471],[136.810558,36.534026],[136.810752,36.534503],[136.811748,36.536313],[136.81186,36.536687],[136.811882,36.537134],[136.811978,36.537333],[136.812543,36.537683],[136.812856,36.538099],[136.812885,36.538352],[136.812848,36.538576],[136.812662,36.538799],[136.812618,36.539028],[136.812588,36.539831],[136.812647,36.540657],[136.812707,36.540893],[136.813696,36.542992],[136.813822,36.543209],[136.814216,36.543613],[136.81426,36.54374],[136.814223,36.544156],[136.814313,36.544313],[136.814595,36.544591],[136.814885,36.54546],[136.815212,36.546238],[136.815675,36.547042],[136.816194,36.547426],[136.816595,36.547963],[136.816712,36.548236],[136.816788,36.548488],[136.816602,36.549405],[136.816543,36.550769],[136.81658,36.550902],[136.816951,36.551513],[136.817219,36.552138],[136.817234,36.552386],[136.817115,36.55279],[136.815985,36.55419],[136.815866,36.554437],[136.815673,36.555342],[136.815457,36.55577],[136.815286,36.556],[136.813932,36.556917],[136.81368,36.557152],[136.812125,36.559131],[136.811791,36.559843],[136.811724,36.560253],[136.811758,36.560413],[136.810733,36.56055],[136.809402,36.56058],[136.807975,36.560485],[136.806824,36.560507],[136.806372,36.560424],[136.805841,36.560127],[136.805308,36.559662],[136.804851,36.559437],[136.804432,36.559359],[136.803639,36.559389],[136.803226,36.558829],[136.80302,36.558837],[136.80279,36.55892],[136.802234,36.559223],[136.801886,36.559143],[136.800966,36.558745],[136.80016,36.558216],[136.799944,36.557994],[136.79959,36.557804],[136.798956,36.557593],[136.798846,36.557618],[136.798853,36.557679],[136.799241,36.558206],[136.799319,36.558622],[136.799164,36.558853],[136.798996,36.558976],[136.798821,36.558993],[136.79847,36.558801],[136.798005,36.558389],[136.797188,36.557467],[136.797109,36.557435],[136.797038,36.557532],[136.797031,36.557933],[136.796844,36.558349],[136.796029,36.558925],[136.795692,36.55927],[136.795377,36.559415],[136.795229,36.559335],[136.795164,36.559108],[136.795093,36.559026],[136.794607,36.558779],[136.794522,36.558582],[136.794605,36.558074],[136.794517,36.557993],[136.794369,36.558051],[136.793767,36.559072],[136.793537,36.559609],[136.79303,36.560319],[136.792778,36.560861],[136.79253,36.561062],[136.791695,36.561535],[136.791294,36.561891],[136.791106,36.562168],[136.790996,36.562458],[136.790998,36.562823],[136.791168,36.563914],[136.791162,36.564257],[136.791007,36.564675],[136.790737,36.565077]]]]}}]}
