{"type":"FeatureCollection","features":[{"type":"Feature","properties":{"potaRef":"JP-1356","nameJa":"Nomi matsunoyama oike","nameEn":"Naomine Matsunoyama Oike Prefectural Nature Park","authority":"環境省 生物多様性「見える化」マップ","boundaryStatus":"全国GIS候補・公開前検証待ち","boundarySource":"環境省 生物多様性「見える化」マップの自然公園区域を、POTA代表座標で一意に空間照合して加工","boundaryScaleNote":"区域は概要データであり、正確性は保証されない。POTA運用可否は公式情報で最終確認すること。","candidateMethod":"POTA representative point inside one public natural-park area","sourceParkKind":"都道府県立自然公園","sourceName":"Nomi matsunoyama oike","sourceFeatureCount":1,"cautionMeters":75},"geometry":{"type":"MultiPolygon","coordinates":[[[[138.58332,37.082174],[138.581179,37.082346],[138.579725,37.082137],[138.578689,37.082188],[138.577998,37.082011],[138.576893,37.080008],[138.579144,37.079207],[138.579678,37.078678],[138.579842,37.077745],[138.579744,37.07659],[138.578823,37.075166],[138.578845,37.074465],[138.579175,37.073283],[138.579349,37.072062],[138.579377,37.070459],[138.579315,37.069576],[138.578883,37.069044],[138.576529,37.067429],[138.575905,37.06657],[138.575342,37.06519],[138.573036,37.061397],[138.571515,37.05834],[138.570876,37.056544],[138.570548,37.054844],[138.569857,37.053984],[138.567146,37.052307],[138.565351,37.05083],[138.564637,37.049968],[138.564437,37.04919],[138.564427,37.048109],[138.564733,37.046981],[138.565228,37.045532],[138.565464,37.044492],[138.565226,37.043497],[138.564344,37.042254],[138.562281,37.040051],[138.56174,37.039391],[138.562339,37.036828],[138.562589,37.036041],[138.56278,37.03428],[138.56308,37.033331],[138.56303,37.032772],[138.562273,37.031856],[138.561365,37.031464],[138.560405,37.031264],[138.560101,37.030951],[138.560223,37.03063],[138.559321,37.030958],[138.556488,37.0315],[138.554773,37.031765],[138.552841,37.031773],[138.550911,37.031697],[138.549111,37.031312],[138.54777,37.031116],[138.543745,37.031021],[138.54082,37.031164],[138.539003,37.03085],[138.537709,37.030571],[138.537283,37.03031],[138.536856,37.030263],[138.536635,37.034626],[138.533258,37.033475],[138.532144,37.033884],[138.530981,37.0344],[138.532959,37.035072],[138.534755,37.035794],[138.536843,37.036539],[138.535861,37.037708],[138.534805,37.039108],[138.533659,37.04032],[138.533468,37.039913],[138.532826,37.039401],[138.532601,37.039135],[138.532526,37.038972],[138.532465,37.038624],[138.532335,37.038501],[138.532096,37.038378],[138.531543,37.038214],[138.529594,37.03777],[138.52913,37.037477],[138.528857,37.037163],[138.528134,37.03665],[138.526787,37.037861],[138.525116,37.039051],[138.522177,37.040538],[138.519354,37.04216],[138.519113,37.042647],[138.518837,37.04377],[138.518908,37.044368],[138.519588,37.045296],[138.52055,37.046088],[138.521337,37.047608],[138.523005,37.048516],[138.523623,37.048996],[138.523896,37.049977],[138.523902,37.051338],[138.523743,37.053123],[138.520769,37.052614],[138.518987,37.052068],[138.515662,37.05145],[138.513325,37.050833],[138.512231,37.0502],[138.511279,37.049063],[138.510885,37.047958],[138.509566,37.047971],[138.509636,37.050491],[138.508196,37.050615],[138.507133,37.049029],[138.505226,37.047669],[138.504813,37.047132],[138.504678,37.046621],[138.504822,37.046096],[138.505376,37.045417],[138.505902,37.044047],[138.506055,37.043258],[138.506897,37.0423],[138.506974,37.041489],[138.506692,37.040813],[138.505977,37.040229],[138.503721,37.039471],[138.50217,37.038849],[138.501002,37.038946],[138.499226,37.039762],[138.498012,37.040468],[138.497095,37.039839],[138.494871,37.038898],[138.493188,37.038457],[138.491765,37.038589],[138.489215,37.039063],[138.488893,37.038853],[138.488256,37.038169],[138.48726,37.036889],[138.486033,37.035685],[138.48425,37.034428],[138.482096,37.033671],[138.481088,37.033508],[138.482064,37.031579],[138.483302,37.030122],[138.484668,37.028668],[138.485043,37.02799],[138.485442,37.026798],[138.485425,37.025033],[138.487308,37.0238],[138.488629,37.023228],[138.490333,37.022411],[138.491596,37.021358],[138.492011,37.020704],[138.492409,37.021082],[138.49262,37.021391],[138.493143,37.021968],[138.493731,37.02291],[138.494078,37.023193],[138.494573,37.023493],[138.494801,37.023749],[138.496053,37.024876],[138.496306,37.025004],[138.496481,37.025157],[138.496845,37.025543],[138.497235,37.02631],[138.497438,37.026446],[138.49854,37.026482],[138.499328,37.026411],[138.500321,37.0261],[138.500695,37.025926],[138.501311,37.025112],[138.501433,37.025067],[138.502415,37.02517],[138.502796,37.025312],[138.503621,37.025944],[138.503943,37.026079],[138.504295,37.026086],[138.504972,37.025938],[138.505282,37.025938],[138.505573,37.025996],[138.505708,37.02608],[138.506005,37.026441],[138.506095,37.02646],[138.506898,37.026254],[138.507234,37.026268],[138.507873,37.026391],[138.508492,37.026668],[138.508782,37.026939],[138.509137,37.0275],[138.509292,37.027609],[138.510018,37.027193],[138.510193,37.027141],[138.510464,37.027154],[138.510735,37.027174],[138.511064,37.027303],[138.511606,37.027664],[138.512076,37.027832],[138.512787,37.027799],[138.513084,37.027993],[138.513258,37.028225],[138.513674,37.029409],[138.513861,37.029622],[138.51408,37.029687],[138.514771,37.029577],[138.515933,37.029248],[138.518384,37.028248],[138.519852,37.027826],[138.520032,37.028059],[138.520323,37.028774],[138.520738,37.029404],[138.520906,37.029532],[138.521726,37.0299],[138.522991,37.030313],[138.523404,37.030423],[138.523934,37.030423],[138.524661,37.030378],[138.525028,37.030282],[138.5259,37.029836],[138.526003,37.029611],[138.526055,37.029301],[138.526438,37.028562],[138.526516,37.028246],[138.526439,37.02724],[138.526522,37.027068],[138.526671,37.026848],[138.526987,37.026565],[138.527677,37.026074],[138.528026,37.025629],[138.528233,37.025139],[138.52853,37.024901],[138.528749,37.024772],[138.530225,37.024227],[138.53102,37.023819],[138.531297,37.023406],[138.532014,37.022852],[138.532627,37.022568],[138.533014,37.022445],[138.534006,37.021894],[138.535187,37.02152],[138.535865,37.02114],[138.536504,37.020927],[138.537521,37.021099],[138.537953,37.020989],[138.53825,37.020809],[138.538618,37.020686],[138.539206,37.020641],[138.540122,37.020886],[138.540335,37.021054],[138.540509,37.021325],[138.540593,37.021563],[138.540897,37.021886],[138.541004,37.021931],[138.541598,37.021854],[138.542224,37.021912],[138.543205,37.02177],[138.544154,37.021745],[138.545236,37.021506],[138.546127,37.02137],[138.548499,37.021189],[138.548829,37.021228],[138.549332,37.021422],[138.549616,37.021647],[138.549848,37.021918],[138.550294,37.022086],[138.550739,37.022389],[138.551001,37.022649],[138.551233,37.022985],[138.551427,37.023088],[138.551678,37.02312],[138.551949,37.023243],[138.55253,37.023624],[138.552633,37.023643],[138.553331,37.023527],[138.554788,37.022798],[138.555188,37.022682],[138.555511,37.022682],[138.556486,37.022843],[138.557532,37.023094],[138.557783,37.023088],[138.558493,37.023211],[138.559067,37.023192],[138.559835,37.023043],[138.560848,37.022599],[138.561655,37.022489],[138.562193,37.022249],[138.562484,37.02203],[138.563551,37.020866],[138.563822,37.020725],[138.564003,37.020731],[138.565882,37.02126],[138.566006,37.02187],[138.566167,37.022144],[138.566211,37.022356],[138.566603,37.022906],[138.566637,37.023091],[138.566568,37.023276],[138.566564,37.023774],[138.566851,37.024102],[138.567221,37.02441],[138.567289,37.024581],[138.567282,37.024821],[138.567392,37.024937],[138.567474,37.025176],[138.567857,37.025539],[138.56809,37.025887],[138.569609,37.026277],[138.570653,37.026897],[138.571721,37.027335],[138.571851,37.027711],[138.571933,37.027786],[138.572809,37.027985],[138.57298,37.028094],[138.573083,37.028217],[138.573165,37.028628],[138.573288,37.028621],[138.573781,37.028409],[138.574338,37.028411],[138.574598,37.028548],[138.574749,37.028692],[138.574913,37.028931],[138.575111,37.02941],[138.575221,37.029519],[138.575776,37.029833],[138.575264,37.030236],[138.57491,37.030751],[138.574891,37.031363],[138.575465,37.033086],[138.575708,37.033235],[138.576542,37.033126],[138.57843,37.033092],[138.579021,37.033572],[138.578965,37.033932],[138.578646,37.034789],[138.578499,37.035867],[138.578537,37.036804],[138.579108,37.037933],[138.579945,37.039156],[138.580445,37.039671],[138.58148,37.04034],[138.581825,37.04078],[138.581836,37.041158],[138.581625,37.041442],[138.581263,37.041507],[138.580534,37.041131],[138.579858,37.04119],[138.579196,37.0415],[138.579064,37.042146],[138.578941,37.042468],[138.578645,37.042606],[138.578044,37.042413],[138.577741,37.042065],[138.577212,37.04173],[138.576895,37.041093],[138.576613,37.040781],[138.57623,37.040827],[138.576148,37.041276],[138.576234,37.042106],[138.576219,37.042574],[138.574934,37.042728],[138.574337,37.043112],[138.5741,37.043521],[138.573966,37.044185],[138.574079,37.04489],[138.574405,37.045221],[138.574763,37.045264],[138.575531,37.045153],[138.576031,37.044966],[138.576725,37.045052],[138.577097,37.045348],[138.577216,37.045854],[138.577382,37.046272],[138.577959,37.0465],[138.577606,37.046997],[138.577153,37.047132],[138.576479,37.047118],[138.575805,37.047104],[138.575294,37.04695],[138.574901,37.046581],[138.573961,37.046472],[138.572717,37.046032],[138.57219,37.045643],[138.571735,37.045094],[138.57114,37.044739],[138.570492,37.044618],[138.570093,37.044448],[138.569436,37.043912],[138.568787,37.043845],[138.568111,37.043903],[138.567926,37.044079],[138.568009,37.044279],[138.568613,37.044364],[138.569411,37.044704],[138.56996,37.045094],[138.569974,37.045364],[138.569745,37.045521],[138.569452,37.045551],[138.568461,37.044901],[138.567948,37.0448],[138.567564,37.044864],[138.567555,37.045134],[138.567905,37.04543],[138.568792,37.045808],[138.568901,37.045918],[138.568742,37.045969],[138.56836,37.045961],[138.567813,37.046202],[138.567352,37.046571],[138.566144,37.047807],[138.565965,37.048505],[138.56595,37.048955],[138.566264,37.049682],[138.56676,37.050323],[138.567593,37.050988],[138.570837,37.05282],[138.571446,37.05348],[138.571976,37.054464],[138.572521,37.056384],[138.573661,37.059415],[138.574693,37.061465],[138.576181,37.063669],[138.576647,37.064567],[138.576966,37.065378],[138.578166,37.066747],[138.578686,37.06689],[138.579196,37.066864],[138.581987,37.066249],[138.583341,37.066072],[138.583578,37.066161],[138.583572,37.066353],[138.582534,37.067437],[138.58237,37.067866],[138.582324,37.068369],[138.582058,37.069204],[138.582092,37.069541],[138.582224,37.069628],[138.582449,37.06962],[138.582692,37.069529],[138.583656,37.067952],[138.584163,37.067554],[138.585059,37.067176],[138.586156,37.066598],[138.586267,37.067813],[138.586211,37.068652],[138.58644,37.068981],[138.586891,37.069399],[138.587006,37.070049],[138.586971,37.071609],[138.587096,37.071912],[138.587397,37.07187],[138.588058,37.070887],[138.588909,37.070976],[138.589373,37.071466],[138.589712,37.071641],[138.590307,37.071797],[138.59045,37.072004],[138.590435,37.072472],[138.590342,37.073047],[138.590485,37.073254],[138.591918,37.073271],[138.592594,37.073231],[138.592912,37.073111],[138.593109,37.072575],[138.593436,37.072203],[138.594619,37.072154],[138.594846,37.072061],[138.595416,37.071343],[138.595336,37.070994],[138.594693,37.07006],[138.59406,37.069579],[138.594209,37.069301],[138.594797,37.069155],[138.595573,37.069117],[138.596353,37.068971],[138.596701,37.068626],[138.596743,37.068371],[138.596434,37.068027],[138.595776,37.0675],[138.595119,37.066433],[138.594613,37.06591],[138.594555,37.06438],[138.59439,37.063363],[138.594196,37.062747],[138.594927,37.062726],[138.595846,37.062456],[138.596328,37.062133],[138.596555,37.061687],[138.59653,37.061074],[138.59778,37.062041],[138.59813,37.062117],[138.598304,37.061954],[138.598029,37.06157],[138.596662,37.060672],[138.597005,37.060363],[138.5976,37.060651],[138.598283,37.061163],[138.598395,37.061051],[138.597908,37.060485],[138.597889,37.060166],[138.598509,37.060153],[138.60058,37.061288],[138.60047,37.062636],[138.600561,37.062935],[138.601025,37.063201],[138.601681,37.063782],[138.601982,37.063856],[138.602313,37.064051],[138.602702,37.064532],[138.602801,37.065078],[138.603423,37.066185],[138.603763,37.066194],[138.604333,37.066392],[138.604676,37.0667],[138.604932,37.067114],[138.604954,37.067378],[138.604883,37.0677],[138.605166,37.067993],[138.605628,37.068309],[138.605941,37.069072],[138.606444,37.069532],[138.606802,37.069593],[138.607437,37.06939],[138.607796,37.069433],[138.608078,37.069727],[138.608171,37.070359],[138.608454,37.070635],[138.609072,37.071026],[138.609175,37.071298],[138.609591,37.071667],[138.61033,37.071736],[138.610663,37.071868],[138.610413,37.071953],[138.609715,37.071993],[138.609007,37.072375],[138.608738,37.072352],[138.608364,37.072074],[138.607831,37.071865],[138.607114,37.071815],[138.606499,37.072055],[138.605821,37.072203],[138.603986,37.073355],[138.603398,37.073469],[138.602704,37.073401],[138.602283,37.073194],[138.601537,37.073323],[138.60109,37.07326],[138.599874,37.072605],[138.599605,37.0726],[138.599576,37.072797],[138.60036,37.073605],[138.600638,37.074764],[138.600943,37.075058],[138.601881,37.075257],[138.601432,37.07595],[138.601187,37.075873],[138.600703,37.075539],[138.600147,37.075366],[138.599651,37.075392],[138.599124,37.075723],[138.598696,37.075751],[138.598205,37.075633],[138.59788,37.075266],[138.597806,37.074742],[138.597632,37.074577],[138.596933,37.074653],[138.596407,37.07493],[138.596287,37.07518],[138.59664,37.075385],[138.598102,37.076063],[138.598475,37.076341],[138.598699,37.077084],[138.599031,37.077252],[138.59936,37.077493],[138.599478,37.078054],[138.599857,37.078152],[138.60091,37.078263],[138.602506,37.078259],[138.603779,37.078519],[138.604418,37.078928],[138.604891,37.079586],[138.605687,37.080016],[138.607072,37.080279],[138.607473,37.080413],[138.607484,37.080773],[138.607379,37.081257],[138.607085,37.081305],[138.606489,37.080969],[138.605756,37.080684],[138.605057,37.08076],[138.604211,37.081211],[138.603244,37.081948],[138.602559,37.082277],[138.601796,37.082243],[138.601132,37.081905],[138.600899,37.081451],[138.600699,37.080654],[138.600359,37.080035],[138.599955,37.080027],[138.599669,37.079823],[138.599664,37.079264],[138.598975,37.079034],[138.59781,37.079623],[138.596819,37.078955],[138.59576,37.078339],[138.593695,37.076118],[138.591598,37.074202],[138.590839,37.074727],[138.590511,37.075855],[138.5903,37.076859],[138.58983,37.077498],[138.589,37.078165],[138.588224,37.07851],[138.587022,37.078864],[138.585972,37.080085],[138.584858,37.080458],[138.583481,37.081349],[138.583132,37.08172],[138.583463,37.081943],[138.58357,37.082089],[138.58332,37.082174]]],[[[138.457586,37.142908],[138.457795,37.143375],[138.456852,37.144361],[138.456477,37.145082],[138.455866,37.145698],[138.455616,37.146237],[138.455018,37.146859],[138.454864,37.147946],[138.453955,37.149436],[138.452907,37.150481],[138.451638,37.150865],[138.451453,37.151423],[138.45111,37.151776],[138.449719,37.15256],[138.449277,37.152493],[138.447933,37.151651],[138.446833,37.150865],[138.446588,37.150517],[138.446513,37.149963],[138.446848,37.147012],[138.448598,37.146138],[138.448037,37.145353],[138.447612,37.14425],[138.446617,37.143236],[138.445641,37.142545],[138.445318,37.142438],[138.444958,37.142485],[138.444029,37.143268],[138.443552,37.143484],[138.443332,37.14343],[138.442684,37.142851],[138.441646,37.142472],[138.44166,37.142125],[138.442581,37.141219],[138.442648,37.140231],[138.442919,37.139331],[138.442906,37.139234],[138.441902,37.139066],[138.441558,37.139292],[138.441405,37.139657],[138.4415,37.1404],[138.44136,37.140629],[138.441038,37.140689],[138.440808,37.140482],[138.440535,37.139178],[138.440597,37.138619],[138.440889,37.138203],[138.441351,37.138104],[138.442262,37.138212],[138.44418,37.138687],[138.445432,37.138839],[138.445782,37.138734],[138.445859,37.13858],[138.445699,37.138354],[138.443973,37.137723],[138.442615,37.136959],[138.442662,37.13678],[138.443126,37.136277],[138.445185,37.136051],[138.445958,37.136216],[138.446969,37.136784],[138.447306,37.136849],[138.447787,37.136625],[138.448455,37.13588],[138.448934,37.135713],[138.449506,37.135816],[138.450634,37.136367],[138.4516,37.137072],[138.453034,37.138906],[138.453381,37.139072],[138.453822,37.13912],[138.454496,37.139006],[138.456118,37.137745],[138.456137,37.136763],[138.456433,37.136546],[138.456716,37.136558],[138.456988,37.136792],[138.457317,37.137442],[138.457613,37.138543],[138.458067,37.139295],[138.458063,37.141103],[138.457139,37.141912],[138.457021,37.142172],[138.457586,37.142908]]],[[[138.372086,37.184768],[138.371056,37.185758],[138.370798,37.185901],[138.368965,37.186157],[138.366446,37.186291],[138.366491,37.185481],[138.366224,37.184881],[138.365869,37.184414],[138.365496,37.18446],[138.364721,37.184915],[138.364003,37.185156],[138.363827,37.184409],[138.363307,37.183817],[138.362571,37.183138],[138.362302,37.182619],[138.362294,37.18189],[138.362678,37.181047],[138.362708,37.179684],[138.36251,37.178585],[138.362109,37.177496],[138.362018,37.176238],[138.362041,37.174604],[138.362415,37.173559],[138.36292,37.173111],[138.363635,37.172938],[138.365968,37.17282],[138.366509,37.172981],[138.367433,37.173596],[138.368084,37.173827],[138.36859,37.173838],[138.369256,37.173596],[138.370307,37.172971],[138.370819,37.172834],[138.371289,37.172898],[138.371769,37.173179],[138.372156,37.173215],[138.3726,37.173049],[138.372917,37.173151],[138.373118,37.173682],[138.37323,37.174846],[138.3735,37.175338],[138.374144,37.175744],[138.374695,37.176222],[138.375063,37.176784],[138.375188,37.17757],[138.375207,37.178003],[138.375587,37.178228],[138.377485,37.178499],[138.377781,37.178735],[138.37796,37.179415],[138.37853,37.180521],[138.378462,37.18102],[138.378312,37.181435],[138.377792,37.181829],[138.377546,37.18212],[138.377581,37.18258],[138.37769,37.182839],[138.37791,37.182804],[138.378713,37.182038],[138.379034,37.182032],[138.379418,37.182162],[138.38051,37.182794],[138.380784,37.183191],[138.380715,37.184203],[138.380543,37.184294],[138.378617,37.184832],[138.377325,37.1851],[138.376128,37.185047],[138.375738,37.185092],[138.375299,37.185569],[138.375044,37.185644],[138.374906,37.185236],[138.374912,37.184561],[138.374785,37.183842],[138.374732,37.182949],[138.37456,37.18254],[138.374183,37.182235],[138.374013,37.181785],[138.373803,37.181497],[138.373487,37.181355],[138.373277,37.18158],[138.373409,37.182164],[138.373694,37.182697],[138.373632,37.183992],[138.373514,37.184489],[138.372505,37.184359],[138.372353,37.184382],[138.372086,37.184768]]]]}}]}
