{"type":"FeatureCollection","features":[{"type":"Feature","properties":{"potaRef":"JP-1647","nameJa":"Otaki daisen","nameEn":"Otaki Daisen Prefectural Nature Park","authority":"環境省 生物多様性「見える化」マップ","boundaryStatus":"全国GIS候補・公開前検証待ち","boundarySource":"環境省 生物多様性「見える化」マップの自然公園区域を、POTA代表座標で一意に空間照合して加工","boundaryScaleNote":"区域は概要データであり、正確性は保証されない。POTA運用可否は公式情報で最終確認すること。","candidateMethod":"POTA representative point inside one public natural-park area","sourceParkKind":"都道府県立自然公園","sourceName":"Otaki daisen","sourceFeatureCount":1,"cautionMeters":75},"geometry":{"type":"MultiPolygon","coordinates":[[[[134.089754,34.140066],[134.089496,34.140101],[134.089133,34.140249],[134.088198,34.140038],[134.087868,34.140036],[134.087444,34.140107],[134.087086,34.140079],[134.086544,34.139868],[134.085628,34.139276],[134.084806,34.138933],[134.083866,34.138624],[134.08268,34.138358],[134.08123,34.137817],[134.080779,34.137783],[134.079929,34.137871],[134.079206,34.137756],[134.077564,34.138077],[134.077178,34.138231],[134.076521,34.137529],[134.076124,34.137285],[134.075651,34.137098],[134.075589,34.137006],[134.075611,34.136826],[134.076159,34.136396],[134.076324,34.136027],[134.076085,34.135848],[134.075991,34.135692],[134.075824,34.135596],[134.075518,34.135144],[134.075518,34.134911],[134.075712,34.134435],[134.07565,34.133818],[134.075791,34.133634],[134.076221,34.133458],[134.076373,34.133226],[134.076366,34.132983],[134.076216,34.132782],[134.075918,34.132655],[134.075798,34.132516],[134.075776,34.132319],[134.075871,34.132132],[134.075867,34.131721],[134.075587,34.131145],[134.075629,34.130606],[134.075585,34.130449],[134.075081,34.130004],[134.074969,34.129801],[134.074849,34.129274],[134.074441,34.128844],[134.074336,34.128589],[134.074326,34.128184],[134.074228,34.127557],[134.074464,34.126529],[134.074412,34.126394],[134.074133,34.126126],[134.074074,34.125961],[134.074316,34.125324],[134.07429,34.124601],[134.07419,34.124239],[134.073735,34.12385],[134.07364,34.123466],[134.07368,34.123302],[134.07385,34.123061],[134.074429,34.12253],[134.074503,34.121736],[134.074381,34.121378],[134.074038,34.121],[134.074001,34.120576],[134.073535,34.120229],[134.073271,34.119142],[134.073031,34.118804],[134.072402,34.118381],[134.072146,34.117929],[134.071783,34.117664],[134.071638,34.117478],[134.071427,34.117065],[134.071393,34.116792],[134.071247,34.116566],[134.071021,34.116361],[134.070552,34.115258],[134.070198,34.115003],[134.069859,34.114919],[134.069286,34.114885],[134.06874,34.114692],[134.06824,34.114428],[134.068032,34.114231],[134.06733,34.114017],[134.067102,34.113975],[134.066753,34.11402],[134.066369,34.114167],[134.065967,34.114169],[134.065757,34.114112],[134.065108,34.113795],[134.064423,34.113304],[134.063233,34.112913],[134.062971,34.112897],[134.062493,34.112984],[134.062707,34.113195],[134.062769,34.113885],[134.062738,34.114045],[134.062961,34.114624],[134.062975,34.115167],[134.063027,34.115365],[134.063289,34.115745],[134.063444,34.115832],[134.063485,34.115974],[134.062986,34.115963],[134.062838,34.11602],[134.061931,34.116109],[134.061402,34.116011],[134.061239,34.115945],[134.061153,34.115823],[134.060273,34.115592],[134.059,34.115732],[134.058605,34.115572],[134.058293,34.115546],[134.058201,34.115446],[134.058365,34.115259],[134.058727,34.114599],[134.058991,34.113716],[134.059652,34.112791],[134.05994,34.112108],[134.060078,34.11195],[134.061253,34.111212],[134.061502,34.111176],[134.061882,34.1113],[134.062451,34.111627],[134.065161,34.112371],[134.06699,34.112957],[134.067437,34.11298],[134.067755,34.112895],[134.069103,34.112264],[134.069263,34.112247],[134.069442,34.112276],[134.070607,34.112754],[134.070946,34.112935],[134.071081,34.113126],[134.071183,34.113746],[134.071623,34.114941],[134.071895,34.115376],[134.072066,34.115754],[134.072275,34.116031],[134.072636,34.116279],[134.072802,34.116335],[134.073913,34.116548],[134.07472,34.116998],[134.075484,34.11757],[134.076279,34.118463],[134.076799,34.119129],[134.077959,34.119703],[134.078475,34.120196],[134.079188,34.121031],[134.079556,34.121137],[134.080543,34.12117],[134.081642,34.121281],[134.081945,34.120797],[134.082257,34.120498],[134.082629,34.120311],[134.083085,34.120256],[134.083542,34.120138],[134.084287,34.119335],[134.084545,34.11925],[134.085864,34.119197],[134.086499,34.118964],[134.087916,34.117894],[134.088309,34.117384],[134.088921,34.117064],[134.090334,34.116687],[134.090965,34.116298],[134.091147,34.116152],[134.09142,34.115814],[134.091553,34.115433],[134.091788,34.115091],[134.091976,34.114938],[134.092134,34.114876],[134.092443,34.1148],[134.093722,34.114649],[134.094484,34.114591],[134.095572,34.11462],[134.095989,34.114536],[134.096391,34.114581],[134.096876,34.11478],[134.09703,34.114891],[134.097899,34.114703],[134.099264,34.114805],[134.100041,34.114712],[134.100684,34.114811],[134.100965,34.114934],[134.101212,34.115142],[134.101423,34.115211],[134.101721,34.115164],[134.102392,34.114924],[134.102654,34.114927],[134.102977,34.115009],[134.104462,34.11603],[134.105406,34.116824],[134.105875,34.117088],[134.106113,34.117166],[134.107208,34.117226],[134.108261,34.117446],[134.108876,34.117314],[134.109404,34.117314],[134.10974,34.117396],[134.110536,34.117798],[134.110852,34.117881],[134.11141,34.117866],[134.112277,34.117987],[134.113587,34.11789],[134.114083,34.118024],[134.114627,34.118266],[134.115139,34.118349],[134.115431,34.118325],[134.116122,34.118149],[134.116368,34.118259],[134.116655,34.118463],[134.117535,34.119217],[134.118133,34.119617],[134.118569,34.119832],[134.119262,34.120274],[134.119498,34.120333],[134.120055,34.12028],[134.120581,34.120087],[134.121954,34.119103],[134.1222,34.118773],[134.122311,34.118773],[134.123049,34.11925],[134.123628,34.119765],[134.124314,34.120529],[134.124481,34.120868],[134.12531,34.121719],[134.126246,34.122392],[134.126467,34.122687],[134.126843,34.123041],[134.127058,34.123157],[134.127505,34.123239],[134.127916,34.123249],[134.12868,34.123389],[134.129658,34.123655],[134.129889,34.12378],[134.128882,34.124342],[134.128134,34.124893],[134.127962,34.125589],[134.127082,34.125906],[134.126789,34.126336],[134.126618,34.12646],[134.126539,34.126484],[134.126406,34.126201],[134.126131,34.125997],[134.125805,34.125809],[134.125291,34.125669],[134.124367,34.126352],[134.123973,34.127084],[134.123603,34.127482],[134.123181,34.127707],[134.121421,34.128461],[134.120613,34.128687],[134.120389,34.12865],[134.120315,34.128579],[134.120312,34.128218],[134.119895,34.128316],[134.119517,34.128951],[134.118941,34.129303],[134.118557,34.129731],[134.118356,34.12982],[134.118282,34.129927],[134.117898,34.130015],[134.117522,34.130392],[134.117347,34.130502],[134.116175,34.130873],[134.115875,34.131984],[134.115443,34.132575],[134.114877,34.132866],[134.114147,34.132871],[134.113441,34.133165],[134.112675,34.133614],[134.111684,34.133913],[134.11137,34.133882],[134.111021,34.133626],[134.110876,34.133556],[134.110732,34.133553],[134.110332,34.133774],[134.109364,34.134005],[134.108871,34.134361],[134.107337,34.134654],[134.10639,34.135097],[134.105964,34.135604],[134.10519,34.13573],[134.105093,34.13579],[134.104302,34.13652],[134.104084,34.136782],[134.1034,34.137132],[134.102761,34.137578],[134.101729,34.137642],[134.099625,34.138199],[134.099449,34.138199],[134.098228,34.137925],[134.097763,34.137914],[134.097075,34.138078],[134.095409,34.138246],[134.094479,34.138751],[134.092492,34.139274],[134.090896,34.139944],[134.090409,34.13995],[134.089754,34.140066]]],[[[134.057606,34.12571],[134.056393,34.125937],[134.054931,34.126051],[134.054824,34.125652],[134.053929,34.124903],[134.053825,34.124757],[134.05345,34.124585],[134.052805,34.123023],[134.05275,34.122779],[134.052761,34.122173],[134.052516,34.120948],[134.052387,34.120842],[134.052176,34.120805],[134.051964,34.120874],[134.051717,34.121019],[134.051516,34.121224],[134.050745,34.121575],[134.050469,34.121606],[134.049568,34.121503],[134.049368,34.121592],[134.049185,34.121971],[134.048954,34.121839],[134.048453,34.121],[134.04825,34.120766],[134.047438,34.12005],[134.046768,34.119574],[134.046596,34.120029],[134.04642,34.120312],[134.046128,34.120622],[134.046033,34.12057],[134.045737,34.120132],[134.045221,34.119785],[134.044714,34.119492],[134.044428,34.119402],[134.043996,34.119358],[134.043857,34.119154],[134.043735,34.118564],[134.043698,34.118489],[134.043522,34.118368],[134.042924,34.118226],[134.042842,34.118249],[134.042613,34.118508],[134.042401,34.118471],[134.042369,34.117433],[134.042341,34.117297],[134.042267,34.117237],[134.041329,34.117308],[134.040704,34.117182],[134.040243,34.116987],[134.039875,34.11692],[134.039618,34.116981],[134.039435,34.117111],[134.038966,34.117241],[134.038571,34.117288],[134.037856,34.117563],[134.036238,34.117645],[134.036008,34.117706],[134.035401,34.117633],[134.035125,34.117437],[134.035115,34.117346],[134.035333,34.116899],[134.035305,34.116747],[134.035204,34.116672],[134.034744,34.116704],[134.034615,34.11653],[134.034704,34.115939],[134.034648,34.115773],[134.034482,34.115713],[134.034271,34.115736],[134.03383,34.115897],[134.033509,34.115959],[134.032622,34.115931],[134.032544,34.115867],[134.032596,34.115534],[134.03276,34.115058],[134.032614,34.114779],[134.032924,34.114479],[134.033119,34.114142],[134.033283,34.113958],[134.033635,34.113661],[134.034989,34.113588],[134.035073,34.113988],[134.035227,34.114261],[134.035154,34.114605],[134.035199,34.115033],[134.035689,34.11475],[134.035946,34.114798],[134.036241,34.114707],[134.036607,34.114374],[134.036872,34.114276],[134.036931,34.114684],[134.037173,34.115456],[134.037433,34.115187],[134.037586,34.11501],[134.037763,34.114476],[134.038274,34.113406],[134.038462,34.113137],[134.038797,34.112897],[134.03839,34.112771],[134.038028,34.112724],[134.037541,34.111976],[134.037752,34.111972],[134.037723,34.111506],[134.037759,34.111205],[134.037618,34.111183],[134.03733,34.110999],[134.037427,34.110443],[134.03702,34.110314],[134.036667,34.110087],[134.03653,34.109936],[134.036587,34.109788],[134.036707,34.10973],[134.036241,34.109625],[134.035807,34.109611],[134.035543,34.109405],[134.035129,34.109248],[134.034714,34.109177],[134.03465,34.109047],[134.034463,34.108896],[134.034125,34.108798],[134.033958,34.108809],[134.033911,34.108719],[134.033789,34.108686],[134.033721,34.108615],[134.033807,34.107831],[134.03393,34.107704],[134.033742,34.107484],[134.03372,34.107313],[134.033647,34.107196],[134.033418,34.107012],[134.033128,34.106613],[134.033094,34.106444],[134.032981,34.106398],[134.033049,34.106307],[134.03301,34.106114],[134.032827,34.106012],[134.032521,34.106028],[134.032454,34.105938],[134.032285,34.105858],[134.032129,34.105542],[134.031738,34.105354],[134.031495,34.105175],[134.031416,34.105158],[134.030781,34.105364],[134.030704,34.105228],[134.030428,34.105265],[134.030185,34.105342],[134.029999,34.10558],[134.029782,34.10562],[134.028867,34.10561],[134.028446,34.10571],[134.028231,34.105633],[134.027708,34.105615],[134.027129,34.105974],[134.026946,34.105775],[134.026736,34.105759],[134.026623,34.105822],[134.02654,34.106028],[134.026246,34.106281],[134.026033,34.106123],[134.025764,34.10583],[134.025583,34.105538],[134.025485,34.105286],[134.02568,34.105048],[134.025765,34.104818],[134.025343,34.104324],[134.025091,34.104144],[134.024715,34.103566],[134.024704,34.103466],[134.02476,34.103405],[134.024755,34.103096],[134.024691,34.10299],[134.024612,34.10295],[134.024422,34.102984],[134.02369,34.102964],[134.023581,34.103024],[134.023188,34.103097],[134.023113,34.103072],[134.022852,34.102781],[134.022789,34.102531],[134.022582,34.102228],[134.022692,34.101799],[134.022748,34.101729],[134.022578,34.101638],[134.02261,34.101483],[134.022242,34.101066],[134.022322,34.100886],[134.022622,34.100702],[134.022671,34.100603],[134.022365,34.100434],[134.022257,34.10047],[134.022134,34.100405],[134.021871,34.100439],[134.021499,34.100583],[134.021264,34.100599],[134.020995,34.100419],[134.020339,34.099742],[134.019471,34.099119],[134.019165,34.098982],[134.018674,34.099033],[134.018503,34.098972],[134.018428,34.098792],[134.018583,34.098427],[134.018745,34.097682],[134.018403,34.097515],[134.018019,34.097422],[134.017402,34.097394],[134.017099,34.097323],[134.017011,34.097373],[134.016696,34.097025],[134.016697,34.096524],[134.016629,34.096444],[134.016448,34.096351],[134.01585,34.096218],[134.015218,34.095869],[134.01495,34.095625],[134.014678,34.095118],[134.014327,34.094799],[134.014127,34.094687],[134.01365,34.094582],[134.013342,34.094346],[134.012781,34.094144],[134.011276,34.094224],[134.010525,34.09405],[134.010312,34.09386],[134.009896,34.093819],[134.00969,34.094088],[134.009658,34.094245],[134.009487,34.094261],[134.009337,34.094162],[134.008761,34.09415],[134.008655,34.094192],[134.008601,34.09423],[134.008634,34.094298],[134.008407,34.094464],[134.008266,34.094387],[134.008116,34.094441],[134.007621,34.094756],[134.006193,34.095446],[134.005784,34.095949],[134.005649,34.096051],[134.005441,34.096025],[134.005323,34.096127],[134.005247,34.09613],[134.005135,34.096257],[134.004721,34.096426],[134.004427,34.096459],[134.00421,34.096693],[134.003823,34.096807],[134.003715,34.096743],[134.003541,34.096784],[134.003347,34.096913],[134.003241,34.09693],[134.003159,34.097046],[134.00303,34.097059],[134.002549,34.097279],[134.002145,34.097732],[134.001921,34.097847],[134.001535,34.098253],[134.001316,34.098141],[134.000963,34.098157],[134.000865,34.098119],[134.000672,34.098376],[134.000536,34.098447],[134.000015,34.097965],[133.99965,34.097396],[133.999552,34.097149],[133.999498,34.096881],[133.999599,34.096332],[133.999939,34.095701],[134.000166,34.095814],[134.000291,34.09594],[134.001643,34.095799],[134.00202,34.095705],[134.002337,34.095715],[134.002304,34.095529],[134.002337,34.095387],[134.003235,34.095084],[134.003246,34.095032],[134.003167,34.094887],[134.002984,34.094747],[134.002551,34.094074],[134.00225,34.0939],[134.002037,34.093655],[134.001684,34.09337],[134.001675,34.093039],[134.001834,34.092953],[134.001917,34.092737],[134.00192,34.092562],[134.001747,34.092335],[134.001718,34.092116],[134.001901,34.091904],[134.001937,34.091788],[134.002138,34.091614],[134.002132,34.091434],[134.002239,34.09133],[134.002225,34.091249],[134.002298,34.091136],[134.002274,34.09092],[134.002333,34.090864],[134.002162,34.090304],[134.002205,34.089982],[134.002133,34.089676],[134.00225,34.089346],[134.002197,34.08916],[134.001753,34.088382],[134.001636,34.088322],[134.001543,34.08814],[134.001571,34.087872],[134.001439,34.08764],[134.001398,34.087322],[134.001494,34.087162],[134.001373,34.086787],[134.001404,34.086598],[134.001177,34.086535],[134.000864,34.086361],[134.00076,34.086199],[134.000777,34.086112],[134.000441,34.086016],[134.000404,34.085888],[134.000186,34.085678],[134.000078,34.085661],[133.999731,34.085406],[133.999404,34.085078],[133.999114,34.084877],[133.999132,34.084792],[133.999023,34.084743],[133.998996,34.084435],[133.998517,34.084043],[133.998327,34.084162],[133.998089,34.083841],[133.997807,34.083833],[133.997194,34.084165],[133.996929,34.084487],[133.996713,34.084614],[133.996483,34.084992],[133.9965,34.085444],[133.996814,34.085806],[133.996779,34.086098],[133.99672,34.086221],[133.996356,34.086569],[133.996308,34.086834],[133.996421,34.087111],[133.995998,34.087453],[133.995982,34.087561],[133.995914,34.087581],[133.995804,34.087755],[133.995807,34.088046],[133.995507,34.088546],[133.995299,34.088773],[133.995291,34.088939],[133.995448,34.089145],[133.995501,34.08938],[133.995381,34.089508],[133.994998,34.089612],[133.994601,34.089797],[133.994486,34.089971],[133.994672,34.090358],[133.994656,34.090744],[133.994369,34.091149],[133.994394,34.091393],[133.9943,34.091799],[133.993805,34.092761],[133.993868,34.093074],[133.993816,34.093284],[133.993667,34.093529],[133.993674,34.093683],[133.993605,34.093879],[133.993405,34.094081],[133.993396,34.094271],[133.993051,34.094327],[133.992902,34.094269],[133.992758,34.093824],[133.992839,34.093475],[133.992809,34.09343],[133.992615,34.093429],[133.992285,34.093549],[133.991621,34.093393],[133.991458,34.093409],[133.991033,34.093694],[133.990724,34.093972],[133.989809,34.094342],[133.989606,34.094356],[133.989274,34.094735],[133.989177,34.094702],[133.989111,34.09476],[133.989137,34.094814],[133.989017,34.095068],[133.98892,34.095516],[133.988502,34.09603],[133.988382,34.096034],[133.988465,34.096378],[133.988178,34.096327],[133.987534,34.096383],[133.98735,34.096189],[133.987195,34.096107],[133.986895,34.095569],[133.98653,34.095233],[133.986176,34.094822],[133.986175,34.094431],[133.987038,34.093997],[133.987621,34.093868],[133.987308,34.093326],[133.988075,34.093398],[133.988421,34.093303],[133.988897,34.09351],[133.989166,34.09396],[133.989193,34.0932],[133.989401,34.09299],[133.989614,34.092463],[133.989715,34.09202],[133.989691,34.091533],[133.989731,34.091115],[133.989561,34.090936],[133.989502,34.090732],[133.989524,34.090476],[133.989468,34.090312],[133.989485,34.090142],[133.989712,34.089748],[133.989715,34.08956],[133.989413,34.089447],[133.989202,34.089169],[133.989022,34.08902],[133.988809,34.088927],[133.988612,34.088926],[133.988227,34.088647],[133.988199,34.088533],[133.987983,34.088355],[133.987797,34.08831],[133.987177,34.08794],[133.986943,34.087865],[133.986721,34.087691],[133.986568,34.087429],[133.986266,34.087335],[133.986139,34.087161],[133.985789,34.086947],[133.985673,34.086732],[133.985527,34.08664],[133.985312,34.086586],[133.984968,34.086814],[133.984964,34.086586],[133.984885,34.086403],[133.985287,34.085916],[133.985105,34.085702],[133.985252,34.085499],[133.985539,34.085328],[133.985502,34.085205],[133.98537,34.085055],[133.985399,34.084963],[133.984455,34.084498],[133.984393,34.084751],[133.984276,34.084778],[133.983853,34.084719],[133.982228,34.084335],[133.982393,34.08428],[133.981348,34.083418],[133.981294,34.083461],[133.980881,34.083066],[133.980649,34.083142],[133.980386,34.082893],[133.980277,34.082681],[133.980008,34.082371],[133.979524,34.081909],[133.979315,34.081951],[133.979039,34.081933],[133.978261,34.08224],[133.978251,34.082141],[133.978433,34.082013],[133.979095,34.081624],[133.979247,34.081592],[133.979539,34.081421],[133.979762,34.081232],[133.980132,34.080696],[133.980192,34.080461],[133.980298,34.080286],[133.980643,34.08006],[133.980877,34.079726],[133.981099,34.07915],[133.981326,34.078852],[133.981563,34.078313],[133.981007,34.077346],[133.981647,34.077538],[133.982107,34.077245],[133.982575,34.076866],[133.983152,34.076559],[133.983362,34.076317],[133.983641,34.076207],[133.983777,34.076314],[133.984399,34.076522],[133.985071,34.077004],[133.985622,34.07731],[133.985831,34.077377],[133.986224,34.076801],[133.987305,34.07603],[133.987499,34.075843],[133.98765,34.075476],[133.988095,34.075421],[133.988925,34.074844],[133.989274,34.07473],[133.989877,34.074633],[133.990002,34.074553],[133.990076,34.074298],[133.990361,34.073814],[133.990977,34.073386],[133.991464,34.073177],[133.991918,34.0732],[133.992943,34.073048],[133.993452,34.0729],[133.993968,34.072638],[133.994269,34.072823],[133.995294,34.073138],[133.995654,34.073311],[133.996315,34.073802],[133.996644,34.073931],[133.997749,34.07412],[134.000165,34.074956],[134.000752,34.07511],[134.001504,34.075225],[134.001869,34.075785],[134.002455,34.076479],[134.002487,34.077218],[134.002424,34.077984],[134.00245,34.078144],[134.002651,34.078345],[134.00274,34.07851],[134.002493,34.079547],[134.002309,34.07999],[134.001396,34.080016],[134.001024,34.080268],[134.000811,34.081158],[134.000235,34.081504],[133.999994,34.081807],[134.000056,34.08202],[134.000273,34.082338],[134.000893,34.082369],[134.001306,34.082319],[134.001372,34.082543],[134.003212,34.081964],[134.004618,34.083053],[134.005133,34.08333],[134.005299,34.083484],[134.005521,34.084133],[134.00564,34.084339],[134.006495,34.084756],[134.00705,34.084833],[134.007581,34.085193],[134.008686,34.085692],[134.008931,34.085849],[134.009339,34.086315],[134.010021,34.086687],[134.010429,34.086768],[134.010829,34.086721],[134.011847,34.086396],[134.012171,34.086348],[134.01273,34.086389],[134.013181,34.086518],[134.013924,34.086606],[134.015127,34.086518],[134.016128,34.086376],[134.016437,34.086192],[134.017323,34.085949],[134.018041,34.085651],[134.0186,34.085237],[134.018851,34.085176],[134.019636,34.08477],[134.020003,34.084655],[134.020855,34.084499],[134.021782,34.084472],[134.023602,34.084844],[134.024529,34.08479],[134.026257,34.085088],[134.026888,34.086262],[134.027239,34.086637],[134.027642,34.086924],[134.027732,34.087212],[134.027696,34.087332],[134.026853,34.087809],[134.026697,34.087967],[134.026304,34.088874],[134.025661,34.089725],[134.025451,34.090103],[134.025356,34.090768],[134.025471,34.091647],[134.025423,34.09198],[134.025477,34.092104],[134.025837,34.092183],[134.026412,34.092177],[134.026778,34.092262],[134.026934,34.092335],[134.027422,34.092752],[134.028228,34.093208],[134.028905,34.094093],[134.028987,34.094296],[134.028905,34.094792],[134.028973,34.094933],[134.029149,34.095034],[134.029529,34.09513],[134.029589,34.095198],[134.029793,34.096015],[134.030138,34.096308],[134.030382,34.096816],[134.030775,34.097064],[134.030958,34.097391],[134.031148,34.097565],[134.031269,34.097605],[134.031974,34.097576],[134.032475,34.097824],[134.032875,34.097943],[134.033945,34.098005],[134.034643,34.098501],[134.03486,34.098585],[134.035151,34.098551],[134.035598,34.098405],[134.035768,34.098405],[134.036492,34.098743],[134.036757,34.098749],[134.036912,34.098839],[134.037325,34.099346],[134.037542,34.099538],[134.038396,34.099803],[134.03888,34.100196],[134.039519,34.100493],[134.04004,34.100865],[134.040258,34.10115],[134.040617,34.101881],[134.040705,34.102169],[134.040842,34.103035],[134.04079,34.103527],[134.040872,34.103937],[134.041795,34.105598],[134.041792,34.106311],[134.042013,34.107093],[134.042076,34.108325],[134.042246,34.108991],[134.04225,34.10932],[134.042132,34.109782],[134.042128,34.110159],[134.042232,34.110324],[134.042738,34.11057],[134.043281,34.111026],[134.04368,34.111553],[134.043986,34.112458],[134.044131,34.112689],[134.044356,34.112875],[134.044519,34.113156],[134.044526,34.113378],[134.044474,34.113576],[134.044519,34.11372],[134.045771,34.113894],[134.046155,34.114116],[134.046417,34.114439],[134.046802,34.114718],[134.047182,34.11485],[134.047847,34.114967],[134.048013,34.115122],[134.048405,34.115683],[134.049503,34.117029],[134.049707,34.117437],[134.049861,34.117599],[134.051274,34.118141],[134.051688,34.11822],[134.052189,34.118209],[134.053138,34.118282],[134.053463,34.118232],[134.053525,34.118181],[134.053784,34.117373],[134.053954,34.11719],[134.054179,34.117074],[134.055163,34.117486],[134.05562,34.117486],[134.057058,34.11771],[134.057461,34.117943],[134.057643,34.118298],[134.05783,34.118841],[134.057763,34.119144],[134.057782,34.119254],[134.058233,34.119526],[134.058651,34.119546],[134.059054,34.119409],[134.05991,34.119407],[134.06085,34.119455],[134.061136,34.119599],[134.061442,34.120066],[134.061912,34.122092],[134.062052,34.122525],[134.062384,34.122878],[134.062664,34.123073],[134.063506,34.122764],[134.064444,34.12394],[134.064873,34.12415],[134.065243,34.124857],[134.065217,34.124927],[134.064836,34.124973],[134.063524,34.125267],[134.062577,34.125585],[134.06187,34.125381],[134.061317,34.125404],[134.059895,34.125633],[134.059634,34.12571],[134.059078,34.12599],[134.058954,34.125938],[134.058962,34.125714],[134.058839,34.125636],[134.058121,34.1256],[134.057606,34.12571]]],[[[133.935578,34.132887],[133.935218,34.132903],[133.935142,34.132798],[133.934646,34.132761],[133.934021,34.132603],[133.933962,34.132479],[133.933612,34.132313],[133.933238,34.13222],[133.932768,34.131803],[133.932682,34.131663],[133.931758,34.131581],[133.931727,34.131219],[133.931865,34.130773],[133.931696,34.130605],[133.931804,34.130414],[133.932272,34.130134],[133.932497,34.12981],[133.93343,34.129333],[133.933599,34.12901],[133.933863,34.128788],[133.933869,34.12875],[133.933215,34.128553],[133.932906,34.128387],[133.932702,34.128398],[133.932422,34.128312],[133.932514,34.128078],[133.932494,34.127796],[133.932665,34.127547],[133.933314,34.127286],[133.933742,34.127015],[133.933783,34.12691],[133.933554,34.126797],[133.933271,34.126743],[133.933187,34.126483],[133.932848,34.126618],[133.932775,34.1266],[133.932509,34.126344],[133.93224,34.126406],[133.93174,34.126381],[133.931392,34.126489],[133.931221,34.126729],[133.930851,34.126999],[133.930173,34.127308],[133.930107,34.127327],[133.930087,34.127287],[133.930066,34.126236],[133.929985,34.125832],[133.929874,34.125601],[133.930544,34.125249],[133.931268,34.125034],[133.931685,34.124708],[133.932244,34.124395],[133.932421,34.124359],[133.932914,34.124119],[133.932245,34.123362],[133.932393,34.122898],[133.932967,34.122039],[133.933068,34.121326],[133.932162,34.121496],[133.931819,34.121712],[133.931672,34.121917],[133.931544,34.121561],[133.930909,34.121155],[133.930428,34.120939],[133.929795,34.120873],[133.929772,34.119714],[133.929647,34.118435],[133.929347,34.118043],[133.928708,34.117669],[133.928098,34.11803],[133.927979,34.118011],[133.927782,34.117674],[133.927399,34.117431],[133.927203,34.117434],[133.927,34.117556],[133.926805,34.117538],[133.926575,34.117413],[133.92637,34.117366],[133.92638,34.117607],[133.926287,34.117671],[133.926134,34.117617],[133.925178,34.116702],[133.924248,34.116057],[133.923947,34.114761],[133.926152,34.114847],[133.927821,34.115194],[133.928327,34.115217],[133.929625,34.11516],[133.929984,34.115201],[133.930664,34.115436],[133.930969,34.115589],[133.931404,34.115676],[133.931741,34.115944],[133.931967,34.116011],[133.932845,34.115802],[133.933205,34.115797],[133.934657,34.115422],[133.935051,34.115409],[133.935533,34.115248],[133.935871,34.115215],[133.936466,34.115288],[133.937266,34.115289],[133.938183,34.115389],[133.939196,34.115423],[133.939655,34.115054],[133.939767,34.114894],[133.939652,34.114382],[133.939651,34.114154],[133.939363,34.112904],[133.939122,34.112231],[133.939096,34.112043],[133.939167,34.111544],[133.939609,34.111416],[133.940002,34.111236],[133.940141,34.111604],[133.940094,34.11202],[133.939917,34.112622],[133.940265,34.112823],[133.940734,34.112886],[133.941297,34.112745],[133.941155,34.112557],[133.940937,34.112423],[133.941256,34.112318],[133.942459,34.112393],[133.94341,34.112173],[133.944154,34.111677],[133.944803,34.111514],[133.945091,34.111251],[133.945363,34.111133],[133.945436,34.111054],[133.946126,34.110869],[133.946716,34.110469],[133.947801,34.110334],[133.948296,34.110123],[133.948667,34.11005],[133.94909,34.11011],[133.949269,34.11019],[133.949517,34.110437],[133.94957,34.110604],[133.950324,34.11088],[133.950664,34.111104],[133.951062,34.111494],[133.951861,34.110744],[133.952383,34.110707],[133.952501,34.110752],[133.952642,34.110889],[133.952884,34.110965],[133.95278,34.111186],[133.952816,34.111376],[133.953059,34.111872],[133.953293,34.11213],[133.95362,34.112376],[133.95376,34.112686],[133.954239,34.113294],[133.953821,34.113473],[133.95345,34.113816],[133.952437,34.114276],[133.951914,34.114221],[133.95179,34.114161],[133.951242,34.114356],[133.950642,34.114442],[133.951018,34.114658],[133.951108,34.114796],[133.951106,34.114925],[133.951038,34.114987],[133.951047,34.115092],[133.951176,34.115133],[133.951183,34.115226],[133.950815,34.115819],[133.950352,34.116268],[133.950353,34.116602],[133.950767,34.116895],[133.951046,34.117269],[133.951655,34.117825],[133.952274,34.118153],[133.952523,34.118215],[133.95257,34.11833],[133.952966,34.118507],[133.953176,34.118679],[133.954193,34.11849],[133.954595,34.118877],[133.955097,34.119139],[133.955291,34.119332],[133.955605,34.119093],[133.956089,34.119104],[133.956922,34.118836],[133.957009,34.118959],[133.957021,34.119088],[133.957143,34.119203],[133.95743,34.119298],[133.957491,34.119348],[133.95753,34.119486],[133.957409,34.119548],[133.957259,34.119958],[133.956951,34.120049],[133.956863,34.120279],[133.956934,34.120442],[133.956787,34.120688],[133.9572,34.120949],[133.957532,34.121057],[133.958051,34.121312],[133.958179,34.121395],[133.958138,34.121492],[133.958224,34.121577],[133.958812,34.121599],[133.95918,34.121982],[133.959756,34.122412],[133.959855,34.122587],[133.959878,34.122789],[133.960055,34.122957],[133.96005,34.123239],[133.960332,34.123624],[133.960341,34.123845],[133.960044,34.12402],[133.959839,34.124215],[133.959552,34.124261],[133.959111,34.12448],[133.95857,34.125085],[133.958399,34.125433],[133.958119,34.12578],[133.957863,34.125968],[133.957767,34.125949],[133.957614,34.125799],[133.957435,34.125356],[133.957283,34.1253],[133.956808,34.125389],[133.956401,34.125569],[133.956279,34.125244],[133.956266,34.125061],[133.956182,34.12496],[133.956176,34.124826],[133.956011,34.124449],[133.955847,34.12486],[133.955685,34.125129],[133.955495,34.125657],[133.955319,34.125954],[133.954291,34.127328],[133.954234,34.127584],[133.953904,34.128073],[133.953666,34.128956],[133.953285,34.129418],[133.953168,34.12963],[133.953031,34.129711],[133.952915,34.129886],[133.952901,34.130615],[133.952816,34.130839],[133.952722,34.130946],[133.952634,34.130788],[133.952516,34.130706],[133.952329,34.130712],[133.952227,34.130663],[133.952143,34.130537],[133.952163,34.130441],[133.952067,34.130524],[133.951947,34.130335],[133.95103,34.129794],[133.950302,34.129444],[133.950103,34.129295],[133.950022,34.129121],[133.949965,34.129104],[133.949946,34.12894],[133.949807,34.128722],[133.949971,34.128313],[133.949799,34.128097],[133.949661,34.128018],[133.949546,34.127611],[133.949408,34.127532],[133.949338,34.127423],[133.948927,34.127331],[133.948766,34.127054],[133.948741,34.12684],[133.948773,34.126753],[133.948652,34.126335],[133.948738,34.125978],[133.948707,34.125708],[133.948797,34.125503],[133.948481,34.12522],[133.94825,34.125353],[133.948296,34.12546],[133.948238,34.125616],[133.948232,34.127113],[133.948553,34.128044],[133.948107,34.128384],[133.94777,34.128517],[133.946848,34.12863],[133.946684,34.129046],[133.94678,34.129135],[133.945645,34.129365],[133.945547,34.129279],[133.945087,34.129592],[133.945051,34.129772],[133.944992,34.129833],[133.944805,34.129899],[133.94409,34.130575],[133.944015,34.130554],[133.943704,34.130734],[133.943334,34.130502],[133.943247,34.130345],[133.943096,34.130338],[133.942786,34.130138],[133.942745,34.130019],[133.942622,34.129891],[133.942631,34.129542],[133.942088,34.129123],[133.941826,34.129012],[133.94171,34.128811],[133.941722,34.12873],[133.940585,34.129374],[133.940481,34.129493],[133.940382,34.129503],[133.93971,34.129223],[133.939626,34.128937],[133.939289,34.128509],[133.939151,34.128579],[133.939032,34.128799],[133.938801,34.12899],[133.938596,34.12926],[133.938559,34.129484],[133.938461,34.129583],[133.938382,34.130081],[133.938151,34.13054],[133.937607,34.131102],[133.93729,34.131503],[133.937046,34.13169],[133.936792,34.13209],[133.936794,34.132238],[133.93667,34.132443],[133.935578,34.132887]]]]}}]}
