{"type":"FeatureCollection","features":[{"type":"Feature","properties":{"potaRef":"JP-1930","nameJa":"Tainai ninoji","nameEn":"Niigata Seishonen no Mori Prefectural Park","authority":"環境省 生物多様性「見える化」マップ","boundaryStatus":"全国GIS候補・公開前検証待ち","boundarySource":"環境省 生物多様性「見える化」マップの自然公園区域を、POTA代表座標で一意に空間照合して加工","boundaryScaleNote":"区域は概要データであり、正確性は保証されない。POTA運用可否は公式情報で最終確認すること。","candidateMethod":"POTA representative point inside one public natural-park area","sourceParkKind":"都道府県立自然公園","sourceName":"Tainai ninoji","sourceFeatureCount":1,"cautionMeters":75},"geometry":{"type":"MultiPolygon","coordinates":[[[[139.5099,38.034493],[139.509569,38.035462],[139.509563,38.037271],[139.508917,38.038291],[139.508705,38.038966],[139.507276,38.040511],[139.506472,38.042133],[139.506176,38.04207],[139.506037,38.041891],[139.505985,38.041104],[139.50641,38.04005],[139.506494,38.037407],[139.506993,38.036367],[139.506863,38.035326],[139.506527,38.034378],[139.50698,38.033858],[139.506992,38.033552],[139.506657,38.033436],[139.506338,38.033518],[139.505105,38.034281],[139.505857,38.03489],[139.506168,38.035588],[139.506121,38.035998],[139.505606,38.036701],[139.504837,38.036949],[139.504531,38.036929],[139.503669,38.036605],[139.502988,38.036646],[139.502685,38.036831],[139.502863,38.037188],[139.503304,38.037526],[139.504932,38.037826],[139.505573,38.038337],[139.505697,38.038676],[139.505611,38.039788],[139.505078,38.040716],[139.503915,38.040973],[139.501721,38.039861],[139.500003,38.03952],[139.499416,38.039523],[139.497767,38.0391],[139.496793,38.038712],[139.495128,38.037185],[139.494706,38.036979],[139.494058,38.036886],[139.492317,38.036864],[139.491526,38.036714],[139.491237,38.036597],[139.49037,38.035899],[139.48961,38.035534],[139.489336,38.035273],[139.489283,38.035027],[139.4896,38.034152],[139.490569,38.0322],[139.491031,38.031607],[139.492435,38.03036],[139.492667,38.030316],[139.492859,38.030402],[139.493106,38.031186],[139.493647,38.031814],[139.493834,38.031894],[139.494274,38.031657],[139.49472,38.031116],[139.49495,38.03055],[139.494195,38.031023],[139.493993,38.030782],[139.49369,38.029829],[139.493977,38.029657],[139.494856,38.02962],[139.493854,38.028966],[139.493672,38.028698],[139.493767,38.02854],[139.494352,38.028269],[139.494596,38.02803],[139.495475,38.026399],[139.495715,38.025624],[139.495514,38.024934],[139.495507,38.024327],[139.496032,38.023051],[139.496303,38.021578],[139.496206,38.021428],[139.49547,38.021135],[139.494632,38.020582],[139.494084,38.019826],[139.494123,38.019323],[139.494439,38.018883],[139.494861,38.017585],[139.494082,38.014135],[139.49423,38.012938],[139.494619,38.012233],[139.494756,38.011719],[139.494668,38.010763],[139.494949,38.009756],[139.494743,38.009312],[139.494202,38.008798],[139.494086,38.008452],[139.494776,38.00751],[139.494172,38.006716],[139.49443,38.006463],[139.496123,38.006262],[139.496399,38.006055],[139.496478,38.005811],[139.496367,38.005545],[139.495183,38.004575],[139.494148,38.002947],[139.494907,38.001397],[139.495215,38.001044],[139.497322,37.999615],[139.497845,37.999004],[139.497939,37.998421],[139.497691,37.997887],[139.497459,37.997644],[139.496598,37.997198],[139.496398,37.996763],[139.497478,37.995551],[139.497989,37.99402],[139.499097,37.992913],[139.49925,37.992322],[139.499653,37.991527],[139.499566,37.991103],[139.498818,37.990498],[139.498548,37.99008],[139.498475,37.989707],[139.498609,37.989201],[139.498428,37.988676],[139.498562,37.9873],[139.498385,37.986098],[139.498712,37.984803],[139.498717,37.983937],[139.499163,37.982747],[139.49912,37.982391],[139.498765,37.981877],[139.498785,37.981526],[139.499223,37.981107],[139.500427,37.980857],[139.50152,37.980162],[139.502852,37.979781],[139.503397,37.979437],[139.503636,37.979003],[139.503236,37.977358],[139.502761,37.976681],[139.502593,37.97623],[139.502687,37.975623],[139.503423,37.974965],[139.503583,37.974691],[139.503144,37.973232],[139.503084,37.971854],[139.502866,37.971248],[139.502743,37.971046],[139.502279,37.970787],[139.500952,37.970633],[139.50044,37.970349],[139.500218,37.969913],[139.500342,37.96905],[139.499896,37.968441],[139.499584,37.968212],[139.497899,37.967536],[139.497007,37.966443],[139.495923,37.966258],[139.4955,37.966068],[139.495382,37.965714],[139.49562,37.964855],[139.495422,37.963989],[139.496114,37.962091],[139.496365,37.961855],[139.497362,37.961377],[139.497667,37.961087],[139.497789,37.960745],[139.497716,37.960236],[139.498032,37.959605],[139.498349,37.959478],[139.498902,37.959557],[139.499331,37.959452],[139.499777,37.958776],[139.50089,37.958189],[139.501145,37.957955],[139.501401,37.957354],[139.501507,37.956059],[139.502597,37.955039],[139.502593,37.954852],[139.502264,37.954505],[139.502107,37.954153],[139.50276,37.953057],[139.502747,37.952527],[139.502862,37.952361],[139.503184,37.952267],[139.504921,37.952894],[139.505605,37.952926],[139.505781,37.952652],[139.505553,37.951937],[139.503718,37.950109],[139.500758,37.948107],[139.498077,37.946776],[139.496802,37.945971],[139.497099,37.945606],[139.497581,37.944738],[139.498978,37.942984],[139.49966,37.94199],[139.500132,37.941584],[139.500419,37.941438],[139.501142,37.94119],[139.501624,37.94089],[139.501983,37.940314],[139.502377,37.93992],[139.502418,37.939759],[139.502388,37.939564],[139.502234,37.939036],[139.499649,37.939132],[139.496938,37.938901],[139.494552,37.937947],[139.49133,37.936251],[139.488529,37.934592],[139.48838,37.934328],[139.48853,37.934076],[139.489089,37.933565],[139.4906,37.932527],[139.491112,37.931864],[139.490988,37.93118],[139.489179,37.929706],[139.487527,37.927756],[139.486759,37.926728],[139.486724,37.926245],[139.486956,37.925908],[139.487592,37.925702],[139.488617,37.92518],[139.488807,37.924717],[139.488685,37.924073],[139.488861,37.923182],[139.489605,37.922084],[139.491133,37.920174],[139.480055,37.919371],[139.4788,37.917854],[139.476499,37.915716],[139.473766,37.913752],[139.473548,37.913409],[139.473513,37.912926],[139.474634,37.911047],[139.475198,37.909947],[139.47555,37.908183],[139.475794,37.905096],[139.475828,37.903471],[139.473644,37.903317],[139.471996,37.903439],[139.471157,37.903642],[139.470616,37.903635],[139.470347,37.903578],[139.469678,37.903195],[139.46739,37.901575],[139.464221,37.89946],[139.463038,37.898611],[139.465929,37.896206],[139.466374,37.895964],[139.467033,37.895806],[139.468226,37.895864],[139.470598,37.896444],[139.473337,37.895813],[139.475166,37.896222],[139.477132,37.895907],[139.4793,37.896207],[139.48162,37.896093],[139.482729,37.895867],[139.483771,37.894588],[139.484101,37.894106],[139.485355,37.893568],[139.486168,37.892975],[139.486829,37.891999],[139.486903,37.890381],[139.48704,37.889557],[139.487455,37.888832],[139.488321,37.887668],[139.48829,37.887223],[139.487859,37.886709],[139.486788,37.886187],[139.485758,37.885602],[139.485294,37.884802],[139.48499,37.883973],[139.484885,37.882318],[139.484595,37.881532],[139.484095,37.880655],[139.483508,37.880047],[139.482004,37.879139],[139.480894,37.878585],[139.47945,37.87835],[139.478366,37.878505],[139.477494,37.878774],[139.476379,37.879424],[139.474408,37.88026],[139.473186,37.880575],[139.471811,37.880794],[139.470699,37.880737],[139.470161,37.880494],[139.46974,37.880065],[139.469418,37.879204],[139.468036,37.878214],[139.467274,37.877881],[139.466941,37.877602],[139.466324,37.876809],[139.465911,37.875684],[139.465619,37.875238],[139.464752,37.874539],[139.463654,37.873937],[139.46303,37.87325],[139.462087,37.872947],[139.460986,37.871582],[139.459363,37.871066],[139.458819,37.870801],[139.45714,37.869609],[139.455795,37.869696],[139.454184,37.869341],[139.453217,37.86973],[139.452338,37.86994],[139.451255,37.86954],[139.447464,37.869185],[139.447138,37.869051],[139.446732,37.868702],[139.446111,37.86765],[139.445333,37.866963],[139.444983,37.866287],[139.444704,37.866083],[139.444033,37.865853],[139.443044,37.865782],[139.440357,37.866047],[139.439705,37.865832],[139.437781,37.864341],[139.436825,37.863796],[139.435531,37.863414],[139.432597,37.862889],[139.431297,37.86245],[139.430444,37.861994],[139.428582,37.861499],[139.428157,37.861217],[139.426952,37.859581],[139.426919,37.85896],[139.427322,37.85801],[139.427178,37.85732],[139.426377,37.856549],[139.425581,37.855576],[139.424072,37.853412],[139.423434,37.852902],[139.422496,37.852357],[139.422552,37.852088],[139.42323,37.85149],[139.424831,37.849726],[139.425592,37.849117],[139.427674,37.846876],[139.428115,37.8466],[139.428931,37.846355],[139.430024,37.845843],[139.432179,37.844268],[139.432995,37.8438],[139.436821,37.842179],[139.437273,37.841774],[139.437941,37.84057],[139.438938,37.839897],[139.440372,37.839598],[139.442194,37.839392],[139.444394,37.838682],[139.445035,37.838251],[139.445957,37.836975],[139.446942,37.836282],[139.448806,37.835966],[139.450437,37.836005],[139.451526,37.835844],[139.454464,37.835711],[139.455562,37.835381],[139.457659,37.833592],[139.458759,37.832919],[139.46071,37.832307],[139.463247,37.831877],[139.46412,37.831622],[139.464899,37.831256],[139.466074,37.830249],[139.466453,37.82966],[139.46764,37.828813],[139.468102,37.828309],[139.469292,37.828226],[139.471351,37.828676],[139.471775,37.828866],[139.47331,37.82998],[139.474237,37.830961],[139.475308,37.831359],[139.477573,37.831806],[139.478214,37.832314],[139.479196,37.833442],[139.480039,37.834129],[139.481554,37.83475],[139.482507,37.835057],[139.484139,37.83524],[139.486541,37.835174],[139.4873,37.835315],[139.488606,37.835276],[139.49038,37.835528],[139.490304,37.835929],[139.490364,37.836305],[139.492562,37.837604],[139.495378,37.838569],[139.496574,37.83908],[139.49861,37.84041],[139.500774,37.840628],[139.501849,37.840519],[139.503729,37.840159],[139.506108,37.839298],[139.507324,37.839315],[139.50885,37.839493],[139.510243,37.840044],[139.51121,37.840575],[139.513146,37.841217],[139.516285,37.842609],[139.517037,37.842792],[139.518223,37.842548],[139.519208,37.842583],[139.519633,37.842689],[139.520718,37.843121],[139.521801,37.843722],[139.52349,37.844925],[139.524148,37.845817],[139.525286,37.848029],[139.525945,37.848578],[139.528621,37.850286],[139.532042,37.853423],[139.533318,37.854399],[139.534194,37.854903],[139.536664,37.855819],[139.538293,37.856174],[139.539182,37.856719],[139.539349,37.856953],[139.539348,37.858172],[139.538953,37.86092],[139.538938,37.862043],[139.539207,37.86335],[139.540097,37.864554],[139.541167,37.865328],[139.54266,37.865732],[139.543757,37.865893],[139.544612,37.86588],[139.546805,37.865319],[139.550328,37.864018],[139.552945,37.863349],[139.554467,37.8631],[139.556531,37.863209],[139.555929,37.863445],[139.555959,37.863748],[139.55616,37.864502],[139.556344,37.864894],[139.556757,37.865505],[139.556895,37.865822],[139.55698,37.866328],[139.557124,37.866797],[139.557134,37.867339],[139.557225,37.867462],[139.557632,37.867773],[139.55809,37.868371],[139.558296,37.868726],[139.558498,37.869268],[139.558067,37.870279],[139.557992,37.870678],[139.558208,37.871467],[139.558243,37.871906],[139.558711,37.872915],[139.558973,37.873971],[139.558887,37.874071],[139.558308,37.874334],[139.558147,37.874454],[139.557815,37.874864],[139.557216,37.875191],[139.55708,37.875375],[139.556806,37.87635],[139.556643,37.876639],[139.556517,37.876655],[139.556325,37.876499],[139.55619,37.876451],[139.55542,37.876587],[139.555213,37.876683],[139.555002,37.876942],[139.554443,37.877245],[139.553416,37.878062],[139.55321,37.878162],[139.55312,37.878274],[139.553019,37.878425],[139.552973,37.878656],[139.553102,37.879141],[139.553112,37.879344],[139.553001,37.879739],[139.55294,37.879855],[139.552402,37.880333],[139.551959,37.880832],[139.551946,37.881025],[139.552178,37.881603],[139.552472,37.881972],[139.552588,37.882231],[139.552588,37.882542],[139.552296,37.882745],[139.551662,37.882837],[139.550814,37.882879],[139.549838,37.883122],[139.549339,37.883342],[139.549188,37.883362],[139.548715,37.883294],[139.548101,37.883561],[139.54796,37.883665],[139.547784,37.883589],[139.547462,37.883342],[139.54712,37.883198],[139.546259,37.883102],[139.546023,37.883126],[139.545308,37.883521],[139.545127,37.883573],[139.544701,37.883579],[139.544344,37.883511],[139.544198,37.883551],[139.543987,37.883647],[139.543358,37.884137],[139.542638,37.884428],[139.542492,37.884528],[139.541989,37.884699],[139.541209,37.884807],[139.541113,37.884899],[139.540957,37.885194],[139.540784,37.885846],[139.540748,37.88628],[139.540678,37.88642],[139.540197,37.886948],[139.53983,37.887594],[139.539593,37.888152],[139.539246,37.888168],[139.53831,37.888384],[139.537977,37.888631],[139.537761,37.888699],[139.537489,37.888719],[139.537223,37.888639],[139.5368,37.888611],[139.536511,37.888497],[139.535927,37.888382],[139.535529,37.888182],[139.535378,37.888158],[139.533725,37.888116],[139.532809,37.887937],[139.532255,37.887981],[139.532054,37.887857],[139.531616,37.887738],[139.531053,37.887494],[139.530987,37.887395],[139.530932,37.886962],[139.530399,37.886285],[139.530162,37.886157],[139.52985,37.886065],[139.529463,37.885774],[139.529221,37.885746],[139.528476,37.885961],[139.527948,37.886009],[139.527233,37.8862],[139.526745,37.886384],[139.525791,37.886529],[139.52491,37.886597],[139.524442,37.886972],[139.524125,37.887119],[139.523013,37.887406],[139.522349,37.887438],[139.521136,37.887881],[139.520356,37.887801],[139.51986,37.887855],[139.51901,37.887859],[139.518562,37.887723],[139.518114,37.887747],[139.517724,37.887829],[139.516878,37.887566],[139.516501,37.887538],[139.516073,37.887609],[139.51521,37.888094],[139.51447,37.888405],[139.513912,37.888536],[139.513534,37.888779],[139.513325,37.88877],[139.512978,37.888606],[139.51252,37.888522],[139.511886,37.888554],[139.511428,37.888706],[139.510708,37.888534],[139.510578,37.888546],[139.5102,37.888694],[139.508872,37.888929],[139.508373,37.888817],[139.507719,37.888861],[139.507236,37.888697],[139.507105,37.888717],[139.506969,37.888853],[139.506936,37.889274],[139.506743,37.889858],[139.506763,37.890141],[139.506038,37.89058],[139.505801,37.890899],[139.505233,37.891432],[139.505142,37.891779],[139.505072,37.891843],[139.504553,37.891935],[139.504463,37.891999],[139.504402,37.892138],[139.504345,37.892599],[139.50449,37.893364],[139.50448,37.89356],[139.504304,37.893684],[139.503972,37.893779],[139.503635,37.89407],[139.50298,37.894273],[139.502701,37.894487],[139.502429,37.894989],[139.502006,37.895372],[139.501949,37.895828],[139.501773,37.896131],[139.50173,37.896429],[139.501589,37.896835],[139.501498,37.897002],[139.50106,37.897437],[139.500884,37.897939],[139.500713,37.898171],[139.500129,37.898306],[139.499203,37.898406],[139.498994,37.898515],[139.498934,37.898623],[139.499211,37.89942],[139.499686,37.90036],[139.500037,37.901393],[139.500235,37.901622],[139.500541,37.90212],[139.501083,37.902422],[139.501255,37.902579],[139.501473,37.90296],[139.501808,37.903298],[139.501934,37.903874],[139.502326,37.904263],[139.50246,37.904523],[139.502494,37.904873],[139.502592,37.905046],[139.502653,37.905357],[139.502942,37.906129],[139.50379,37.906952],[139.504036,37.907307],[139.504124,37.907803],[139.50422,37.907939],[139.504783,37.908282],[139.504766,37.908595],[139.504902,37.909101],[139.505488,37.909992],[139.505596,37.910552],[139.505918,37.911102],[139.505976,37.911443],[139.506653,37.912219],[139.507473,37.912629],[139.507656,37.913022],[139.508019,37.913429],[139.50813,37.913656],[139.508188,37.913981],[139.508333,37.91434],[139.508693,37.914852],[139.508779,37.915287],[139.508884,37.915525],[139.509815,37.916718],[139.509845,37.916989],[139.510074,37.917429],[139.510155,37.917892],[139.51054,37.918731],[139.510967,37.919285],[139.510984,37.919641],[139.511073,37.919905],[139.511491,37.920475],[139.511775,37.921061],[139.513081,37.921351],[139.514286,37.922158],[139.515567,37.922907],[139.51744,37.923635],[139.518573,37.924382],[139.520232,37.924726],[139.521814,37.925274],[139.52325,37.925673],[139.524347,37.926332],[139.525088,37.926312],[139.526265,37.925616],[139.527811,37.924508],[139.53078,37.922725],[139.533637,37.921833],[139.534716,37.921649],[139.536927,37.921142],[139.537545,37.921048],[139.537986,37.92109],[139.538745,37.92169],[139.540341,37.923777],[139.541921,37.926815],[139.543809,37.929173],[139.544885,37.929795],[139.546201,37.930206],[139.547482,37.930351],[139.549767,37.931294],[139.551616,37.931484],[139.55301,37.932037],[139.553891,37.932277],[139.555507,37.932444],[139.557245,37.932259],[139.559205,37.932188],[139.562354,37.932655],[139.56361,37.932992],[139.564892,37.933204],[139.565951,37.93327],[139.567411,37.93293],[139.567137,37.933284],[139.567033,37.933585],[139.567044,37.933691],[139.567381,37.934101],[139.567513,37.934494],[139.567554,37.935089],[139.567394,37.935916],[139.566817,37.936544],[139.566446,37.937082],[139.565802,37.937697],[139.564211,37.938843],[139.563057,37.939487],[139.562807,37.93975],[139.562395,37.940499],[139.562287,37.941099],[139.562133,37.941628],[139.561988,37.941946],[139.561731,37.942158],[139.561669,37.942264],[139.561437,37.94301],[139.561355,37.943678],[139.56137,37.944155],[139.561432,37.944318],[139.561669,37.944636],[139.562086,37.94486],[139.562313,37.94517],[139.562586,37.94572],[139.562967,37.945932],[139.562998,37.946095],[139.562725,37.94746],[139.562766,37.947966],[139.562967,37.948793],[139.562936,37.949144],[139.562763,37.949419],[139.562135,37.949851],[139.56196,37.950128],[139.561852,37.950458],[139.561904,37.9508],[139.562109,37.951363],[139.562738,37.952251],[139.562789,37.952969],[139.563145,37.95325],[139.563237,37.953421],[139.56331,37.953747],[139.563217,37.954138],[139.562882,37.95455],[139.562429,37.95552],[139.562336,37.955617],[139.562076,37.955652],[139.561674,37.95553],[139.561334,37.955505],[139.560819,37.955677],[139.560211,37.955994],[139.559671,37.956105],[139.559382,37.956219],[139.559063,37.956496],[139.558702,37.956692],[139.55811,37.956794],[139.557152,37.956761],[139.556781,37.956834],[139.556606,37.956916],[139.556472,37.957014],[139.55641,37.957168],[139.55623,37.958428],[139.556245,37.958636],[139.55608,37.959108],[139.556132,37.959434],[139.556204,37.959581],[139.556472,37.959793],[139.557069,37.960054],[139.557275,37.960217],[139.557322,37.960343],[139.556992,37.961468],[139.557015,37.962012],[139.557056,37.962232],[139.557221,37.962632],[139.557721,37.96341],[139.558205,37.963818],[139.558668,37.964038],[139.559013,37.964335],[139.559827,37.964784],[139.560327,37.965285],[139.560512,37.965407],[139.560893,37.965497],[139.562263,37.965603],[139.562675,37.96575],[139.562887,37.965966],[139.563247,37.966487],[139.563587,37.96674],[139.56367,37.96687],[139.563572,37.967176],[139.563345,37.967502],[139.563365,37.967918],[139.563427,37.968244],[139.563803,37.96886],[139.563886,37.969129],[139.563855,37.969381],[139.563505,37.969625],[139.563056,37.970127],[139.562685,37.971081],[139.562196,37.971215],[139.562083,37.971305],[139.56199,37.971606],[139.562062,37.972267],[139.562263,37.972687],[139.562634,37.973176],[139.563113,37.973563],[139.563144,37.973677],[139.562917,37.973946],[139.562485,37.974288],[139.562423,37.974402],[139.562448,37.974773],[139.562613,37.975336],[139.562685,37.975776],[139.562608,37.976237],[139.562495,37.976473],[139.562567,37.976758],[139.562897,37.977296],[139.563252,37.978319],[139.563592,37.978841],[139.563762,37.979228],[139.563803,37.979887],[139.563674,37.980511],[139.563746,37.980959],[139.563993,37.981457],[139.564132,37.982064],[139.564678,37.982439],[139.564792,37.982594],[139.564838,37.983486],[139.565075,37.984106],[139.56507,37.984191],[139.564575,37.984982],[139.564472,37.985349],[139.564297,37.985553],[139.564045,37.986038],[139.563942,37.986152],[139.56355,37.986396],[139.563478,37.986551],[139.563493,37.988136],[139.562988,37.988226],[139.562309,37.988202],[139.562113,37.988234],[139.561832,37.988424],[139.561616,37.98866],[139.561327,37.988791],[139.56039,37.989019],[139.559999,37.989174],[139.55852,37.989406],[139.558108,37.989618],[139.557655,37.990042],[139.556983,37.99103],[139.556818,37.991201],[139.555937,37.991776],[139.555741,37.991866],[139.554464,37.992216],[139.554119,37.992448],[139.553769,37.992823],[139.553676,37.993019],[139.553624,37.993386],[139.553722,37.994124],[139.55364,37.994498],[139.553047,37.995579],[139.551152,37.996043],[139.550451,37.996516],[139.550307,37.996565],[139.54888,37.996838],[139.547469,37.997229],[139.546944,37.997433],[139.546516,37.99773],[139.546073,37.997877],[139.545713,37.998097],[139.54561,37.998203],[139.545455,37.998505],[139.545306,37.998957],[139.545059,37.999267],[139.544909,38.000274],[139.544837,38.000494],[139.54462,38.000803],[139.544229,38.001113],[139.544147,38.001301],[139.544111,38.001639],[139.544213,38.002544],[139.54421,38.00296],[139.544093,38.003293],[139.543692,38.003803],[139.54362,38.003996],[139.543604,38.004375],[139.543028,38.005549],[139.542964,38.006068],[139.542879,38.006296],[139.542719,38.006423],[139.54172,38.006642],[139.541228,38.006853],[139.540903,38.007219],[139.54071,38.007596],[139.540598,38.007711],[139.540094,38.007884],[139.539665,38.008122],[139.539171,38.008198],[139.538481,38.008458],[139.538252,38.008608],[139.538017,38.008873],[139.537608,38.009425],[139.537576,38.009576],[139.537331,38.00969],[139.536181,38.009766],[139.535808,38.009852],[139.535254,38.009861],[139.534779,38.010015],[139.534245,38.010378],[139.533435,38.010717],[139.532939,38.011399],[139.532626,38.011689],[139.532281,38.011806],[139.531831,38.012274],[139.531514,38.012462],[139.531333,38.012516],[139.531145,38.012662],[139.531073,38.012763],[139.531028,38.012986],[139.531626,38.014094],[139.531679,38.014322],[139.532136,38.014592],[139.532561,38.014738],[139.532772,38.014949],[139.532949,38.01535],[139.533165,38.015577],[139.53351,38.01571],[139.533583,38.015783],[139.533988,38.016578],[139.534257,38.016818],[139.534309,38.016977],[139.534088,38.018134],[139.534208,38.018621],[139.534513,38.018948],[139.535061,38.019204],[139.535174,38.019363],[139.534664,38.020419],[139.534676,38.020661],[139.534913,38.021023],[139.534744,38.021284],[139.534546,38.021831],[139.533843,38.022487],[139.533743,38.022747],[139.533663,38.023362],[139.533675,38.023511],[139.534108,38.024026],[139.534196,38.024329],[139.534333,38.024478],[139.534848,38.024635],[139.535418,38.02494],[139.53539,38.025162],[139.535026,38.025863],[139.534707,38.026111],[139.53294,38.027048],[139.53172,38.028161],[139.531504,38.02825],[139.530698,38.029152],[139.529951,38.029594],[139.529176,38.02983],[139.526896,38.029996],[139.525682,38.030511],[139.525024,38.03065],[139.52337,38.031502],[139.522489,38.031625],[139.52105,38.0321],[139.519522,38.032905],[139.518665,38.03353],[139.517653,38.033845],[139.517008,38.033807],[139.516757,38.033655],[139.516101,38.034324],[139.515567,38.035106],[139.513459,38.036273],[139.512469,38.037303],[139.511814,38.037815],[139.511012,38.03884],[139.510706,38.039029],[139.510165,38.039137],[139.510082,38.038908],[139.510255,38.038136],[139.510522,38.03763],[139.510845,38.036497],[139.510799,38.035981],[139.510556,38.035364],[139.510551,38.034776],[139.511111,38.033746],[139.51078,38.032895],[139.510259,38.032344],[139.509962,38.032223],[139.50978,38.032339],[139.509705,38.03261],[139.5099,38.034493]]],[[[139.477536,38.071592],[139.477523,38.072457],[139.477271,38.07322],[139.476727,38.073731],[139.475834,38.07415],[139.474963,38.074383],[139.473117,38.074494],[139.472133,38.074981],[139.470851,38.076667],[139.469931,38.078191],[139.4692,38.078882],[139.468997,38.07888],[139.468229,38.07854],[139.466863,38.077814],[139.465648,38.075327],[139.46305,38.072637],[139.461061,38.071557],[139.46025,38.071457],[139.459187,38.071479],[139.458009,38.071642],[139.457241,38.071632],[139.456276,38.071298],[139.455304,38.071369],[139.453781,38.070676],[139.451617,38.069379],[139.449708,38.067746],[139.44879,38.068431],[139.447746,38.067577],[139.448984,38.066736],[139.450319,38.065539],[139.450512,38.064988],[139.44939,38.063526],[139.446847,38.063544],[139.443758,38.063778],[139.442274,38.063035],[139.441191,38.062827],[139.440444,38.062895],[139.43858,38.062849],[139.436934,38.063222],[139.43399,38.063033],[139.433324,38.06325],[139.431804,38.063418],[139.43135,38.063348],[139.430518,38.063019],[139.430153,38.062708],[139.429962,38.062347],[139.430294,38.061914],[139.431177,38.061554],[139.433157,38.060999],[139.434753,38.059685],[139.435493,38.059576],[139.437333,38.059785],[139.437756,38.059755],[139.438104,38.05961],[139.439232,38.058425],[139.439375,38.057903],[139.438996,38.057381],[139.43729,38.056238],[139.436318,38.05599],[139.435558,38.055617],[139.434731,38.054819],[139.434295,38.05421],[139.433641,38.053788],[139.432998,38.053597],[139.432091,38.052795],[139.432151,38.052561],[139.432815,38.05187],[139.433087,38.051364],[139.433267,38.050747],[139.433146,38.049814],[139.433713,38.04902],[139.433805,38.048701],[139.433862,38.048094],[139.433559,38.047312],[139.433646,38.046522],[139.434314,38.04558],[139.434951,38.044925],[139.435396,38.043974],[139.435535,38.042076],[139.435431,38.040875],[139.434705,38.03939],[139.434305,38.039335],[139.431866,38.040673],[139.431612,38.040982],[139.431243,38.042623],[139.431337,38.043563],[139.430568,38.045292],[139.429677,38.04634],[139.428114,38.047056],[139.427024,38.04722],[139.425963,38.047289],[139.425059,38.046949],[139.424723,38.04669],[139.42406,38.045623],[139.423329,38.043893],[139.423297,38.042606],[139.423852,38.04157],[139.423886,38.041231],[139.423769,38.041069],[139.423239,38.040869],[139.422897,38.040862],[139.422142,38.041132],[139.421373,38.041808],[139.420433,38.042262],[139.419289,38.042282],[139.418521,38.041942],[139.418232,38.041581],[139.417952,38.040805],[139.418144,38.040039],[139.418894,38.038919],[139.419352,38.038654],[139.420246,38.038247],[139.420905,38.038068],[139.421999,38.037855],[139.423768,38.037792],[139.424014,38.037681],[139.423889,38.037449],[139.423421,38.037267],[139.422325,38.037217],[139.421134,38.037382],[139.420663,38.037144],[139.420613,38.036887],[139.420797,38.036268],[139.421382,38.035518],[139.420929,38.0344],[139.420866,38.033253],[139.420454,38.03322],[139.418045,38.034092],[139.417372,38.034227],[139.417054,38.034183],[139.415869,38.03346],[139.413357,38.031065],[139.411395,38.029421],[139.408913,38.027762],[139.407959,38.027274],[139.407393,38.027179],[139.403671,38.027463],[139.403256,38.027248],[139.403179,38.027],[139.403397,38.026653],[139.403976,38.026162],[139.407594,38.023611],[139.41003,38.022187],[139.411465,38.021161],[139.412163,38.020487],[139.412516,38.019781],[139.412357,38.019447],[139.411192,38.018717],[139.409973,38.018304],[139.409682,38.017935],[139.409812,38.017514],[139.410682,38.017012],[139.411072,38.01665],[139.41102,38.016414],[139.410357,38.015808],[139.410366,38.015364],[139.410531,38.01502],[139.41177,38.013659],[139.411535,38.013405],[139.410667,38.012933],[139.409803,38.012166],[139.409399,38.01138],[139.40898,38.009915],[139.408677,38.009616],[139.407798,38.009363],[139.407168,38.008938],[139.406673,38.008348],[139.40603,38.00713],[139.405782,38.007113],[139.404876,38.007598],[139.404419,38.007643],[139.404096,38.007513],[139.404181,38.006849],[139.403847,38.005779],[139.402961,38.005776],[139.40153,38.005997],[139.39946,38.006154],[139.399139,38.006317],[139.39876,38.007098],[139.39848,38.007173],[139.398181,38.007018],[139.397712,38.004747],[139.398454,38.003137],[139.398581,38.002537],[139.399285,38.000903],[139.399194,38.000634],[139.397371,37.998705],[139.396664,37.997618],[139.395972,37.997812],[139.394112,37.996547],[139.392734,37.995853],[139.390454,37.99534],[139.390407,37.99501],[139.390743,37.993995],[139.390843,37.993279],[139.390951,37.993136],[139.391367,37.993172],[139.391672,37.993298],[139.391749,37.993907],[139.391941,37.994064],[139.392331,37.993844],[139.392545,37.993977],[139.392532,37.994561],[139.392845,37.994684],[139.393135,37.994521],[139.393634,37.994751],[139.395056,37.995735],[139.395757,37.996536],[139.395975,37.996542],[139.396203,37.996416],[139.396409,37.996047],[139.395965,37.995269],[139.394733,37.994607],[139.393979,37.993923],[139.393612,37.992999],[139.393652,37.992798],[139.393974,37.99247],[139.393978,37.992299],[139.393574,37.99194],[139.393024,37.99164],[139.392882,37.991501],[139.392914,37.991345],[139.393492,37.990684],[139.396539,37.990788],[139.397949,37.990706],[139.399939,37.990344],[139.400827,37.989984],[139.401067,37.989796],[139.401399,37.988017],[139.401313,37.9878],[139.398809,37.986418],[139.397199,37.985278],[139.396266,37.984477],[139.395826,37.983957],[139.395848,37.983824],[139.398088,37.983618],[139.399077,37.983283],[139.401493,37.9829],[139.402811,37.9824],[139.40319,37.982097],[139.403723,37.981374],[139.404036,37.98122],[139.404389,37.981572],[139.404491,37.982189],[139.404902,37.983222],[139.405295,37.983485],[139.4063,37.983676],[139.406449,37.983919],[139.40637,37.984278],[139.406473,37.984386],[139.407137,37.984229],[139.407464,37.98436],[139.408157,37.985148],[139.408337,37.986023],[139.408607,37.986204],[139.40959,37.986486],[139.410643,37.98753],[139.409965,37.988901],[139.409308,37.989159],[139.40915,37.989312],[139.409023,37.990103],[139.409064,37.990603],[139.409568,37.991217],[139.409022,37.992763],[139.408989,37.993886],[139.409301,37.994582],[139.409796,37.995041],[139.410594,37.995539],[139.411467,37.996261],[139.411665,37.996338],[139.411812,37.996278],[139.411939,37.995312],[139.412375,37.994438],[139.414186,37.992153],[139.414586,37.991358],[139.414852,37.991154],[139.416238,37.991144],[139.417004,37.991405],[139.417293,37.991837],[139.416877,37.992718],[139.415945,37.994099],[139.417605,37.99246],[139.417989,37.990813],[139.418029,37.989862],[139.418781,37.989245],[139.419347,37.989239],[139.419759,37.989396],[139.420172,37.989725],[139.420593,37.990596],[139.421513,37.991384],[139.421504,37.991558],[139.420998,37.992229],[139.420665,37.993452],[139.420777,37.993529],[139.421411,37.993076],[139.422052,37.992967],[139.422108,37.993191],[139.421878,37.993715],[139.421837,37.994143],[139.422498,37.995524],[139.422715,37.995705],[139.422888,37.995687],[139.42329,37.99485],[139.423569,37.994796],[139.423726,37.994939],[139.423772,37.995634],[139.423641,37.996407],[139.423906,37.997113],[139.42449,37.997557],[139.42519,37.997748],[139.42523,37.998162],[139.425355,37.998253],[139.426446,37.997987],[139.427107,37.998144],[139.427747,37.998864],[139.427751,37.999798],[139.428355,38.000095],[139.429229,38.001078],[139.429413,38.00111],[139.429863,38.00095],[139.430222,38.00112],[139.430541,38.001744],[139.430823,38.001912],[139.431566,38.001878],[139.431962,38.001517],[139.432136,38.001475],[139.432277,38.001591],[139.431461,38.003136],[139.431741,38.003936],[139.432199,38.004705],[139.432823,38.005411],[139.433787,38.006111],[139.435434,38.006831],[139.435623,38.007004],[139.434784,38.008419],[139.434528,38.008578],[139.433263,38.008853],[139.433027,38.009037],[139.433129,38.009295],[139.434074,38.010236],[139.434408,38.011039],[139.434375,38.01129],[139.434134,38.011892],[139.433454,38.012429],[139.432685,38.012845],[139.432225,38.013333],[139.431978,38.013667],[139.431873,38.014192],[139.431911,38.014492],[139.432201,38.014237],[139.434058,38.012975],[139.434629,38.012745],[139.435479,38.013071],[139.436281,38.012815],[139.436709,38.012838],[139.436928,38.013215],[139.436869,38.013555],[139.436383,38.014179],[139.436817,38.014668],[139.435536,38.015109],[139.435284,38.015423],[139.435519,38.015538],[139.437072,38.015625],[139.437903,38.016252],[139.437703,38.016765],[139.437447,38.017004],[139.437149,38.017184],[139.436377,38.017344],[139.435638,38.017794],[139.435562,38.017941],[139.435977,38.018483],[139.436079,38.018841],[139.437235,38.018297],[139.437674,38.01841],[139.437764,38.018651],[139.435795,38.021384],[139.435721,38.021739],[139.435864,38.022007],[139.436173,38.022215],[139.437161,38.022581],[139.438232,38.022713],[139.44009,38.02314],[139.441484,38.023779],[139.442757,38.024096],[139.445246,38.025136],[139.447757,38.025611],[139.446529,38.025807],[139.446229,38.02595],[139.446133,38.026239],[139.446409,38.026409],[139.446887,38.02643],[139.44807,38.026033],[139.449289,38.025903],[139.449487,38.026049],[139.449506,38.026226],[139.449054,38.026925],[139.449039,38.027185],[139.449151,38.02727],[139.449429,38.027108],[139.449992,38.02622],[139.450371,38.025919],[139.451017,38.025707],[139.451994,38.025634],[139.45267,38.025333],[139.453322,38.025422],[139.453827,38.025951],[139.454165,38.026722],[139.454268,38.027587],[139.454153,38.028375],[139.455361,38.027716],[139.455895,38.027759],[139.45622,38.027948],[139.456413,38.028225],[139.455851,38.029254],[139.456622,38.028809],[139.45905,38.027028],[139.460172,38.026628],[139.460567,38.026729],[139.460641,38.026888],[139.460479,38.027233],[139.460003,38.027719],[139.458004,38.02898],[139.455454,38.030956],[139.453973,38.032597],[139.451836,38.034627],[139.451304,38.035408],[139.451012,38.036957],[139.451113,38.03711],[139.451445,38.037169],[139.452748,38.036962],[139.453643,38.036654],[139.453931,38.036455],[139.454759,38.035269],[139.455188,38.034925],[139.456166,38.034558],[139.456736,38.03456],[139.457924,38.035105],[139.45935,38.036028],[139.459413,38.036284],[139.459224,38.037756],[139.459592,38.038066],[139.464248,38.039358],[139.465869,38.039217],[139.466235,38.039285],[139.466466,38.039452],[139.466584,38.039734],[139.466005,38.040475],[139.467268,38.041284],[139.467534,38.04164],[139.467823,38.04424],[139.468259,38.045189],[139.468523,38.046493],[139.468881,38.046741],[139.469486,38.046891],[139.469866,38.047099],[139.469843,38.048046],[139.469382,38.050028],[139.468809,38.050709],[139.467555,38.051623],[139.467273,38.052076],[139.467253,38.052329],[139.467366,38.052419],[139.467937,38.05227],[139.467978,38.05268],[139.468977,38.054324],[139.469612,38.055102],[139.471502,38.056958],[139.471947,38.057206],[139.473125,38.057509],[139.474111,38.057937],[139.475399,38.05915],[139.476353,38.060542],[139.477037,38.062034],[139.477538,38.062612],[139.478335,38.064453],[139.478478,38.065403],[139.479303,38.066436],[139.479671,38.067402],[139.479717,38.06826],[139.479558,38.06896],[139.479139,38.069733],[139.478962,38.069948],[139.477873,38.070373],[139.47743,38.070721],[139.477313,38.071068],[139.477536,38.071592]]]]}}]}
