{"type":"FeatureCollection","features":[{"type":"Feature","properties":{"potaRef":"JP-1010","nameJa":"Shumarinai","nameEn":"Shumarinai Prefectural Nature Park","authority":"環境省 生物多様性「見える化」マップ","boundaryStatus":"全国GIS候補・公開前検証待ち","boundarySource":"環境省 生物多様性「見える化」マップの自然公園区域を、POTA代表座標で一意に空間照合して加工","boundaryScaleNote":"区域は概要データであり、正確性は保証されない。POTA運用可否は公式情報で最終確認すること。","candidateMethod":"POTA representative point inside one public natural-park area","sourceParkKind":"都道府県立自然公園","sourceName":"Shumarinai","sourceFeatureCount":1,"cautionMeters":75},"geometry":{"type":"MultiPolygon","coordinates":[[[[142.019792,44.39466],[142.019336,44.394847],[142.018815,44.394925],[142.014562,44.394349],[142.012544,44.394163],[142.010353,44.394131],[142.007705,44.394163],[142.007402,44.393991],[142.006909,44.393136],[142.006692,44.392264],[142.006675,44.392029],[142.006773,44.391744],[142.006764,44.391493],[142.005736,44.390659],[142.00563,44.390524],[142.005466,44.390443],[142.005375,44.390231],[142.005423,44.390107],[142.005761,44.389771],[142.005809,44.389628],[142.005852,44.389014],[142.00577,44.388566],[142.00578,44.388458],[142.005857,44.38835],[142.007304,44.388126],[142.00767,44.388022],[142.008046,44.38779],[142.008383,44.387373],[142.0086,44.386901],[142.008793,44.386191],[142.009275,44.385531],[142.009338,44.385346],[142.009183,44.384373],[142.009184,44.38384],[142.009536,44.382087],[142.009501,44.381921],[142.009294,44.38155],[142.008754,44.380979],[142.008662,44.380821],[142.008546,44.380315],[142.008551,44.380122],[142.008595,44.379666],[142.008657,44.379481],[142.009155,44.378635],[142.009377,44.377821],[142.009763,44.377025],[142.009787,44.37662],[142.009546,44.375268],[142.009517,44.374874],[142.009637,44.373971],[142.009899,44.372674],[142.009933,44.371983],[142.01013,44.371651],[142.010265,44.371543],[142.011104,44.371176],[142.01122,44.371048],[142.011486,44.370581],[142.011582,44.37023],[142.011734,44.369906],[142.012024,44.369427],[142.012294,44.368736],[142.012477,44.367991],[142.012602,44.367682],[142.012974,44.367207],[142.013743,44.366385],[142.013839,44.36601],[142.013737,44.365207],[142.013629,44.36489],[142.013316,44.364873],[142.013018,44.364964],[142.012655,44.365163],[142.012243,44.364781],[142.011817,44.364567],[142.012271,44.364174],[142.012229,44.363721],[142.012485,44.363435],[142.012655,44.362517],[142.012527,44.362472],[142.011412,44.362619],[142.009983,44.36291],[142.009663,44.362915],[142.008771,44.362609],[142.008309,44.362283],[142.008245,44.361421],[142.008267,44.361156],[142.008423,44.360906],[142.008636,44.360687],[142.00897,44.360508],[142.009532,44.360432],[142.009638,44.35981],[142.009162,44.359713],[142.008821,44.359463],[142.008309,44.359249],[142.008082,44.35902],[142.008075,44.358912],[142.008878,44.358836],[142.009268,44.359014],[142.009496,44.359025],[142.009794,44.358882],[142.010079,44.358846],[142.011031,44.359361],[142.011343,44.359458],[142.011642,44.359463],[142.012191,44.359147],[142.012354,44.359009],[142.012333,44.358912],[142.012048,44.358596],[142.01202,44.358464],[142.012056,44.358015],[142.012418,44.357566],[142.012716,44.357419],[142.013065,44.357327],[142.012566,44.356664],[142.012175,44.355705],[142.013049,44.355389],[142.013312,44.355221],[142.013433,44.354986],[142.013404,44.354818],[142.013305,44.354706],[142.012319,44.354288],[142.011302,44.353487],[142.011004,44.35312],[142.01226,44.353496],[142.012768,44.353472],[142.01409,44.353788],[142.014598,44.352961],[142.014903,44.352353],[142.015343,44.352183],[142.016326,44.352062],[142.016055,44.351673],[142.016055,44.351211],[142.016495,44.350579],[142.018833,44.350554],[142.019782,44.349728],[142.020196,44.349129],[142.019507,44.34889],[142.019308,44.348771],[142.019074,44.348038],[142.01661,44.34662],[142.0158,44.346524],[142.014956,44.34619],[142.013957,44.345967],[142.012181,44.345409],[142.011426,44.344477],[142.010871,44.344326],[142.010873,44.34372],[142.011317,44.343346],[142.011373,44.343242],[142.011595,44.343202],[142.011994,44.342915],[142.012111,44.342764],[142.012088,44.342609],[142.011978,44.342496],[142.011688,44.342451],[142.011468,44.342575],[142.011256,44.34262],[142.0111,44.342524],[142.011108,44.342125],[142.011061,44.342041],[142.010872,44.342001],[142.010535,44.342046],[142.010144,44.341872],[142.009901,44.341675],[142.009861,44.341596],[142.009979,44.34136],[142.009587,44.341006],[142.009587,44.340938],[142.009799,44.340764],[142.009861,44.340685],[142.009846,44.34064],[142.009728,44.340584],[142.009179,44.340499],[142.009116,44.340426],[142.009116,44.340347],[142.009383,44.340094],[142.009383,44.339993],[142.00914,44.339711],[142.00914,44.339593],[142.00925,44.339418],[142.009673,44.339503],[142.010081,44.339734],[142.010496,44.339773],[142.011053,44.339548],[142.011759,44.339633],[142.012331,44.339526],[142.012864,44.339588],[142.013279,44.339503],[142.013797,44.339565],[142.014651,44.33952],[142.014996,44.339447],[142.015302,44.339267],[142.015796,44.339177],[142.016133,44.339244],[142.016399,44.339177],[142.016666,44.339267],[142.016815,44.339183],[142.017034,44.33916],[142.017113,44.339222],[142.01716,44.339346],[142.017222,44.339357],[142.017497,44.339177],[142.018132,44.339037],[142.018257,44.339031],[142.018492,44.339138],[142.019057,44.339121],[142.0193,44.339059],[142.019491,44.339123],[142.020068,44.33902],[142.022064,44.3389],[142.022197,44.338828],[142.022352,44.338637],[142.022496,44.338581],[142.022874,44.338565],[142.023351,44.338326],[142.024006,44.338159],[142.025504,44.338127],[142.026019,44.338016],[142.026441,44.337856],[142.026652,44.337617],[142.025952,44.337243],[142.025741,44.336964],[142.025752,44.336884],[142.026452,44.336773],[142.026785,44.336789],[142.027773,44.337171],[142.028006,44.337323],[142.028283,44.337641],[142.028028,44.336422],[142.02805,44.335522],[142.02813,44.334733],[142.028507,44.333427],[142.028607,44.333379],[142.029095,44.33357],[142.029783,44.334072],[142.030094,44.334789],[142.030716,44.335187],[142.030849,44.335418],[142.030927,44.336135],[142.031637,44.336422],[142.032001,44.336629],[142.032145,44.336813],[142.032178,44.337036],[142.031801,44.337577],[142.031701,44.337816],[142.031745,44.337984],[142.031823,44.338079],[142.032933,44.338366],[142.033532,44.33843],[142.033865,44.33843],[142.034753,44.338215],[142.034853,44.338095],[142.034864,44.337976],[142.034698,44.337808],[142.03452,44.337418],[142.03422,44.337099],[142.034154,44.336948],[142.034231,44.336223],[142.034353,44.336008],[142.034498,44.335936],[142.03553,44.33592],[142.035807,44.335984],[142.036351,44.336494],[142.036584,44.336613],[142.036995,44.336709],[142.037472,44.336741],[142.037605,44.336805],[142.03807,44.337179],[142.038403,44.337562],[142.038414,44.337848],[142.038647,44.338207],[142.038803,44.338278],[142.039003,44.338239],[142.039225,44.338071],[142.039458,44.337785],[142.039566,44.337378],[142.039733,44.337099],[142.039722,44.336797],[142.039022,44.336143],[142.038734,44.33596],[142.038512,44.335745],[142.038445,44.335594],[142.038445,44.335458],[142.038634,44.335347],[142.039566,44.335697],[142.039688,44.335833],[142.039877,44.336231],[142.040232,44.336518],[142.041175,44.336821],[142.041719,44.337091],[142.042718,44.337107],[142.043118,44.336972],[142.043062,44.336159],[142.04233,44.335753],[142.042263,44.335634],[142.042108,44.33459],[142.041986,44.334367],[142.041253,44.333435],[142.040928,44.332686],[142.040751,44.332112],[142.040784,44.33204],[142.042754,44.330909],[142.044308,44.331029],[142.045284,44.331013],[142.045406,44.330941],[142.045495,44.330694],[142.045595,44.330638],[142.046228,44.330423],[142.04761,44.329834],[142.047821,44.329483],[142.047921,44.329427],[142.048665,44.32934],[142.048676,44.329778],[142.04882,44.329969],[142.048831,44.330638],[142.048931,44.330797],[142.049186,44.331068],[142.050263,44.331825],[142.051062,44.331793],[142.050928,44.332215],[142.051528,44.332263],[142.052127,44.332685],[142.053326,44.333147],[142.05398,44.333482],[142.056354,44.33396],[142.057097,44.333777],[142.057397,44.333331],[142.057631,44.333195],[142.059588,44.332614],[142.059699,44.332399],[142.059688,44.331969],[142.059743,44.331857],[142.060509,44.331626],[142.061053,44.331602],[142.061685,44.331475],[142.061989,44.330758],[142.062322,44.330734],[142.063177,44.330535],[142.063942,44.330535],[142.064253,44.330638],[142.064464,44.330766],[142.064697,44.331156],[142.065418,44.3311],[142.065518,44.330359],[142.066262,44.329292],[142.066565,44.328686],[142.066732,44.328105],[142.066754,44.327715],[142.066667,44.327223],[142.067924,44.326693],[142.068776,44.326575],[142.069117,44.326372],[142.070047,44.326249],[142.070956,44.325877],[142.071649,44.325806],[142.072274,44.325984],[142.072416,44.326076],[142.072494,44.326254],[142.071791,44.327294],[142.071017,44.32783],[142.07045,44.328003],[142.070223,44.32812],[142.069953,44.328375],[142.069903,44.328498],[142.069903,44.328717],[142.070109,44.329476],[142.070095,44.329568],[142.069704,44.330154],[142.069695,44.330394],[142.069808,44.330537],[142.069943,44.330603],[142.072358,44.331032],[142.072585,44.331261],[142.072635,44.33147],[142.071101,44.332587],[142.070263,44.333],[142.07057,44.333561],[142.070968,44.334106],[142.071401,44.334468],[142.072608,44.335039],[142.07312,44.335161],[142.07329,44.335141],[142.073652,44.334958],[142.074803,44.33428],[142.075116,44.333958],[142.075933,44.333739],[142.076444,44.333714],[142.076707,44.333877],[142.076842,44.334096],[142.076863,44.334213],[142.076579,44.33483],[142.076477,44.335203],[142.076534,44.335412],[142.07684,44.335845],[142.077692,44.336681],[142.077458,44.33717],[142.077477,44.337533],[142.077627,44.337665],[142.078117,44.337823],[142.078635,44.337915],[142.078706,44.337966],[142.078777,44.338287],[142.078905,44.338354],[142.080311,44.338308],[142.080879,44.338486],[142.080964,44.33843],[142.081241,44.337864],[142.080863,44.336263],[142.080906,44.335789],[142.081055,44.33533],[142.081119,44.335269],[142.081488,44.335453],[142.081992,44.335799],[142.082191,44.33586],[142.083093,44.33584],[142.084662,44.335932],[142.084882,44.335978],[142.085585,44.336498],[142.086217,44.336635],[142.086736,44.336661],[142.087027,44.336559],[142.087063,44.336452],[142.087008,44.335748],[142.087882,44.334672],[142.088159,44.334484],[142.088421,44.334392],[142.089089,44.334326],[142.089565,44.334157],[142.089366,44.333908],[142.089331,44.333663],[142.089835,44.33352],[142.090155,44.333321],[142.09053,44.332964],[142.090444,44.332398],[142.090466,44.332174],[142.091133,44.331802],[142.092396,44.331613],[142.092475,44.331567],[142.092841,44.330848],[142.092869,44.330216],[142.094602,44.328503],[142.095619,44.327157],[142.095846,44.327106],[142.096343,44.32682],[142.09667,44.325979],[142.097134,44.325224],[142.097056,44.323567],[142.09771,44.323888],[142.098271,44.323965],[142.098825,44.324617],[142.099634,44.324306],[142.101154,44.323455],[142.102545,44.321691],[142.10263,44.321482],[142.102701,44.320997],[142.102851,44.320661],[142.103056,44.32038],[142.103781,44.320095],[142.104434,44.319911],[142.105059,44.319519],[142.106968,44.316623],[142.107149,44.316184],[142.107653,44.315368],[142.107653,44.314889],[142.111766,44.313578],[142.111451,44.312737],[142.111444,44.312472],[142.111544,44.312252],[142.112169,44.311579],[142.113511,44.312798],[142.114206,44.313272],[142.114725,44.313486],[142.116003,44.313833],[142.116486,44.31371],[142.117103,44.31369],[142.117661,44.313614],[142.118754,44.313308],[142.119145,44.31317],[142.120196,44.312497],[142.12087,44.312135],[142.121815,44.313853],[142.122522,44.314654],[142.12402,44.315312],[142.125342,44.315822],[142.125392,44.316005],[142.125029,44.316367],[142.124958,44.316714],[142.124241,44.317265],[142.125703,44.317938],[142.126989,44.318371],[142.127919,44.318993],[142.128911,44.319136],[142.129344,44.319136],[142.129529,44.319105],[142.129877,44.318856],[142.13026,44.318652],[142.130395,44.318636],[142.131063,44.31882],[142.131325,44.318983],[142.131588,44.319233],[142.131993,44.319442],[142.132682,44.319906],[142.133257,44.320151],[142.133456,44.320156],[142.135852,44.319498],[142.136384,44.319447],[142.137578,44.319631],[142.138465,44.319901],[142.13946,44.320304],[142.140398,44.320477],[142.140568,44.320426],[142.1412,44.319957],[142.14172,44.319467],[142.141919,44.319014],[142.142722,44.318682],[142.143531,44.317979],[142.143931,44.317392],[142.145408,44.317142],[142.147945,44.31701],[142.14879,44.316801],[142.148889,44.316729],[142.14918,44.316194],[142.149659,44.315592],[142.150333,44.315296],[142.15137,44.314736],[142.152293,44.313568],[142.152599,44.313272],[142.152861,44.313145],[142.15344,44.313093],[142.152719,44.31376],[142.152608,44.313969],[142.152695,44.314122],[142.153352,44.314651],[142.15408,44.315493],[142.154897,44.315773],[142.156178,44.316315],[142.158025,44.315837],[142.158229,44.316028],[142.158797,44.317264],[142.159306,44.317475],[142.160566,44.317787],[142.160602,44.318393],[142.162493,44.319706],[142.163469,44.320254],[142.164161,44.320744],[142.164646,44.320649],[142.16572,44.3207],[142.166022,44.320687],[142.166261,44.320617],[142.166856,44.320044],[142.167585,44.319687],[142.168145,44.318967],[142.16866,44.318138],[142.169953,44.317278],[142.170471,44.316728],[142.171497,44.315085],[142.17158,44.314796],[142.171774,44.314477],[142.172343,44.313671],[142.172815,44.312794],[142.172607,44.312147],[142.17269,44.312018],[142.173502,44.311619],[142.174861,44.310643],[142.176358,44.309836],[142.176899,44.30895],[142.1771,44.308701],[142.178598,44.307257],[142.178764,44.307058],[142.179097,44.306331],[142.179727,44.305733],[142.179255,44.305574],[142.179034,44.305444],[142.178881,44.304638],[142.179145,44.303841],[142.177716,44.302885],[142.177009,44.302288],[142.175595,44.301769],[142.176524,44.301072],[142.178244,44.301242],[142.179051,44.300349],[142.179352,44.300081],[142.179823,44.299884],[142.180675,44.298985],[142.182155,44.298441],[142.183057,44.297545],[142.182658,44.297159],[142.182658,44.297047],[142.183005,44.296848],[142.183837,44.296524],[142.183534,44.294943],[142.182564,44.292441],[142.182564,44.292217],[142.18272,44.292005],[142.182945,44.291968],[142.183985,44.292192],[142.184921,44.292665],[142.185285,44.292902],[142.186065,44.29259],[142.188144,44.292752],[142.188959,44.291072],[142.1901,44.288519],[142.190273,44.287735],[142.190758,44.286677],[142.191538,44.285296],[142.191988,44.284773],[142.192469,44.284463],[142.192622,44.284581],[142.193925,44.284931],[142.194239,44.285101],[142.194524,44.285451],[142.194771,44.285581],[142.195075,44.285589],[142.197691,44.283799],[142.198306,44.283697],[142.198586,44.283563],[142.198798,44.28339],[142.199245,44.282791],[142.200214,44.282626],[142.200676,44.282457],[142.200961,44.282209],[142.201246,44.282083],[142.202097,44.281161],[142.202338,44.281028],[142.203123,44.280767],[142.203467,44.280539],[142.203669,44.280295],[142.203698,44.279897],[142.203939,44.279267],[142.204234,44.278944],[142.204584,44.2787],[142.205066,44.278554],[142.206069,44.278358],[142.206784,44.278054],[142.207447,44.277876],[142.207649,44.277754],[142.207777,44.277577],[142.20792,44.276876],[142.208121,44.276581],[142.208303,44.276416],[142.208534,44.276317],[142.208751,44.276294],[142.208967,44.276341],[142.209169,44.276467],[142.2094,44.276668],[142.209562,44.276869],[142.209631,44.277046],[142.209783,44.277235],[142.20996,44.277341],[142.210059,44.277562],[142.210383,44.27792],[142.210757,44.278191],[142.210988,44.278286],[142.211263,44.278321],[142.211578,44.278235],[142.212365,44.277695],[142.212635,44.27764],[142.213073,44.277675],[142.214012,44.278026],[142.214671,44.278596],[142.215163,44.279168],[142.215713,44.279518],[142.216299,44.279703],[142.21652,44.279837],[142.217097,44.280463],[142.217161,44.281885],[142.217053,44.282133],[142.216935,44.282259],[142.216433,44.282621],[142.214727,44.283476],[142.213877,44.283705],[142.212977,44.283807],[142.212421,44.283815],[142.212254,44.283996],[142.212608,44.28459],[142.212859,44.28609],[142.212859,44.286421],[142.212805,44.28661],[142.212441,44.28724],[142.212347,44.287614],[142.212393,44.287849],[142.213925,44.287069],[142.214459,44.286955],[142.22524,44.286388],[142.226061,44.28623],[142.227624,44.285691],[142.228222,44.285815],[142.228699,44.285656],[142.229575,44.285879],[142.229885,44.285744],[142.230196,44.285839],[142.231094,44.28525],[142.231138,44.284995],[142.23146,44.285043],[142.231523,44.284692],[142.231346,44.284525],[142.231346,44.284437],[142.231778,44.284206],[142.232244,44.284174],[142.232597,44.283979],[142.232654,44.283632],[142.232732,44.28351],[142.233016,44.283433],[142.233456,44.282745],[142.233505,44.282618],[142.233149,44.282228],[142.233131,44.282107],[142.233202,44.281865],[142.233166,44.281744],[142.232998,44.281521],[142.23298,44.281394],[142.233078,44.28082],[142.233175,44.280527],[142.23353,44.28031],[142.234302,44.279985],[142.234204,44.279577],[142.234273,44.279226],[142.234122,44.278889],[142.234335,44.278666],[142.23445,44.278392],[142.235213,44.277965],[142.235151,44.277665],[142.235546,44.27776],[142.235653,44.277754],[142.235742,44.277659],[142.235511,44.277461],[142.235475,44.277346],[142.235511,44.277225],[142.235706,44.277142],[142.237152,44.277933],[142.238894,44.277104],[142.239906,44.276409],[142.240677,44.276384],[142.241077,44.277633],[142.24136,44.278041],[142.241595,44.278953],[142.241941,44.279698],[142.242296,44.280017],[142.243937,44.280909],[142.244381,44.281623],[142.244529,44.282101],[142.244547,44.282579],[142.244299,44.283388],[142.24429,44.283662],[142.244361,44.283841],[142.245886,44.28451],[142.247015,44.284835],[142.247769,44.28518],[142.248479,44.285887],[142.24871,44.286409],[142.248755,44.287006],[142.247569,44.288236],[142.24724,44.288388],[142.246572,44.28834],[142.24607,44.288605],[142.246011,44.288672],[142.24581,44.289306],[142.245545,44.289633],[142.245274,44.289846],[142.244251,44.290345],[142.243839,44.290637],[142.243367,44.290865],[142.242191,44.290956],[142.240613,44.290936],[142.240658,44.292043],[142.240773,44.292193],[142.242463,44.292999],[142.244124,44.293335],[142.244535,44.293641],[142.245247,44.29437],[142.245417,44.294666],[142.245886,44.295186],[142.24629,44.295421],[142.24573,44.295864],[142.245396,44.296211],[142.245247,44.297149],[142.245261,44.297292],[142.24541,44.297633],[142.245355,44.299342],[142.247463,44.299928],[142.248288,44.298761],[142.249453,44.297566],[142.251186,44.295296],[142.253792,44.294948],[142.254679,44.294788],[142.255608,44.295306],[142.256537,44.295754],[142.256898,44.295475],[142.258811,44.295217],[142.259601,44.294868],[142.260944,44.293896],[142.26198,44.293881],[142.263088,44.294039],[142.263939,44.293412],[142.26459,44.293101],[142.265804,44.292897],[142.266379,44.292744],[142.268054,44.291653],[142.268765,44.291255],[142.268978,44.292035],[142.26934,44.29385],[142.267107,44.295543],[142.266816,44.296843],[142.268206,44.299311],[142.268473,44.299617],[142.269403,44.300494],[142.272236,44.301238],[142.274782,44.301713],[142.274832,44.303375],[142.274757,44.308943],[142.272423,44.311238],[142.270698,44.312568],[142.261316,44.316183],[142.253572,44.319284],[142.254629,44.322639],[142.254956,44.323154],[142.255131,44.323608],[142.255302,44.324679],[142.256701,44.328431],[142.257063,44.329624],[142.257944,44.329797],[142.258609,44.330303],[142.259433,44.330802],[142.259469,44.330868],[142.259398,44.331042],[142.257949,44.331817],[142.256961,44.332281],[142.255876,44.332536],[142.255621,44.333097],[142.257155,44.333749],[142.257315,44.333989],[142.257499,44.334147],[142.257798,44.334264],[142.25745,44.334626],[142.25615,44.334907],[142.255866,44.334805],[142.254793,44.33558],[142.253394,44.336885],[142.253032,44.337104],[142.251547,44.337288],[142.250908,44.337696],[142.250361,44.337793],[142.249052,44.338144],[142.247381,44.339231],[142.246898,44.339577],[142.245142,44.341714],[142.244652,44.342468],[142.24419,44.343615],[142.243645,44.344273],[142.243233,44.344426],[142.243091,44.344533],[142.242487,44.345385],[142.242458,44.346093],[142.241308,44.346344],[142.240158,44.346063],[142.239397,44.346517],[142.239194,44.348072],[142.238839,44.348679],[142.237234,44.349041],[142.23621,44.349056],[142.234376,44.350627],[142.233168,44.351295],[142.231832,44.351631],[142.231534,44.351799],[142.231356,44.352635],[142.23239,44.354627],[142.232512,44.355232],[142.234056,44.356316],[142.234045,44.357678],[142.23409,44.358092],[142.234822,44.359542],[142.23499,44.361438],[142.2356,44.362283],[142.235223,44.363756],[142.23342,44.364155],[142.231777,44.364394],[142.228734,44.364585],[142.227924,44.364593],[142.227391,44.364514],[142.226791,44.36437],[142.225026,44.363566],[142.222476,44.361972],[142.220278,44.361],[142.220555,44.361415],[142.221233,44.361773],[142.222421,44.363255],[142.223454,44.364338],[142.225323,44.366465],[142.226367,44.366505],[142.227111,44.366163],[142.227733,44.365749],[142.229728,44.365621],[142.231616,44.366466],[142.232315,44.36637],[142.232004,44.366824],[142.232004,44.367047],[142.232138,44.367286],[142.232604,44.367597],[142.234979,44.368887],[142.235101,44.368879],[142.235312,44.368728],[142.235467,44.368481],[142.235656,44.367868],[142.23604,44.366239],[142.23628,44.365819],[142.236689,44.365328],[142.237035,44.365009],[142.237533,44.364761],[142.238608,44.36434],[142.23875,44.363875],[142.238998,44.363824],[142.239141,44.363161],[142.239212,44.363085],[142.240099,44.363346],[142.242489,44.362683],[142.244061,44.36274],[142.244336,44.362696],[142.244612,44.362568],[142.245357,44.361459],[142.245783,44.3613],[142.246192,44.361294],[142.246769,44.361517],[142.247666,44.361778],[142.247942,44.361791],[142.248244,44.361714],[142.248563,44.361529],[142.248626,44.361427],[142.248626,44.36123],[142.249114,44.360924],[142.249745,44.360357],[142.250633,44.360574],[142.251138,44.360624],[142.25136,44.360554],[142.251618,44.360388],[142.251733,44.360178],[142.251751,44.360038],[142.251493,44.359471],[142.251556,44.359139],[142.248962,44.358266],[142.248757,44.357654],[142.248677,44.357259],[142.249761,44.356966],[142.250471,44.355997],[142.251288,44.356667],[142.251981,44.357081],[142.252301,44.357393],[142.25271,44.35761],[142.254077,44.357941],[142.255659,44.358056],[142.25628,44.358413],[142.256556,44.358476],[142.256147,44.359184],[142.256458,44.359515],[142.255721,44.360401],[142.256829,44.36116],[142.256288,44.362058],[142.256057,44.362224],[142.255168,44.362594],[142.255008,44.363371],[142.255684,44.36376],[142.257567,44.36376],[142.256732,44.364372],[142.256501,44.36448],[142.256261,44.364505],[142.25547,44.3642],[142.254156,44.364346],[142.253161,44.364951],[142.252276,44.365181],[142.251512,44.365704],[142.250917,44.366029],[142.249682,44.366462],[142.247443,44.366481],[142.244769,44.366424],[142.242806,44.367342],[142.242664,44.367061],[142.242406,44.367049],[142.242051,44.366653],[142.241554,44.3665],[142.241083,44.366284],[142.240568,44.365825],[142.240143,44.365729],[142.239548,44.365876],[142.239112,44.365908],[142.238819,44.365844],[142.238437,44.3655],[142.237878,44.365596],[142.237629,44.365698],[142.237229,44.366258],[142.236945,44.366456],[142.236865,44.366615],[142.23698,44.367813],[142.237173,44.368279],[142.237209,44.368553],[142.236738,44.369012],[142.236613,44.369235],[142.234659,44.369636],[142.23075,44.368859],[142.228801,44.368559],[142.227059,44.368362],[142.225851,44.368406],[142.224234,44.367418],[142.223843,44.367087],[142.222424,44.365092],[142.220825,44.363518],[142.219591,44.361855],[142.218365,44.361402],[142.217512,44.361581],[142.217139,44.362556],[142.217699,44.363919],[142.217708,44.364053],[142.217024,44.364996],[142.216482,44.365328],[142.21634,44.365493],[142.216047,44.366022],[142.216647,44.366902],[142.218672,44.366864],[142.219321,44.36701],[142.219827,44.367304],[142.220138,44.367597],[142.222514,44.369037],[142.22382,44.371019],[142.223206,44.372066],[142.222951,44.372791],[142.221341,44.373062],[142.220652,44.373556],[142.219664,44.373866],[142.219515,44.374335],[142.218408,44.374379],[142.218357,44.374347],[142.217791,44.373206],[142.218102,44.371867],[142.218079,44.371644],[142.2173,44.37029],[142.217111,44.370011],[142.2156,44.369254],[142.214756,44.369214],[142.214568,44.368577],[142.213879,44.368378],[142.21382,44.367199],[142.21402,44.366983],[142.213976,44.366506],[142.213154,44.365653],[142.21221,44.365693],[142.21201,44.366561],[142.210533,44.367597],[142.208879,44.367724],[142.206303,44.368561],[142.205359,44.36927],[142.204359,44.36915],[142.203512,44.369134],[142.20249,44.369326],[142.202912,44.370082],[142.202924,44.370807],[142.203379,44.371206],[142.20269,44.371461],[142.202268,44.371732],[142.20169,44.372297],[142.200713,44.373675],[142.200369,44.373126],[142.200324,44.372958],[142.200591,44.372433],[142.201146,44.371644],[142.200413,44.371437],[142.199314,44.371907],[142.197459,44.371907],[142.195438,44.372425],[142.194527,44.372608],[142.194027,44.372616],[142.19283,44.373038],[142.191941,44.373747],[142.191797,44.374026],[142.19042,44.374361],[142.188298,44.3746],[142.187632,44.374162],[142.186322,44.374185],[142.186111,44.374114],[142.184511,44.374719],[142.184223,44.3755],[142.184129,44.375986],[142.183251,44.376719],[142.183051,44.378288],[142.183669,44.379754],[142.183803,44.380511],[142.183825,44.380917],[142.185091,44.381419],[142.185502,44.381634],[142.188201,44.380957],[142.190145,44.381379],[142.192444,44.381953],[142.19177,44.38271],[142.191004,44.383076],[142.189349,44.38306],[142.18816,44.383992],[142.188249,44.384717],[142.186883,44.385315],[142.185861,44.385291],[142.185084,44.383339],[142.185073,44.382431],[142.18404,44.381778],[142.183162,44.381674],[142.182573,44.381746],[142.182193,44.38127],[142.183165,44.380951],[142.18322,44.380842],[142.183165,44.380613],[142.182359,44.379438],[142.182054,44.37887],[142.181318,44.378263],[142.180874,44.378143],[142.180332,44.378084],[142.179222,44.378203],[142.178125,44.378502],[142.177597,44.378731],[142.176972,44.379109],[142.175681,44.379199],[142.178,44.377287],[142.179631,44.375365],[142.179894,44.374947],[142.179978,44.372397],[142.178825,44.37189],[142.180812,44.371531],[142.182423,44.371312],[142.183533,44.370883],[142.184852,44.370794],[142.186726,44.369818],[142.188828,44.369131],[142.188523,44.368394],[142.188384,44.367707],[142.189189,44.367856],[142.190189,44.368205],[142.191452,44.367946],[142.192824,44.367966],[142.194351,44.366741],[142.195057,44.365964],[142.196722,44.365625],[142.197902,44.365874],[142.199248,44.365446],[142.200414,44.364161],[142.202774,44.362319],[142.203523,44.361462],[142.204522,44.360825],[142.20387,44.360447],[142.205091,44.360516],[142.205175,44.360208],[142.205688,44.360477],[142.206535,44.35972],[142.208214,44.35965],[142.210244,44.358694],[142.208787,44.358077],[142.207593,44.357828],[142.204359,44.357838],[142.203735,44.357409],[142.202333,44.357609],[142.201847,44.357758],[142.198697,44.359182],[142.197711,44.359958],[142.196434,44.361203],[142.194554,44.361781],[142.193277,44.361821],[142.192305,44.36197],[142.19089,44.361741],[142.190126,44.361801],[142.189168,44.361791],[142.187503,44.36194],[142.18488,44.361622],[142.184338,44.361223],[142.182505,44.360875],[142.180409,44.361184],[142.176926,44.361224],[142.175107,44.361144],[142.170837,44.362269],[142.170671,44.362468],[142.169116,44.362518],[142.168977,44.361413],[142.16734,44.360646],[142.166229,44.35967],[142.165119,44.359342],[142.164261,44.358754],[142.163498,44.358365],[142.162498,44.357967],[142.161137,44.357932],[142.158622,44.357371],[142.158154,44.355554],[142.156245,44.354198],[142.155326,44.354086],[142.154146,44.353189],[142.155951,44.352044],[142.158243,44.349504],[142.157748,44.349124],[142.156111,44.349584],[142.155134,44.349576],[142.154701,44.34948],[142.153136,44.34858],[142.149944,44.345282],[142.145659,44.345871],[142.14466,44.346062],[142.143494,44.346763],[142.142435,44.347584],[142.143821,44.348121],[142.144934,44.348206],[142.148418,44.348802],[142.14895,44.349269],[142.148962,44.349609],[142.14882,44.350323],[142.14811,44.350425],[142.147944,44.350714],[142.147814,44.350782],[142.147802,44.351002],[142.147005,44.351674],[142.148189,44.353535],[142.14996,44.356153],[142.149936,44.356322],[142.149711,44.356696],[142.147982,44.356774],[142.147236,44.357572],[142.147959,44.358159],[142.147899,44.35866],[142.14681,44.359365],[142.146312,44.35962],[142.145318,44.359705],[142.144472,44.360818],[142.143063,44.360589],[142.142838,44.359],[142.141547,44.358745],[142.140718,44.358974],[142.140659,44.359093],[142.140624,44.359501],[142.141192,44.360427],[142.141549,44.360905],[142.145232,44.362791],[142.14692,44.363123],[142.148306,44.363488],[142.150118,44.364236],[142.151338,44.36608],[142.151229,44.36852],[142.15233,44.370984],[142.1513,44.371731],[142.149551,44.371537],[142.148058,44.37401],[142.147572,44.374706],[142.147075,44.37526],[142.147015,44.376211],[142.147904,44.377095],[142.148437,44.377222],[142.148698,44.376194],[142.149669,44.376101],[142.150759,44.377732],[142.149953,44.37972],[142.14805,44.380283],[142.146071,44.37973],[142.145064,44.382075],[142.145882,44.384004],[142.145443,44.38494],[142.146012,44.386155],[142.144993,44.387752],[142.144981,44.38878],[142.144061,44.389137],[142.142971,44.388729],[142.142698,44.387803],[142.141158,44.38686],[142.140423,44.387056],[142.140376,44.387693],[142.140613,44.387837],[142.142191,44.389342],[142.144679,44.391517],[142.14417,44.392401],[142.142914,44.392418],[142.141577,44.391482],[142.141155,44.391737],[142.140966,44.391936],[142.136911,44.391139],[142.135778,44.39043],[142.133078,44.390008],[142.130513,44.390255],[142.127614,44.390717],[142.125236,44.390789],[142.124318,44.391075],[142.123307,44.390964],[142.122397,44.390086],[142.122189,44.389625],[142.121008,44.389314],[142.119707,44.389215],[142.118769,44.389314],[142.118561,44.389277],[142.117971,44.389003],[142.117381,44.388804],[142.117033,44.388767],[142.116218,44.388816],[142.114794,44.388991],[142.112815,44.388866],[142.111357,44.388431],[142.108823,44.388543],[142.10858,44.388518],[142.107643,44.388219],[142.107434,44.388231],[142.105617,44.388717],[142.105583,44.389065],[142.105149,44.389688],[142.103257,44.389837],[142.102302,44.390086],[142.100722,44.389738],[142.098414,44.390335],[142.096904,44.390659],[142.095741,44.390223],[142.095081,44.389762],[142.094255,44.389352],[142.093873,44.389252],[142.092103,44.389103],[142.091183,44.388306],[142.089516,44.388144],[142.089186,44.388169],[142.088284,44.387709],[142.087404,44.38741],[142.086571,44.387285],[142.086033,44.387323],[142.085703,44.38726],[142.085286,44.386825],[142.085078,44.386675],[142.084349,44.386476],[142.084176,44.386389],[142.083794,44.385891],[142.083637,44.385817],[142.083047,44.38573],[142.082474,44.385443],[142.081764,44.385512],[142.080583,44.385463],[142.079403,44.385542],[142.077223,44.385094],[142.076696,44.385433],[142.074224,44.385522],[142.073363,44.385831],[142.073002,44.38614],[142.071988,44.386628],[142.071419,44.387056],[142.071169,44.387116],[142.070905,44.387066],[142.070364,44.386797],[142.06867,44.386528],[142.06786,44.386847],[142.066069,44.386847],[142.065222,44.386787],[142.064874,44.386727],[142.064208,44.386299],[142.063986,44.38624],[142.062819,44.38624],[142.061736,44.386359],[142.060084,44.385901],[142.059876,44.385801],[142.058654,44.386618],[142.05832,44.386658],[142.057821,44.387205],[142.057057,44.387395],[142.056113,44.387962],[142.055738,44.38853],[142.054807,44.389117],[142.052243,44.387873],[142.05141,44.387663],[142.050924,44.387484],[142.049341,44.386737],[142.047869,44.38625],[142.044814,44.385592],[142.04355,44.385124],[142.042592,44.384577],[142.041492,44.384387],[142.039798,44.384308],[142.039034,44.384358],[142.038798,44.384278],[142.038132,44.38377],[142.037965,44.383551],[142.037882,44.383242],[142.037521,44.382834],[142.03704,44.382445],[142.036401,44.382107],[142.035373,44.381927],[142.034346,44.381888],[142.033735,44.381738],[142.033096,44.381509],[142.03175,44.381639],[142.031777,44.38122],[142.031958,44.380902],[142.031722,44.380304],[142.031639,44.37907],[142.031645,44.377924],[142.031589,44.377775],[142.031268,44.377592],[142.030795,44.377457],[142.030539,44.377453],[142.02998,44.37755],[142.029401,44.377959],[142.028982,44.37814],[142.028427,44.378233],[142.027318,44.37816],[142.026894,44.378229],[142.02659,44.378368],[142.026364,44.378542],[142.026301,44.378693],[142.026286,44.379001],[142.026508,44.380855],[142.026502,44.381253],[142.026377,44.381682],[142.025624,44.382902],[142.024575,44.384045],[142.02363,44.385273],[142.023264,44.385925],[142.022987,44.386549],[142.022784,44.387244],[142.022687,44.387919],[142.022707,44.388054],[142.022577,44.388444],[142.022286,44.388989],[142.021909,44.389545],[142.021355,44.390062],[142.021292,44.390216],[142.021514,44.390483],[142.02163,44.390703],[142.021745,44.391356],[142.02162,44.392233],[142.021615,44.392881],[142.021528,44.393264],[142.021359,44.393576],[142.021205,44.393743],[142.021147,44.393912],[142.019792,44.39466]]]]}}]}
