{"type":"FeatureCollection","features":[{"type":"Feature","properties":{"potaRef":"JP-1537","nameJa":"Seppikomine yama","nameEn":"Seppiko Mineyama Prefectural Nature Park","authority":"環境省 生物多様性「見える化」マップ","boundaryStatus":"全国GIS候補・公開前検証待ち","boundarySource":"環境省 生物多様性「見える化」マップの自然公園区域を、POTA代表座標で一意に空間照合して加工","boundaryScaleNote":"区域は概要データであり、正確性は保証されない。POTA運用可否は公式情報で最終確認すること。","candidateMethod":"POTA representative point inside one public natural-park area","sourceParkKind":"都道府県立自然公園","sourceName":"Seppikomine yama","sourceFeatureCount":1,"cautionMeters":75},"geometry":{"type":"MultiPolygon","coordinates":[[[[134.728187,35.193314],[134.727919,35.193411],[134.726978,35.193989],[134.726619,35.194123],[134.726215,35.194239],[134.724436,35.19454],[134.724529,35.194179],[134.724446,35.193972],[134.724468,35.193775],[134.724626,35.19338],[134.724983,35.192857],[134.724105,35.192675],[134.724074,35.192563],[134.724233,35.192082],[134.724369,35.191937],[134.724254,35.191885],[134.723772,35.19209],[134.723594,35.192047],[134.723574,35.191883],[134.723617,35.191703],[134.723533,35.191583],[134.723702,35.191119],[134.723724,35.190939],[134.72364,35.19087],[134.723274,35.190835],[134.72317,35.190749],[134.723191,35.190646],[134.723495,35.190414],[134.72359,35.190208],[134.724051,35.190081],[134.724355,35.189841],[134.724932,35.189516],[134.724796,35.189421],[134.72443,35.189309],[134.723981,35.189273],[134.723395,35.189057],[134.723229,35.188885],[134.723146,35.188687],[134.722895,35.188601],[134.722665,35.188592],[134.722005,35.188753],[134.721796,35.188573],[134.721797,35.188426],[134.721609,35.188168],[134.72116,35.188047],[134.720868,35.187866],[134.720774,35.187728],[134.720733,35.187539],[134.720754,35.187333],[134.72065,35.18723],[134.720389,35.187023],[134.720107,35.186963],[134.719887,35.186971],[134.719772,35.18691],[134.7197,35.186652],[134.719607,35.186518],[134.719147,35.186604],[134.718606,35.186902],[134.718189,35.187014],[134.717598,35.187051],[134.71704,35.187196],[134.716173,35.187099],[134.715364,35.187133],[134.715169,35.187032],[134.714284,35.1863],[134.713498,35.185756],[134.713063,35.184966],[134.712826,35.184783],[134.711382,35.184546],[134.710647,35.184502],[134.710311,35.184435],[134.709707,35.184174],[134.709234,35.183887],[134.708839,35.183741],[134.708127,35.183644],[134.70745,35.183671],[134.706419,35.183418],[134.706215,35.183429],[134.706078,35.183535],[134.706014,35.183896],[134.705888,35.183973],[134.705888,35.184059],[134.70595,35.184136],[134.705919,35.184239],[134.705751,35.184264],[134.705415,35.184556],[134.7053,35.184598],[134.705352,35.184676],[134.705645,35.184754],[134.705968,35.184909],[134.70602,35.185012],[134.70537,35.185552],[134.705327,35.18568],[134.705432,35.185749],[134.705798,35.185767],[134.705934,35.185845],[134.705965,35.18594],[134.705671,35.186231],[134.705586,35.186488],[134.70568,35.186557],[134.705816,35.186575],[134.706088,35.186541],[134.706349,35.186611],[134.706558,35.186731],[134.706641,35.186912],[134.706473,35.187264],[134.706692,35.187479],[134.706869,35.187522],[134.707015,35.187626],[134.707087,35.187969],[134.706972,35.188081],[134.7067,35.188123],[134.706396,35.188062],[134.706124,35.18813],[134.705727,35.188138],[134.705412,35.1883],[134.705266,35.188214],[134.705046,35.188171],[134.704785,35.188247],[134.704763,35.188333],[134.704847,35.188488],[134.704752,35.188659],[134.704887,35.18896],[134.704771,35.189106],[134.704457,35.189286],[134.703587,35.189653],[134.703419,35.189704],[134.703378,35.189566],[134.703389,35.1893],[134.703245,35.188785],[134.702974,35.188543],[134.702744,35.188414],[134.702369,35.187949],[134.702024,35.187948],[134.70174,35.188214],[134.701155,35.188092],[134.700851,35.188134],[134.700568,35.188237],[134.700391,35.188185],[134.70012,35.187969],[134.69944,35.187779],[134.69899,35.187932],[134.698749,35.187932],[134.698342,35.187802],[134.698184,35.188093],[134.698016,35.188127],[134.696375,35.187848],[134.695705,35.187873],[134.695495,35.187924],[134.695454,35.187812],[134.695507,35.187554],[134.695414,35.187219],[134.695678,35.186747],[134.695825,35.186627],[134.695951,35.186422],[134.696318,35.186131],[134.696927,35.185505],[134.696331,35.185444],[134.695945,35.185331],[134.695788,35.185193],[134.695264,35.185389],[134.695097,35.185355],[134.695014,35.185191],[134.69491,35.185122],[134.694669,35.185139],[134.694449,35.185276],[134.694313,35.185275],[134.694229,35.185224],[134.69419,35.184596],[134.694096,35.184493],[134.693907,35.184527],[134.693793,35.184458],[134.693793,35.184286],[134.693659,35.183925],[134.693419,35.183607],[134.693399,35.183401],[134.693295,35.18316],[134.693266,35.182662],[134.693152,35.182378],[134.692839,35.182059],[134.692829,35.181887],[134.692978,35.181373],[134.692958,35.181166],[134.692864,35.181115],[134.692706,35.181191],[134.69255,35.1812],[134.692424,35.181131],[134.692175,35.180572],[134.691896,35.179798],[134.691928,35.179618],[134.692264,35.179292],[134.692327,35.179138],[134.692192,35.178966],[134.692192,35.178811],[134.692371,35.178528],[134.692717,35.178357],[134.692666,35.178065],[134.69297,35.177963],[134.693282,35.178307],[134.693366,35.178333],[134.693596,35.178256],[134.693722,35.1783],[134.693836,35.17842],[134.693962,35.178438],[134.694119,35.178361],[134.694464,35.178482],[134.694579,35.178431],[134.694796,35.178053],[134.694577,35.177605],[134.694627,35.176696],[134.694573,35.176527],[134.694283,35.176176],[134.693906,35.175927],[134.693493,35.175569],[134.693352,35.175331],[134.693047,35.175003],[134.692766,35.174063],[134.692852,35.173664],[134.692366,35.172989],[134.692081,35.172822],[134.691481,35.172658],[134.69134,35.172576],[134.691073,35.172315],[134.689411,35.171243],[134.688629,35.170863],[134.688044,35.170748],[134.687894,35.170674],[134.687681,35.170474],[134.687662,35.170191],[134.687599,35.170068],[134.687281,35.169993],[134.686219,35.170075],[134.685764,35.169945],[134.685328,35.1699],[134.684758,35.169219],[134.684497,35.168828],[134.684247,35.168666],[134.683916,35.168584],[134.6829,35.168489],[134.682279,35.168508],[134.681587,35.168446],[134.680855,35.168685],[134.680466,35.168699],[134.679444,35.169205],[134.679038,35.169338],[134.677359,35.169639],[134.676836,35.169798],[134.676306,35.170323],[134.675684,35.170733],[134.675434,35.170815],[134.675348,35.170752],[134.674747,35.169739],[134.67455,35.169544],[134.674329,35.16941],[134.673371,35.16909],[134.672686,35.168728],[134.671779,35.168587],[134.67121,35.168434],[134.669973,35.168372],[134.669787,35.16831],[134.669677,35.168205],[134.669654,35.168091],[134.669927,35.167843],[134.669991,35.167747],[134.669985,35.167652],[134.669317,35.166569],[134.669282,35.165618],[134.669195,35.165212],[134.669009,35.164883],[134.668991,35.164726],[134.669119,35.164368],[134.669055,35.163786],[134.667256,35.162948],[134.666434,35.16273],[134.6658,35.162654],[134.664932,35.162674],[134.66437,35.162776],[134.662802,35.163359],[134.662377,35.163298],[134.661942,35.163327],[134.661561,35.163549],[134.660944,35.164067],[134.659954,35.164748],[134.659619,35.164785],[134.659194,35.164776],[134.657811,35.164341],[134.657169,35.164272],[134.656806,35.164301],[134.656417,35.16424],[134.655713,35.163897],[134.654655,35.163589],[134.653905,35.163312],[134.653083,35.162908],[134.652116,35.162771],[134.651754,35.162614],[134.651087,35.162003],[134.649441,35.161805],[134.648517,35.161869],[134.648128,35.161979],[134.647612,35.162023],[134.645965,35.161862],[134.645711,35.162136],[134.645393,35.162247],[134.64504,35.16226],[134.64448,35.162162],[134.643937,35.161982],[134.643657,35.161989],[134.642968,35.162128],[134.64257,35.16209],[134.641712,35.161812],[134.641286,35.161803],[134.64106,35.161907],[134.640594,35.162723],[134.640286,35.162833],[134.640142,35.162811],[134.640006,35.162706],[134.639484,35.162132],[134.6383,35.161742],[134.637099,35.161018],[134.636892,35.160943],[134.636158,35.161015],[134.635797,35.160903],[134.635418,35.160664],[134.634613,35.160542],[134.634342,35.160445],[134.634026,35.160176],[134.633566,35.159915],[134.63335,35.159609],[134.632791,35.159184],[134.631435,35.158689],[134.631083,35.158629],[134.630749,35.158427],[134.630096,35.157779],[134.629391,35.15742],[134.62889,35.157229],[134.627139,35.157235],[134.626189,35.157187],[134.624752,35.156626],[134.62444,35.156613],[134.623506,35.156142],[134.622611,35.155883],[134.622449,35.155693],[134.622232,35.15577],[134.622055,35.15577],[134.62036,35.15527],[134.619993,35.155302],[134.619258,35.155651],[134.617301,35.156264],[134.616913,35.15643],[134.616363,35.156411],[134.615304,35.156475],[134.615437,35.154151],[134.615547,35.153571],[134.615738,35.153018],[134.616181,35.152336],[134.616355,35.151873],[134.616311,35.151203],[134.616518,35.150727],[134.616817,35.150341],[134.616881,35.150058],[134.61665,35.149246],[134.616497,35.148434],[134.616658,35.147558],[134.616848,35.147095],[134.617352,35.146749],[134.618046,35.145849],[134.61855,35.14549],[134.619241,35.14517],[134.620846,35.144067],[134.621436,35.141995],[134.621642,35.141673],[134.621987,35.141507],[134.623214,35.140738],[134.623215,35.140596],[134.623106,35.14039],[134.622278,35.13964],[134.621825,35.139303],[134.621732,35.139058],[134.621751,35.13844],[134.621974,35.137616],[134.622322,35.136921],[134.622891,35.135957],[134.62327,35.135481],[134.623428,35.135173],[134.62343,35.134748],[134.62315,35.13436],[134.621618,35.133248],[134.620899,35.132807],[134.620743,35.132588],[134.620731,35.131789],[134.620811,35.13139],[134.621095,35.131069],[134.621521,35.130374],[134.622183,35.129732],[134.622388,35.129604],[134.622968,35.129606],[134.623268,35.129194],[134.62338,35.128679],[134.623461,35.127971],[134.624476,35.125539],[134.624742,35.12563],[134.625009,35.125657],[134.625793,35.125569],[134.626674,35.124971],[134.626767,35.124844],[134.626663,35.123961],[134.626789,35.123846],[134.627621,35.123565],[134.627703,35.122857],[134.627798,35.122599],[134.628286,35.12224],[134.628709,35.12228],[134.629259,35.12205],[134.629447,35.122076],[134.629603,35.122231],[134.629822,35.122348],[134.630434,35.122234],[134.630858,35.122261],[134.631045,35.122364],[134.631171,35.1223],[134.631469,35.12234],[134.631656,35.122521],[134.631875,35.122573],[134.632158,35.122548],[134.632472,35.122369],[134.632881,35.122022],[134.633148,35.121946],[134.633587,35.122037],[134.633837,35.122167],[134.634699,35.122337],[134.635432,35.123202],[134.635714,35.123203],[134.635919,35.123049],[134.636078,35.122573],[134.636251,35.122393],[134.63715,35.121146],[134.637104,35.120978],[134.636822,35.120862],[134.635788,35.12082],[134.63502,35.120624],[134.634364,35.120171],[134.633769,35.119925],[134.632938,35.119871],[134.631527,35.119918],[134.630931,35.119813],[134.630494,35.119425],[134.630261,35.118999],[134.629979,35.118805],[134.62907,35.118815],[134.628819,35.118776],[134.628522,35.118595],[134.628273,35.118272],[134.627945,35.117975],[134.627616,35.117858],[134.626443,35.11721],[134.625881,35.116641],[134.625555,35.11606],[134.623944,35.115192],[134.623365,35.114933],[134.62302,35.114932],[134.622579,35.115188],[134.622296,35.115432],[134.621649,35.116255],[134.621099,35.116652],[134.620754,35.116728],[134.620111,35.116623],[134.619548,35.116351],[134.619109,35.116259],[134.617101,35.116537],[134.615988,35.116546],[134.615361,35.116389],[134.614689,35.115949],[134.614691,35.115498],[134.614473,35.115214],[134.613426,35.114592],[134.613191,35.114514],[134.612846,35.114552],[134.612611,35.114512],[134.61247,35.114357],[134.61244,35.114074],[134.611955,35.113931],[134.611595,35.113749],[134.610503,35.112638],[134.609847,35.112133],[134.608002,35.111058],[134.607596,35.110747],[134.60677,35.109753],[134.606036,35.109055],[134.605319,35.108228],[134.604789,35.107517],[134.604227,35.107116],[134.6034,35.106186],[134.602248,35.104662],[134.602688,35.10438],[134.604089,35.103199],[134.604922,35.102828],[134.605832,35.102574],[134.60729,35.102501],[134.608216,35.102375],[134.60897,35.102055],[134.609582,35.101929],[134.610115,35.101969],[134.610539,35.101816],[134.611027,35.101444],[134.611597,35.100106],[134.611833,35.100016],[134.612327,35.09994],[134.612844,35.099942],[134.613268,35.099866],[134.613833,35.099636],[134.614116,35.099463],[134.614165,35.099154],[134.613912,35.09782],[134.614035,35.096719],[134.614155,35.096197],[134.614011,35.09522],[134.613743,35.094386],[134.613745,35.093896],[134.614403,35.093984],[134.614956,35.094175],[134.615353,35.094236],[134.615604,35.094203],[134.615856,35.094058],[134.616264,35.093921],[134.617737,35.093892],[134.619496,35.093339],[134.619894,35.09304],[134.620491,35.092792],[134.621434,35.092211],[134.622146,35.091861],[134.62269,35.091803],[134.622973,35.091649],[134.623378,35.091599],[134.624256,35.091627],[134.62446,35.091499],[134.624727,35.091436],[134.625494,35.091477],[134.626137,35.091582],[134.626544,35.091725],[134.627106,35.092049],[134.628564,35.092169],[134.629129,35.092016],[134.629757,35.091735],[134.63073,35.091518],[134.631592,35.091457],[134.634069,35.091464],[134.636311,35.091239],[134.64003,35.090374],[134.63989,35.090052],[134.639829,35.089575],[134.639957,35.089008],[134.640068,35.088764],[134.640272,35.08879],[134.640681,35.088405],[134.640823,35.088122],[134.640699,35.087864],[134.640231,35.087296],[134.639718,35.086315],[134.638986,35.085424],[134.63844,35.084868],[134.638394,35.084585],[134.638521,35.084276],[134.638679,35.083954],[134.63893,35.083736],[134.639026,35.083453],[134.638948,35.083233],[134.638667,35.083091],[134.638277,35.082703],[134.638013,35.082071],[134.637561,35.081477],[134.636858,35.081024],[134.636358,35.08061],[134.635906,35.079991],[134.634876,35.079163],[134.634344,35.078814],[134.634049,35.078375],[134.633627,35.078077],[134.633424,35.077844],[134.633425,35.077587],[134.632726,35.076271],[134.632762,35.075188],[134.632536,35.073268],[134.632523,35.072495],[134.631001,35.07298],[134.62868,35.073359],[134.627505,35.073382],[134.627192,35.073329],[134.627005,35.07311],[134.627069,35.072749],[134.627369,35.072222],[134.627627,35.070677],[134.628858,35.068696],[134.628765,35.0684],[134.62847,35.067858],[134.627784,35.067108],[134.627707,35.066863],[134.627802,35.066567],[134.628227,35.066208],[134.628041,35.065731],[134.627448,35.065252],[134.627355,35.065046],[134.627512,35.064814],[134.62789,35.064442],[134.628065,35.063901],[134.628051,35.063515],[134.627614,35.063049],[134.627428,35.062688],[134.627445,35.062418],[134.627743,35.062238],[134.628464,35.062202],[134.628951,35.062049],[134.629234,35.06183],[134.629251,35.061586],[134.628175,35.060462],[134.62696,35.058822],[134.626632,35.05855],[134.624895,35.058145],[134.624441,35.057989],[134.623879,35.057614],[134.623284,35.057445],[134.622783,35.05743],[134.623119,35.055769],[134.623987,35.054419],[134.624855,35.053172],[134.625579,35.052492],[134.627575,35.050965],[134.627796,35.050643],[134.627814,35.050141],[134.627691,35.049664],[134.627756,35.049123],[134.627945,35.048776],[134.62848,35.048339],[134.629171,35.048058],[134.629486,35.047634],[134.629849,35.046926],[134.629992,35.046501],[134.629963,35.046128],[134.629699,35.045521],[134.629657,35.044362],[134.629441,35.043678],[134.629176,35.043394],[134.628803,35.042684],[134.628805,35.042259],[134.62953,35.041256],[134.6298,35.040562],[134.630573,35.03925],[134.630997,35.039148],[134.631843,35.039048],[134.632533,35.038843],[134.634245,35.037857],[134.634811,35.037459],[134.635234,35.037383],[134.635672,35.037474],[134.636642,35.03789],[134.636939,35.037916],[134.638632,35.037561],[134.641487,35.036641],[134.643054,35.036265],[134.643534,35.036266],[134.644698,35.036793],[134.645432,35.037194],[134.645808,35.037298],[134.646168,35.037274],[134.647125,35.036864],[134.6478,35.036673],[134.648818,35.036637],[134.649178,35.036819],[134.6496,35.036858],[134.651527,35.036812],[134.652794,35.037434],[134.653623,35.037656],[134.654312,35.037709],[134.654921,35.038007],[134.656457,35.037717],[134.656724,35.037716],[134.657991,35.038274],[134.659039,35.038547],[134.659337,35.038548],[134.659635,35.038472],[134.659742,35.038897],[134.659394,35.039759],[134.659439,35.040236],[134.659092,35.040841],[134.659076,35.041021],[134.65923,35.041627],[134.658788,35.042437],[134.658676,35.042836],[134.658722,35.0433],[134.658956,35.043417],[134.659331,35.043766],[134.65942,35.044887],[134.659168,35.045208],[134.659151,35.045479],[134.659322,35.045776],[134.659728,35.046086],[134.660103,35.046461],[134.660254,35.046898],[134.660272,35.047157],[134.660507,35.047274],[134.660725,35.04757],[134.661019,35.048306],[134.661284,35.048706],[134.661754,35.04881],[134.662004,35.048927],[134.662642,35.050011],[134.663002,35.050128],[134.663314,35.050296],[134.664095,35.050968],[134.664737,35.051099],[134.665127,35.051332],[134.66544,35.051552],[134.665783,35.051991],[134.666142,35.052224],[134.666681,35.052379],[134.668597,35.053467],[134.669096,35.053919],[134.669797,35.055042],[134.67006,35.055803],[134.670167,35.056551],[134.67007,35.057156],[134.66931,35.059125],[134.668162,35.060152],[134.667894,35.060628],[134.667735,35.061143],[134.66767,35.061826],[134.666962,35.062571],[134.666693,35.063073],[134.665727,35.065711],[134.665725,35.066098],[134.665849,35.06642],[134.665801,35.066691],[134.665422,35.06745],[134.66528,35.06772],[134.664605,35.067899],[134.664228,35.068104],[134.663992,35.068399],[134.663928,35.068824],[134.664036,35.069224],[134.664191,35.069456],[134.664222,35.069701],[134.663559,35.070769],[134.663464,35.071],[134.66357,35.07189],[134.663269,35.072803],[134.662844,35.073227],[134.662812,35.073433],[134.662872,35.07391],[134.663012,35.074271],[134.662932,35.074722],[134.662709,35.075456],[134.662567,35.075726],[134.662018,35.075969],[134.661829,35.076214],[134.661607,35.076754],[134.661495,35.077321],[134.661493,35.077887],[134.661413,35.078222],[134.660926,35.078582],[134.660345,35.078786],[134.660528,35.079907],[134.660062,35.081255],[134.66008,35.081482],[134.660214,35.081849],[134.660335,35.082048],[134.660694,35.082384],[134.660743,35.082547],[134.660708,35.082763],[134.660566,35.083114],[134.660594,35.083371],[134.660836,35.083639],[134.661304,35.084036],[134.661468,35.084334],[134.661549,35.084553],[134.661606,35.085038],[134.66157,35.085394],[134.661599,35.085592],[134.661783,35.085972],[134.662433,35.086533],[134.663209,35.08737],[134.66329,35.08759],[134.663081,35.088043],[134.662709,35.088501],[134.662547,35.089315],[134.66225,35.089625],[134.662309,35.089716],[134.662639,35.089826],[134.663854,35.089883],[134.664144,35.090059],[134.664638,35.090696],[134.664788,35.090773],[134.665311,35.090863],[134.665788,35.091049],[134.66631,35.09135],[134.666926,35.091603],[134.667431,35.091932],[134.667599,35.091989],[134.66868,35.09205],[134.669783,35.092442],[134.670561,35.092585],[134.670806,35.09289],[134.67098,35.092967],[134.672379,35.093357],[134.673907,35.093872],[134.674505,35.09423],[134.674714,35.094301],[134.675051,35.094359],[134.67537,35.094339],[134.675556,35.094158],[134.675721,35.093835],[134.676518,35.09417],[134.677565,35.094998],[134.678829,35.096302],[134.679265,35.097128],[134.679575,35.097915],[134.680231,35.098548],[134.680433,35.098974],[134.680621,35.099167],[134.680729,35.09949],[134.680728,35.099747],[134.680837,35.099979],[134.681336,35.100625],[134.681583,35.10154],[134.681674,35.102507],[134.681636,35.10404],[134.682054,35.104643],[134.68243,35.104756],[134.68266,35.104731],[134.683466,35.104406],[134.684198,35.104314],[134.686414,35.104294],[134.687177,35.104227],[134.687637,35.104108],[134.688296,35.104127],[134.689016,35.104301],[134.689746,35.10462],[134.690935,35.105508],[134.691707,35.105707],[134.694267,35.105826],[134.694947,35.105896],[134.696064,35.106131],[134.696335,35.106295],[134.696533,35.106536],[134.697148,35.106949],[134.699286,35.108192],[134.699839,35.108416],[134.700811,35.108367],[134.701701,35.108103],[134.701953,35.10776],[134.70227,35.106782],[134.702678,35.106723],[134.703152,35.105719],[134.703585,35.104328],[134.703975,35.103574],[134.704227,35.103282],[134.705315,35.10277],[134.706541,35.101991],[134.706949,35.101846],[134.707389,35.101606],[134.70851,35.10075],[134.709948,35.098967],[134.710201,35.098461],[134.710412,35.097826],[134.710529,35.097285],[134.71101,35.097149],[134.714168,35.096701],[134.714167,35.096899],[134.714019,35.097268],[134.713809,35.097568],[134.7136,35.09767],[134.713307,35.097713],[134.713203,35.09779],[134.712981,35.09833],[134.712572,35.09875],[134.712326,35.09912],[134.712262,35.099309],[134.712282,35.099532],[134.71249,35.100048],[134.712457,35.100306],[134.712498,35.100546],[134.712613,35.100641],[134.712633,35.100761],[134.712558,35.10144],[134.712654,35.101667],[134.712903,35.102042],[134.713247,35.102261],[134.713591,35.102649],[134.713824,35.103229],[134.714714,35.104288],[134.715541,35.105526],[134.715915,35.105939],[134.716926,35.108351],[134.717347,35.109119],[134.717742,35.109626],[134.717836,35.109815],[134.717792,35.110313],[134.717655,35.110554],[134.717299,35.110879],[134.71713,35.111214],[134.717088,35.11142],[134.716878,35.111728],[134.716626,35.111934],[134.716239,35.112139],[134.715777,35.11255],[134.715431,35.112996],[134.71504,35.114086],[134.71504,35.114232],[134.715352,35.114576],[134.715529,35.114929],[134.715371,35.115109],[134.714994,35.1154],[134.715025,35.115606],[134.715212,35.115968],[134.715313,35.116792],[134.715069,35.117762],[134.715069,35.11802],[134.715712,35.119284],[134.716242,35.120153],[134.7162,35.12041],[134.716239,35.12114],[134.716551,35.121553],[134.717104,35.121907],[134.717886,35.122561],[134.718469,35.123207],[134.718646,35.123482],[134.718457,35.123671],[134.718469,35.123838],[134.718406,35.124006],[134.718265,35.124134],[134.717197,35.124518],[134.71704,35.124672],[134.717054,35.124879],[134.717336,35.125137],[134.719733,35.125684],[134.719874,35.125761],[134.720139,35.126187],[134.720421,35.126304],[134.720625,35.126304],[134.721676,35.126049],[134.722163,35.125985],[134.724515,35.125901],[134.725394,35.125684],[134.725567,35.125568],[134.725693,35.125362],[134.725929,35.125234],[134.72607,35.125234],[134.726148,35.125312],[134.726336,35.125312],[134.726587,35.12521],[134.727545,35.12507],[134.728408,35.124724],[134.728643,35.124699],[134.729098,35.12479],[134.731246,35.124885],[134.731576,35.12477],[134.732347,35.123908],[134.732802,35.123703],[134.733163,35.12364],[134.734006,35.124762],[134.73499,35.125898],[134.735521,35.126724],[134.736396,35.127705],[134.736849,35.128092],[134.737163,35.128235],[134.737787,35.129009],[134.737943,35.129435],[134.738187,35.129863],[134.739146,35.130732],[134.73926,35.130973],[134.739291,35.131205],[134.739175,35.131617],[134.739205,35.132072],[134.739371,35.132502],[134.739242,35.133455],[134.739229,35.134391],[134.739143,35.134941],[134.739226,35.135267],[134.739768,35.135861],[134.740823,35.136138],[134.741042,35.136242],[134.741239,35.136611],[134.741229,35.136706],[134.741072,35.136791],[134.740298,35.13685],[134.739816,35.136952],[134.739471,35.137106],[134.739418,35.137226],[134.739449,35.137552],[134.739394,35.137678],[134.739247,35.13785],[134.73878,35.138043],[134.738751,35.138152],[134.738855,35.13837],[134.738834,35.138513],[134.738589,35.13869],[134.738524,35.139342],[134.738398,35.139606],[134.738119,35.139817],[134.738104,35.13996],[134.738271,35.140041],[134.738446,35.140041],[134.738669,35.139944],[134.738976,35.139956],[134.739436,35.139848],[134.739889,35.139844],[134.740105,35.13997],[134.740231,35.140109],[134.739859,35.139999],[134.739639,35.140018],[134.739215,35.140157],[134.738541,35.140577],[134.738198,35.140629],[134.737815,35.140534],[134.737443,35.140558],[134.735474,35.141014],[134.735178,35.141129],[134.735085,35.141229],[134.734946,35.141611],[134.734516,35.14205],[134.734272,35.142408],[134.733337,35.143072],[134.732867,35.143492],[134.731955,35.144446],[134.731281,35.145429],[134.730642,35.146199],[134.729695,35.147091],[134.729579,35.147234],[134.729585,35.147434],[134.72991,35.147721],[134.729991,35.147864],[134.729986,35.147954],[134.729585,35.148293],[134.729387,35.148709],[134.729074,35.149029],[134.728719,35.149836],[134.728313,35.150446],[134.728226,35.150751],[134.728261,35.151167],[134.728249,35.151359],[134.728185,35.151497],[134.728104,35.151621],[134.727506,35.151931],[134.727436,35.152069],[134.727424,35.152203],[134.72761,35.152924],[134.727987,35.153334],[134.72804,35.153449],[134.728063,35.153601],[134.727953,35.153949],[134.727848,35.154128],[134.727558,35.154443],[134.727302,35.154606],[134.726966,35.154448],[134.726704,35.154405],[134.726617,35.154458],[134.726507,35.154644],[134.726222,35.154773],[134.726065,35.154806],[134.725316,35.154763],[134.725078,35.154882],[134.724979,35.15503],[134.724938,35.155202],[134.724927,35.155924],[134.724543,35.156329],[134.724416,35.156606],[134.724416,35.156735],[134.724596,35.157198],[134.724706,35.157918],[134.724689,35.158195],[134.724642,35.158304],[134.72373,35.159413],[134.72355,35.159756],[134.723515,35.159947],[134.723521,35.1603],[134.723573,35.160458],[134.723933,35.160988],[134.724032,35.161781],[134.724212,35.162067],[134.724787,35.162511],[134.725432,35.163117],[134.726018,35.163866],[134.726477,35.164249],[134.726692,35.164564],[134.726849,35.164979],[134.727279,35.16547],[134.727633,35.165623],[134.728574,35.165738],[134.728307,35.166031],[134.726779,35.167181],[134.725553,35.168505],[134.725333,35.168653],[134.724839,35.168872],[134.724467,35.169125],[134.724282,35.169478],[134.723916,35.169741],[134.723531,35.170164],[134.723464,35.170329],[134.723541,35.170849],[134.723474,35.171062],[134.723272,35.171385],[134.723243,35.171684],[134.722821,35.172873],[134.722802,35.172999],[134.722956,35.173306],[134.723109,35.173456],[134.724707,35.173982],[134.725271,35.174034],[134.725857,35.17401],[134.726641,35.174081],[134.727927,35.174315],[134.728899,35.174627],[134.729369,35.174817],[134.730569,35.175618],[134.734591,35.177414],[134.735125,35.177355],[134.735637,35.177545],[134.737059,35.177771],[134.73731,35.177711],[134.737478,35.177523],[134.737688,35.177163],[134.737898,35.177026],[134.738338,35.176906],[134.738861,35.176916],[134.739425,35.17702],[134.739581,35.177201],[134.739664,35.177485],[134.739753,35.179246],[134.739688,35.179881],[134.739708,35.180285],[134.739999,35.180775],[134.74005,35.181196],[134.739965,35.181419],[134.739734,35.181762],[134.739597,35.182165],[134.739554,35.182526],[134.739009,35.182697],[134.738904,35.182825],[134.738986,35.183435],[134.738839,35.183529],[134.738703,35.183546],[134.73758,35.183562],[134.737377,35.183722],[134.73679,35.184013],[134.736678,35.184116],[134.736656,35.184471],[134.73646,35.184717],[134.736453,35.18482],[134.736612,35.185215],[134.736443,35.185667],[134.736421,35.18593],[134.736497,35.186097],[134.737061,35.18663],[134.737039,35.186762],[134.736857,35.186899],[134.73625,35.187115],[134.735991,35.187315],[134.735809,35.187584],[134.735787,35.187813],[134.735912,35.188036],[134.735898,35.188162],[134.735646,35.18846],[134.735624,35.188677],[134.735735,35.189021],[134.735699,35.189135],[134.735594,35.18921],[134.735343,35.189226],[134.734688,35.189122],[134.734339,35.18915],[134.734192,35.189281],[134.734143,35.18951],[134.734059,35.189653],[134.733933,35.189738],[134.733758,35.189973],[134.733357,35.190877],[134.733287,35.190939],[134.733169,35.190943],[134.732477,35.191482],[134.731815,35.192185],[134.730975,35.192965],[134.730597,35.193531],[134.73048,35.193951],[134.728735,35.193449],[134.728241,35.193266],[134.728187,35.193314]]]]}}]}
