{"type":"FeatureCollection","features":[{"type":"Feature","properties":{"potaRef":"JP-1637","nameJa":"Oasa yama","nameEn":"Oasayama Prefectural Nature Park","authority":"環境省 生物多様性「見える化」マップ","boundaryStatus":"全国GIS候補・公開前検証待ち","boundarySource":"環境省 生物多様性「見える化」マップの自然公園区域を、POTA代表座標で一意に空間照合して加工","boundaryScaleNote":"区域は概要データであり、正確性は保証されない。POTA運用可否は公式情報で最終確認すること。","candidateMethod":"POTA representative point inside one public natural-park area","sourceParkKind":"都道府県立自然公園","sourceName":"Oasa yama","sourceFeatureCount":1,"cautionMeters":75},"geometry":{"type":"MultiPolygon","coordinates":[[[[134.476009,34.195527],[134.476326,34.194989],[134.476365,34.19476],[134.475641,34.193839],[134.4755,34.193498],[134.475476,34.193242],[134.47575,34.192262],[134.476102,34.191514],[134.476409,34.190622],[134.476345,34.190079],[134.476367,34.189857],[134.4768,34.189604],[134.477271,34.18941],[134.477415,34.18939],[134.477451,34.189481],[134.4775,34.189468],[134.477457,34.189301],[134.477689,34.189168],[134.478288,34.188654],[134.478998,34.188212],[134.479198,34.187992],[134.479574,34.187739],[134.480088,34.187004],[134.480495,34.186795],[134.48115,34.186851],[134.481601,34.18673],[134.481837,34.186767],[134.482402,34.186981],[134.482718,34.187181],[134.482862,34.187569],[134.483196,34.187868],[134.483517,34.187991],[134.483851,34.187967],[134.484754,34.187476],[134.484992,34.187211],[134.485375,34.186913],[134.485737,34.186799],[134.486,34.186827],[134.48613,34.186794],[134.486509,34.185992],[134.486924,34.185743],[134.487337,34.185696],[134.487462,34.185638],[134.487675,34.185201],[134.488003,34.184996],[134.488188,34.184732],[134.488219,34.184462],[134.488104,34.184113],[134.488081,34.183873],[134.488171,34.18354],[134.488162,34.1834],[134.488003,34.182901],[134.487812,34.182564],[134.48795,34.182219],[134.487785,34.181943],[134.487427,34.181611],[134.487431,34.181448],[134.487519,34.181369],[134.487524,34.18128],[134.487355,34.18087],[134.487373,34.180758],[134.487756,34.180257],[134.487795,34.180132],[134.48772,34.179515],[134.487768,34.17936],[134.488183,34.17903],[134.488231,34.178892],[134.487651,34.178203],[134.487461,34.177843],[134.487031,34.17661],[134.486984,34.176329],[134.487106,34.176017],[134.487496,34.175685],[134.48878,34.174977],[134.490252,34.174458],[134.496626,34.173142],[134.497282,34.172801],[134.497439,34.172579],[134.497719,34.171762],[134.497879,34.171659],[134.498153,34.171649],[134.499045,34.171968],[134.499431,34.172024],[134.500059,34.171891],[134.500773,34.171488],[134.500995,34.171286],[134.500981,34.17098],[134.500544,34.169365],[134.499921,34.168289],[134.49979,34.167478],[134.499795,34.166918],[134.500083,34.166858],[134.501331,34.166764],[134.501416,34.167472],[134.501527,34.167901],[134.501633,34.167933],[134.50171,34.167869],[134.501888,34.167412],[134.50204,34.166659],[134.502589,34.166667],[134.50219,34.168096],[134.502112,34.168627],[134.502124,34.168716],[134.502187,34.168762],[134.50244,34.169991],[134.50457,34.170708],[134.504648,34.170864],[134.504986,34.171168],[134.505098,34.171823],[134.505282,34.172316],[134.505382,34.172398],[134.505711,34.172398],[134.505924,34.172456],[134.506471,34.172819],[134.506998,34.173628],[134.507886,34.174427],[134.508127,34.174526],[134.508556,34.174601],[134.508899,34.174838],[134.509288,34.175226],[134.509882,34.176066],[134.510146,34.176329],[134.510657,34.176662],[134.511218,34.176771],[134.511547,34.176906],[134.511893,34.177105],[134.512263,34.177437],[134.512702,34.177505],[134.512929,34.177602],[134.51325,34.178058],[134.513537,34.178677],[134.513528,34.178841],[134.513124,34.179467],[134.512883,34.17999],[134.512768,34.180071],[134.512493,34.180058],[134.512471,34.180094],[134.512411,34.18059],[134.512225,34.180884],[134.512174,34.181485],[134.511827,34.181694],[134.511595,34.181976],[134.511552,34.182222],[134.511715,34.182726],[134.511518,34.183169],[134.511622,34.18339],[134.511212,34.183949],[134.511155,34.184128],[134.511173,34.184332],[134.511106,34.184455],[134.510633,34.18512],[134.510653,34.185297],[134.51096,34.185489],[134.511026,34.185598],[134.511022,34.186408],[134.511433,34.187593],[134.511406,34.18772],[134.511281,34.187886],[134.510896,34.188205],[134.510689,34.188754],[134.510218,34.189434],[134.509867,34.19065],[134.509864,34.190891],[134.509989,34.191097],[134.510253,34.191197],[134.510571,34.191154],[134.510639,34.191218],[134.510633,34.19131],[134.51049,34.191402],[134.509754,34.191479],[134.509364,34.191622],[134.508889,34.191921],[134.508574,34.192258],[134.508515,34.192443],[134.508546,34.192618],[134.508903,34.192884],[134.508954,34.192969],[134.508911,34.193217],[134.508773,34.193407],[134.508789,34.193585],[134.508966,34.193877],[134.508864,34.194109],[134.508452,34.194158],[134.507762,34.194657],[134.507316,34.194874],[134.506192,34.194487],[134.506112,34.194376],[134.506076,34.194152],[134.505974,34.194048],[134.505296,34.193872],[134.505018,34.194073],[134.504797,34.194148],[134.504665,34.194315],[134.504641,34.194407],[134.504837,34.194794],[134.504863,34.19501],[134.504831,34.195071],[134.504647,34.195147],[134.5039,34.195211],[134.503761,34.195287],[134.50375,34.195406],[134.504044,34.195824],[134.503901,34.196123],[134.503921,34.196224],[134.504053,34.196336],[134.504648,34.196569],[134.504708,34.196702],[134.504611,34.196782],[134.504035,34.196912],[134.503942,34.196978],[134.503974,34.197274],[134.503824,34.197684],[134.503895,34.197865],[134.504029,34.198024],[134.504051,34.198195],[134.503492,34.198565],[134.503386,34.198754],[134.503339,34.198977],[134.503226,34.199087],[134.503362,34.199862],[134.503186,34.200278],[134.503072,34.20043],[134.503121,34.200723],[134.502943,34.201198],[134.503007,34.201355],[134.503259,34.201576],[134.503412,34.201592],[134.503625,34.201499],[134.504035,34.201457],[134.504218,34.201523],[134.504384,34.201739],[134.504376,34.201866],[134.503973,34.20227],[134.503959,34.20252],[134.504104,34.202828],[134.504108,34.202932],[134.503743,34.203368],[134.50373,34.203445],[134.503863,34.203607],[134.504293,34.203848],[134.504275,34.20403],[134.504347,34.204175],[134.504066,34.204572],[134.504053,34.204659],[134.504403,34.204934],[134.504446,34.205334],[134.50459,34.205614],[134.504606,34.205942],[134.504702,34.206218],[134.504952,34.206425],[134.505078,34.206597],[134.505482,34.207341],[134.505582,34.207792],[134.505351,34.208187],[134.505328,34.208398],[134.505369,34.20849],[134.50527,34.208823],[134.505295,34.209074],[134.505488,34.20918],[134.506048,34.209193],[134.506171,34.209242],[134.5062,34.209324],[134.5061,34.209651],[134.506144,34.20986],[134.506233,34.209938],[134.506629,34.209972],[134.507255,34.210621],[134.507287,34.210756],[134.507384,34.210884],[134.507763,34.210981],[134.509105,34.211694],[134.509775,34.21176],[134.510087,34.212076],[134.510411,34.212609],[134.510491,34.213018],[134.510474,34.213498],[134.510357,34.214313],[134.510141,34.215118],[134.510059,34.215709],[134.510097,34.216181],[134.510191,34.216519],[134.510916,34.217727],[134.511909,34.218926],[134.514937,34.221293],[134.515949,34.221945],[134.516351,34.222273],[134.516506,34.222546],[134.516562,34.222777],[134.516699,34.224915],[134.516713,34.225308],[134.516661,34.225403],[134.516391,34.225592],[134.516006,34.225701],[134.515628,34.225673],[134.51563,34.225724],[134.515478,34.225756],[134.515343,34.225855],[134.513724,34.226024],[134.513007,34.225989],[134.511543,34.225731],[134.509958,34.225788],[134.50759,34.225654],[134.506505,34.225661],[134.505253,34.225467],[134.504819,34.225325],[134.502935,34.224903],[134.501442,34.22467],[134.498217,34.22445],[134.497347,34.224338],[134.49732,34.224302],[134.49716,34.224312],[134.495837,34.224068],[134.494684,34.223637],[134.493899,34.223201],[134.491667,34.221704],[134.491053,34.221195],[134.49095,34.221032],[134.490743,34.220463],[134.490381,34.21985],[134.489073,34.21866],[134.48905,34.218495],[134.48921,34.216225],[134.489143,34.21575],[134.489007,34.215371],[134.488261,34.214687],[134.488009,34.214381],[134.487718,34.213488],[134.487544,34.21319],[134.486981,34.212747],[134.486687,34.212409],[134.486446,34.211906],[134.486279,34.211173],[134.486152,34.210831],[134.485911,34.210489],[134.485865,34.210296],[134.485966,34.208943],[134.485896,34.208119],[134.485606,34.207172],[134.48514,34.205929],[134.484606,34.205214],[134.483474,34.20419],[134.483037,34.203646],[134.482485,34.203213],[134.481797,34.202906],[134.481832,34.202588],[134.481741,34.201927],[134.481671,34.201766],[134.481289,34.201453],[134.480424,34.200935],[134.479665,34.199472],[134.478343,34.198445],[134.477769,34.197453],[134.477324,34.197075],[134.476348,34.196886],[134.476105,34.196771],[134.47584,34.196555],[134.475736,34.196385],[134.475725,34.196174],[134.475821,34.195841],[134.476009,34.195527]]]]}}]}
