{"type":"FeatureCollection","features":[{"type":"Feature","properties":{"potaRef":"JP-1472","nameJa":"Isenoumi","nameEn":"Ise no Umi Prefectural Nature Park","authority":"環境省 生物多様性「見える化」マップ","boundaryStatus":"全国GIS候補・公開前検証待ち","boundarySource":"環境省 生物多様性「見える化」マップの自然公園区域を、POTA代表座標で一意に空間照合して加工","boundaryScaleNote":"区域は概要データであり、正確性は保証されない。POTA運用可否は公式情報で最終確認すること。","candidateMethod":"POTA representative point inside one public natural-park area","sourceParkKind":"都道府県立自然公園","sourceName":"Isenoumi","sourceFeatureCount":1,"cautionMeters":75},"geometry":{"type":"MultiPolygon","coordinates":[[[[136.617999,34.857343],[136.61847,34.858203],[136.618797,34.858502],[136.619278,34.859241],[136.619705,34.859646],[136.620149,34.860398],[136.620243,34.860918],[136.621378,34.862313],[136.621908,34.863176],[136.622333,34.863582],[136.622781,34.864333],[136.624514,34.866222],[136.62622,34.86733],[136.626725,34.867732],[136.627091,34.868253],[136.627462,34.868595],[136.628022,34.869942],[136.628395,34.870401],[136.628768,34.87133],[136.630405,34.873868],[136.634133,34.880058],[136.635241,34.883248],[136.635546,34.886928],[136.635861,34.888632],[136.636136,34.889278],[136.636889,34.890193],[136.637595,34.891361],[136.637966,34.891703],[136.638212,34.8921],[136.638519,34.892406],[136.638564,34.892513],[136.638491,34.892754],[136.638587,34.892925],[136.639482,34.89379],[136.639666,34.894184],[136.639987,34.894485],[136.640233,34.894882],[136.640736,34.895284],[136.641395,34.896033],[136.641885,34.89644],[136.642049,34.896783],[136.642342,34.897069],[136.642691,34.897654],[136.643067,34.898936],[136.643045,34.899072],[136.642537,34.899797],[136.640511,34.900111],[136.638999,34.899988],[136.637717,34.899715],[136.635692,34.897159],[136.633708,34.893741],[136.633399,34.889871],[136.630828,34.886078],[136.629313,34.882846],[136.62887,34.880986],[136.627905,34.879181],[136.62741,34.877609],[136.624288,34.872341],[136.624148,34.871147],[136.623785,34.870387],[136.622495,34.869734],[136.621614,34.869172],[136.61677,34.862141],[136.616326,34.861683],[136.615247,34.859939],[136.61491,34.859585],[136.614496,34.858906],[136.614203,34.858619],[136.61341,34.857342],[136.613204,34.857278],[136.611497,34.857309],[136.610304,34.85706],[136.609571,34.856633],[136.608709,34.855941],[136.60799,34.855487],[136.607133,34.855149],[136.605924,34.854947],[136.605629,34.855034],[136.605285,34.854991],[136.604937,34.85506],[136.602667,34.855093],[136.601817,34.854982],[136.600313,34.853944],[136.598972,34.853527],[136.597223,34.852678],[136.596092,34.852386],[136.595376,34.852107],[136.594253,34.851979],[136.592969,34.85165],[136.589924,34.851696],[136.589359,34.85193],[136.588863,34.851937],[136.587945,34.852178],[136.587456,34.852198],[136.587029,34.852425],[136.58654,34.852445],[136.584558,34.852923],[136.583502,34.852939],[136.582497,34.852197],[136.582255,34.851799],[136.582022,34.850986],[136.581758,34.850571],[136.581726,34.849287],[136.581981,34.84881],[136.582084,34.848413],[136.582412,34.84811],[136.582693,34.847641],[136.583666,34.846754],[136.584577,34.846387],[136.585784,34.846371],[136.58706,34.846593],[136.588056,34.846583],[136.588262,34.846511],[136.588895,34.846046],[136.589535,34.845873],[136.59044,34.845219],[136.59163,34.844776],[136.592133,34.844744],[136.592556,34.84488],[136.593831,34.844863],[136.594895,34.845089],[136.595744,34.845072],[136.596857,34.844681],[136.597229,34.84443],[136.598125,34.844033],[136.598562,34.843713],[136.599043,34.843511],[136.599724,34.842958],[136.599899,34.842708],[136.600224,34.842505],[136.60062,34.841908],[136.600623,34.841335],[136.600427,34.840803],[136.59998,34.840052],[136.598979,34.838952],[136.598733,34.838555],[136.598169,34.838091],[136.597511,34.837342],[136.595996,34.836137],[136.595185,34.835336],[136.595073,34.835145],[136.595105,34.834752],[136.594676,34.834348],[136.593689,34.832707],[136.584156,34.822643],[136.579075,34.817829],[136.577294,34.8157],[136.572867,34.811643],[136.569274,34.808724],[136.564381,34.804577],[136.562431,34.802641],[136.558265,34.797001],[136.55784,34.795954],[136.555587,34.793352],[136.542493,34.776421],[136.540721,34.773119],[136.53714,34.766037],[136.534916,34.763314],[136.532403,34.759088],[136.529403,34.750443],[136.529257,34.748795],[136.527376,34.744178],[136.524546,34.738425],[136.524763,34.728137],[136.523608,34.723607],[136.521146,34.718926],[136.520437,34.716567],[136.519506,34.713182],[136.519347,34.711361],[136.519314,34.703624],[136.518826,34.702267],[136.517468,34.700849],[136.515207,34.699155],[136.513112,34.698607],[136.512086,34.697926],[136.51151,34.693317],[136.515822,34.693167],[136.517362,34.688699],[136.519862,34.68288],[136.521989,34.680461],[136.524027,34.679455],[136.525763,34.679385],[136.526377,34.679713],[136.526592,34.680404],[136.524939,34.68183],[136.525429,34.682457],[136.525141,34.682582],[136.524903,34.682757],[136.524439,34.683207],[136.523996,34.683737],[136.523545,34.684526],[136.523006,34.685563],[136.52257,34.686627],[136.521669,34.689411],[136.521526,34.690082],[136.521438,34.69171],[136.521062,34.693434],[136.52096,34.694944],[136.521041,34.699891],[136.521109,34.700652],[136.521512,34.70223],[136.521566,34.70281],[136.521798,34.703802],[136.522221,34.705002],[136.522487,34.706348],[136.522773,34.707205],[136.522982,34.707739],[136.523494,34.707636],[136.523629,34.708056],[136.523922,34.707992],[136.524216,34.708796],[136.5239,34.708893],[136.524005,34.709193],[136.523871,34.709467],[136.524157,34.710744],[136.524238,34.710899],[136.524153,34.711134],[136.523858,34.711527],[136.523837,34.711921],[136.524178,34.712597],[136.524757,34.715161],[136.524921,34.71551],[136.525317,34.716716],[136.525528,34.71769],[136.52576,34.718496],[136.526012,34.71893],[136.526339,34.719826],[136.527083,34.722603],[136.527881,34.724953],[136.527922,34.725111],[136.527922,34.72564],[136.528386,34.726587],[136.528501,34.726964],[136.528931,34.727956],[136.529006,34.728316],[136.529395,34.729246],[136.529688,34.729641],[136.529076,34.729829],[136.529006,34.729984],[136.528904,34.730057],[136.529099,34.731757],[136.528916,34.732654],[136.529129,34.73266],[136.529279,34.732796],[136.529149,34.733207],[136.529422,34.7335],[136.529381,34.733967],[136.529524,34.734503],[136.529518,34.734689],[136.529449,34.73479],[136.52908,34.734757],[136.528838,34.737264],[136.529019,34.73821],[136.529129,34.738311],[136.529211,34.738909],[136.529476,34.739793],[136.52949,34.740075],[136.530063,34.741996],[136.530131,34.742441],[136.530254,34.742684],[136.530404,34.743439],[136.5308,34.744706],[136.531195,34.74563],[136.532273,34.748842],[136.534016,34.753265],[136.534068,34.753286],[136.534584,34.75443],[136.534465,34.754454],[136.534486,34.75451],[136.536432,34.758759],[136.538642,34.762993],[136.539202,34.762922],[136.539469,34.762836],[136.541426,34.766174],[136.547929,34.776041],[136.550145,34.779792],[136.556435,34.787462],[136.563132,34.795173],[136.571415,34.803821],[136.575341,34.808984],[136.582242,34.816146],[136.586797,34.820775],[136.591591,34.825735],[136.59492,34.829901],[136.598246,34.833876],[136.607369,34.84361],[136.613228,34.849464],[136.616361,34.852388],[136.616536,34.8554],[136.617663,34.857048],[136.617999,34.857343]]],[[[136.547617,34.637494],[136.547895,34.63753],[136.548868,34.637832],[136.549809,34.638053],[136.549436,34.639213],[136.549384,34.639612],[136.548798,34.641343],[136.548243,34.643614],[136.54769,34.647099],[136.547588,34.649272],[136.547562,34.650047],[136.547626,34.650925],[136.547805,34.651987],[136.547953,34.653407],[136.548081,34.654021],[136.548234,34.654423],[136.548849,34.658392],[136.548972,34.660708],[136.548635,34.660805],[136.548591,34.661244],[136.548094,34.661487],[136.547226,34.661812],[136.546411,34.661026],[136.545921,34.659598],[136.543596,34.655943],[136.543543,34.653122],[136.542197,34.652325],[136.542439,34.64352],[136.54321,34.641405],[136.544212,34.639749],[136.546787,34.638305],[136.547228,34.638281],[136.547348,34.637463],[136.547617,34.637494]]]]}}]}
