{"type":"FeatureCollection","features":[{"type":"Feature","properties":{"potaRef":"JP-1767","nameJa":"Tokara Retto","nameEn":"Tokara Retto Prefectural Nature Park","authority":"環境省 生物多様性「見える化」マップ","boundaryStatus":"全国GIS候補・公開前検証待ち","boundarySource":"環境省 生物多様性「見える化」マップの自然公園区域を、POTA代表座標で一意に空間照合して加工","boundaryScaleNote":"区域は概要データであり、正確性は保証されない。POTA運用可否は公式情報で最終確認すること。","candidateMethod":"POTA representative point inside one public natural-park area","sourceParkKind":"都道府県立自然公園","sourceName":"Tokara Retto","sourceFeatureCount":1,"cautionMeters":75},"geometry":{"type":"MultiPolygon","coordinates":[[[[129.740109,29.671823],[129.739659,29.672229],[129.739281,29.67237],[129.738944,29.67239],[129.737652,29.672206],[129.735864,29.671671],[129.735677,29.671702],[129.735522,29.671614],[129.735459,29.671519],[129.734995,29.671282],[129.734947,29.671169],[129.73479,29.671104],[129.732846,29.670776],[129.731883,29.670363],[129.731677,29.670428],[129.731254,29.670421],[129.731041,29.670325],[129.730947,29.670192],[129.730732,29.670029],[129.730403,29.669391],[129.730307,29.669433],[129.730168,29.669377],[129.730054,29.669406],[129.72987,29.669284],[129.729757,29.668891],[129.729836,29.668792],[129.729856,29.668538],[129.729919,29.668494],[129.729907,29.668341],[129.729794,29.668044],[129.729435,29.667739],[129.728961,29.667608],[129.728367,29.667646],[129.727721,29.667872],[129.727499,29.668025],[129.727092,29.668509],[129.727016,29.668689],[129.726901,29.668735],[129.72687,29.668894],[129.726763,29.668914],[129.726506,29.66908],[129.726377,29.669031],[129.726262,29.669072],[129.726145,29.669021],[129.726021,29.669081],[129.72569,29.669035],[129.725121,29.669159],[129.725072,29.669241],[129.724802,29.669339],[129.724758,29.66944],[129.724449,29.66959],[129.724269,29.66986],[129.724085,29.66979],[129.723974,29.669669],[129.723902,29.669722],[129.723588,29.669748],[129.72349,29.669811],[129.723321,29.669807],[129.723089,29.669909],[129.722787,29.669891],[129.722707,29.669824],[129.72236,29.669968],[129.721996,29.67],[129.721863,29.670069],[129.721765,29.670051],[129.721719,29.670102],[129.721583,29.670107],[129.721445,29.670177],[129.721062,29.670043],[129.720951,29.669956],[129.720545,29.669941],[129.720444,29.669882],[129.720111,29.669849],[129.71985,29.669572],[129.719829,29.669488],[129.719696,29.669426],[129.719616,29.669327],[129.719268,29.669167],[129.719149,29.669037],[129.719076,29.669029],[129.718586,29.668561],[129.718128,29.668382],[129.717763,29.668327],[129.717362,29.668382],[129.71706,29.668487],[129.717026,29.668573],[129.716706,29.668629],[129.716571,29.668773],[129.716407,29.668797],[129.715909,29.668673],[129.715778,29.668721],[129.715579,29.668663],[129.715364,29.668672],[129.714919,29.668584],[129.714369,29.668384],[129.71424,29.668414],[129.714084,29.668358],[129.713947,29.668381],[129.713828,29.668286],[129.71363,29.66825],[129.7135,29.668278],[129.713135,29.6682],[129.712817,29.668032],[129.712659,29.668044],[129.712154,29.667915],[129.712039,29.667823],[129.711877,29.667783],[129.711787,29.66769],[129.711634,29.667705],[129.711117,29.667504],[129.710911,29.667509],[129.71054,29.667311],[129.710393,29.667312],[129.709657,29.667014],[129.709308,29.666959],[129.709215,29.666895],[129.709039,29.666915],[129.708957,29.666843],[129.708853,29.666851],[129.708665,29.666753],[129.708322,29.666683],[129.708056,29.666532],[129.707669,29.666479],[129.707554,29.666407],[129.707212,29.666347],[129.706816,29.666147],[129.706492,29.66606],[129.705475,29.665046],[129.70475,29.664682],[129.70467,29.664599],[129.70415,29.664389],[129.704118,29.664306],[129.703874,29.664287],[129.703724,29.664091],[129.70379,29.66398],[129.703742,29.663828],[129.703803,29.663759],[129.70366,29.663653],[129.703616,29.663514],[129.703486,29.663432],[129.703443,29.663336],[129.703289,29.663289],[129.703054,29.663098],[129.702849,29.663066],[129.702742,29.662924],[129.702577,29.662823],[129.7025,29.662604],[129.702532,29.662509],[129.702493,29.662379],[129.702551,29.662226],[129.702468,29.662161],[129.702437,29.66203],[129.702294,29.661948],[129.702297,29.661828],[129.702203,29.661653],[129.702068,29.661629],[129.701887,29.661276],[129.701373,29.660836],[129.70129,29.660681],[129.701184,29.660652],[129.700987,29.660483],[129.700902,29.66035],[129.700796,29.6603],[129.700726,29.660178],[129.700616,29.66011],[129.700561,29.659976],[129.700457,29.65993],[129.699971,29.659167],[129.699885,29.659144],[129.699834,29.659051],[129.699859,29.658952],[129.699644,29.658646],[129.699413,29.658531],[129.697799,29.658195],[129.697534,29.658028],[129.69695,29.657247],[129.696816,29.656999],[129.696696,29.656609],[129.696706,29.655459],[129.696822,29.655061],[129.697052,29.654542],[129.697598,29.653765],[129.698134,29.653261],[129.698732,29.652844],[129.699708,29.652325],[129.700576,29.65136],[129.700972,29.651089],[129.70132,29.650935],[129.700864,29.649864],[129.700731,29.649357],[129.700356,29.646411],[129.699629,29.645265],[129.699518,29.644961],[129.699482,29.64282],[129.699276,29.642467],[129.698051,29.641166],[129.697765,29.640753],[129.696699,29.63768],[129.696305,29.636382],[129.696271,29.636103],[129.696296,29.635868],[129.696876,29.634086],[129.697119,29.633954],[129.698135,29.633638],[129.698423,29.633484],[129.698519,29.63325],[129.69855,29.632403],[129.698629,29.632153],[129.69911,29.631826],[129.700089,29.631435],[129.700361,29.631146],[129.700419,29.630822],[129.700295,29.629788],[129.70034,29.629589],[129.700412,29.629493],[129.700822,29.62925],[129.701102,29.629003],[129.73432,29.628154],[129.73433,29.628328],[129.734251,29.628422],[129.734274,29.628489],[129.733942,29.628656],[129.733684,29.628681],[129.733498,29.628764],[129.733377,29.629031],[129.733343,29.629353],[129.733474,29.629901],[129.733726,29.630512],[129.73401,29.631469],[129.734134,29.632052],[129.734259,29.632314],[129.734529,29.632714],[129.735228,29.633247],[129.735754,29.63385],[129.736031,29.634058],[129.736113,29.634061],[129.7362,29.634259],[129.73692,29.635102],[129.737319,29.63577],[129.737751,29.636997],[129.738005,29.637471],[129.738252,29.637662],[129.738586,29.637456],[129.738831,29.637409],[129.738934,29.637489],[129.738979,29.637658],[129.738929,29.637731],[129.738966,29.637797],[129.738967,29.637875],[129.73891,29.637926],[129.738938,29.638034],[129.738869,29.638192],[129.738738,29.638328],[129.738692,29.638461],[129.738473,29.638585],[129.738336,29.638795],[129.7383,29.638978],[129.738434,29.639392],[129.738592,29.639666],[129.738757,29.639819],[129.73885,29.639786],[129.738993,29.639815],[129.739035,29.639951],[129.739154,29.64001],[129.739154,29.640097],[129.7393,29.6403],[129.739298,29.640366],[129.739234,29.640397],[129.739203,29.640641],[129.739136,29.640663],[129.739016,29.641327],[129.739036,29.641852],[129.739136,29.642247],[129.739101,29.64248],[129.739139,29.642942],[129.739233,29.643144],[129.739367,29.643213],[129.739656,29.643022],[129.739729,29.643021],[129.739761,29.643075],[129.739708,29.643158],[129.739702,29.643306],[129.73946,29.643434],[129.739269,29.643699],[129.739322,29.64389],[129.739704,29.644316],[129.739936,29.644672],[129.740044,29.644963],[129.740296,29.646181],[129.740293,29.646337],[129.740204,29.646714],[129.739434,29.647942],[129.739263,29.648048],[129.739023,29.648089],[129.738808,29.648262],[129.738173,29.649281],[129.738113,29.649442],[129.737955,29.650613],[129.738093,29.650955],[129.738264,29.651195],[129.738363,29.651233],[129.73839,29.651366],[129.738473,29.651426],[129.73849,29.651551],[129.738584,29.651624],[129.738589,29.65177],[129.738549,29.651814],[129.73862,29.651878],[129.738613,29.65204],[129.738679,29.652149],[129.738631,29.652658],[129.738594,29.652702],[129.738678,29.652774],[129.738673,29.652906],[129.738623,29.652952],[129.738685,29.653027],[129.738678,29.653103],[129.738635,29.653146],[129.738833,29.653889],[129.739012,29.654216],[129.739193,29.654768],[129.739169,29.655143],[129.73898,29.655746],[129.73909,29.656175],[129.739118,29.657303],[129.739251,29.657689],[129.739564,29.658101],[129.739583,29.658309],[129.739814,29.658489],[129.739859,29.658594],[129.739714,29.658827],[129.73944,29.658989],[129.739467,29.659131],[129.739891,29.659952],[129.740556,29.66072],[129.741455,29.662153],[129.74159,29.662244],[129.741877,29.662279],[129.74201,29.662451],[129.742007,29.662617],[129.741803,29.662886],[129.741788,29.663015],[129.742053,29.663402],[129.742162,29.663447],[129.742419,29.663938],[129.742511,29.664739],[129.742474,29.664934],[129.742421,29.664996],[129.742506,29.665067],[129.742511,29.66513],[129.742653,29.665171],[129.742705,29.665251],[129.742711,29.665525],[129.742654,29.665591],[129.742688,29.665769],[129.742764,29.665865],[129.74276,29.665992],[129.74282,29.666078],[129.743038,29.666123],[129.743126,29.666269],[129.743018,29.666338],[129.74301,29.666814],[129.742934,29.667116],[129.742957,29.667215],[129.742864,29.667285],[129.742902,29.667374],[129.742904,29.668231],[129.742997,29.668417],[129.742988,29.66854],[129.743101,29.668644],[129.74311,29.669006],[129.743058,29.669087],[129.743067,29.669179],[129.742984,29.669251],[129.743002,29.669351],[129.742841,29.669584],[129.742827,29.669683],[129.74273,29.669836],[129.742636,29.669872],[129.742492,29.670182],[129.742204,29.670326],[129.742186,29.670415],[129.741932,29.670582],[129.741907,29.670677],[129.74126,29.671],[129.740657,29.671194],[129.740109,29.671823]]],[[[128.994329,28.807176],[128.99406,28.807017],[128.993843,28.807074],[128.993714,28.807029],[128.993875,28.806758],[128.994041,28.806634],[128.994035,28.806532],[128.993881,28.806346],[128.99317,28.806019],[128.992383,28.805551],[128.992089,28.805585],[128.991877,28.805793],[128.991762,28.80581],[128.991685,28.805619],[128.991685,28.805472],[128.99182,28.805314],[128.991769,28.805094],[128.99166,28.805021],[128.991224,28.804947],[128.991135,28.804857],[128.991141,28.804637],[128.990751,28.804671],[128.990706,28.804626],[128.990776,28.804507],[128.990712,28.804428],[128.99004,28.804203],[128.989637,28.803768],[128.989137,28.803458],[128.987857,28.802482],[128.987223,28.802099],[128.986807,28.801659],[128.986679,28.80145],[128.986557,28.800654],[128.986494,28.800598],[128.986269,28.800564],[128.985898,28.800558],[128.985898,28.800502],[128.986282,28.800186],[128.986327,28.800073],[128.986205,28.799927],[128.985642,28.799487],[128.985405,28.799549],[128.985251,28.799526],[128.985245,28.799442],[128.98536,28.79934],[128.985296,28.798821],[128.985002,28.798443],[128.984829,28.798302],[128.984682,28.798257],[128.984112,28.798285],[128.982684,28.798646],[128.982255,28.798827],[128.981071,28.799503],[128.980751,28.799786],[128.980674,28.799932],[128.980732,28.800096],[128.981007,28.800406],[128.980949,28.800699],[128.980777,28.800886],[128.980348,28.801027],[128.980297,28.801083],[128.980284,28.801297],[128.98022,28.801365],[128.980034,28.801269],[128.979919,28.801072],[128.979695,28.801004],[128.979362,28.801016],[128.978926,28.801297],[128.978779,28.801309],[128.978702,28.801275],[128.978529,28.800914],[128.978453,28.800857],[128.978216,28.801348],[128.978024,28.801495],[128.977666,28.801602],[128.977512,28.801715],[128.977422,28.801861],[128.977236,28.801957],[128.976801,28.802008],[128.976583,28.80189],[128.976462,28.801991],[128.97634,28.801991],[128.976091,28.80172],[128.975937,28.801669],[128.975713,28.801709],[128.975527,28.802025],[128.975437,28.802521],[128.975239,28.802758],[128.974906,28.802894],[128.974592,28.80286],[128.974298,28.802747],[128.974215,28.802584],[128.974292,28.802093],[128.974241,28.801974],[128.973972,28.801794],[128.973613,28.801754],[128.973427,28.801805],[128.972794,28.802189],[128.972537,28.802093],[128.972454,28.801997],[128.972416,28.801749],[128.972576,28.801399],[128.972723,28.801218],[128.973434,28.800716],[128.973703,28.800333],[128.97376,28.800056],[128.973741,28.799757],[128.973914,28.799396],[128.973741,28.799362],[128.973421,28.799453],[128.973299,28.799407],[128.973504,28.799204],[128.973741,28.799086],[128.974055,28.798714],[128.974119,28.798465],[128.974285,28.798144],[128.974196,28.797738],[128.974881,28.797337],[128.97513,28.797399],[128.975233,28.797354],[128.975335,28.797219],[128.975546,28.796728],[128.975617,28.796666],[128.97586,28.796598],[128.976084,28.79578],[128.976155,28.795724],[128.976385,28.795758],[128.976539,28.795712],[128.976782,28.795493],[128.97691,28.795149],[128.977173,28.794697],[128.977173,28.794613],[128.977006,28.794347],[128.977032,28.794246],[128.977185,28.794127],[128.977691,28.793986],[128.978203,28.793479],[128.978216,28.793124],[128.978261,28.793101],[128.978402,28.793112],[128.978581,28.793298],[128.978683,28.793338],[128.979368,28.793361],[128.980002,28.793445],[128.980098,28.793485],[128.980297,28.793699],[128.980457,28.793778],[128.980943,28.793817],[128.982134,28.794099],[128.982582,28.794133],[128.982889,28.794003],[128.982986,28.793992],[128.983171,28.794077],[128.983408,28.794004],[128.983523,28.794172],[128.983542,28.794483],[128.983472,28.794754],[128.983216,28.795081],[128.983216,28.795216],[128.983504,28.795814],[128.983991,28.796502],[128.984381,28.79688],[128.98456,28.796971],[128.984752,28.796987],[128.985136,28.796819],[128.985437,28.796999],[128.986295,28.796762],[128.986871,28.796661],[128.987428,28.796271],[128.988568,28.795617],[128.988824,28.795391],[128.989182,28.795166],[128.989406,28.794895],[128.989598,28.794844],[128.989649,28.794641],[128.989867,28.794647],[128.990251,28.794393],[128.990719,28.794207],[128.992223,28.793377],[128.992499,28.79305],[128.992492,28.792678],[128.992563,28.792639],[128.992767,28.792661],[128.993068,28.792937],[128.993452,28.792831],[128.994899,28.792199],[128.995085,28.792046],[128.995072,28.791691],[128.995187,28.791493],[128.995559,28.791437],[128.995738,28.791629],[128.995892,28.792024],[128.996116,28.792193],[128.998318,28.79256],[128.998894,28.792611],[128.999176,28.792712],[128.999444,28.792876],[128.999656,28.792887],[129.000001,28.793079],[129.000366,28.793017],[129.000712,28.793316],[129.001199,28.793423],[129.001858,28.793784],[129.002037,28.794128],[129.002082,28.794619],[129.002287,28.795132],[129.002485,28.79538],[129.002889,28.795719],[129.002876,28.795792],[129.002677,28.795888],[129.002645,28.795961],[129.002889,28.797044],[129.002978,28.797129],[129.003145,28.797129],[129.003324,28.797016],[129.003311,28.797134],[129.003126,28.797276],[129.003126,28.797332],[129.003189,28.797823],[129.003542,28.799346],[129.003523,28.799916],[129.003388,28.800316],[129.003119,28.800784],[129.003113,28.801072],[129.003247,28.801298],[129.003055,28.801309],[129.00294,28.801371],[129.002613,28.801659],[129.002773,28.801964],[129.002722,28.802177],[129.002594,28.802352],[129.002223,28.802381],[129.001973,28.802494],[129.001723,28.802849],[129.001672,28.803052],[129.001711,28.803266],[129.001967,28.803452],[129.001967,28.803549],[129.001704,28.803599],[129.001326,28.803752],[129.000731,28.804643],[129.000379,28.804987],[128.999732,28.805444],[128.999336,28.805799],[128.998625,28.806177],[128.997895,28.806307],[128.997376,28.806566],[128.996717,28.806487],[128.995968,28.806617],[128.995591,28.80673],[128.995354,28.806922],[128.99504,28.806888],[128.994912,28.806956],[128.994867,28.807125],[128.994329,28.807176]]],[[[128.997047,28.835528],[128.99691,28.835536],[128.996793,28.835439],[128.996857,28.835231],[128.997113,28.83516],[128.997327,28.83522],[128.997316,28.835406],[128.997047,28.835528]]],[[[129.002715,28.836577],[129.002587,28.836791],[129.002478,28.836797],[129.002087,28.836498],[129.001959,28.836645],[129.001787,28.836724],[129.001601,28.836729],[129.001159,28.836628],[129.000935,28.836645],[129.000871,28.836588],[129.000986,28.836459],[129.001012,28.836239],[129.000871,28.836092],[129.000596,28.83599],[129.000686,28.835567],[129.000545,28.835268],[128.999924,28.835042],[128.999616,28.834963],[128.999015,28.83502],[128.998221,28.835234],[128.997933,28.835206],[128.997786,28.835082],[128.997811,28.834992],[128.997907,28.834845],[128.998221,28.834648],[128.997817,28.833768],[128.997689,28.833722],[128.997382,28.833881],[128.997062,28.833926],[128.996979,28.833903],[128.996844,28.833745],[128.996844,28.833615],[128.996983,28.833363],[128.997253,28.833207],[128.997407,28.833217],[128.997668,28.833361],[128.99785,28.833329],[128.997883,28.833252],[128.997773,28.833107],[128.997725,28.83293],[128.99801,28.832865],[128.997952,28.832713],[128.998106,28.832239],[128.998189,28.83172],[128.998407,28.831184],[128.998631,28.830908],[128.998631,28.830812],[128.99849,28.830704],[128.997901,28.830564],[128.997587,28.830372],[128.997421,28.829841],[128.997446,28.82961],[128.998035,28.829514],[128.998765,28.829576],[128.998893,28.829543],[128.998957,28.829481],[128.998957,28.829328],[128.999181,28.828945],[128.999501,28.828538],[128.999726,28.828335],[129.000257,28.828031],[129.001012,28.827698],[129.001832,28.827777],[129.002594,28.827986],[129.003035,28.828047],[129.0034,28.828194],[129.003707,28.828471],[129.004085,28.828584],[129.004309,28.828572],[129.004764,28.828324],[129.005148,28.828189],[129.005442,28.828194],[129.005782,28.828284],[129.006044,28.828437],[129.006102,28.828533],[129.006102,28.828713],[129.006038,28.828905],[129.005097,28.828877],[129.004392,28.82917],[129.004104,28.829244],[129.003886,28.82939],[129.003854,28.829469],[129.003874,28.83005],[129.003829,28.83022],[129.003374,28.831263],[129.003016,28.832318],[129.002997,28.833034],[129.002952,28.833282],[129.002817,28.833615],[129.002792,28.833959],[129.002613,28.834834],[129.002619,28.834964],[129.002721,28.835099],[129.003195,28.835234],[129.003381,28.835347],[129.003419,28.835454],[129.003381,28.835561],[129.002997,28.83603],[129.002862,28.836419],[129.002715,28.836577]]],[[[129.207551,29.13706],[129.207247,29.13745],[129.206708,29.137841],[129.205865,29.138307],[129.205356,29.138382],[129.204817,29.138303],[129.20415,29.138051],[129.203936,29.13792],[129.203551,29.137605],[129.203406,29.137395],[129.203227,29.136937],[129.203324,29.136848],[129.203593,29.136774],[129.20368,29.136817],[129.203956,29.136767],[129.204656,29.136817],[129.20517,29.136637],[129.205902,29.136558],[129.206101,29.136485],[129.206191,29.136406],[129.20639,29.136022],[129.206557,29.135881],[129.206846,29.135734],[129.207154,29.135334],[129.207489,29.135064],[129.207834,29.134918],[129.20822,29.134922],[129.208599,29.134841],[129.209011,29.134849],[129.209094,29.134809],[129.209305,29.134548],[129.209326,29.13443],[129.209488,29.134341],[129.209687,29.134305],[129.209752,29.134333],[129.210147,29.134212],[129.210462,29.133862],[129.210991,29.133857],[129.211014,29.133805],[129.21131,29.133693],[129.211509,29.13349],[129.211684,29.133117],[129.212042,29.132576],[129.21304,29.131358],[129.213423,29.131019],[129.214017,29.130658],[129.21444,29.130318],[129.215035,29.130099],[129.215253,29.129961],[129.215613,29.129609],[129.215998,29.129316],[129.216454,29.128825],[129.217379,29.128469],[129.218291,29.127962],[129.218531,29.127917],[129.21862,29.127951],[129.218688,29.127904],[129.218646,29.127849],[129.218717,29.127663],[129.219006,29.127438],[129.219095,29.12745],[129.219167,29.127311],[129.219256,29.127298],[129.219366,29.127188],[129.219485,29.127226],[129.219557,29.127137],[129.219706,29.127167],[129.219685,29.127023],[129.21974,29.126976],[129.219803,29.126993],[129.219825,29.126849],[129.219947,29.126866],[129.21996,29.126946],[129.220058,29.126992],[129.2201,29.126747],[129.220375,29.12676],[129.220413,29.126827],[129.220532,29.126874],[129.220545,29.127098],[129.220431,29.1272],[129.220524,29.127217],[129.220583,29.127285],[129.220583,29.127416],[129.220634,29.127429],[129.220659,29.127314],[129.220884,29.127247],[129.221024,29.127341],[129.220956,29.127514],[129.220981,29.127607],[129.221121,29.127611],[129.221202,29.127764],[129.22138,29.127768],[129.221418,29.127794],[129.221409,29.127878],[129.221537,29.127866],[129.221554,29.127993],[129.221769,29.127942],[129.221643,29.128166],[129.221638,29.128264],[129.221731,29.128217],[129.221858,29.128251],[129.221693,29.128442],[129.221621,29.128463],[129.221655,29.12862],[129.221859,29.12851],[129.221947,29.128557],[129.22196,29.128713],[129.221825,29.128827],[129.22191,29.1289],[129.221876,29.128993],[129.221948,29.129048],[129.221859,29.129179],[129.221977,29.129167],[129.222079,29.129091],[129.222197,29.129108],[129.222147,29.129264],[129.221973,29.129349],[129.222049,29.129459],[129.222227,29.12943],[129.222248,29.129506],[129.221935,29.129714],[129.221981,29.129773],[129.221964,29.12987],[129.221867,29.130028],[129.221753,29.130049],[129.221766,29.130159],[129.22163,29.130265],[129.221319,29.130782],[129.221263,29.131262],[129.221139,29.131702],[129.2207,29.132592],[129.220283,29.132136],[129.21983,29.131794],[129.219312,29.131527],[129.218084,29.131054],[129.218012,29.131065],[129.217708,29.131742],[129.21754,29.131885],[129.215683,29.130998],[129.215529,29.131021],[129.213852,29.132016],[129.213779,29.132324],[129.213814,29.132797],[129.212853,29.133909],[129.211764,29.135485],[129.21164,29.13556],[129.211165,29.135688],[129.209721,29.135933],[129.208334,29.13626],[129.207923,29.136496],[129.207551,29.13706]]],[[[129.19818,29.153971],[129.198201,29.154091],[129.198155,29.154221],[129.197813,29.154652],[129.197397,29.154949],[129.196697,29.155146],[129.196043,29.155182],[129.195802,29.155129],[129.195527,29.154884],[129.195419,29.154565],[129.195375,29.154129],[129.195566,29.153599],[129.195608,29.153138],[129.196373,29.153049],[129.196441,29.153003],[129.196725,29.153168],[129.197154,29.153229],[129.197599,29.153065],[129.19771,29.153068],[129.197769,29.153098],[129.19818,29.153971]]],[[[129.32683,29.219673],[129.32595,29.219647],[129.325774,29.219538],[129.325561,29.219223],[129.325385,29.219197],[129.324674,29.219499],[129.324202,29.218948],[129.324651,29.21888],[129.324908,29.218671],[129.325313,29.218575],[129.32548,29.218406],[129.325721,29.218315],[129.325826,29.21821],[129.325976,29.218289],[129.326178,29.218251],[129.326155,29.218157],[129.326224,29.21809],[129.326503,29.218106],[129.326616,29.21803],[129.326943,29.218033],[129.327264,29.218196],[129.327256,29.218267],[129.326998,29.218389],[129.327209,29.218565],[129.327203,29.218644],[129.32734,29.218758],[129.32747,29.218761],[129.327587,29.218831],[129.327672,29.218924],[129.327699,29.219045],[129.327873,29.219085],[129.327924,29.218999],[129.328151,29.219023],[129.32821,29.219071],[129.328316,29.219011],[129.328517,29.219093],[129.328561,29.219232],[129.328712,29.219299],[129.328785,29.219486],[129.328894,29.219611],[129.328883,29.219657],[129.328018,29.219628],[129.32683,29.219673]]],[[[129.358409,29.225182],[129.358381,29.225348],[129.358254,29.225305],[129.358304,29.225157],[129.358367,29.225138],[129.358409,29.225182]]],[[[129.358346,29.225447],[129.358487,29.22554],[129.358473,29.225627],[129.358423,29.225645],[129.358219,29.225559],[129.358205,29.225491],[129.358346,29.225447]]],[[[129.35736,29.225657],[129.357458,29.225849],[129.35736,29.225905],[129.357289,29.225886],[129.357219,29.225725],[129.357233,29.225676],[129.35736,29.225657]]],[[[129.356345,29.226111],[129.356503,29.226188],[129.356546,29.226327],[129.35641,29.226372],[129.356214,29.226316],[129.356247,29.226151],[129.356345,29.226111]]],[[[129.359755,29.226146],[129.359748,29.226337],[129.35972,29.226393],[129.359642,29.22638],[129.359565,29.226269],[129.359579,29.226183],[129.359755,29.226146]]],[[[129.360206,29.226393],[129.360325,29.226597],[129.360311,29.226646],[129.360192,29.226683],[129.359994,29.226584],[129.359994,29.22651],[129.360086,29.226405],[129.360206,29.226393]]],[[[129.358388,29.226825],[129.357937,29.226893],[129.357937,29.226665],[129.358585,29.226393],[129.358733,29.226473],[129.358783,29.22659],[129.35874,29.226708],[129.358388,29.226825]]],[[[129.357198,29.226504],[129.357501,29.226677],[129.357613,29.226831],[129.357606,29.226943],[129.357515,29.22706],[129.357381,29.227091],[129.357233,29.227054],[129.357148,29.22698],[129.357029,29.226547],[129.357113,29.226479],[129.357198,29.226504]]],[[[129.360346,29.226949],[129.360431,29.227079],[129.360354,29.227147],[129.360234,29.22706],[129.360283,29.226949],[129.360346,29.226949]]],[[[129.363553,29.226678],[129.363879,29.226812],[129.364012,29.227012],[129.364018,29.227134],[129.363872,29.227309],[129.36355,29.227255],[129.363456,29.227181],[129.363454,29.226735],[129.363553,29.226678]]],[[[129.361953,29.227091],[129.362087,29.227215],[129.362038,29.227338],[129.361869,29.227301],[129.361813,29.227239],[129.36189,29.227085],[129.361953,29.227091]]],[[[129.360262,29.227326],[129.360368,29.227369],[129.360382,29.227431],[129.360262,29.227524],[129.360128,29.227462],[129.360121,29.227381],[129.360135,29.22732],[129.36022,29.227283],[129.360262,29.227326]]],[[[129.359705,29.227276],[129.359783,29.227276],[129.359896,29.227468],[129.359811,29.227715],[129.35967,29.227678],[129.359621,29.22761],[129.359663,29.227276],[129.359705,29.227276]]],[[[129.357951,29.227009],[129.358221,29.227184],[129.358223,29.227611],[129.357933,29.227743],[129.35792,29.227829],[129.357852,29.22788],[129.357745,29.227878],[129.357525,29.227704],[129.357428,29.227469],[129.357438,29.227377],[129.357538,29.227161],[129.357713,29.227041],[129.357951,29.227009]]],[[[129.358562,29.228418],[129.35878,29.228558],[129.35883,29.228775],[129.358757,29.228826],[129.358633,29.228854],[129.358539,29.228808],[129.3585,29.228526],[129.358562,29.228418]]],[[[129.327028,29.228892],[129.326744,29.228964],[129.326594,29.228886],[129.326433,29.228913],[129.326196,29.228769],[129.325856,29.228786],[129.325549,29.228627],[129.325133,29.228566],[129.324823,29.22844],[129.324771,29.228341],[129.324678,29.228341],[129.324593,29.228228],[129.324194,29.228206],[129.323949,29.228111],[129.323907,29.228036],[129.323799,29.228066],[129.323576,29.227999],[129.323531,29.227931],[129.323317,29.227875],[129.323259,29.227735],[129.323021,29.227691],[129.322794,29.227537],[129.32268,29.227588],[129.322479,29.227514],[129.322433,29.227427],[129.322368,29.227417],[129.322151,29.227216],[129.322151,29.227125],[129.32198,29.227132],[129.321889,29.226953],[129.321587,29.22687],[129.321293,29.226698],[129.321222,29.226558],[129.321037,29.226503],[129.320628,29.226263],[129.320483,29.226031],[129.320354,29.226011],[129.320183,29.225761],[129.320034,29.225699],[129.319971,29.225587],[129.319991,29.225485],[129.31976,29.225465],[129.31953,29.225286],[129.319457,29.225133],[129.319477,29.224984],[129.319397,29.224982],[129.319085,29.224688],[129.319153,29.224357],[129.319043,29.224157],[129.319021,29.223921],[129.319048,29.22374],[129.319116,29.223659],[129.319069,29.223547],[129.319095,29.223407],[129.319272,29.223071],[129.319336,29.222529],[129.320099,29.223108],[129.321523,29.221247],[129.322016,29.221322],[129.322305,29.221261],[129.322904,29.221957],[129.322651,29.221968],[129.32238,29.222273],[129.322273,29.222499],[129.322312,29.22265],[129.322651,29.223056],[129.32271,29.223329],[129.323303,29.223921],[129.323686,29.224147],[129.323906,29.224769],[129.32404,29.225513],[129.32417,29.225731],[129.324177,29.225902],[129.324099,29.226208],[129.324477,29.226514],[129.324787,29.226961],[129.325018,29.227056],[129.325191,29.227024],[129.325708,29.226801],[129.326109,29.226703],[129.326653,29.226353],[129.327006,29.22623],[129.327419,29.226192],[129.327834,29.226034],[129.328046,29.225882],[129.328368,29.226628],[129.32779,29.226794],[129.327538,29.226995],[129.327404,29.227562],[129.327698,29.228557],[129.327696,29.228822],[129.327524,29.228846],[129.327396,29.22877],[129.327385,29.228897],[129.327306,29.228959],[129.327165,29.228824],[129.327079,29.228823],[129.327028,29.228892]]],[[[129.345004,29.230839],[129.344581,29.230784],[129.34434,29.230682],[129.34426,29.230719],[129.343998,29.230613],[129.343913,29.230648],[129.343608,29.230431],[129.343529,29.230255],[129.343297,29.230174],[129.343158,29.229961],[129.343281,29.229294],[129.343206,29.229266],[129.343073,29.229405],[129.342989,29.229376],[129.342791,29.228687],[129.342894,29.228379],[129.342732,29.228434],[129.342603,29.228301],[129.342617,29.227754],[129.342573,29.227617],[129.342666,29.227342],[129.342589,29.22724],[129.342583,29.227127],[129.342769,29.226778],[129.34275,29.226315],[129.342795,29.226056],[129.342924,29.225836],[129.343483,29.225187],[129.343785,29.22495],[129.344318,29.224956],[129.344563,29.225035],[129.344877,29.225018],[129.345314,29.225244],[129.345751,29.225367],[129.34615,29.225621],[129.346613,29.225791],[129.346973,29.225999],[129.347133,29.225999],[129.347346,29.225926],[129.347673,29.226152],[129.347776,29.226377],[129.34795,29.226546],[129.348284,29.226721],[129.348676,29.227094],[129.348753,29.227381],[129.348767,29.227639],[129.348601,29.227714],[129.348561,29.227821],[129.348791,29.227918],[129.348805,29.227961],[129.348718,29.228203],[129.348843,29.228405],[129.348838,29.228526],[129.348627,29.22899],[129.348738,29.229375],[129.348617,29.229495],[129.348548,29.229476],[129.348512,29.229536],[129.348372,29.229591],[129.348295,29.229539],[129.348209,29.229652],[129.348103,29.229699],[129.348001,29.229683],[129.347988,29.229728],[129.348162,29.229858],[129.348554,29.229981],[129.348612,29.230065],[129.348547,29.230249],[129.34836,29.23032],[129.348046,29.230344],[129.347883,29.230294],[129.347845,29.230342],[129.347875,29.230439],[129.347368,29.230551],[129.347132,29.230421],[129.346884,29.230551],[129.346429,29.230464],[129.346194,29.230563],[129.346023,29.230543],[129.345811,29.23066],[129.345664,29.230664],[129.345605,29.230731],[129.345333,29.230689],[129.345004,29.230839]]],[[[129.610641,29.473908],[129.610411,29.473931],[129.610287,29.473858],[129.610266,29.473707],[129.61015,29.473541],[129.610196,29.473381],[129.610343,29.473208],[129.610547,29.4732],[129.610995,29.473018],[129.611263,29.473046],[129.611349,29.473184],[129.611355,29.473312],[129.611033,29.47359],[129.610914,29.473568],[129.610671,29.473635],[129.610628,29.473689],[129.610693,29.473793],[129.610641,29.473908]]],[[[129.59533,29.477076],[129.595146,29.477156],[129.594944,29.477107],[129.594919,29.477038],[129.594836,29.47705],[129.594644,29.476943],[129.594436,29.477047],[129.594243,29.477055],[129.594294,29.476815],[129.594197,29.476803],[129.594122,29.476669],[129.594159,29.476532],[129.594048,29.476339],[129.594104,29.476203],[129.594054,29.476111],[129.594102,29.47589],[129.594196,29.475813],[129.59423,29.475572],[129.5943,29.475492],[129.594257,29.475412],[129.594324,29.475163],[129.59418,29.474884],[129.594188,29.474813],[129.594111,29.474799],[129.594017,29.47461],[129.594015,29.474485],[129.593944,29.47442],[129.593927,29.474151],[129.593862,29.474116],[129.593709,29.47384],[129.593502,29.473642],[129.593476,29.473531],[129.593362,29.473504],[129.593203,29.473336],[129.593196,29.473221],[129.593121,29.473245],[129.593017,29.473198],[129.592756,29.472937],[129.592736,29.472835],[129.592599,29.472852],[129.592418,29.472744],[129.592419,29.472647],[129.59218,29.472386],[129.59208,29.472337],[129.591938,29.472064],[129.591795,29.47203],[129.5916,29.471824],[129.591559,29.471864],[129.591417,29.471863],[129.591086,29.471648],[129.590985,29.471629],[129.590953,29.471509],[129.590855,29.471525],[129.590693,29.471366],[129.590674,29.471261],[129.590448,29.47119],[129.590424,29.471092],[129.590297,29.471088],[129.590223,29.470975],[129.59006,29.470918],[129.590039,29.470836],[129.589894,29.470816],[129.589725,29.470681],[129.589692,29.47058],[129.589565,29.47057],[129.589473,29.470446],[129.589085,29.470232],[129.588953,29.470115],[129.588933,29.470032],[129.588844,29.469998],[129.588649,29.469792],[129.588628,29.469712],[129.588537,29.46967],[129.588461,29.469485],[129.588317,29.469439],[129.588184,29.469247],[129.588188,29.469161],[129.588087,29.469063],[129.588093,29.468978],[129.587848,29.468724],[129.587807,29.468533],[129.587679,29.468473],[129.587605,29.468322],[129.587619,29.468209],[129.587511,29.468158],[129.587501,29.468044],[129.587389,29.468014],[129.587212,29.467841],[129.587224,29.467677],[129.587175,29.467513],[129.586992,29.467305],[129.586905,29.467112],[129.586916,29.467008],[129.586789,29.466989],[129.586674,29.466809],[129.586669,29.466604],[129.586558,29.466496],[129.586496,29.466276],[129.586532,29.466187],[129.586452,29.466119],[129.586369,29.465922],[129.586375,29.465792],[129.586302,29.465734],[129.58626,29.465596],[129.586298,29.46544],[129.586238,29.465382],[129.586198,29.465152],[129.586228,29.465068],[129.586154,29.465032],[129.586112,29.464734],[129.586026,29.464678],[129.585969,29.464442],[129.585993,29.46435],[129.58587,29.46428],[129.585796,29.464084],[129.585833,29.463987],[129.585746,29.46373],[129.585797,29.463642],[129.585714,29.463599],[129.585658,29.463469],[129.585322,29.463492],[129.585268,29.463449],[129.585108,29.463451],[129.584952,29.463529],[129.584802,29.463506],[129.584584,29.463566],[129.58419,29.463458],[129.583999,29.463129],[129.583984,29.462991],[129.584059,29.46278],[129.584127,29.462749],[129.584253,29.462537],[129.584468,29.462432],[129.584581,29.462462],[129.58468,29.462253],[129.584956,29.462091],[129.584953,29.462016],[129.585079,29.461929],[129.585091,29.461823],[129.585185,29.461794],[129.58521,29.461693],[129.585305,29.461644],[129.585319,29.461499],[129.585224,29.461482],[129.585072,29.461165],[129.584942,29.461173],[129.584857,29.461116],[129.584772,29.460815],[129.585094,29.460465],[129.585195,29.460474],[129.585262,29.460412],[129.585691,29.460464],[129.585851,29.460612],[129.585959,29.460459],[129.586146,29.460358],[129.586164,29.460263],[129.586302,29.460116],[129.586487,29.460068],[129.58655,29.459949],[129.586737,29.459786],[129.586943,29.459763],[129.586969,29.459673],[129.587175,29.459562],[129.587337,29.459554],[129.587405,29.459459],[129.587566,29.459441],[129.58766,29.459289],[129.587764,29.45926],[129.587797,29.459148],[129.587932,29.459094],[129.588058,29.458956],[129.588186,29.458971],[129.588239,29.45892],[129.588455,29.458889],[129.588568,29.45891],[129.588714,29.458662],[129.588871,29.458575],[129.588979,29.458442],[129.58925,29.458444],[129.589436,29.458354],[129.589604,29.458376],[129.589932,29.458009],[129.59041,29.457665],[129.590991,29.457564],[129.591124,29.457586],[129.591144,29.457535],[129.591504,29.457428],[129.591622,29.457454],[129.591965,29.457296],[129.592052,29.457323],[129.592174,29.457214],[129.592904,29.457051],[129.592948,29.45698],[129.593122,29.456933],[129.593243,29.456831],[129.593363,29.456835],[129.593509,29.456739],[129.593894,29.456741],[129.59403,29.456883],[129.594221,29.456962],[129.594392,29.456974],[129.594492,29.456926],[129.594579,29.457193],[129.594601,29.457489],[129.594479,29.458155],[129.593538,29.459946],[129.593372,29.460565],[129.593272,29.461536],[129.593277,29.461978],[129.593483,29.463139],[129.593776,29.463851],[129.594342,29.464674],[129.59598,29.464677],[129.596274,29.464746],[129.596421,29.464815],[129.596505,29.464919],[129.596455,29.465043],[129.595201,29.465394],[129.594139,29.465834],[129.593717,29.466096],[129.593568,29.466249],[129.593427,29.466422],[129.59337,29.466713],[129.593433,29.466842],[129.59354,29.466921],[129.593856,29.466975],[129.594127,29.466886],[129.594958,29.466451],[129.595765,29.466244],[129.596743,29.466239],[129.59711,29.466303],[129.597488,29.466456],[129.597505,29.466555],[129.59746,29.466673],[129.597219,29.466837],[129.595675,29.467481],[129.595131,29.467842],[129.59485,29.468114],[129.59445,29.46868],[129.594241,29.469142],[129.594024,29.469842],[129.5939,29.470659],[129.593909,29.471035],[129.594028,29.471496],[129.595662,29.473543],[129.595874,29.473883],[129.595982,29.474264],[129.595948,29.474634],[129.595107,29.476226],[129.595097,29.476357],[129.595213,29.476267],[129.595662,29.475591],[129.596349,29.474697],[129.596583,29.474521],[129.598412,29.474032],[129.59883,29.473991],[129.599399,29.474015],[129.599699,29.47397],[129.600305,29.473446],[129.600714,29.473177],[129.601266,29.472894],[129.60209,29.472572],[129.603346,29.472444],[129.605001,29.472164],[129.606251,29.472184],[129.607413,29.471892],[129.609113,29.471573],[129.609301,29.471448],[129.609369,29.471347],[129.609372,29.471138],[129.609175,29.47089],[129.60881,29.470584],[129.608616,29.470327],[129.608477,29.469913],[129.608514,29.469437],[129.608701,29.469114],[129.60894,29.46898],[129.609726,29.468876],[129.609736,29.468703],[129.609429,29.468238],[129.60935,29.467981],[129.609429,29.467698],[129.609759,29.467282],[129.609809,29.467136],[129.609726,29.466605],[129.609843,29.466531],[129.610875,29.466225],[129.610934,29.466151],[129.611046,29.465583],[129.611083,29.465071],[129.610971,29.464968],[129.610774,29.464978],[129.609476,29.465234],[129.608657,29.465308],[129.608184,29.465271],[129.607763,29.465155],[129.607439,29.465033],[129.607082,29.464819],[129.607292,29.463683],[129.607595,29.463051],[129.60797,29.462726],[129.608998,29.462234],[129.609294,29.462014],[129.609395,29.461718],[129.609436,29.461337],[129.610034,29.460854],[129.610684,29.460115],[129.611158,29.459286],[129.611318,29.458795],[129.611344,29.458338],[129.611266,29.457966],[129.611099,29.457719],[129.610708,29.457373],[129.610772,29.45723],[129.610953,29.457105],[129.611406,29.457227],[129.611542,29.457156],[129.61157,29.45672],[129.611425,29.456046],[129.611342,29.454637],[129.611222,29.454177],[129.610717,29.452955],[129.610305,29.451343],[129.610444,29.451244],[129.611455,29.450865],[129.611715,29.450714],[129.611907,29.450522],[129.61216,29.450161],[129.612717,29.448934],[129.612812,29.448964],[129.612843,29.449062],[129.612884,29.450224],[129.612962,29.450475],[129.613027,29.450534],[129.613248,29.450516],[129.6135,29.450373],[129.613697,29.450063],[129.613684,29.449789],[129.613281,29.448859],[129.613185,29.448511],[129.613281,29.448085],[129.613447,29.447951],[129.613699,29.448028],[129.613801,29.448168],[129.613876,29.448365],[129.614047,29.449282],[129.614227,29.449661],[129.614387,29.449807],[129.614578,29.449813],[129.614669,29.449714],[129.614717,29.449169],[129.61484,29.448958],[129.615054,29.448871],[129.615146,29.448892],[129.615354,29.449104],[129.615462,29.449357],[129.615703,29.451465],[129.615676,29.451765],[129.615442,29.452785],[129.615137,29.453739],[129.615117,29.45418],[129.61518,29.454624],[129.615347,29.455041],[129.615626,29.455476],[129.616468,29.456448],[129.616794,29.456913],[129.61569,29.458029],[129.614742,29.459436],[129.613276,29.461054],[129.612679,29.461972],[129.612171,29.462894],[129.611752,29.464216],[129.611447,29.464865],[129.611421,29.465184],[129.611464,29.465579],[129.611346,29.466464],[129.611143,29.466841],[129.610933,29.467411],[129.610756,29.468264],[129.610719,29.469035],[129.611181,29.469218],[129.611312,29.46933],[129.611321,29.469426],[129.611257,29.469537],[129.611155,29.469553],[129.611123,29.469621],[129.611006,29.469657],[129.61091,29.469621],[129.610839,29.469672],[129.610653,29.469657],[129.610623,29.469617],[129.610517,29.469677],[129.610335,29.469641],[129.610211,29.469758],[129.610241,29.469811],[129.610208,29.46998],[129.610105,29.470066],[129.610151,29.470147],[129.610052,29.470264],[129.610077,29.470377],[129.610039,29.470472],[129.609968,29.470553],[129.609886,29.470567],[129.609863,29.470694],[129.609748,29.470708],[129.609718,29.470805],[129.609968,29.470934],[129.609969,29.47098],[129.610059,29.470973],[129.610246,29.471162],[129.610246,29.471266],[129.61037,29.471421],[129.610326,29.471511],[129.610155,29.471617],[129.610103,29.471596],[129.609927,29.471931],[129.609849,29.471956],[129.60963,29.472176],[129.609477,29.472169],[129.609326,29.472232],[129.609064,29.472202],[129.6084,29.472332],[129.608154,29.472322],[129.607746,29.472509],[129.607591,29.472626],[129.607514,29.472779],[129.607391,29.472798],[129.607345,29.472897],[129.606751,29.473035],[129.606372,29.473038],[129.606155,29.473126],[129.605902,29.47305],[129.605792,29.473206],[129.605711,29.473234],[129.605472,29.473149],[129.605339,29.473193],[129.605136,29.473148],[129.605006,29.473252],[129.604412,29.473354],[129.604291,29.473444],[129.604048,29.473475],[129.603993,29.473555],[129.603785,29.473636],[129.603724,29.47361],[129.603447,29.473736],[129.603335,29.473732],[129.603121,29.47384],[129.602981,29.473847],[129.602956,29.473898],[129.602786,29.473966],[129.602623,29.47395],[129.602589,29.474016],[129.60242,29.474074],[129.602276,29.474065],[129.602201,29.474155],[129.601969,29.474176],[129.601566,29.474334],[129.601287,29.474497],[129.601309,29.474561],[129.601401,29.474606],[129.601428,29.47475],[129.60152,29.474807],[129.601508,29.474901],[129.601638,29.474922],[129.601646,29.475069],[129.601733,29.47513],[129.601703,29.475223],[129.601817,29.475307],[129.601789,29.475492],[129.601726,29.475594],[129.601626,29.47561],[129.601539,29.475693],[129.601278,29.475707],[129.601106,29.475785],[129.601107,29.475848],[129.601265,29.475933],[129.601273,29.476103],[129.601189,29.476225],[129.601099,29.476253],[129.601083,29.476351],[129.600985,29.476372],[129.600939,29.476447],[129.600717,29.476508],[129.600358,29.476482],[129.599902,29.476277],[129.599853,29.476067],[129.59991,29.475993],[129.599671,29.475619],[129.599573,29.475653],[129.599459,29.47561],[129.599429,29.47565],[129.599121,29.475659],[129.599074,29.475696],[129.598862,29.475684],[129.598741,29.475629],[129.598542,29.475757],[129.598402,29.475774],[129.598292,29.475889],[129.598069,29.475896],[129.597689,29.476066],[129.597338,29.476313],[129.597061,29.476356],[129.596571,29.476318],[129.596515,29.476452],[129.596424,29.476477],[129.59639,29.476561],[129.596183,29.476707],[129.595897,29.476793],[129.595761,29.476914],[129.59533,29.477076]]],[[[129.594021,29.478272],[129.593755,29.478302],[129.593696,29.478096],[129.593833,29.478063],[129.593879,29.477804],[129.594034,29.477747],[129.59432,29.477387],[129.594516,29.477411],[129.594571,29.47747],[129.594602,29.477685],[129.59442,29.478106],[129.594368,29.478175],[129.594148,29.478239],[129.594048,29.478222],[129.594021,29.478272]]],[[[129.742785,29.663901],[129.742875,29.664076],[129.742774,29.664189],[129.74264,29.664065],[129.742681,29.663926],[129.742785,29.663901]]],[[[129.740233,29.671974],[129.740443,29.672094],[129.740438,29.672237],[129.740353,29.672317],[129.740182,29.672262],[129.740057,29.672127],[129.740093,29.672022],[129.740233,29.671974]]],[[[129.740031,29.674042],[129.740109,29.674278],[129.740046,29.674302],[129.739833,29.674236],[129.739875,29.674079],[129.740031,29.674042]]],[[[129.539329,29.674746],[129.539056,29.67477],[129.538857,29.674721],[129.538681,29.674578],[129.538659,29.674415],[129.538797,29.674446],[129.5389,29.674395],[129.539071,29.674473],[129.539354,29.674426],[129.539463,29.674573],[129.539464,29.674658],[129.539329,29.674746]]],[[[129.739998,29.674641],[129.740106,29.674663],[129.740131,29.67476],[129.739926,29.674767],[129.739904,29.674654],[129.739998,29.674641]]],[[[129.540061,29.67554],[129.539888,29.675599],[129.539596,29.675515],[129.53956,29.675466],[129.539427,29.675478],[129.538807,29.674909],[129.53892,29.674834],[129.539104,29.674897],[129.539232,29.674863],[129.539364,29.674924],[129.539514,29.674856],[129.539578,29.674911],[129.539675,29.674906],[129.539751,29.675002],[129.540156,29.674989],[129.540269,29.675156],[129.540261,29.675322],[129.540061,29.67554]]],[[[129.538617,29.674835],[129.538871,29.675183],[129.538985,29.67521],[129.539028,29.675313],[129.539113,29.675355],[129.539202,29.675506],[129.539184,29.675574],[129.538959,29.675681],[129.538754,29.675545],[129.538723,29.675381],[129.538514,29.675144],[129.538493,29.67498],[129.538565,29.674831],[129.538617,29.674835]]],[[[129.538593,29.675791],[129.538481,29.675861],[129.538401,29.675784],[129.538338,29.675793],[129.538239,29.675645],[129.538114,29.675612],[129.5381,29.675521],[129.538012,29.675498],[129.537978,29.675413],[129.537859,29.675381],[129.53773,29.67511],[129.537904,29.675015],[129.538086,29.674994],[129.538168,29.675022],[129.538311,29.674986],[129.538406,29.675059],[129.538459,29.675274],[129.538623,29.675413],[129.538657,29.675535],[129.53865,29.675732],[129.538593,29.675791]]],[[[129.537326,29.676441],[129.537242,29.676454],[129.537176,29.676391],[129.53704,29.676389],[129.536963,29.676303],[129.536728,29.676267],[129.536486,29.676112],[129.536381,29.675894],[129.536469,29.675794],[129.536495,29.675632],[129.536413,29.67543],[129.536133,29.67533],[129.53611,29.675152],[129.536368,29.675094],[129.536577,29.675129],[129.536689,29.675076],[129.536794,29.675099],[129.536886,29.675015],[129.53707,29.674987],[129.537186,29.675072],[129.53738,29.675079],[129.537451,29.675131],[129.537474,29.675222],[129.537581,29.675265],[129.53758,29.675454],[129.537938,29.675489],[129.538086,29.675626],[129.538137,29.675746],[129.538256,29.675773],[129.538337,29.675896],[129.538293,29.676004],[129.538405,29.676135],[129.538226,29.676288],[129.538155,29.676292],[129.538101,29.676201],[129.537983,29.676202],[129.537912,29.676152],[129.537799,29.67619],[129.537727,29.676341],[129.537606,29.676349],[129.537452,29.676452],[129.537326,29.676441]]],[[[129.539233,29.68072],[129.539125,29.680762],[129.538951,29.680717],[129.538836,29.680553],[129.539119,29.680494],[129.539145,29.680569],[129.539224,29.680574],[129.539293,29.68064],[129.539233,29.68072]]],[[[129.539879,29.683827],[129.539831,29.684108],[129.539948,29.684241],[129.539904,29.68449],[129.539833,29.684603],[129.539705,29.684622],[129.539543,29.684349],[129.539542,29.683836],[129.539604,29.683773],[129.539797,29.683761],[129.539879,29.683827]]],[[[129.526999,29.684689],[129.526565,29.685177],[129.525397,29.68515],[129.525356,29.685081],[129.52552,29.684876],[129.525541,29.684646],[129.525634,29.684617],[129.525773,29.684308],[129.525925,29.684243],[129.525943,29.684142],[129.525994,29.684081],[129.526067,29.684084],[129.526079,29.683988],[129.526181,29.683897],[129.526178,29.683729],[129.526276,29.683615],[129.526289,29.683479],[129.526384,29.68345],[129.526456,29.683339],[129.526623,29.683349],[129.526728,29.683295],[129.528083,29.682202],[129.528986,29.681746],[129.529802,29.681449],[129.530619,29.681974],[129.529487,29.682661],[129.528888,29.682958],[129.528291,29.68335],[129.527787,29.683577],[129.52749,29.683852],[129.526999,29.684689]]],[[[129.539333,29.683674],[129.539481,29.684034],[129.53938,29.68429],[129.539428,29.684554],[129.539599,29.684999],[129.539586,29.685141],[129.539635,29.685178],[129.539549,29.685549],[129.539652,29.685597],[129.5398,29.685837],[129.539801,29.686215],[129.53988,29.686424],[129.539842,29.686498],[129.538826,29.686203],[129.538461,29.685978],[129.537839,29.685488],[129.537488,29.685296],[129.536442,29.685091],[129.536111,29.684872],[129.53568,29.684239],[129.535147,29.683611],[129.53527,29.683375],[129.535366,29.682585],[129.535772,29.682414],[129.535908,29.682284],[129.53601,29.682011],[129.536032,29.681734],[129.535981,29.681112],[129.535831,29.680257],[129.535836,29.67914],[129.535653,29.678854],[129.534863,29.6786],[129.53418,29.678295],[129.533733,29.677909],[129.53379,29.677818],[129.533985,29.677758],[129.534011,29.677674],[129.534318,29.677558],[129.534407,29.677575],[129.534791,29.677471],[129.534927,29.677544],[129.534968,29.677501],[129.534837,29.67736],[129.534877,29.677296],[129.534859,29.677088],[129.534964,29.677056],[129.535023,29.676938],[129.535164,29.676931],[129.535289,29.676853],[129.535419,29.676879],[129.53552,29.676846],[129.535617,29.676889],[129.535688,29.676846],[129.535824,29.676956],[129.535925,29.67697],[129.535921,29.676779],[129.53585,29.676719],[129.535877,29.67644],[129.536059,29.676395],[129.536138,29.676316],[129.536395,29.676377],[129.536462,29.676486],[129.536801,29.676552],[129.536947,29.676693],[129.537189,29.677093],[129.537265,29.677306],[129.537278,29.677583],[129.537404,29.67809],[129.537377,29.678202],[129.537163,29.678412],[129.53721,29.678699],[129.537136,29.678883],[129.536873,29.679127],[129.536888,29.679251],[129.536806,29.679517],[129.536825,29.679888],[129.537072,29.680031],[129.537363,29.680361],[129.537469,29.680362],[129.53767,29.680611],[129.537753,29.680608],[129.537841,29.680705],[129.537902,29.680963],[129.538176,29.681166],[129.538311,29.68121],[129.538367,29.681348],[129.538343,29.681515],[129.538253,29.681635],[129.537977,29.681759],[129.537985,29.682007],[129.538143,29.682046],[129.538192,29.682155],[129.538144,29.682342],[129.538268,29.682394],[129.538302,29.682459],[129.538266,29.682642],[129.538073,29.682933],[129.538067,29.683139],[129.538136,29.683326],[129.538022,29.683438],[129.537966,29.683622],[129.538255,29.683534],[129.538487,29.68356],[129.53864,29.683492],[129.538747,29.683524],[129.538812,29.683461],[129.539053,29.683485],[129.539165,29.683593],[129.539285,29.683593],[129.539333,29.683674]]],[[[129.905974,29.813521],[129.905871,29.813529],[129.905598,29.813417],[129.905528,29.813211],[129.905554,29.813156],[129.905455,29.813049],[129.905438,29.812834],[129.905325,29.812761],[129.905308,29.812607],[129.905203,29.812601],[129.905128,29.812534],[129.904929,29.812067],[129.905053,29.811907],[129.905134,29.811898],[129.905151,29.811814],[129.905437,29.811763],[129.905452,29.811713],[129.905676,29.8116],[129.905706,29.811516],[129.905949,29.811417],[129.906066,29.811308],[129.9062,29.811284],[129.906291,29.81137],[129.906446,29.811368],[129.906549,29.811497],[129.906873,29.811571],[129.907006,29.811708],[129.907012,29.811809],[129.906712,29.811882],[129.906579,29.812111],[129.906693,29.812312],[129.906903,29.812375],[129.906916,29.812479],[129.906996,29.81252],[129.906991,29.812579],[129.907139,29.81278],[129.907074,29.812908],[129.906901,29.812959],[129.906827,29.812882],[129.906823,29.812775],[129.906745,29.812786],[129.906749,29.812892],[129.906673,29.813033],[129.906687,29.813174],[129.906609,29.81326],[129.906513,29.813266],[129.906514,29.813325],[129.906201,29.813505],[129.905974,29.813521]]],[[[129.918783,29.817626],[129.918621,29.817676],[129.918501,29.81761],[129.918398,29.817669],[129.918172,29.817636],[129.918086,29.817669],[129.917966,29.817609],[129.918075,29.817406],[129.918263,29.817384],[129.918378,29.817222],[129.91836,29.817147],[129.918473,29.817034],[129.91864,29.816992],[129.918804,29.816807],[129.918865,29.816839],[129.918839,29.817026],[129.918917,29.81706],[129.919003,29.817371],[129.918989,29.817439],[129.918783,29.817626]]],[[[129.916202,29.818548],[129.916273,29.818624],[129.916321,29.819019],[129.916203,29.81921],[129.916007,29.81926],[129.915851,29.819144],[129.915811,29.818842],[129.915856,29.818677],[129.915929,29.818595],[129.916202,29.818548]]],[[[129.910801,29.819442],[129.910827,29.819526],[129.910783,29.819596],[129.910593,29.819707],[129.910362,29.819632],[129.910345,29.819374],[129.910567,29.819273],[129.910509,29.819101],[129.910533,29.819042],[129.910419,29.818914],[129.910461,29.818828],[129.910428,29.818641],[129.9105,29.818578],[129.910862,29.818613],[129.910985,29.81871],[129.911111,29.818711],[129.9112,29.818801],[129.911303,29.818799],[129.911381,29.818918],[129.911357,29.818975],[129.911449,29.819037],[129.911407,29.81919],[129.910801,29.819442]]],[[[129.918204,29.819834],[129.918167,29.819885],[129.917989,29.819825],[129.917789,29.819651],[129.917816,29.819542],[129.917901,29.819524],[129.91807,29.819635],[129.918087,29.819736],[129.918204,29.819834]]],[[[129.912091,29.830472],[129.911935,29.83057],[129.911382,29.829932],[129.91144,29.829786],[129.911492,29.829035],[129.911663,29.828853],[129.91204,29.828591],[129.912161,29.828428],[129.912142,29.82755],[129.912297,29.82723],[129.91256,29.826965],[129.913277,29.826666],[129.913694,29.826431],[129.913823,29.826329],[129.913901,29.826193],[129.913866,29.825397],[129.913922,29.824905],[129.91364,29.824162],[129.913309,29.823812],[129.91289,29.823598],[129.912185,29.823111],[129.91171,29.822858],[129.909844,29.822535],[129.908399,29.821945],[129.906804,29.821504],[129.906595,29.821368],[129.906361,29.820961],[129.905595,29.820914],[129.905325,29.820038],[129.904723,29.818891],[129.904446,29.818192],[129.904651,29.818211],[129.904778,29.818337],[129.90492,29.818534],[129.904975,29.818768],[129.905274,29.819134],[129.905428,29.818989],[129.905484,29.819],[129.905552,29.818852],[129.905444,29.818612],[129.905342,29.818504],[129.905342,29.818391],[129.905484,29.818334],[129.905584,29.818337],[129.905695,29.818469],[129.905812,29.818463],[129.905996,29.818566],[129.906216,29.818588],[129.906309,29.818653],[129.906474,29.818655],[129.90659,29.818766],[129.906783,29.818838],[129.907022,29.819106],[129.907226,29.819242],[129.907256,29.819356],[129.907326,29.819361],[129.907429,29.819516],[129.907404,29.819594],[129.90753,29.819613],[129.907682,29.819808],[129.907727,29.820158],[129.907637,29.82022],[129.907849,29.82024],[129.90781,29.820488],[129.907951,29.820445],[129.907965,29.820606],[129.908359,29.820847],[129.908593,29.820933],[129.908922,29.820911],[129.910565,29.820465],[129.910869,29.820556],[129.911162,29.820749],[129.911434,29.820749],[129.911523,29.820611],[129.911632,29.820587],[129.91167,29.820491],[129.911953,29.820434],[129.912457,29.820811],[129.912479,29.821131],[129.91255,29.82117],[129.913372,29.821024],[129.914387,29.82108],[129.915331,29.820917],[129.91563,29.820815],[129.915725,29.820615],[129.915904,29.82046],[129.91602,29.820259],[129.916094,29.820246],[129.916094,29.820141],[129.916296,29.819902],[129.916494,29.819781],[129.916539,29.819704],[129.916862,29.819563],[129.917185,29.819581],[129.917574,29.819792],[129.917726,29.819826],[129.917773,29.819982],[129.917629,29.819994],[129.917666,29.820049],[129.917663,29.820299],[129.917603,29.820432],[129.917488,29.820471],[129.917327,29.820699],[129.917343,29.820935],[129.917504,29.821076],[129.917481,29.821183],[129.917629,29.821284],[129.917661,29.821423],[129.917786,29.821462],[129.917862,29.821626],[129.918276,29.821714],[129.918253,29.821818],[129.917896,29.821859],[129.917874,29.821929],[129.917749,29.82201],[129.917528,29.821961],[129.917567,29.822096],[129.917768,29.822164],[129.91795,29.822312],[129.918028,29.822492],[129.918041,29.822695],[129.917963,29.822794],[129.918031,29.822898],[129.917957,29.823014],[129.917898,29.823011],[129.917823,29.823219],[129.918036,29.823354],[129.918262,29.823385],[129.918384,29.823466],[129.918434,29.823534],[129.91839,29.823702],[129.918244,29.823739],[129.918131,29.823841],[129.918004,29.82381],[129.917918,29.823896],[129.917718,29.823919],[129.917684,29.824017],[129.917609,29.824056],[129.917349,29.824072],[129.917435,29.824308],[129.917653,29.824464],[129.917635,29.824549],[129.917375,29.824478],[129.91737,29.824554],[129.917523,29.824754],[129.917518,29.824935],[129.917267,29.824951],[129.916971,29.824723],[129.91695,29.824577],[129.916807,29.824567],[129.916776,29.824645],[129.916818,29.824876],[129.916776,29.824941],[129.916859,29.825039],[129.916896,29.825206],[129.916838,29.825256],[129.916627,29.825199],[129.91662,29.825297],[129.91657,29.825339],[129.916641,29.825414],[129.916641,29.82557],[129.916534,29.825567],[129.916487,29.825502],[129.916261,29.825442],[129.916121,29.825469],[129.916086,29.825724],[129.915879,29.8257],[129.915845,29.825646],[129.915803,29.825719],[129.915645,29.825781],[129.915632,29.825856],[129.915419,29.825906],[129.915333,29.825978],[129.91545,29.826129],[129.915454,29.826392],[129.914971,29.826569],[129.914833,29.826726],[129.914872,29.826972],[129.914955,29.826995],[129.915027,29.827099],[129.915007,29.82719],[129.914897,29.82718],[129.91471,29.82706],[129.914653,29.826959],[129.914422,29.827003],[129.914396,29.827196],[129.914471,29.827264],[129.914474,29.827383],[129.914336,29.827516],[129.914133,29.827578],[129.914068,29.827956],[129.913938,29.828075],[129.913889,29.828434],[129.913824,29.828569],[129.913769,29.828584],[129.913709,29.828792],[129.913634,29.828811],[129.913631,29.828927],[129.91348,29.829069],[129.913496,29.82918],[129.913402,29.829321],[129.913366,29.829562],[129.913262,29.829602],[129.913168,29.829827],[129.912965,29.830046],[129.912841,29.830116],[129.912593,29.830155],[129.91245,29.830298],[129.912372,29.830306],[129.912302,29.830415],[129.912091,29.830472]]],[[[129.871307,29.839707],[129.870321,29.841428],[129.864903,29.838969],[129.865114,29.83892],[129.865894,29.838973],[129.866195,29.838932],[129.866983,29.838334],[129.86744,29.838278],[129.86946,29.838601],[129.869684,29.838706],[129.869952,29.839057],[129.870325,29.839127],[129.870603,29.839057],[129.871345,29.838425],[129.87159,29.838392],[129.871901,29.838548],[129.871915,29.83863],[129.871307,29.839707]]],[[[129.618362,29.87478],[129.618508,29.874962],[129.618506,29.875054],[129.618424,29.875163],[129.618294,29.875214],[129.618168,29.875119],[129.6181,29.874933],[129.618159,29.874828],[129.618362,29.87478]]],[[[129.85264,29.87842],[129.852383,29.878512],[129.852217,29.878508],[129.852064,29.878354],[129.851908,29.878066],[129.850959,29.877698],[129.850143,29.87692],[129.8501,29.87668],[129.850165,29.876531],[129.850648,29.876425],[129.851084,29.876027],[129.851649,29.875835],[129.852122,29.875247],[129.852182,29.875112],[129.852129,29.874976],[129.851979,29.874915],[129.851664,29.874938],[129.850696,29.875159],[129.850506,29.875154],[129.850434,29.875098],[129.850711,29.874623],[129.850686,29.874504],[129.850542,29.874311],[129.850489,29.874019],[129.850402,29.873909],[129.849884,29.873601],[129.849699,29.873368],[129.849742,29.873034],[129.850059,29.87273],[129.85011,29.872623],[129.850089,29.872395],[129.849991,29.872288],[129.849531,29.87219],[129.849379,29.872079],[129.849365,29.872022],[129.849496,29.871872],[129.84962,29.871815],[129.850528,29.871612],[129.850773,29.871421],[129.850827,29.871289],[129.850782,29.87116],[129.850691,29.87108],[129.850244,29.871063],[129.849908,29.870978],[129.849784,29.870888],[129.849758,29.870791],[129.849829,29.870727],[129.850198,29.870918],[129.850316,29.870881],[129.850383,29.870794],[129.850329,29.870645],[129.850063,29.870434],[129.849935,29.870103],[129.849555,29.869847],[129.849321,29.869781],[129.849132,29.869643],[129.849001,29.869633],[129.848868,29.869713],[129.848524,29.8701],[129.847731,29.870129],[129.847486,29.870088],[129.847278,29.870009],[129.846831,29.869583],[129.846622,29.869507],[129.846466,29.8693],[129.846315,29.869239],[129.846134,29.869343],[129.846007,29.869661],[129.845914,29.869729],[129.845766,29.869739],[129.84567,29.869686],[129.845623,29.869592],[129.845689,29.868874],[129.845648,29.868498],[129.845603,29.868421],[129.845256,29.868221],[129.845154,29.867967],[129.844944,29.867891],[129.844592,29.867906],[129.844121,29.86776],[129.843709,29.867847],[129.84322,29.867847],[129.842906,29.867539],[129.842701,29.867503],[129.842331,29.867606],[129.842174,29.867493],[129.842068,29.867333],[129.841954,29.86658],[129.841927,29.865066],[129.841969,29.864739],[129.842054,29.864669],[129.84298,29.864408],[129.843059,29.864359],[129.84315,29.864176],[129.843329,29.86398],[129.843862,29.863621],[129.843901,29.863331],[129.843843,29.863032],[129.843709,29.862908],[129.843346,29.862837],[129.843048,29.862195],[129.84313,29.861831],[129.843885,29.861582],[129.843978,29.861523],[129.844027,29.861398],[129.843897,29.861259],[129.84332,29.861378],[129.84295,29.861366],[129.842891,29.861315],[129.842925,29.861182],[129.843188,29.861009],[129.843229,29.860813],[129.842557,29.860223],[129.842459,29.860054],[129.84255,29.859932],[129.842701,29.859877],[129.843468,29.859715],[129.84366,29.859598],[129.843851,29.859395],[129.843897,29.859288],[129.843883,29.859159],[129.843526,29.858871],[129.843741,29.858357],[129.843748,29.85818],[129.843675,29.858037],[129.843427,29.857844],[129.842524,29.857551],[129.842371,29.857424],[129.842271,29.857099],[129.842388,29.856693],[129.84231,29.856566],[129.84192,29.85629],[129.841896,29.856211],[129.842174,29.855852],[129.842653,29.855525],[129.842706,29.855463],[129.842717,29.855338],[129.842575,29.855149],[129.842187,29.855012],[129.842124,29.854878],[129.842173,29.854663],[129.842116,29.854534],[129.84195,29.854409],[129.841587,29.854283],[129.841407,29.854061],[129.841312,29.853846],[129.841662,29.853512],[129.841654,29.853396],[129.841451,29.853099],[129.841598,29.852908],[129.842118,29.852626],[129.842354,29.852566],[129.842809,29.852597],[129.84345,29.852413],[129.843593,29.852255],[129.843584,29.851888],[129.843802,29.851739],[129.844008,29.8513],[129.844179,29.851284],[129.844586,29.851397],[129.844719,29.851375],[129.844905,29.851257],[129.845052,29.851245],[129.84532,29.851438],[129.845546,29.851464],[129.84563,29.851405],[129.84577,29.85116],[129.845955,29.851003],[129.846134,29.850729],[129.846425,29.850591],[129.847577,29.850433],[129.853088,29.849942],[129.853151,29.849963],[129.853249,29.85018],[129.853305,29.850204],[129.853424,29.850155],[129.853596,29.849868],[129.854117,29.849834],[129.854586,29.84959],[129.854743,29.849566],[129.854755,29.849623],[129.854244,29.850095],[129.854237,29.850199],[129.854315,29.850273],[129.854493,29.850268],[129.854616,29.850209],[129.855177,29.849699],[129.855549,29.849049],[129.856014,29.848638],[129.857668,29.848108],[129.857979,29.848112],[129.858052,29.848161],[129.858379,29.84876],[129.858507,29.848826],[129.858617,29.84881],[129.85875,29.84871],[129.858917,29.848362],[129.859129,29.848133],[129.859281,29.848108],[129.859901,29.848239],[129.860553,29.848153],[129.860747,29.848088],[129.861355,29.84767],[129.861576,29.847585],[129.862087,29.847576],[129.8624,29.847656],[129.862755,29.847858],[129.863121,29.848299],[129.863283,29.848355],[129.863681,29.848299],[129.863929,29.848135],[129.864182,29.847674],[129.86436,29.847463],[129.864667,29.847374],[129.864868,29.847385],[129.864555,29.846424],[129.864481,29.846014],[129.864312,29.844277],[129.864333,29.843168],[129.86442,29.842669],[129.864577,29.842194],[129.86499,29.842597],[129.865669,29.843432],[129.865901,29.843628],[129.866411,29.843923],[129.866941,29.84413],[129.867603,29.844298],[129.868137,29.84431],[129.868902,29.844229],[129.869338,29.844276],[129.869505,29.844356],[129.869699,29.844534],[129.870641,29.84548],[129.871124,29.845689],[129.871408,29.845758],[129.872276,29.845842],[129.874236,29.845722],[129.875387,29.84578],[129.876,29.845882],[129.877217,29.846223],[129.877937,29.846252],[129.878096,29.846454],[129.878156,29.846633],[129.878651,29.84667],[129.878992,29.846568],[129.879281,29.846567],[129.879683,29.846701],[129.879882,29.846905],[129.880077,29.847278],[129.88024,29.847475],[129.880411,29.847538],[129.881215,29.847661],[129.882277,29.84845],[129.882637,29.849613],[129.882119,29.850305],[129.881918,29.850763],[129.881898,29.850933],[129.882067,29.851666],[129.882222,29.852025],[129.882367,29.852072],[129.882657,29.85201],[129.882789,29.852076],[129.883031,29.852416],[129.883239,29.852817],[129.88342,29.852943],[129.883623,29.852935],[129.883766,29.852825],[129.883944,29.852083],[129.884125,29.851831],[129.884533,29.851619],[129.884903,29.851562],[129.885271,29.851683],[129.885393,29.851761],[129.885492,29.851922],[129.8858,29.853122],[129.885977,29.853424],[129.886102,29.853523],[129.886577,29.853739],[129.888636,29.853846],[129.889205,29.853823],[129.889722,29.853628],[129.890299,29.853286],[129.89048,29.853271],[129.891178,29.853503],[129.89137,29.853663],[129.891625,29.854121],[129.891841,29.855167],[129.89172,29.855543],[129.891801,29.856161],[129.891776,29.858545],[129.891732,29.858774],[129.891627,29.859049],[129.891098,29.86002],[129.890882,29.860752],[129.889054,29.860646],[129.888438,29.860676],[129.88852,29.861923],[129.888347,29.862354],[129.887959,29.862978],[129.888011,29.863259],[129.888465,29.864122],[129.889303,29.865491],[129.889376,29.865686],[129.889372,29.866017],[129.888979,29.867221],[129.889005,29.86775],[129.889215,29.868817],[129.889169,29.869222],[129.88853,29.869356],[129.888451,29.869567],[129.888348,29.869622],[129.888271,29.869762],[129.888096,29.869873],[129.887893,29.869925],[129.887849,29.869997],[129.887413,29.870211],[129.887124,29.870317],[129.887065,29.870285],[129.88701,29.870382],[129.886746,29.870453],[129.886731,29.870514],[129.886522,29.870625],[129.886537,29.870684],[129.886431,29.870875],[129.886544,29.871032],[129.886505,29.871146],[129.886556,29.871236],[129.886556,29.871462],[129.886613,29.871612],[129.886594,29.871842],[129.88628,29.872446],[129.886051,29.872593],[129.885806,29.872641],[129.885734,29.872722],[129.88555,29.872754],[129.885387,29.87285],[129.885259,29.872835],[129.884857,29.873048],[129.884849,29.873184],[129.884798,29.873206],[129.884677,29.873193],[129.884528,29.873006],[129.884461,29.873043],[129.884247,29.873031],[129.884062,29.873114],[129.883741,29.873134],[129.883573,29.873238],[129.883571,29.873371],[129.883477,29.873437],[129.883295,29.873412],[129.883263,29.873354],[129.883114,29.873381],[129.882962,29.873309],[129.882801,29.87341],[129.882658,29.873437],[129.882581,29.873578],[129.882448,29.873595],[129.882424,29.873787],[129.882229,29.873836],[129.882167,29.873925],[129.882041,29.87398],[129.881955,29.873956],[129.88191,29.874039],[129.881708,29.874103],[129.881503,29.874291],[129.881161,29.874389],[129.881087,29.87437],[129.880842,29.874473],[129.880221,29.874554],[129.880051,29.874675],[129.879789,29.87465],[129.87968,29.874586],[129.879582,29.874633],[129.878702,29.874576],[129.878535,29.874473],[129.878363,29.874468],[129.878239,29.874301],[129.878001,29.874284],[129.877833,29.874355],[129.87769,29.874355],[129.877579,29.874505],[129.877473,29.87454],[129.877424,29.874752],[129.877347,29.874841],[129.877434,29.87507],[129.877397,29.875102],[129.87723,29.875099],[129.877112,29.875196],[129.87692,29.875196],[129.876665,29.875272],[129.876431,29.875269],[129.876288,29.875195],[129.876192,29.875205],[129.876037,29.875146],[129.876024,29.875084],[129.875764,29.874998],[129.875735,29.874929],[129.875624,29.874924],[129.875471,29.874811],[129.875173,29.874727],[129.875101,29.874826],[129.874944,29.874872],[129.874882,29.874848],[129.874877,29.874905],[129.874667,29.875053],[129.874631,29.875166],[129.874532,29.875253],[129.874428,29.87526],[129.874436,29.875322],[129.874097,29.875625],[129.873932,29.875639],[129.873673,29.875758],[129.873342,29.875728],[129.873014,29.875763],[129.873022,29.8758],[129.87276,29.875916],[129.872609,29.876227],[129.872523,29.876261],[129.872189,29.876111],[129.872108,29.876141],[129.871953,29.876362],[129.871756,29.876397],[129.871268,29.876357],[129.871102,29.876236],[129.870934,29.876213],[129.870351,29.876239],[129.870198,29.876139],[129.870117,29.875913],[129.870085,29.87542],[129.869792,29.874028],[129.869748,29.872916],[129.869295,29.871359],[129.86937,29.871026],[129.869672,29.870622],[129.86971,29.870368],[129.869586,29.868768],[129.869461,29.868239],[129.869425,29.868245],[129.869265,29.868376],[129.869068,29.868856],[129.868668,29.869343],[129.868501,29.869672],[129.868196,29.869809],[129.867449,29.869857],[129.86732,29.869922],[129.867227,29.870076],[129.867244,29.870413],[129.867208,29.870507],[129.867,29.870878],[129.866754,29.871195],[129.866327,29.871593],[129.866256,29.872021],[129.866176,29.872172],[129.866005,29.872279],[129.865747,29.872329],[129.865659,29.872418],[129.865665,29.87255],[129.865751,29.872653],[129.866199,29.872965],[129.866204,29.873132],[129.865801,29.873384],[129.865723,29.873497],[129.865702,29.873914],[129.865599,29.874109],[129.865649,29.874433],[129.86509,29.875018],[129.865035,29.875207],[129.865042,29.87561],[129.864941,29.875994],[129.8648,29.876303],[129.86463,29.876485],[129.863694,29.87677],[129.862842,29.87672],[129.861304,29.877548],[129.860928,29.877608],[129.860823,29.877544],[129.86082,29.877434],[129.86102,29.876903],[129.86095,29.876719],[129.860854,29.876628],[129.860761,29.876586],[129.860601,29.876627],[129.860027,29.877164],[129.85981,29.877198],[129.859427,29.877162],[129.858728,29.876973],[129.858235,29.876327],[129.85789,29.875976],[129.857598,29.875791],[129.857287,29.875765],[129.85715,29.875799],[129.856166,29.876394],[129.855485,29.876647],[129.855145,29.87687],[129.854834,29.876956],[129.854467,29.877139],[129.854199,29.877125],[129.854074,29.877166],[129.853801,29.877449],[129.853696,29.87802],[129.853537,29.87838],[129.853227,29.878511],[129.85264,29.87842]]],[[[129.623392,29.884068],[129.623424,29.884155],[129.623369,29.88423],[129.623197,29.884225],[129.623261,29.884074],[129.623392,29.884068]]],[[[129.621693,29.884207],[129.621531,29.884293],[129.62145,29.884408],[129.621364,29.884252],[129.621171,29.884189],[129.620592,29.884163],[129.620441,29.883941],[129.620178,29.883805],[129.620184,29.883528],[129.620237,29.883455],[129.620085,29.883232],[129.619945,29.883101],[129.619826,29.883081],[129.619751,29.882979],[129.619357,29.882979],[129.619134,29.883082],[129.618978,29.883077],[129.618893,29.883155],[129.618636,29.883055],[129.618562,29.882923],[129.618599,29.882792],[129.618469,29.88263],[129.618562,29.882447],[129.61853,29.882329],[129.618617,29.8822],[129.618601,29.882097],[129.618437,29.881903],[129.618405,29.881716],[129.618334,29.881632],[129.618213,29.881599],[129.617993,29.881369],[129.617969,29.881036],[129.618022,29.880964],[129.618022,29.880809],[129.61834,29.880425],[129.618329,29.880278],[129.61839,29.880184],[129.618348,29.879846],[129.618411,29.879645],[129.618362,29.879502],[129.618404,29.879413],[129.618261,29.879206],[129.618298,29.87906],[129.618237,29.878902],[129.618255,29.878666],[129.618179,29.878372],[129.618353,29.877876],[129.618309,29.877759],[129.618383,29.877654],[129.618388,29.877517],[129.618507,29.877415],[129.618603,29.87715],[129.618721,29.877076],[129.61869,29.876923],[129.61873,29.876779],[129.618933,29.8765],[129.618883,29.876279],[129.619098,29.87626],[129.619435,29.875851],[129.619626,29.875848],[129.619834,29.875707],[129.620123,29.875724],[129.620173,29.875834],[129.620287,29.875889],[129.620367,29.876011],[129.620566,29.876104],[129.620457,29.876222],[129.620597,29.876456],[129.620891,29.876502],[129.621047,29.876458],[129.621172,29.876524],[129.621312,29.876501],[129.62163,29.87664],[129.621664,29.876769],[129.621762,29.876878],[129.621932,29.876865],[129.621958,29.877108],[129.622041,29.877228],[129.622366,29.877465],[129.622473,29.877933],[129.622682,29.878047],[129.622795,29.87805],[129.622901,29.878143],[129.622878,29.878255],[129.622547,29.878787],[129.62269,29.879435],[129.62269,29.879672],[129.6226,29.879951],[129.622626,29.880114],[129.623122,29.880333],[129.623147,29.880484],[129.62336,29.880688],[129.623532,29.880614],[129.623667,29.880688],[129.62363,29.880817],[129.62368,29.881046],[129.623744,29.88112],[129.623718,29.881384],[129.623763,29.881557],[129.623704,29.881945],[129.624313,29.882371],[129.624364,29.88248],[129.624351,29.882755],[129.624228,29.882843],[129.624219,29.882964],[129.624065,29.882974],[129.623784,29.883085],[129.622923,29.883821],[129.622462,29.883935],[129.62217,29.884122],[129.621693,29.884207]]],[[[129.532214,29.89651],[129.532181,29.896564],[129.532017,29.896558],[129.531965,29.89649],[129.531804,29.896455],[129.531489,29.896257],[129.531391,29.896141],[129.531386,29.895959],[129.531431,29.895883],[129.531611,29.895935],[129.531778,29.896148],[129.531877,29.89615],[129.532214,29.89651]]],[[[129.530771,29.902692],[129.530687,29.902704],[129.530467,29.902614],[129.530407,29.902444],[129.530584,29.902371],[129.530879,29.902457],[129.530927,29.902501],[129.530933,29.902664],[129.530771,29.902692]]],[[[129.531573,29.902721],[129.531496,29.90276],[129.5314,29.902719],[129.531275,29.902754],[129.531029,29.902641],[129.531,29.902581],[129.531043,29.902489],[129.531326,29.902267],[129.53155,29.902152],[129.531619,29.902162],[129.531666,29.902252],[129.531758,29.902297],[129.531798,29.902449],[129.531717,29.902569],[129.531627,29.902586],[129.531573,29.902721]]],[[[129.528951,29.9119],[129.529044,29.912049],[129.52905,29.912151],[129.528914,29.912506],[129.528744,29.912616],[129.528529,29.912621],[129.528334,29.912412],[129.528352,29.912134],[129.528596,29.911858],[129.528951,29.9119]]],[[[129.53443,29.914779],[129.534506,29.914807],[129.534517,29.914903],[129.534453,29.914999],[129.53432,29.915032],[129.534284,29.914799],[129.53443,29.914779]]],[[[129.531967,29.915315],[129.532066,29.915336],[129.532065,29.915433],[129.531909,29.915523],[129.531824,29.91551],[129.531817,29.915438],[129.531967,29.915315]]],[[[129.536849,29.91638],[129.536577,29.916374],[129.536555,29.916245],[129.536455,29.916128],[129.536558,29.915946],[129.536607,29.915696],[129.536755,29.915552],[129.536758,29.915445],[129.536672,29.915426],[129.536448,29.915219],[129.536298,29.915264],[129.536078,29.915135],[129.536101,29.914999],[129.536039,29.914843],[129.535914,29.914722],[129.535623,29.91466],[129.535209,29.914379],[129.534859,29.914266],[129.534434,29.914304],[129.534342,29.914446],[129.534153,29.9146],[129.534061,29.914619],[129.534015,29.914706],[129.533885,29.91474],[129.533801,29.914729],[129.533759,29.914647],[129.533941,29.914461],[129.534216,29.914318],[129.534123,29.914291],[129.533797,29.914342],[129.533611,29.914288],[129.533333,29.91444],[129.533042,29.914694],[129.53307,29.914877],[129.532951,29.914931],[129.532854,29.915061],[129.532566,29.915087],[129.532407,29.914987],[129.532285,29.915016],[129.531922,29.914942],[129.531521,29.914926],[129.531321,29.914846],[129.531043,29.914559],[129.53101,29.914474],[129.531036,29.914254],[129.531463,29.913944],[129.531534,29.913752],[129.531774,29.913392],[129.531761,29.913301],[129.531644,29.913194],[129.531469,29.912892],[129.531153,29.912851],[129.531073,29.91273],[129.530956,29.912703],[129.530844,29.912574],[129.530614,29.912441],[129.530434,29.912238],[129.530428,29.912089],[129.530247,29.911846],[129.530195,29.91166],[129.530163,29.910995],[129.53028,29.910758],[129.530344,29.910775],[129.53037,29.910848],[129.530544,29.910735],[129.530609,29.910504],[129.530939,29.910052],[129.530972,29.909866],[129.531166,29.909534],[129.531289,29.909156],[129.531295,29.908806],[129.531237,29.908642],[129.530881,29.908327],[129.530651,29.908257],[129.530612,29.908175],[129.530674,29.907977],[129.530713,29.907317],[129.531049,29.906922],[129.531114,29.906736],[129.531114,29.906584],[129.531004,29.90637],[129.530778,29.906111],[129.530857,29.906043],[129.530954,29.905703],[129.530898,29.905549],[129.530986,29.905256],[129.530953,29.905221],[129.530983,29.905062],[129.530967,29.904882],[129.530905,29.904776],[129.531001,29.904649],[129.530987,29.904586],[129.531107,29.904252],[129.531017,29.904164],[129.531256,29.904052],[129.531211,29.903916],[129.530862,29.903809],[129.530733,29.903567],[129.530797,29.903504],[129.531256,29.903431],[129.531318,29.903138],[129.531457,29.903087],[129.531541,29.902969],[129.531735,29.90289],[129.531929,29.902241],[129.531851,29.901937],[129.531748,29.901796],[129.531522,29.901198],[129.531518,29.900869],[129.531441,29.900807],[129.531478,29.900616],[129.531864,29.900717],[129.531976,29.90057],[129.532039,29.899935],[129.531819,29.899478],[129.531936,29.898891],[129.531819,29.898637],[129.531457,29.898203],[129.531173,29.897786],[129.531127,29.897571],[129.530951,29.897373],[129.530977,29.897031],[129.531089,29.896967],[129.531164,29.896712],[129.531462,29.896642],[129.531522,29.896421],[129.53156,29.896411],[129.53169,29.896426],[129.531703,29.896472],[129.532072,29.896646],[129.532311,29.896618],[129.532337,29.896506],[129.532149,29.896116],[129.532162,29.895834],[129.53235,29.895688],[129.532486,29.895688],[129.532822,29.895913],[129.532861,29.895756],[129.532984,29.895569],[129.533475,29.89562],[129.533618,29.895524],[129.533721,29.895417],[129.533721,29.895361],[129.533488,29.894898],[129.533488,29.894757],[129.53365,29.894672],[129.533947,29.894616],[129.534032,29.894475],[129.534349,29.894312],[129.534633,29.89443],[129.534588,29.894983],[129.534686,29.895109],[129.534789,29.895096],[129.534879,29.895146],[129.534963,29.895096],[129.535138,29.895129],[129.535277,29.895084],[129.535368,29.895126],[129.535509,29.895086],[129.535632,29.895124],[129.536044,29.895028],[129.536277,29.895071],[129.536464,29.895005],[129.536923,29.895011],[129.536975,29.894988],[129.537104,29.894712],[129.537353,29.894649],[129.537506,29.894701],[129.537726,29.894892],[129.53836,29.894932],[129.538652,29.895066],[129.538819,29.89469],[129.53894,29.894643],[129.539201,29.894684],[129.539337,29.894652],[129.53941,29.894576],[129.539429,29.894332],[129.539704,29.89432],[129.539861,29.894173],[129.539906,29.894058],[129.539986,29.894059],[129.540074,29.894089],[129.540143,29.894351],[129.540126,29.895045],[129.54019,29.895163],[129.540656,29.895316],[129.541167,29.895282],[129.541368,29.895051],[129.541445,29.894611],[129.541517,29.894395],[129.541585,29.894337],[129.541574,29.894031],[129.541752,29.893422],[129.541853,29.89355],[129.541905,29.893742],[129.541995,29.893758],[129.542034,29.893652],[129.541909,29.893384],[129.541995,29.893296],[129.542198,29.893357],[129.54222,29.893509],[129.542332,29.893663],[129.542726,29.893545],[129.542876,29.89355],[129.542904,29.893466],[129.542848,29.893366],[129.542756,29.893315],[129.542651,29.893162],[129.542449,29.893038],[129.542433,29.892977],[129.542474,29.892941],[129.542467,29.892834],[129.54261,29.892615],[129.542766,29.892557],[129.542805,29.892478],[129.543049,29.892528],[129.543171,29.892704],[129.543332,29.892766],[129.543451,29.892939],[129.543558,29.892987],[129.543587,29.893077],[129.543761,29.893133],[129.543792,29.893219],[129.544101,29.893242],[129.544182,29.893296],[129.544188,29.893702],[129.544152,29.893872],[129.544086,29.89393],[129.544144,29.893987],[129.544184,29.894285],[129.544328,29.894407],[129.544445,29.894408],[129.544551,29.894515],[129.544907,29.894531],[129.545036,29.894611],[129.545981,29.894677],[129.546446,29.894594],[129.546821,29.894577],[129.546912,29.894611],[129.547157,29.894436],[129.547514,29.894315],[129.54759,29.894332],[129.547686,29.894187],[129.547678,29.89409],[129.547842,29.893999],[129.548014,29.893994],[129.548075,29.893877],[129.547989,29.893614],[129.548011,29.893505],[129.54793,29.893375],[129.547956,29.893325],[129.547848,29.893232],[129.547882,29.893076],[129.547821,29.893041],[129.547843,29.892987],[129.548063,29.892907],[129.548221,29.892951],[129.548549,29.892947],[129.54863,29.893075],[129.548807,29.893088],[129.548885,29.893173],[129.549034,29.893161],[129.549105,29.89324],[129.549373,29.893334],[129.549906,29.893313],[129.550029,29.893424],[129.55012,29.89337],[129.550211,29.893393],[129.550295,29.893331],[129.550711,29.893304],[129.550838,29.893347],[129.550923,29.893483],[129.551078,29.893522],[129.551175,29.893669],[129.551542,29.893636],[129.551518,29.893725],[129.551574,29.893786],[129.551597,29.893994],[129.551759,29.894024],[129.551991,29.893913],[129.552133,29.893934],[129.552332,29.89384],[129.552629,29.893893],[129.55274,29.894214],[129.552889,29.894284],[129.552928,29.894396],[129.553066,29.894472],[129.553101,29.894599],[129.553534,29.894862],[129.55362,29.895039],[129.553251,29.895914],[129.553245,29.896055],[129.553271,29.896117],[129.553484,29.896258],[129.553747,29.896288],[129.553786,29.896466],[129.553659,29.896641],[129.553633,29.896979],[129.553749,29.897149],[129.553859,29.897143],[129.553924,29.89725],[129.554036,29.897314],[129.55404,29.89745],[129.554125,29.897572],[129.554403,29.897645],[129.554463,29.897821],[129.5544,29.89788],[129.554395,29.89799],[129.554345,29.897989],[129.554343,29.898126],[129.554203,29.898191],[129.554151,29.898339],[129.553704,29.898474],[129.553361,29.898643],[129.553103,29.898835],[129.552993,29.898919],[129.552941,29.899044],[129.552833,29.899074],[129.552766,29.899179],[129.552693,29.8992],[129.552609,29.899331],[129.552624,29.899494],[129.552407,29.89966],[129.552301,29.899963],[129.552347,29.900109],[129.552326,29.90032],[129.552371,29.900403],[129.552324,29.900476],[129.552333,29.900809],[129.552216,29.901069],[129.552203,29.901266],[129.552145,29.901386],[129.551886,29.901593],[129.551805,29.901765],[129.551731,29.90214],[129.551744,29.902631],[129.551873,29.903358],[129.552203,29.903821],[129.552727,29.903657],[129.552921,29.903691],[129.553044,29.903759],[129.553114,29.903999],[129.553397,29.903997],[129.553553,29.904134],[129.553546,29.904334],[129.553294,29.904326],[129.553064,29.904192],[129.552951,29.904451],[129.552886,29.904527],[129.552747,29.904576],[129.552689,29.904736],[129.552584,29.904697],[129.552297,29.904732],[129.552223,29.90487],[129.552106,29.904892],[129.552035,29.904994],[129.551744,29.905062],[129.551602,29.905293],[129.551582,29.905439],[129.551331,29.905593],[129.55125,29.905694],[129.55124,29.905821],[129.551137,29.905882],[129.551086,29.906151],[129.550983,29.906261],[129.550955,29.906393],[129.550776,29.906574],[129.550729,29.906761],[129.550586,29.906928],[129.550494,29.906966],[129.550353,29.907222],[129.550217,29.907292],[129.550213,29.907414],[129.550088,29.907492],[129.550094,29.907554],[129.549771,29.907706],[129.549764,29.907819],[129.549699,29.907859],[129.549573,29.907867],[129.549486,29.907966],[129.549379,29.907971],[129.54918,29.908175],[129.549009,29.908204],[129.548962,29.908333],[129.548859,29.908367],[129.548716,29.908643],[129.548657,29.908675],[129.548628,29.908852],[129.548567,29.908981],[129.548477,29.909037],[129.548439,29.909162],[129.548347,29.90919],[129.548277,29.909285],[129.548069,29.909359],[129.547963,29.909547],[129.548412,29.909833],[129.548554,29.910081],[129.548587,29.910312],[129.548386,29.910515],[129.548244,29.910589],[129.548115,29.910594],[129.547759,29.910408],[129.547293,29.910532],[129.546931,29.910419],[129.546877,29.910451],[129.54654,29.910396],[129.546494,29.910436],[129.546368,29.910425],[129.546207,29.910654],[129.546057,29.910707],[129.545941,29.910634],[129.545934,29.910433],[129.545863,29.910419],[129.545592,29.910583],[129.545418,29.910954],[129.545386,29.9112],[129.545205,29.911381],[129.544929,29.911243],[129.54479,29.911327],[129.544576,29.911604],[129.544479,29.911649],[129.544343,29.911649],[129.544233,29.911592],[129.544091,29.91144],[129.543949,29.911034],[129.543845,29.910949],[129.543754,29.910949],[129.543683,29.911011],[129.543489,29.911514],[129.543509,29.912213],[129.543412,29.91241],[129.543153,29.912563],[129.542687,29.91263],[129.542428,29.91263],[129.542034,29.912478],[129.541587,29.912433],[129.541477,29.912579],[129.541303,29.913121],[129.541051,29.913231],[129.540809,29.913219],[129.540591,29.913059],[129.540468,29.912822],[129.540456,29.912607],[129.540397,29.912534],[129.539983,29.912563],[129.539879,29.912636],[129.539705,29.912613],[129.539631,29.912649],[129.539541,29.912785],[129.5394,29.912874],[129.539401,29.912935],[129.539556,29.91342],[129.539549,29.913713],[129.53964,29.913837],[129.539633,29.914013],[129.53973,29.91416],[129.539494,29.91422],[129.539343,29.913865],[129.539258,29.913809],[129.539155,29.91375],[129.538761,29.913744],[129.538599,29.913658],[129.538213,29.913745],[129.53825,29.914011],[129.538115,29.914154],[129.537945,29.91417],[129.537857,29.914113],[129.537706,29.914114],[129.537518,29.914198],[129.537551,29.914322],[129.537887,29.914807],[129.537887,29.914993],[129.537822,29.915191],[129.537602,29.91554],[129.53762,29.915837],[129.537576,29.915992],[129.537344,29.916121],[129.537241,29.916241],[129.536849,29.91638]]],[[[129.944907,29.951665],[129.945041,29.951745],[129.945029,29.951954],[129.944892,29.952036],[129.944783,29.952032],[129.944696,29.951908],[129.944687,29.951779],[129.944826,29.951667],[129.944907,29.951665]]],[[[129.945926,29.966102],[129.946138,29.966274],[129.946169,29.966339],[129.946114,29.966409],[129.946214,29.966532],[129.946178,29.966755],[129.945883,29.966873],[129.945654,29.966696],[129.94569,29.966576],[129.945572,29.966461],[129.945566,29.966392],[129.945707,29.966177],[129.945835,29.966095],[129.945926,29.966102]]],[[[129.940238,29.971102],[129.940302,29.971289],[129.940263,29.971495],[129.940178,29.971555],[129.940041,29.971552],[129.939998,29.971495],[129.940047,29.971275],[129.940132,29.971143],[129.940238,29.971102]]],[[[129.936799,29.970947],[129.936592,29.971048],[129.935806,29.971667],[129.935474,29.971242],[129.934736,29.970455],[129.933933,29.969233],[129.9332,29.96847],[129.933101,29.968318],[129.932796,29.967516],[129.932615,29.967245],[129.932232,29.966837],[129.931697,29.966496],[129.931706,29.966659],[129.932095,29.967178],[129.932196,29.967399],[129.932211,29.967607],[129.932104,29.967971],[129.931929,29.968097],[129.931566,29.968226],[129.931521,29.968313],[129.932513,29.969406],[129.932507,29.969542],[129.93225,29.969864],[129.931988,29.96972],[129.931387,29.969516],[129.929233,29.968919],[129.928121,29.968481],[129.927335,29.96809],[129.926234,29.96789],[129.92548,29.968067],[129.925394,29.967951],[129.925052,29.967052],[129.924635,29.966242],[129.924368,29.966042],[129.923483,29.965794],[129.923147,29.965659],[129.922788,29.965445],[129.922345,29.964984],[129.922206,29.964705],[129.921928,29.963554],[129.921811,29.962554],[129.921848,29.961804],[129.922105,29.961255],[129.922597,29.960799],[129.922885,29.960636],[129.92342,29.96047],[129.923659,29.960703],[129.923771,29.960738],[129.924219,29.960727],[129.924555,29.960774],[129.925297,29.960581],[129.925415,29.960451],[129.925392,29.960332],[129.925283,29.960258],[129.925031,29.960261],[129.924556,29.960392],[129.923913,29.960107],[129.923916,29.959923],[129.923958,29.959871],[129.92357,29.959009],[129.923111,29.958488],[129.922817,29.958241],[129.922368,29.95765],[129.921967,29.956398],[129.921647,29.955747],[129.922619,29.955245],[129.923972,29.954433],[129.924218,29.954365],[129.925079,29.953542],[129.925591,29.952933],[129.925902,29.952679],[129.925949,29.952516],[129.926055,29.952422],[129.926047,29.952349],[129.926159,29.95226],[129.926178,29.952171],[129.92634,29.952121],[129.926439,29.951904],[129.926577,29.951879],[129.926566,29.951684],[129.926783,29.951661],[129.92685,29.951539],[129.927008,29.951507],[129.927049,29.951389],[129.927554,29.951158],[129.927588,29.950957],[129.927677,29.950905],[129.927827,29.950948],[129.928131,29.950657],[129.928283,29.950625],[129.928287,29.950513],[129.928383,29.950437],[129.928483,29.950429],[129.928549,29.950308],[129.928702,29.950293],[129.928861,29.950203],[129.929172,29.95022],[129.929314,29.950175],[129.930597,29.949707],[129.930972,29.949616],[129.931296,29.949413],[129.931937,29.949329],[129.932475,29.949374],[129.933601,29.949194],[129.933996,29.949188],[129.934152,29.949154],[129.934212,29.949062],[129.934421,29.948957],[129.934985,29.949099],[129.935315,29.949284],[129.935611,29.949361],[129.936052,29.949389],[129.936162,29.949336],[129.936286,29.949352],[129.936386,29.949549],[129.937558,29.949854],[129.939902,29.950835],[129.941307,29.951156],[129.941916,29.951218],[129.942738,29.951483],[129.943276,29.951833],[129.943517,29.951896],[129.943599,29.952022],[129.943741,29.952052],[129.943852,29.952192],[129.944004,29.952242],[129.944066,29.95246],[129.944234,29.952561],[129.944244,29.952786],[129.944343,29.952899],[129.944351,29.953032],[129.94451,29.95315],[129.944454,29.953396],[129.944538,29.9537],[129.945004,29.954743],[129.945218,29.955009],[129.945361,29.955369],[129.9456,29.955567],[129.945806,29.95552],[129.945923,29.955584],[129.945901,29.9557],[129.945976,29.955757],[129.946024,29.955987],[129.945944,29.956136],[129.945983,29.956183],[129.945964,29.956342],[129.945886,29.956449],[129.945961,29.95665],[129.945909,29.956781],[129.946025,29.956806],[129.946083,29.956883],[129.94604,29.957101],[129.946188,29.957266],[129.946177,29.957376],[129.946305,29.957444],[129.946324,29.957583],[129.946401,29.957654],[129.946382,29.957837],[129.946531,29.957884],[129.946593,29.958081],[129.946709,29.958128],[129.94679,29.958346],[129.946856,29.958404],[129.9469,29.958575],[129.947025,29.958659],[129.947016,29.958852],[129.947111,29.959001],[129.947213,29.959354],[129.947161,29.95954],[129.94721,29.959734],[129.947187,29.959866],[129.947038,29.95996],[129.94699,29.960099],[129.946851,29.960194],[129.946818,29.960346],[129.946699,29.960411],[129.946622,29.960569],[129.946427,29.960669],[129.946351,29.960881],[129.946131,29.960968],[129.945994,29.961067],[129.945885,29.961231],[129.945699,29.961316],[129.945535,29.961663],[129.945495,29.961905],[129.945394,29.96197],[129.945311,29.962108],[129.945123,29.962218],[129.945089,29.962389],[129.94491,29.962492],[129.944906,29.962625],[129.944764,29.962798],[129.944703,29.963031],[129.94463,29.963105],[129.94463,29.963489],[129.944566,29.963654],[129.944612,29.963749],[129.94454,29.963947],[129.944569,29.964154],[129.944524,29.964329],[129.944535,29.964612],[129.944669,29.964819],[129.944627,29.964968],[129.945049,29.965196],[129.945218,29.965597],[129.94514,29.965741],[129.945137,29.966016],[129.945061,29.966103],[129.945125,29.966292],[129.945002,29.966869],[129.945035,29.967065],[129.944811,29.967225],[129.944384,29.96707],[129.944199,29.967244],[129.944016,29.96732],[129.943956,29.967452],[129.943828,29.967499],[129.943642,29.967757],[129.943437,29.967895],[129.943367,29.968071],[129.943225,29.968122],[129.943167,29.968342],[129.943024,29.968371],[129.94284,29.968531],[129.942714,29.968536],[129.942646,29.968634],[129.942406,29.968706],[129.942306,29.969008],[129.942176,29.96908],[129.942077,29.969252],[129.941908,29.969314],[129.941852,29.969449],[129.941749,29.969531],[129.941724,29.969739],[129.941323,29.969923],[129.941237,29.970043],[129.94108,29.970059],[129.940925,29.970154],[129.940784,29.970132],[129.940538,29.970328],[129.940252,29.970386],[129.940094,29.970494],[129.939787,29.970515],[129.939362,29.970672],[129.939034,29.970592],[129.938367,29.970699],[129.937972,29.970902],[129.936799,29.970947]]],[[[129.903506,29.972912],[129.903658,29.972996],[129.90363,29.973056],[129.90348,29.973135],[129.903133,29.973031],[129.903108,29.972977],[129.903204,29.972852],[129.903334,29.972869],[129.903421,29.972827],[129.903506,29.972912]]],[[[129.901622,29.973178],[129.901531,29.973357],[129.901408,29.973392],[129.901244,29.973279],[129.901131,29.973112],[129.901383,29.973079],[129.90148,29.973151],[129.901569,29.973117],[129.901622,29.973178]]],[[[129.906279,29.982815],[129.906208,29.983],[129.906057,29.98317],[129.905871,29.983286],[129.905285,29.983317],[129.905134,29.983432],[129.90501,29.983726],[129.90501,29.984097],[129.905081,29.984313],[129.904877,29.984591],[129.9047,29.985077],[129.904622,29.985592],[129.904431,29.98572],[129.904203,29.985652],[129.904032,29.985488],[129.904073,29.985258],[129.904136,29.985177],[129.904088,29.985076],[129.904153,29.984872],[129.904246,29.984786],[129.904205,29.984687],[129.904277,29.98455],[129.904194,29.984407],[129.904063,29.984336],[129.904066,29.984099],[129.904252,29.98399],[129.904239,29.983876],[129.904311,29.983782],[129.904248,29.983665],[129.904327,29.983566],[129.904324,29.983454],[129.904446,29.983336],[129.904471,29.983177],[129.904648,29.983089],[129.904664,29.982961],[129.904773,29.982908],[129.904771,29.982732],[129.904833,29.982546],[129.904987,29.982481],[129.905076,29.982525],[129.905193,29.982401],[129.905329,29.981916],[129.905284,29.981566],[129.905167,29.981352],[129.904753,29.980856],[129.904577,29.980647],[129.904377,29.980512],[129.903988,29.980021],[129.903457,29.979147],[129.903198,29.978949],[129.902683,29.978873],[129.90262,29.978827],[129.902439,29.978598],[129.902512,29.978481],[129.902357,29.978097],[129.902208,29.977906],[129.902006,29.977849],[129.901899,29.977746],[129.901653,29.977774],[129.901585,29.977654],[129.901394,29.977602],[129.90125,29.977632],[129.901184,29.977544],[129.901015,29.977558],[129.90082,29.977453],[129.900714,29.97735],[129.900724,29.977239],[129.900636,29.977143],[129.900704,29.976979],[129.900561,29.976753],[129.900466,29.97676],[129.900207,29.976936],[129.899978,29.977013],[129.899737,29.976934],[129.89967,29.976799],[129.899493,29.976704],[129.899442,29.976444],[129.899466,29.976179],[129.89957,29.976045],[129.899576,29.975967],[129.899717,29.975814],[129.899894,29.975789],[129.900106,29.975835],[129.900224,29.975914],[129.90043,29.975872],[129.900571,29.975896],[129.900727,29.975807],[129.900781,29.975705],[129.900938,29.97565],[129.900914,29.975602],[129.900991,29.975504],[129.900967,29.975214],[129.900785,29.974977],[129.900718,29.974677],[129.900576,29.974629],[129.900502,29.974508],[129.900594,29.974353],[129.900729,29.9743],[129.900724,29.97423],[129.90081,29.974095],[129.900904,29.974028],[129.901136,29.973982],[129.901195,29.973996],[129.901223,29.974072],[129.901417,29.974031],[129.901446,29.97423],[129.901736,29.974267],[129.901773,29.974134],[129.901736,29.974032],[129.901811,29.973967],[129.901776,29.973843],[129.902012,29.97366],[129.902283,29.973621],[129.902373,29.973699],[129.90265,29.973751],[129.902727,29.973805],[129.903223,29.97372],[129.903293,29.973588],[129.903583,29.973559],[129.903767,29.973436],[129.903736,29.973277],[129.90386,29.973124],[129.903915,29.973119],[129.903951,29.973031],[129.904037,29.973006],[129.904196,29.973088],[129.904233,29.973248],[129.904319,29.973369],[129.904426,29.973382],[129.905221,29.973051],[129.905409,29.973123],[129.90574,29.973149],[129.906093,29.972984],[129.906149,29.9729],[129.906269,29.972874],[129.906459,29.972606],[129.906429,29.972496],[129.906479,29.972382],[129.906339,29.97195],[129.906423,29.971823],[129.906334,29.971659],[129.906357,29.971584],[129.90625,29.971434],[129.906394,29.971286],[129.906488,29.970991],[129.906344,29.97074],[129.906355,29.970592],[129.906265,29.970519],[129.906233,29.970416],[129.906039,29.970314],[129.906053,29.970211],[129.905908,29.970048],[129.905918,29.969962],[129.905831,29.969869],[129.905845,29.969696],[129.905778,29.969613],[129.905838,29.969459],[129.90577,29.969369],[129.905778,29.969296],[129.905835,29.969272],[129.905774,29.969183],[129.90581,29.969003],[129.905781,29.968881],[129.905879,29.968645],[129.906121,29.968504],[129.906166,29.968379],[129.906293,29.968315],[129.906309,29.968181],[129.906449,29.968085],[129.906493,29.96795],[129.906656,29.96789],[129.906742,29.967621],[129.906961,29.967494],[129.907068,29.967296],[129.907166,29.967223],[129.907142,29.967094],[129.907201,29.967007],[129.907154,29.966899],[129.907235,29.966784],[129.907206,29.96662],[129.907255,29.96654],[129.907176,29.966321],[129.907198,29.966243],[129.906933,29.966159],[129.906706,29.966167],[129.906553,29.96623],[129.906445,29.966175],[129.905825,29.966161],[129.905702,29.966111],[129.905662,29.965962],[129.90552,29.965892],[129.905504,29.965798],[129.905367,29.965764],[129.905273,29.965597],[129.905123,29.965531],[129.905026,29.965391],[129.904906,29.965326],[129.904874,29.965202],[129.904659,29.964923],[129.904654,29.964703],[129.905168,29.964779],[129.90604,29.965018],[129.906408,29.965193],[129.906797,29.965579],[129.907045,29.96564],[129.907329,29.96564],[129.907896,29.965524],[129.908198,29.965517],[129.908517,29.965586],[129.908828,29.965764],[129.908934,29.965972],[129.908987,29.96632],[129.908943,29.966675],[129.908588,29.967216],[129.908118,29.967563],[129.907355,29.968019],[129.906579,29.968839],[129.906499,29.969093],[129.906437,29.969441],[129.906472,29.969595],[129.907208,29.970514],[129.907341,29.970916],[129.907354,29.971404],[129.907141,29.972415],[129.907079,29.973056],[129.906733,29.973427],[129.906529,29.973527],[129.906183,29.973612],[129.905713,29.973612],[129.905392,29.973552],[129.905117,29.973575],[129.904771,29.973675],[129.904479,29.973868],[129.904319,29.974138],[129.904106,29.974362],[129.903751,29.974594],[129.902793,29.975027],[129.902237,29.975066],[129.902148,29.975113],[129.902095,29.975282],[129.902316,29.975761],[129.90245,29.976248],[129.902405,29.976433],[129.902237,29.976634],[129.901962,29.976765],[129.901554,29.97685],[129.901713,29.976966],[129.902893,29.977283],[129.904346,29.978388],[129.904985,29.979338],[129.90541,29.979809],[129.906049,29.980906],[129.906253,29.981516],[129.906279,29.982815]]]]}}]}
