{"type":"FeatureCollection","features":[{"type":"Feature","properties":{"potaRef":"JP-1848","nameJa":"妙義荒船佐久高原","nameEn":"Sakuranosato Forest Prefectural Park","authority":"環境省 生物多様性「見える化」マップ","boundaryStatus":"全国GIS候補・公開前検証待ち","boundarySource":"環境省 生物多様性「見える化」マップの自然公園区域を、POTA代表座標で一意に空間照合して加工","boundaryScaleNote":"区域は概要データであり、正確性は保証されない。POTA運用可否は公式情報で最終確認すること。","candidateMethod":"POTA representative point inside one public natural-park area","sourceParkKind":"国定公園","sourceName":"妙義荒船佐久高原","sourceFeatureCount":51,"cautionMeters":75},"geometry":{"type":"MultiPolygon","coordinates":[[[[138.727811,36.287086],[138.728682,36.287351],[138.729993,36.288073],[138.730615,36.288351],[138.731056,36.288434],[138.733016,36.28842],[138.733537,36.288261],[138.734566,36.287712],[138.734945,36.287407],[138.736598,36.284741],[138.737313,36.283734],[138.737465,36.283609],[138.737616,36.28363],[138.738024,36.284019],[138.738383,36.284262],[138.738845,36.284463],[138.739535,36.285262],[138.740729,36.286032],[138.744032,36.287837],[138.74457,36.287226],[138.74653,36.289104],[138.746434,36.291131],[138.74584,36.292048],[138.745467,36.292825],[138.744898,36.294498],[138.746168,36.295505],[138.746848,36.295907],[138.748062,36.296449],[138.74976,36.29706],[138.750464,36.295741],[138.751168,36.296352],[138.752107,36.297324],[138.752631,36.298129],[138.753473,36.298254],[138.753874,36.300087],[138.753984,36.302475],[138.753663,36.302301],[138.753146,36.301482],[138.752483,36.300982],[138.750764,36.300107],[138.750178,36.300003],[138.750019,36.300059],[138.749446,36.300559],[138.748922,36.300621],[138.748556,36.300538],[138.748273,36.300336],[138.748252,36.299864],[138.748356,36.299559],[138.748349,36.299212],[138.748252,36.298865],[138.748024,36.298615],[138.747845,36.298518],[138.747721,36.298531],[138.747362,36.298781],[138.747072,36.298899],[138.746844,36.298858],[138.746492,36.298629],[138.745947,36.297872],[138.745636,36.297629],[138.745105,36.297546],[138.744629,36.297386],[138.744104,36.297157],[138.7436,36.296852],[138.742772,36.296199],[138.74222,36.295449],[138.741861,36.294568],[138.741695,36.294415],[138.74124,36.29422],[138.740736,36.294186],[138.739623,36.293811],[138.739306,36.293498],[138.739275,36.29312],[138.739326,36.292898],[138.736922,36.29181],[138.736726,36.291489],[138.735014,36.290475],[138.733731,36.290815],[138.732343,36.289469],[138.731405,36.289795],[138.730259,36.289809],[138.729783,36.289677],[138.726829,36.289108],[138.727743,36.28749],[138.727811,36.287086]]],[[[138.62674,36.215926],[138.627232,36.216061],[138.627681,36.216081],[138.628376,36.215779],[138.628817,36.215811],[138.629044,36.215938],[138.629668,36.216442],[138.630002,36.216633],[138.631315,36.217255],[138.6315,36.217282],[138.632438,36.218215],[138.631734,36.218937],[138.629525,36.21759],[138.628007,36.217173],[138.626792,36.216382],[138.62674,36.215926]]],[[[138.632636,36.216587],[138.633031,36.216316],[138.63321,36.21609],[138.633381,36.215303],[138.633664,36.214354],[138.63453,36.21389],[138.634661,36.213675],[138.634653,36.213095],[138.634586,36.212731],[138.635027,36.211805],[138.63486,36.211317],[138.634777,36.210348],[138.634444,36.208714],[138.634539,36.208535],[138.634563,36.208292],[138.634706,36.208034],[138.634885,36.20784],[138.635071,36.20772],[138.635157,36.208301],[138.635157,36.209384],[138.63593,36.210717],[138.636192,36.212092],[138.636176,36.212944],[138.634184,36.216785],[138.632636,36.216587]]],[[[138.713504,36.310373],[138.715023,36.310323],[138.717784,36.309018],[138.719786,36.307296],[138.723292,36.305838],[138.726329,36.309517],[138.728175,36.31462],[138.731094,36.315321],[138.732461,36.31555],[138.733772,36.31673],[138.734166,36.316654],[138.734621,36.317529],[138.737589,36.318841],[138.738265,36.319],[138.73908,36.319771],[138.740055,36.319771],[138.741173,36.320045],[138.742068,36.319729],[138.742614,36.320708],[138.736296,36.32396],[138.735837,36.323583],[138.73498,36.324045],[138.735591,36.325312],[138.735361,36.326122],[138.734555,36.326289],[138.732446,36.324862],[138.7309,36.325196],[138.729404,36.32517],[138.729085,36.325106],[138.728727,36.324772],[138.727244,36.321969],[138.723129,36.317958],[138.719384,36.317392],[138.718642,36.317187],[138.716303,36.31585],[138.71399,36.313253],[138.713734,36.31126],[138.713504,36.310373]]],[[[138.734621,36.295237],[138.738117,36.293773],[138.736922,36.29181],[138.739326,36.292898],[138.739275,36.29312],[138.739306,36.293498],[138.739623,36.293811],[138.740736,36.294186],[138.74124,36.29422],[138.741695,36.294415],[138.741861,36.294568],[138.74222,36.295449],[138.742772,36.296199],[138.743055,36.296456],[138.744104,36.297157],[138.745105,36.297546],[138.745636,36.297629],[138.745947,36.297872],[138.746492,36.298629],[138.746685,36.298774],[138.746844,36.298858],[138.747072,36.298899],[138.747362,36.298781],[138.747721,36.298531],[138.747845,36.298518],[138.748024,36.298615],[138.748252,36.298865],[138.748349,36.299212],[138.748356,36.299559],[138.748252,36.299864],[138.748273,36.300336],[138.748556,36.300538],[138.748922,36.300621],[138.749446,36.300559],[138.750019,36.300059],[138.750178,36.300003],[138.750764,36.300107],[138.752483,36.300982],[138.753146,36.301482],[138.753663,36.302301],[138.753984,36.302475],[138.753874,36.300087],[138.753473,36.298254],[138.752631,36.298129],[138.752107,36.297324],[138.751168,36.296352],[138.750464,36.295741],[138.74976,36.29706],[138.748062,36.296449],[138.746848,36.295907],[138.746168,36.295505],[138.744898,36.294498],[138.745467,36.292825],[138.74584,36.292048],[138.746434,36.291131],[138.74653,36.289104],[138.74457,36.287226],[138.745885,36.286324],[138.746541,36.286109],[138.747955,36.285852],[138.750133,36.284949],[138.750782,36.284783],[138.751679,36.284311],[138.752466,36.283714],[138.752852,36.283297],[138.753004,36.282908],[138.752687,36.282172],[138.754219,36.282783],[138.754605,36.282853],[138.754954,36.282749],[138.756141,36.28177],[138.760467,36.28167],[138.76054,36.282784],[138.760335,36.284237],[138.75884,36.285728],[138.755236,36.287142],[138.754854,36.287244],[138.754509,36.287452],[138.754157,36.287743],[138.754012,36.288042],[138.75402,36.289934],[138.752935,36.290729],[138.750673,36.29321],[138.751427,36.294342],[138.753357,36.29393],[138.75521,36.292207],[138.757843,36.293532],[138.758188,36.294727],[138.758495,36.295331],[138.757894,36.295691],[138.756869,36.296032],[138.757525,36.297192],[138.758533,36.296823],[138.759236,36.296643],[138.759862,36.296656],[138.760565,36.2969],[138.762074,36.298057],[138.763032,36.29888],[138.763282,36.299484],[138.763435,36.300307],[138.763358,36.300872],[138.763128,36.301644],[138.762406,36.303534],[138.763416,36.303804],[138.763211,36.304459],[138.761486,36.303971],[138.758453,36.303506],[138.758253,36.305012],[138.758115,36.305783],[138.757977,36.306206],[138.756327,36.306803],[138.756251,36.308761],[138.756969,36.30833],[138.757659,36.30933],[138.756866,36.310219],[138.756031,36.312138],[138.755782,36.310691],[138.75229,36.307497],[138.751068,36.305581],[138.749025,36.30379],[138.746775,36.306324],[138.745768,36.306747],[138.743366,36.305692],[138.742275,36.305276],[138.741723,36.304998],[138.740729,36.304332],[138.740474,36.30052],[138.736988,36.299021],[138.737023,36.297535],[138.734621,36.295237]]],[[[138.674163,36.194347],[138.674172,36.195131],[138.675591,36.196546],[138.675156,36.198564],[138.672894,36.197137],[138.674172,36.19922],[138.673648,36.201572],[138.671501,36.200672],[138.671565,36.199117],[138.668945,36.198898],[138.668638,36.199811],[138.666388,36.200608],[138.666005,36.201341],[138.665238,36.20156],[138.66442,36.202459],[138.66349,36.202112],[138.663266,36.202884],[138.663222,36.20388],[138.660991,36.204831],[138.660966,36.204317],[138.66103,36.20352],[138.660841,36.201997],[138.661263,36.201328],[138.661225,36.200865],[138.660701,36.19922],[138.668369,36.195967],[138.670312,36.196456],[138.674163,36.194347]]],[[[138.669763,36.200473],[138.671552,36.201746],[138.671526,36.201964],[138.671041,36.202749],[138.671233,36.203983],[138.670415,36.204433],[138.669763,36.205166],[138.668932,36.204214],[138.669229,36.203552],[138.668322,36.202627],[138.669203,36.201804],[138.669561,36.200827],[138.669763,36.200473]]],[[[138.595043,36.148177],[138.595103,36.147998],[138.595075,36.147264],[138.595486,36.146537],[138.595426,36.145897],[138.595446,36.145111],[138.595301,36.144887],[138.594533,36.144496],[138.594377,36.144362],[138.594297,36.144195],[138.594979,36.143083],[138.595286,36.142753],[138.596183,36.143508],[138.595991,36.145976],[138.596886,36.147095],[138.596387,36.14865],[138.595043,36.148177]]],[[[138.600425,36.278453],[138.600336,36.2784],[138.600366,36.27819],[138.600492,36.277967],[138.601308,36.276908],[138.602104,36.276227],[138.602396,36.276073],[138.602631,36.275845],[138.602947,36.275389],[138.603642,36.274855],[138.603653,36.274711],[138.603491,36.274071],[138.603119,36.273491],[138.603079,36.273296],[138.603395,36.272607],[138.603618,36.272351],[138.603956,36.272132],[138.604375,36.272016],[138.604541,36.271886],[138.604553,36.271774],[138.604433,36.271513],[138.604008,36.270987],[138.603893,36.270732],[138.603836,36.27042],[138.603813,36.26955],[138.60398,36.269177],[138.604278,36.269005],[138.604364,36.268894],[138.604708,36.268238],[138.605035,36.267796],[138.605528,36.267251],[138.605775,36.267051],[138.605997,36.267296],[138.605997,36.267809],[138.605928,36.268559],[138.605541,36.269878],[138.60579,36.271197],[138.605707,36.271405],[138.605403,36.271739],[138.604948,36.272391],[138.604851,36.272863],[138.604396,36.274238],[138.606728,36.278098],[138.607985,36.277875],[138.609738,36.279319],[138.611888,36.27884],[138.613275,36.278632],[138.611839,36.280701],[138.614227,36.281444],[138.615863,36.281846],[138.618651,36.283492],[138.622213,36.285345],[138.620667,36.285304],[138.62037,36.286268],[138.620352,36.286627],[138.620134,36.286794],[138.619883,36.286847],[138.619629,36.286831],[138.619297,36.286617],[138.616719,36.286172],[138.616338,36.28591],[138.61597,36.285929],[138.615547,36.286113],[138.615375,36.286122],[138.615168,36.28604],[138.614778,36.285598],[138.6146,36.285524],[138.614388,36.285514],[138.613763,36.285673],[138.613579,36.285631],[138.612983,36.285687],[138.612509,36.285656],[138.612357,36.285594],[138.612306,36.285394],[138.612413,36.28503],[138.612506,36.284281],[138.612375,36.283839],[138.612002,36.283555],[138.611457,36.283374],[138.611285,36.282862],[138.611216,36.282504],[138.611228,36.282248],[138.611165,36.282081],[138.611016,36.281987],[138.61078,36.281922],[138.610041,36.281787],[138.609708,36.281629],[138.608555,36.28061],[138.607867,36.280307],[138.607598,36.280135],[138.607316,36.279698],[138.607179,36.279596],[138.60656,36.279572],[138.605459,36.279363],[138.604822,36.279051],[138.604019,36.279009],[138.602551,36.278814],[138.601547,36.278572],[138.60071,36.278539],[138.600425,36.278453]]],[[[138.603974,36.263683],[138.603796,36.263189],[138.603733,36.262831],[138.603825,36.262356],[138.60394,36.262058],[138.604123,36.261816],[138.604278,36.261714],[138.604358,36.261514],[138.604261,36.260192],[138.604307,36.259932],[138.604875,36.259359],[138.604986,36.259106],[138.604972,36.258606],[138.604829,36.258075],[138.604771,36.257461],[138.604812,36.257191],[138.604949,36.256996],[138.605012,36.256791],[138.604984,36.256512],[138.604668,36.256126],[138.604611,36.255958],[138.604616,36.255674],[138.604838,36.254642],[138.604755,36.254129],[138.604118,36.253548],[138.603316,36.252301],[138.603064,36.251782],[138.603008,36.251455],[138.603136,36.25097],[138.603096,36.250699],[138.602424,36.249905],[138.602178,36.249501],[138.602115,36.24929],[138.602119,36.249053],[138.602194,36.248774],[138.60248,36.248247],[138.602745,36.24797],[138.603356,36.247642],[138.6052,36.246985],[138.605948,36.24678],[138.607306,36.246277],[138.607408,36.246075],[138.607477,36.24501],[138.607664,36.244757],[138.607851,36.244659],[138.608258,36.244552],[138.609386,36.244334],[138.61024,36.244044],[138.610804,36.243319],[138.611224,36.242939],[138.61128,36.242835],[138.611326,36.242547],[138.6113,36.242042],[138.611473,36.241704],[138.611664,36.241509],[138.612497,36.240918],[138.612589,36.240586],[138.612576,36.239971],[138.61241,36.239233],[138.613905,36.238882],[138.615119,36.238791],[138.618108,36.238979],[138.619391,36.239277],[138.620303,36.239728],[138.621711,36.240277],[138.622049,36.24045],[138.622518,36.240756],[138.623266,36.241637],[138.622839,36.242088],[138.623938,36.243322],[138.624117,36.248941],[138.624833,36.248876],[138.626085,36.248285],[138.627121,36.248542],[138.630176,36.248722],[138.627846,36.253434],[138.62606,36.256889],[138.627237,36.264061],[138.626732,36.267333],[138.623267,36.269922],[138.621043,36.268212],[138.619034,36.267851],[138.618192,36.265991],[138.618041,36.265213],[138.618234,36.263727],[138.61978,36.261645],[138.618192,36.260937],[138.616905,36.260083],[138.615808,36.257549],[138.615518,36.256681],[138.613765,36.257514],[138.613137,36.258014],[138.611618,36.259611],[138.611259,36.259819],[138.61068,36.260006],[138.610397,36.259007],[138.609865,36.257681],[138.609672,36.25732],[138.609458,36.257112],[138.608119,36.256278],[138.607981,36.256119],[138.607643,36.25405],[138.607429,36.253939],[138.60716,36.253863],[138.606953,36.253863],[138.606711,36.253939],[138.606539,36.254328],[138.606242,36.254772],[138.606207,36.255341],[138.605514,36.255897],[138.6054,36.256147],[138.605386,36.256417],[138.605407,36.25673],[138.605607,36.257625],[138.605911,36.258347],[138.606428,36.258923],[138.608692,36.260694],[138.608078,36.263012],[138.606863,36.264081],[138.607042,36.266039],[138.605775,36.267051],[138.605952,36.266795],[138.605912,36.266502],[138.605763,36.266218],[138.605643,36.266037],[138.604978,36.265334],[138.604633,36.264846],[138.604312,36.264376],[138.603974,36.263683]]],[[[138.60559,36.136295],[138.606263,36.136262],[138.607237,36.136091],[138.608432,36.135798],[138.609475,36.135444],[138.609904,36.135209],[138.610613,36.137286],[138.610243,36.137517],[138.609386,36.137903],[138.608594,36.138173],[138.607341,36.138301],[138.606689,36.138276],[138.605986,36.13816],[138.60559,36.136295]]],[[[138.617639,36.220991],[138.617649,36.220341],[138.617787,36.219917],[138.617803,36.219595],[138.617876,36.219366],[138.618013,36.219238],[138.61841,36.21902],[138.618689,36.218661],[138.619404,36.218157],[138.619628,36.217881],[138.619733,36.21767],[138.620323,36.216978],[138.620494,36.216882],[138.620697,36.216869],[138.620868,36.216776],[138.621006,36.216459],[138.621042,36.216068],[138.621134,36.215812],[138.622245,36.214586],[138.62277,36.214467],[138.623175,36.214431],[138.623902,36.214578],[138.625106,36.214964],[138.625726,36.21529],[138.626481,36.215827],[138.62674,36.215926],[138.626792,36.216382],[138.628007,36.217173],[138.629525,36.21759],[138.631734,36.218937],[138.632438,36.218215],[138.6315,36.217282],[138.632636,36.216587],[138.634184,36.216785],[138.635799,36.213702],[138.638004,36.214769],[138.637774,36.215772],[138.636112,36.21581],[138.635122,36.217128],[138.635211,36.219044],[138.637205,36.222078],[138.634591,36.224816],[138.633032,36.22425],[138.630949,36.221416],[138.628118,36.220657],[138.626609,36.219429],[138.626264,36.21959],[138.625785,36.219372],[138.625491,36.219526],[138.623983,36.220111],[138.621401,36.220683],[138.620877,36.220368],[138.619733,36.220625],[138.617639,36.220991]]],[[[138.623955,36.194654],[138.624989,36.195646],[138.624976,36.19589],[138.624593,36.197317],[138.625082,36.198744],[138.628443,36.201122],[138.628882,36.201743],[138.628612,36.201684],[138.628166,36.20139],[138.627924,36.201286],[138.62727,36.201181],[138.626864,36.201026],[138.626403,36.200562],[138.625451,36.199733],[138.62466,36.198839],[138.624009,36.198375],[138.62384,36.198178],[138.623641,36.197725],[138.623375,36.197368],[138.622798,36.196928],[138.622821,36.196805],[138.622992,36.196631],[138.62331,36.196162],[138.623852,36.195011],[138.623955,36.194654]]],[[[138.629271,36.202125],[138.629926,36.202877],[138.630706,36.203179],[138.632687,36.203584],[138.634809,36.203437],[138.636227,36.203134],[138.637275,36.202839],[138.637672,36.202794],[138.637764,36.202903],[138.638036,36.2037],[138.638458,36.204722],[138.638701,36.205738],[138.639947,36.206792],[138.641468,36.207576],[138.64118,36.208103],[138.639845,36.207962],[138.638138,36.20836],[138.637493,36.209839],[138.637461,36.211272],[138.638694,36.212526],[138.638266,36.21358],[138.636176,36.212944],[138.636192,36.212092],[138.63593,36.210717],[138.635157,36.209384],[138.635157,36.208301],[138.635071,36.20772],[138.635753,36.207126],[138.636047,36.206677],[138.636067,36.206546],[138.635972,36.206391],[138.635721,36.20616],[138.635834,36.205878],[138.636636,36.204513],[138.636707,36.204271],[138.634803,36.205597],[138.633923,36.204949],[138.63314,36.204556],[138.632866,36.204198],[138.632456,36.203892],[138.632211,36.203835],[138.631532,36.203926],[138.631277,36.203875],[138.631019,36.203692],[138.630705,36.203565],[138.630489,36.203537],[138.630298,36.203433],[138.62971,36.203],[138.629571,36.202949],[138.629333,36.202738],[138.629271,36.202125]]],[[[138.633275,36.267903],[138.634329,36.263547],[138.636237,36.26202],[138.637383,36.262249],[138.638328,36.262381],[138.639529,36.263373],[138.641137,36.26431],[138.644189,36.264438],[138.645264,36.266579],[138.643654,36.269562],[138.640011,36.269613],[138.638068,36.268482],[138.635921,36.267813],[138.633275,36.267903]]],[[[138.641055,36.122393],[138.641164,36.122223],[138.64121,36.12203],[138.641172,36.121867],[138.640931,36.121534],[138.640939,36.121472],[138.641156,36.121542],[138.641698,36.121573],[138.642791,36.121472],[138.643078,36.121287],[138.644013,36.121366],[138.644493,36.121359],[138.644702,36.121235],[138.644974,36.120732],[138.645082,36.120639],[138.645377,36.120197],[138.64527,36.120778],[138.645257,36.121395],[138.646088,36.122347],[138.642017,36.123311],[138.641055,36.122393]]],[[[138.643532,36.185907],[138.645909,36.18349],[138.649092,36.184017],[138.647697,36.190162],[138.64604,36.190246],[138.64535,36.191532],[138.642807,36.194502],[138.642359,36.192907],[138.642219,36.190375],[138.641337,36.188691],[138.643532,36.185907]]],[[[138.653165,36.302844],[138.654156,36.302666],[138.655357,36.302277],[138.656475,36.301638],[138.657421,36.300902],[138.657676,36.300555],[138.657793,36.300139],[138.657642,36.299924],[138.656234,36.298993],[138.65563,36.298445],[138.655364,36.29807],[138.65524,36.297792],[138.655171,36.297223],[138.65506,36.296751],[138.654922,36.296432],[138.654715,36.296348],[138.654474,36.296348],[138.654156,36.296078],[138.654018,36.2958],[138.65406,36.295342],[138.654391,36.29453],[138.654412,36.294169],[138.654391,36.293509],[138.65428,36.292482],[138.654087,36.292051],[138.652883,36.29017],[138.652524,36.290059],[138.652041,36.289628],[138.652538,36.289212],[138.652248,36.287546],[138.653145,36.28731],[138.653186,36.283797],[138.653901,36.283887],[138.655557,36.284332],[138.656158,36.283117],[138.656737,36.282672],[138.657365,36.282353],[138.659056,36.283221],[138.662045,36.282513],[138.663246,36.282554],[138.665185,36.282811],[138.665938,36.283082],[138.667138,36.283665],[138.667829,36.284158],[138.668629,36.285026],[138.669692,36.286338],[138.669872,36.287032],[138.670003,36.28731],[138.670486,36.287768],[138.671625,36.28799],[138.67226,36.288268],[138.672819,36.288309],[138.673854,36.287851],[138.6748,36.287629],[138.675041,36.287483],[138.6752,36.287254],[138.675434,36.286477],[138.675545,36.286331],[138.676532,36.285887],[138.677298,36.285283],[138.677353,36.285067],[138.677388,36.284401],[138.677733,36.283832],[138.678174,36.283637],[138.678734,36.283596],[138.679051,36.283429],[138.679217,36.283137],[138.679375,36.282603],[138.67981,36.281839],[138.679803,36.281326],[138.680024,36.280347],[138.680176,36.280069],[138.680355,36.280007],[138.680908,36.280014],[138.681522,36.280118],[138.68255,36.280444],[138.684952,36.282311],[138.686961,36.283408],[138.688065,36.284234],[138.689521,36.285171],[138.689901,36.285609],[138.690474,36.286067],[138.690874,36.28622],[138.691564,36.286879],[138.691951,36.287157],[138.692337,36.287289],[138.693869,36.287594],[138.700706,36.292551],[138.700561,36.293509],[138.701955,36.294661],[138.701403,36.295925],[138.701554,36.296494],[138.701941,36.299035],[138.701237,36.30102],[138.700257,36.302395],[138.699208,36.303597],[138.698524,36.303585],[138.688695,36.30221],[138.686714,36.302377],[138.68573,36.302531],[138.687251,36.305398],[138.687622,36.309152],[138.688069,36.310952],[138.688248,36.31189],[138.688338,36.314616],[138.687238,36.31486],[138.68706,36.316351],[138.680988,36.312224],[138.679161,36.310592],[138.676246,36.309229],[138.673281,36.308535],[138.669536,36.306812],[138.667798,36.307931],[138.666098,36.308239],[138.665331,36.307918],[138.663682,36.308985],[138.661701,36.308998],[138.660167,36.308046],[138.657381,36.307134],[138.653788,36.307022],[138.653719,36.306783],[138.653557,36.306579],[138.653024,36.306125],[138.653024,36.305921],[138.653228,36.305592],[138.65328,36.305377],[138.652987,36.304917],[138.652971,36.304734],[138.653478,36.303575],[138.653531,36.303189],[138.653531,36.303115],[138.653165,36.302844]],[[138.671656,36.292371],[138.66893,36.296737],[138.668101,36.297355],[138.668688,36.297799],[138.668633,36.298535],[138.671042,36.29941],[138.670462,36.301659],[138.671463,36.301548],[138.673257,36.300882],[138.675114,36.298792],[138.677536,36.299021],[138.677902,36.298237],[138.679027,36.298382],[138.682436,36.297077],[138.682816,36.297043],[138.683154,36.297084],[138.683913,36.297577],[138.68459,36.298091],[138.686226,36.298209],[138.686446,36.296543],[138.686419,36.294516],[138.684818,36.293606],[138.683891,36.292985],[138.683546,36.292308],[138.682971,36.292044],[138.682364,36.291871],[138.681453,36.290954],[138.680783,36.291454],[138.680245,36.291676],[138.68099,36.293134],[138.679928,36.293287],[138.679231,36.293946],[138.678292,36.293939],[138.677578,36.29462],[138.677025,36.294564],[138.67559,36.294953],[138.671656,36.292371]]],[[[138.690255,36.221692],[138.692006,36.220805],[138.698166,36.221268],[138.698256,36.222721],[138.699444,36.223608],[138.69846,36.224816],[138.69777,36.228981],[138.697067,36.229444],[138.693654,36.229316],[138.692312,36.23109],[138.691098,36.231874],[138.690459,36.230897],[138.690472,36.230486],[138.690664,36.23001],[138.690689,36.229496],[138.690574,36.229226],[138.690255,36.22902],[138.689667,36.228789],[138.688759,36.22605],[138.690127,36.222592],[138.690255,36.221692]]],[[[138.69878,36.187315],[138.69869,36.185875],[138.694971,36.186376],[138.691801,36.184692],[138.692044,36.183188],[138.69322,36.182301],[138.692721,36.179331],[138.696977,36.179087],[138.700582,36.180784],[138.704979,36.180784],[138.707228,36.182494],[138.708711,36.183381],[138.711727,36.183291],[138.71105,36.186736],[138.709542,36.188433],[138.707177,36.188073],[138.706385,36.187893],[138.705809,36.187868],[138.702243,36.188703],[138.69878,36.187315]]],[[[138.726329,36.309517],[138.731733,36.309962],[138.732702,36.310954],[138.735442,36.310913],[138.736574,36.31228],[138.736844,36.312877],[138.737485,36.314627],[138.739439,36.315495],[138.739466,36.317959],[138.742068,36.319729],[138.741173,36.320045],[138.740055,36.319771],[138.73908,36.319771],[138.738265,36.319],[138.737589,36.318841],[138.734621,36.317529],[138.734166,36.316654],[138.733772,36.31673],[138.732461,36.31555],[138.731094,36.315321],[138.728175,36.31462],[138.726329,36.309517]]],[[[138.727811,36.287086],[138.728389,36.28413],[138.728423,36.283422],[138.728829,36.282752],[138.731935,36.282675],[138.734581,36.282816],[138.738815,36.283183],[138.73953,36.283183],[138.74031,36.283022],[138.741301,36.282726],[138.742611,36.282141],[138.744534,36.281171],[138.746145,36.280508],[138.746215,36.280367],[138.746215,36.280052],[138.746317,36.279756],[138.746496,36.279544],[138.746682,36.279441],[138.746924,36.279441],[138.747148,36.279564],[138.747301,36.279583],[138.74734,36.27939],[138.74734,36.279171],[138.746905,36.278683],[138.746803,36.2784],[138.746835,36.277725],[138.746298,36.277044],[138.746189,36.276703],[138.746189,36.276375],[138.746273,36.275951],[138.747442,36.275295],[138.747797,36.275289],[138.749561,36.275829],[138.751823,36.275675],[138.754418,36.276999],[138.756769,36.276459],[138.756889,36.276578],[138.756365,36.280784],[138.756141,36.28177],[138.754954,36.282749],[138.754605,36.282853],[138.754219,36.282783],[138.752687,36.282172],[138.753004,36.282908],[138.752852,36.283297],[138.752466,36.283714],[138.751679,36.284311],[138.750782,36.284783],[138.750133,36.284949],[138.747955,36.285852],[138.746541,36.286109],[138.745885,36.286324],[138.74457,36.287226],[138.744032,36.287837],[138.740729,36.286032],[138.739535,36.285262],[138.738845,36.284463],[138.738383,36.284262],[138.738024,36.284019],[138.737616,36.28363],[138.737465,36.283609],[138.737313,36.283734],[138.736598,36.284741],[138.734945,36.287407],[138.734566,36.287712],[138.733537,36.288261],[138.733016,36.28842],[138.731056,36.288434],[138.730615,36.288351],[138.729993,36.288073],[138.728682,36.287351],[138.727811,36.287086]]],[[[138.734621,36.295237],[138.737023,36.297535],[138.736988,36.299021],[138.740474,36.30052],[138.740729,36.304332],[138.741723,36.304998],[138.742275,36.305276],[138.743366,36.305692],[138.745768,36.306747],[138.746775,36.306324],[138.749025,36.30379],[138.751068,36.305581],[138.75229,36.307497],[138.755782,36.310691],[138.756141,36.31278],[138.751179,36.314738],[138.750992,36.316744],[138.74896,36.320694],[138.747709,36.320475],[138.748214,36.319056],[138.744739,36.316126],[138.74456,36.314925],[138.740912,36.311794],[138.737085,36.307338],[138.737872,36.304894],[138.737996,36.304672],[138.738272,36.30445],[138.737403,36.30361],[138.736015,36.304186],[138.735712,36.303283],[138.735643,36.302429],[138.734856,36.302249],[138.734614,36.302298],[138.731826,36.303769],[138.731267,36.302999],[138.731194,36.300576],[138.731087,36.300347],[138.73088,36.300222],[138.72959,36.300187],[138.728982,36.298938],[138.72872,36.298896],[138.728527,36.29875],[138.728285,36.297757],[138.728982,36.295793],[138.732858,36.295592],[138.734621,36.295237]]],[[[138.75402,36.289934],[138.753998,36.288458],[138.754053,36.287903],[138.754157,36.287743],[138.754509,36.287452],[138.754854,36.287244],[138.755236,36.287142],[138.755338,36.288981],[138.75402,36.289934]]],[[[138.757894,36.295691],[138.758533,36.296823],[138.757525,36.297192],[138.756869,36.296032],[138.757894,36.295691]]],[[[138.671656,36.292371],[138.67559,36.294953],[138.677025,36.294564],[138.677578,36.29462],[138.678292,36.293939],[138.679231,36.293946],[138.679928,36.293287],[138.68099,36.293134],[138.680245,36.291676],[138.680783,36.291454],[138.681453,36.290954],[138.682364,36.291871],[138.682971,36.292044],[138.683546,36.292308],[138.683891,36.292985],[138.684818,36.293606],[138.686419,36.294516],[138.686446,36.296543],[138.686226,36.298209],[138.68459,36.298091],[138.683913,36.297577],[138.683154,36.297084],[138.682816,36.297043],[138.682436,36.297077],[138.679027,36.298382],[138.677902,36.298237],[138.677536,36.299021],[138.675114,36.298792],[138.673257,36.300882],[138.671463,36.301548],[138.670462,36.301659],[138.671042,36.29941],[138.668633,36.298535],[138.668688,36.297799],[138.668101,36.297355],[138.66893,36.296737],[138.671656,36.292371]]],[[[138.589331,36.176354],[138.589628,36.176787],[138.590679,36.177765],[138.590582,36.177938],[138.589908,36.17848],[138.589571,36.178862],[138.589314,36.179002],[138.588503,36.179057],[138.588273,36.17904],[138.588062,36.178951],[138.587996,36.178742],[138.588016,36.178209],[138.587936,36.177827],[138.587475,36.17715],[138.587381,36.176936],[138.587251,36.176855],[138.586798,36.176882],[138.586584,36.176972],[138.58585,36.177115],[138.584912,36.177102],[138.584048,36.177202],[138.583847,36.177288],[138.583714,36.177448],[138.58356,36.178672],[138.58347,36.17881],[138.58339,36.178832],[138.582976,36.178667],[138.581545,36.177716],[138.581448,36.17764],[138.581331,36.17744],[138.581321,36.177334],[138.581478,36.176958],[138.581518,36.176684],[138.581624,36.176392],[138.581624,36.176094],[138.581464,36.176026],[138.580766,36.175905],[138.580583,36.175742],[138.580553,36.175357],[138.580656,36.174754],[138.580629,36.174478],[138.580392,36.173896],[138.579959,36.173422],[138.579768,36.17298],[138.579445,36.171862],[138.579335,36.171309],[138.579361,36.170489],[138.579321,36.170319],[138.579038,36.170048],[138.578413,36.169604],[138.57773,36.16862],[138.577274,36.168074],[138.578187,36.167737],[138.578431,36.167744],[138.578666,36.167689],[138.57892,36.167513],[138.579473,36.166794],[138.579625,36.16666],[138.579888,36.166585],[138.580142,36.166611],[138.580174,36.166577],[138.580137,36.166207],[138.580239,36.165586],[138.58034,36.16541],[138.580852,36.164891],[138.58082,36.164763],[138.580252,36.16418],[138.580114,36.163922],[138.580068,36.163727],[138.580073,36.162781],[138.580266,36.162399],[138.580654,36.161943],[138.580783,36.161842],[138.58099,36.161771],[138.582424,36.161595],[138.583254,36.160648],[138.583577,36.160439],[138.583936,36.160349],[138.584384,36.160372],[138.584697,36.160447],[138.585882,36.160881],[138.58638,36.160974],[138.587076,36.160997],[138.587555,36.160776],[138.587684,36.160619],[138.587703,36.160507],[138.587574,36.159762],[138.587615,36.159321],[138.587827,36.159074],[138.589755,36.157559],[138.589898,36.157342],[138.590087,36.156848],[138.590622,36.155756],[138.590645,36.155509],[138.590557,36.155004],[138.590645,36.154757],[138.59165,36.154158],[138.592687,36.15362],[138.59324,36.153227],[138.5933,36.15307],[138.593305,36.152378],[138.593125,36.15096],[138.593162,36.15034],[138.5933,36.149913],[138.593651,36.149404],[138.593918,36.14912],[138.594799,36.148514],[138.595043,36.148177],[138.596387,36.14865],[138.596886,36.147095],[138.595991,36.145976],[138.596183,36.143508],[138.595286,36.142753],[138.595542,36.142525],[138.595717,36.142285],[138.595767,36.142122],[138.595772,36.141564],[138.595723,36.141247],[138.595898,36.140937],[138.596716,36.140216],[138.597002,36.139907],[138.597329,36.13943],[138.598011,36.138143],[138.598122,36.138009],[138.598282,36.137903],[138.599151,36.137557],[138.599472,36.137325],[138.599778,36.136844],[138.600295,36.136344],[138.600662,36.135627],[138.600767,36.135513],[138.601003,36.135492],[138.601395,36.135553],[138.603563,36.136083],[138.604471,36.136229],[138.60559,36.136295],[138.605986,36.13816],[138.606689,36.138276],[138.607341,36.138301],[138.608594,36.138173],[138.609386,36.137903],[138.610243,36.137517],[138.610613,36.137286],[138.609904,36.135209],[138.611067,36.134429],[138.611579,36.134026],[138.612216,36.133424],[138.612307,36.133387],[138.612693,36.133526],[138.61329,36.134124],[138.613737,36.134279],[138.614114,36.134316],[138.61457,36.134291],[138.615167,36.134096],[138.615544,36.133835],[138.61579,36.133571],[138.616342,36.133159],[138.616598,36.133114],[138.616919,36.133163],[138.617903,36.133501],[138.618962,36.133689],[138.620172,36.134031],[138.620624,36.13401],[138.620955,36.133819],[138.62106,36.133664],[138.621216,36.133184],[138.621527,36.132487],[138.621975,36.132017],[138.622478,36.131932],[138.622835,36.131987],[138.623734,36.131963],[138.62447,36.131855],[138.624679,36.131886],[138.62488,36.131987],[138.625113,36.132165],[138.625624,36.132381],[138.626258,36.132771],[138.626537,36.132833],[138.627374,36.132717],[138.627854,36.132981],[138.62835,36.13312],[138.628993,36.133135],[138.629575,36.133399],[138.630016,36.133352],[138.630194,36.133159],[138.63107,36.132555],[138.631279,36.132609],[138.631713,36.132911],[138.632309,36.133204],[138.633045,36.133436],[138.634091,36.133971],[138.634323,36.133947],[138.634618,36.133723],[138.634773,36.133529],[138.635579,36.132291],[138.636511,36.131107],[138.636666,36.130488],[138.636674,36.129776],[138.637085,36.128622],[138.637527,36.128026],[138.637597,36.127865],[138.637635,36.127547],[138.637364,36.127052],[138.637341,36.126859],[138.637372,36.1261],[138.637713,36.125349],[138.63769,36.125147],[138.637388,36.124544],[138.637336,36.124344],[138.637568,36.123834],[138.637932,36.123501],[138.638119,36.123547],[138.638614,36.123849],[138.639195,36.123864],[138.639599,36.123764],[138.6398,36.123586],[138.639909,36.123168],[138.639939,36.122757],[138.639994,36.122657],[138.640149,36.122571],[138.640614,36.122649],[138.640792,36.122587],[138.641055,36.122393],[138.642017,36.123311],[138.646088,36.122347],[138.646561,36.123092],[138.646944,36.123517],[138.647289,36.123787],[138.648427,36.124314],[138.651009,36.126165],[138.647673,36.127721],[138.646599,36.130228],[138.644017,36.129456],[138.643302,36.133107],[138.643148,36.133544],[138.642369,36.134753],[138.637729,36.13681],[138.635122,36.13483],[138.628373,36.138031],[138.62606,36.140358],[138.625318,36.141014],[138.623439,36.142299],[138.619618,36.142402],[138.619375,36.142891],[138.616831,36.146709],[138.614889,36.148329],[138.614403,36.148856],[138.614454,36.149627],[138.614556,36.15027],[138.61494,36.151402],[138.615438,36.15225],[138.615873,36.152649],[138.61724,36.153523],[138.618528,36.154596],[138.619052,36.154718],[138.619953,36.15504],[138.621084,36.155554],[138.62196,36.15565],[138.622171,36.155728],[138.622583,36.15621],[138.622915,36.156467],[138.623401,36.156673],[138.623861,36.156737],[138.625446,36.156801],[138.625932,36.156981],[138.626417,36.157367],[138.626648,36.157958],[138.626865,36.158344],[138.627197,36.158537],[138.627593,36.158691],[138.627785,36.15891],[138.627734,36.159077],[138.626494,36.159604],[138.625293,36.160041],[138.623209,36.160439],[138.620985,36.160619],[138.62404,36.165505],[138.624794,36.165453],[138.628718,36.165942],[138.630252,36.166353],[138.631594,36.166855],[138.633486,36.167754],[138.634828,36.168513],[138.636093,36.169349],[138.636221,36.169721],[138.635837,36.170056],[138.635582,36.170583],[138.634444,36.170827],[138.634074,36.171136],[138.63429,36.171677],[138.633833,36.171895],[138.633093,36.172046],[138.632915,36.172122],[138.632831,36.172237],[138.632545,36.172348],[138.632085,36.172258],[138.63168,36.172341],[138.631155,36.172758],[138.630909,36.172782],[138.63067,36.172651],[138.630368,36.172349],[138.629638,36.172229],[138.628982,36.171931],[138.62876,36.17188],[138.628398,36.171693],[138.628155,36.171419],[138.627758,36.171216],[138.626905,36.171291],[138.626269,36.171204],[138.626091,36.171017],[138.62594,36.170945],[138.62551,36.17085],[138.625011,36.17063],[138.624482,36.170677],[138.623898,36.170797],[138.623568,36.170789],[138.623437,36.170733],[138.623003,36.170356],[138.62286,36.170296],[138.622658,36.1703],[138.622471,36.170371],[138.622119,36.170713],[138.621983,36.171011],[138.6219,36.171075],[138.62186,36.171223],[138.621441,36.17123],[138.618772,36.170399],[138.617846,36.169896],[138.617578,36.169538],[138.617267,36.169347],[138.615943,36.169056],[138.614432,36.168976],[138.61353,36.168838],[138.613167,36.168732],[138.612788,36.168565],[138.612114,36.168063],[138.611418,36.167434],[138.610597,36.166562],[138.60994,36.165957],[138.609341,36.165694],[138.608453,36.165387],[138.608681,36.165063],[138.608753,36.16475],[138.608498,36.164201],[138.608573,36.163652],[138.609146,36.162371],[138.609584,36.161736],[138.60979,36.161548],[138.609666,36.161421],[138.609545,36.161413],[138.608341,36.16175],[138.607805,36.161651],[138.60772,36.161673],[138.607442,36.161999],[138.606795,36.16254],[138.606157,36.162912],[138.605928,36.163365],[138.605811,36.163492],[138.605042,36.163994],[138.60484,36.164198],[138.604536,36.164286],[138.603924,36.164344],[138.603499,36.164463],[138.602793,36.164848],[138.602018,36.1648],[138.601865,36.164829],[138.600743,36.16523],[138.598833,36.165689],[138.598209,36.165705],[138.597273,36.165487],[138.597057,36.165599],[138.596864,36.165851],[138.596479,36.165925],[138.595553,36.165824],[138.594654,36.16562],[138.59449,36.16563],[138.594271,36.16597],[138.594075,36.166017],[138.593771,36.166198],[138.593703,36.166477],[138.593503,36.166721],[138.593179,36.166901],[138.59297,36.166951],[138.592728,36.166941],[138.59266,36.166986],[138.592303,36.167562],[138.591983,36.167731],[138.591734,36.167991],[138.591424,36.168776],[138.591296,36.168899],[138.59091,36.169108],[138.590152,36.169283],[138.589959,36.169387],[138.589663,36.169678],[138.589467,36.17034],[138.589033,36.170543],[138.588947,36.171109],[138.588727,36.171456],[138.588626,36.172087],[138.588293,36.172639],[138.588146,36.173324],[138.588209,36.173652],[138.588403,36.174074],[138.58866,36.174437],[138.58883,36.174778],[138.588763,36.175052],[138.588777,36.175247],[138.58905,36.175864],[138.589331,36.176354]]],[[[138.605775,36.267051],[138.607042,36.266039],[138.606863,36.264081],[138.608078,36.263012],[138.608692,36.260694],[138.606428,36.258923],[138.605911,36.258347],[138.605607,36.257625],[138.605407,36.25673],[138.6054,36.256147],[138.605514,36.255897],[138.606207,36.255341],[138.606242,36.254772],[138.606539,36.254328],[138.606711,36.253939],[138.606953,36.253863],[138.60716,36.253863],[138.607643,36.25405],[138.607981,36.256119],[138.608119,36.256278],[138.609458,36.257112],[138.609672,36.25732],[138.609865,36.257681],[138.610397,36.259007],[138.61068,36.260006],[138.611259,36.259819],[138.611618,36.259611],[138.613137,36.258014],[138.613765,36.257514],[138.615518,36.256681],[138.615808,36.257549],[138.616905,36.260083],[138.618192,36.260937],[138.61978,36.261645],[138.618234,36.263727],[138.618041,36.265213],[138.618192,36.265991],[138.619034,36.267851],[138.621043,36.268212],[138.623267,36.269922],[138.624366,36.271516],[138.623593,36.27446],[138.62296,36.27653],[138.62691,36.277944],[138.62806,36.277314],[138.630067,36.276375],[138.632163,36.275604],[138.636458,36.273367],[138.638515,36.27338],[138.640867,36.274588],[138.642657,36.276427],[138.643296,36.277494],[138.643334,36.278857],[138.645622,36.279178],[138.647897,36.277288],[138.649456,36.277185],[138.650913,36.279049],[138.649469,36.280759],[138.649712,36.281299],[138.649086,36.282971],[138.649099,36.28423],[138.650453,36.284166],[138.653674,36.280117],[138.655336,36.279859],[138.657266,36.279307],[138.658864,36.280566],[138.663503,36.281903],[138.666277,36.280901],[138.668117,36.281158],[138.6713,36.283459],[138.673089,36.28423],[138.673933,36.284488],[138.675109,36.282045],[138.6764,36.281325],[138.678419,36.277841],[138.682688,36.277815],[138.684682,36.278921],[138.686689,36.280618],[138.687635,36.281351],[138.690392,36.282463],[138.691574,36.281228],[138.693837,36.281106],[138.694968,36.279769],[138.698074,36.279699],[138.699582,36.277494],[138.70265,36.277622],[138.704701,36.276607],[138.707411,36.276362],[138.707864,36.279146],[138.711462,36.280624],[138.715827,36.280476],[138.718205,36.280129],[138.718511,36.280341],[138.723125,36.282038],[138.725829,36.282373],[138.727037,36.282475],[138.728829,36.282752],[138.728423,36.283422],[138.728389,36.28413],[138.727743,36.28749],[138.726829,36.289108],[138.729783,36.289677],[138.730259,36.289809],[138.731405,36.289795],[138.732343,36.289469],[138.733731,36.290815],[138.735014,36.290475],[138.736726,36.291489],[138.738117,36.293773],[138.734621,36.295237],[138.732858,36.295592],[138.728982,36.295793],[138.728285,36.297757],[138.728527,36.29875],[138.72872,36.298896],[138.728982,36.298938],[138.72959,36.300187],[138.73088,36.300222],[138.731087,36.300347],[138.731194,36.300576],[138.731267,36.302999],[138.731826,36.303769],[138.734614,36.302298],[138.734856,36.302249],[138.735643,36.302429],[138.735712,36.303283],[138.736015,36.304186],[138.737403,36.30361],[138.738272,36.30445],[138.737996,36.304672],[138.737872,36.304894],[138.737085,36.307338],[138.740912,36.311794],[138.74456,36.314925],[138.744739,36.316126],[138.748214,36.319056],[138.747709,36.320475],[138.747222,36.320388],[138.741636,36.322818],[138.741534,36.324772],[138.738901,36.32598],[138.736296,36.32396],[138.742614,36.320708],[138.742068,36.319729],[138.739466,36.317959],[138.739439,36.315495],[138.737485,36.314627],[138.736844,36.312877],[138.736574,36.31228],[138.735442,36.310913],[138.732702,36.310954],[138.731733,36.309962],[138.726329,36.309517],[138.723292,36.305838],[138.719786,36.307296],[138.717784,36.309018],[138.715023,36.310323],[138.713504,36.310373],[138.712814,36.30838],[138.709568,36.306105],[138.706027,36.305398],[138.703458,36.303572],[138.699208,36.303597],[138.700257,36.302395],[138.701237,36.30102],[138.701941,36.299035],[138.701554,36.296494],[138.701403,36.295925],[138.701955,36.294661],[138.700561,36.293509],[138.700706,36.292551],[138.693869,36.287594],[138.692337,36.287289],[138.691951,36.287157],[138.691564,36.286879],[138.690874,36.28622],[138.690474,36.286067],[138.689901,36.285609],[138.689521,36.285171],[138.688065,36.284234],[138.686961,36.283408],[138.684952,36.282311],[138.68255,36.280444],[138.681522,36.280118],[138.680908,36.280014],[138.680355,36.280007],[138.680176,36.280069],[138.680024,36.280347],[138.679803,36.281326],[138.67981,36.281839],[138.679375,36.282603],[138.679217,36.283137],[138.679051,36.283429],[138.678734,36.283596],[138.678174,36.283637],[138.677733,36.283832],[138.677388,36.284401],[138.677353,36.285067],[138.677298,36.285283],[138.676532,36.285887],[138.675545,36.286331],[138.675434,36.286477],[138.6752,36.287254],[138.675041,36.287483],[138.6748,36.287629],[138.673854,36.287851],[138.672819,36.288309],[138.67226,36.288268],[138.671625,36.28799],[138.670486,36.287768],[138.670003,36.28731],[138.669872,36.287032],[138.669692,36.286338],[138.668629,36.285026],[138.667829,36.284158],[138.667138,36.283665],[138.665938,36.283082],[138.665185,36.282811],[138.663246,36.282554],[138.662045,36.282513],[138.659056,36.283221],[138.657365,36.282353],[138.656737,36.282672],[138.656158,36.283117],[138.655557,36.284332],[138.653901,36.283887],[138.653186,36.283797],[138.653145,36.28731],[138.652248,36.287546],[138.652538,36.289212],[138.652041,36.289628],[138.652524,36.290059],[138.652883,36.29017],[138.654087,36.292051],[138.65428,36.292482],[138.654391,36.293509],[138.654412,36.294169],[138.654391,36.29453],[138.65406,36.295342],[138.654018,36.2958],[138.654156,36.296078],[138.654474,36.296348],[138.654715,36.296348],[138.654922,36.296432],[138.65506,36.296751],[138.655171,36.297223],[138.65524,36.297792],[138.655364,36.29807],[138.65563,36.298445],[138.656234,36.298993],[138.657642,36.299924],[138.657793,36.300139],[138.657676,36.300555],[138.657421,36.300902],[138.656475,36.301638],[138.655357,36.302277],[138.654156,36.302666],[138.653165,36.302844],[138.652759,36.302636],[138.651938,36.302505],[138.651001,36.301904],[138.650489,36.3017],[138.650123,36.301481],[138.650013,36.301114],[138.650018,36.300733],[138.650107,36.300566],[138.65117,36.299354],[138.651222,36.299265],[138.651222,36.299097],[138.650892,36.298842],[138.650547,36.298679],[138.649998,36.298533],[138.649335,36.298511],[138.648989,36.298584],[138.648603,36.298563],[138.648074,36.298453],[138.647833,36.298307],[138.647028,36.297649],[138.646409,36.297577],[138.646299,36.297483],[138.646242,36.296861],[138.645546,36.296041],[138.645494,36.29591],[138.645456,36.295268],[138.644886,36.294537],[138.64485,36.294171],[138.644959,36.293862],[138.644959,36.293622],[138.644907,36.293533],[138.644504,36.293256],[138.644373,36.293204],[138.644096,36.293256],[138.643824,36.293586],[138.643662,36.293711],[138.642711,36.29364],[138.642434,36.293421],[138.642256,36.293206],[138.642016,36.293039],[138.641723,36.292872],[138.641189,36.292694],[138.640767,36.292769],[138.640438,36.293099],[138.640239,36.293407],[138.639999,36.293574],[138.639575,36.293606],[138.638848,36.293553],[138.638717,36.293516],[138.638366,36.293281],[138.637728,36.29348],[138.637508,36.293459],[138.636862,36.292797],[138.636151,36.292541],[138.635983,36.292394],[138.635763,36.291956],[138.634815,36.291881],[138.634281,36.29175],[138.633915,36.291457],[138.633959,36.291255],[138.632932,36.29084],[138.632868,36.290745],[138.632764,36.290342],[138.632485,36.289916],[138.632097,36.289498],[138.631899,36.289132],[138.631297,36.288861],[138.631057,36.288604],[138.630856,36.288509],[138.630583,36.288457],[138.629961,36.288509],[138.629757,36.288493],[138.629542,36.288383],[138.628936,36.288362],[138.628219,36.288551],[138.627788,36.288608],[138.627328,36.288828],[138.626975,36.288822],[138.626685,36.288671],[138.626092,36.288142],[138.625615,36.288046],[138.624659,36.288185],[138.624551,36.288154],[138.624132,36.287859],[138.623807,36.287751],[138.623518,36.287519],[138.623228,36.287374],[138.62265,36.287287],[138.621856,36.286897],[138.620925,36.286561],[138.620638,36.286543],[138.620352,36.286627],[138.62037,36.286268],[138.620667,36.285304],[138.622213,36.285345],[138.618651,36.283492],[138.615863,36.281846],[138.614227,36.281444],[138.611839,36.280701],[138.613275,36.278632],[138.611888,36.27884],[138.609738,36.279319],[138.607985,36.277875],[138.606728,36.278098],[138.604396,36.274238],[138.604851,36.272863],[138.604948,36.272391],[138.605403,36.271739],[138.605707,36.271405],[138.60579,36.271197],[138.605541,36.269878],[138.605928,36.268559],[138.605997,36.267809],[138.605997,36.267296],[138.605775,36.267051]]],[[[138.612153,36.232784],[138.612169,36.232088],[138.6121,36.231146],[138.612048,36.230818],[138.61171,36.229871],[138.611704,36.229618],[138.611871,36.229392],[138.612681,36.228907],[138.614594,36.228018],[138.614637,36.227866],[138.614614,36.226535],[138.614985,36.225513],[138.614821,36.224983],[138.614581,36.224677],[138.614598,36.224482],[138.614735,36.224224],[138.614998,36.223913],[138.615769,36.22312],[138.61698,36.222337],[138.617527,36.221786],[138.617642,36.221408],[138.617639,36.220991],[138.619733,36.220625],[138.620877,36.220368],[138.621401,36.220683],[138.623983,36.220111],[138.625491,36.219526],[138.625785,36.219372],[138.626264,36.21959],[138.626609,36.219429],[138.628118,36.220657],[138.630949,36.221416],[138.633032,36.22425],[138.634591,36.224816],[138.637205,36.222078],[138.635211,36.219044],[138.635122,36.217128],[138.636112,36.21581],[138.637774,36.215772],[138.638004,36.214769],[138.635799,36.213702],[138.636176,36.212944],[138.638266,36.21358],[138.638694,36.212526],[138.637461,36.211272],[138.637493,36.209839],[138.638138,36.20836],[138.639845,36.207962],[138.64118,36.208103],[138.641468,36.207576],[138.639947,36.206792],[138.638701,36.205738],[138.638458,36.204722],[138.638036,36.2037],[138.637764,36.202903],[138.637672,36.202794],[138.637275,36.202839],[138.636227,36.203134],[138.634809,36.203437],[138.632687,36.203584],[138.630706,36.203179],[138.629926,36.202877],[138.629097,36.201874],[138.628882,36.201743],[138.628443,36.201122],[138.625082,36.198744],[138.624593,36.197317],[138.624976,36.19589],[138.624989,36.195646],[138.623955,36.194654],[138.624194,36.194169],[138.624815,36.193666],[138.625972,36.192891],[138.626955,36.191935],[138.627206,36.191585],[138.627265,36.191422],[138.627381,36.190252],[138.627858,36.188829],[138.62838,36.187877],[138.628408,36.18771],[138.628642,36.187174],[138.628885,36.18688],[138.629403,36.186452],[138.629789,36.185368],[138.629852,36.184908],[138.629824,36.184702],[138.629546,36.183967],[138.629419,36.183467],[138.629455,36.183312],[138.629661,36.183204],[138.630541,36.182979],[138.631062,36.182674],[138.631205,36.182527],[138.631336,36.182252],[138.631515,36.181565],[138.631922,36.181006],[138.632615,36.180297],[138.633362,36.179817],[138.634284,36.179137],[138.634403,36.178819],[138.634733,36.178422],[138.635534,36.177769],[138.635896,36.17726],[138.635984,36.176923],[138.635948,36.176188],[138.63602,36.175886],[138.636116,36.175716],[138.636354,36.175489],[138.636748,36.175136],[138.63707,36.174981],[138.637105,36.174885],[138.636995,36.174385],[138.636813,36.173921],[138.636578,36.173436],[138.636348,36.173126],[138.636311,36.17279],[138.636363,36.172596],[138.636343,36.172067],[138.636145,36.171586],[138.636799,36.171553],[138.637483,36.173385],[138.637998,36.173604],[138.638534,36.173643],[138.639135,36.17363],[138.639902,36.173501],[138.641589,36.175365],[138.640822,36.176368],[138.64049,36.177037],[138.640515,36.177757],[138.640835,36.179196],[138.641078,36.179878],[138.643532,36.185907],[138.641337,36.188691],[138.642219,36.190375],[138.642359,36.192907],[138.642807,36.194502],[138.64535,36.191532],[138.64604,36.190246],[138.647697,36.190162],[138.647648,36.190381],[138.648338,36.191757],[138.651533,36.191564],[138.653195,36.192194],[138.65469,36.19213],[138.657323,36.193595],[138.659815,36.192978],[138.663308,36.193402],[138.664567,36.192779],[138.66551,36.192856],[138.666979,36.194064],[138.668322,36.193962],[138.668794,36.194694],[138.669165,36.195106],[138.669459,36.195234],[138.669894,36.195119],[138.670264,36.194887],[138.670507,36.194579],[138.670469,36.193152],[138.670149,36.19265],[138.669804,36.191943],[138.670354,36.191712],[138.671363,36.191995],[138.672642,36.192187],[138.674163,36.194347],[138.670312,36.196456],[138.668369,36.195967],[138.660701,36.19922],[138.661225,36.200865],[138.661263,36.201328],[138.660841,36.201997],[138.66103,36.20352],[138.660966,36.204317],[138.660991,36.204831],[138.663222,36.20388],[138.663266,36.202884],[138.66349,36.202112],[138.66442,36.202459],[138.665238,36.20156],[138.666005,36.201341],[138.666388,36.200608],[138.668638,36.199811],[138.668945,36.198898],[138.671565,36.199117],[138.671501,36.200672],[138.673648,36.201572],[138.674172,36.19922],[138.672894,36.197137],[138.675156,36.198564],[138.675591,36.196546],[138.674172,36.195131],[138.674163,36.194347],[138.675735,36.193692],[138.680068,36.194849],[138.681857,36.193833],[138.682598,36.193537],[138.684349,36.193087],[138.686279,36.1913],[138.68757,36.18995],[138.689257,36.18959],[138.69005,36.190079],[138.69051,36.191622],[138.691354,36.191956],[138.695047,36.189063],[138.696556,36.188922],[138.69878,36.187315],[138.702243,36.188703],[138.695393,36.196134],[138.692824,36.196289],[138.688836,36.200287],[138.689104,36.201084],[138.689258,36.201392],[138.689794,36.201688],[138.689833,36.202447],[138.689948,36.202794],[138.690689,36.203501],[138.690242,36.207846],[138.688644,36.211459],[138.688887,36.212821],[138.689053,36.213451],[138.689334,36.214171],[138.689922,36.215354],[138.689168,36.216627],[138.689232,36.217694],[138.692006,36.220805],[138.690255,36.221692],[138.686778,36.21817],[138.687558,36.21448],[138.685704,36.211086],[138.687903,36.207139],[138.688299,36.204966],[138.688286,36.204645],[138.685436,36.205918],[138.682177,36.206908],[138.679774,36.208515],[138.679429,36.208823],[138.679544,36.20962],[138.678726,36.211703],[138.678087,36.212256],[138.677166,36.21322],[138.676284,36.21223],[138.675581,36.211292],[138.675965,36.20674],[138.675083,36.204915],[138.673613,36.205146],[138.673115,36.208],[138.668258,36.208245],[138.667261,36.208797],[138.665842,36.207602],[138.66303,36.207306],[138.661381,36.20953],[138.661356,36.212359],[138.6543,36.212899],[138.654006,36.213914],[138.652997,36.214621],[138.652933,36.215148],[138.652715,36.215714],[138.651603,36.217822],[138.65191,36.220162],[138.652319,36.220818],[138.652741,36.221229],[138.653137,36.221975],[138.653291,36.222592],[138.653303,36.223068],[138.65361,36.223968],[138.649622,36.223955],[138.648958,36.223993],[138.648025,36.224212],[138.646606,36.224945],[138.645814,36.225446],[138.645085,36.225986],[138.646708,36.227786],[138.647705,36.22902],[138.643321,36.229239],[138.642861,36.229624],[138.639678,36.229869],[138.638707,36.231064],[138.637608,36.230807],[138.635371,36.230177],[138.63431,36.229753],[138.633761,36.229431],[138.633096,36.228943],[138.631396,36.227272],[138.628712,36.23046],[138.628405,36.233353],[138.624973,36.236264],[138.624322,36.24052],[138.623266,36.241637],[138.622518,36.240756],[138.622049,36.24045],[138.621711,36.240277],[138.620303,36.239728],[138.619391,36.239277],[138.619005,36.239159],[138.618108,36.238979],[138.61748,36.238916],[138.615119,36.238791],[138.613905,36.238882],[138.61241,36.239233],[138.612093,36.237905],[138.612153,36.232784]],[[138.669561,36.200827],[138.669203,36.201804],[138.668322,36.202627],[138.669229,36.203552],[138.668932,36.204214],[138.669763,36.205166],[138.670415,36.204433],[138.671233,36.203983],[138.671041,36.202749],[138.671526,36.201964],[138.671552,36.201746],[138.669763,36.200473],[138.669561,36.200827]]],[[[138.626732,36.267333],[138.627237,36.264061],[138.62606,36.256889],[138.627846,36.253434],[138.629182,36.255478],[138.630479,36.256333],[138.631073,36.256995],[138.631291,36.257104],[138.632125,36.257194],[138.63284,36.257618],[138.633889,36.257361],[138.634783,36.257387],[138.639615,36.256179],[138.639755,36.257927],[138.6378,36.258891],[138.637455,36.259714],[138.637493,36.260061],[138.637812,36.260472],[138.638311,36.26136],[138.643283,36.262632],[138.644189,36.264438],[138.641137,36.26431],[138.639529,36.263373],[138.638328,36.262381],[138.637383,36.262249],[138.636237,36.26202],[138.634329,36.263547],[138.633275,36.267903],[138.629607,36.268495],[138.626732,36.267333]]],[[[138.645291,36.099329],[138.646363,36.09927],[138.647896,36.09927],[138.649839,36.098859],[138.654134,36.09765],[138.65508,36.103153],[138.654134,36.117346],[138.653674,36.117886],[138.652728,36.11822],[138.64982,36.118336],[138.648069,36.118336],[138.646995,36.118529],[138.64533,36.119803],[138.645098,36.119632],[138.644214,36.119547],[138.643656,36.119145],[138.642699,36.118627],[138.641281,36.117667],[138.64032,36.117412],[138.64018,36.11735],[138.640165,36.117226],[138.640274,36.116979],[138.640545,36.116716],[138.64077,36.116414],[138.640986,36.116236],[138.641498,36.11615],[138.641645,36.116081],[138.641808,36.115856],[138.642002,36.115393],[138.64201,36.114596],[138.642049,36.114464],[138.642584,36.114007],[138.642793,36.113334],[138.642468,36.112785],[138.642235,36.112242],[138.642262,36.111996],[138.642448,36.111857],[138.643285,36.111593],[138.643401,36.111454],[138.644091,36.110928],[138.644927,36.110719],[138.645377,36.110525],[138.645981,36.109999],[138.646206,36.109937],[138.646345,36.109774],[138.646407,36.109573],[138.646386,36.109041],[138.646231,36.108646],[138.646231,36.108414],[138.646409,36.108127],[138.646363,36.107779],[138.646409,36.107407],[138.646766,36.107051],[138.647153,36.106811],[138.647564,36.106641],[138.647595,36.106587],[138.647618,36.106292],[138.647548,36.105921],[138.647316,36.105634],[138.646709,36.105031],[138.64629,36.104868],[138.645864,36.10452],[138.645143,36.103738],[138.644981,36.103413],[138.644973,36.102569],[138.645205,36.101811],[138.645469,36.100595],[138.645361,36.099605],[138.645291,36.099329]]],[[[138.74896,36.320694],[138.750992,36.316744],[138.751179,36.314738],[138.756141,36.31278],[138.756031,36.312138],[138.756866,36.310219],[138.757659,36.30933],[138.756969,36.30833],[138.756251,36.308761],[138.756327,36.306803],[138.757977,36.306206],[138.758115,36.305783],[138.758253,36.305012],[138.758453,36.303506],[138.761486,36.303971],[138.763211,36.304459],[138.761524,36.304305],[138.760374,36.307442],[138.760553,36.309679],[138.761192,36.311054],[138.76146,36.311774],[138.76031,36.314294],[138.757511,36.313767],[138.753766,36.316505],[138.752449,36.321005],[138.749548,36.321211],[138.74896,36.320694]]],[[[138.756141,36.28177],[138.756365,36.280784],[138.756889,36.276578],[138.760361,36.280046],[138.760467,36.28167],[138.756141,36.28177]]],[[[138.628817,36.215811],[138.630064,36.213188],[138.632236,36.213355],[138.633093,36.211465],[138.631763,36.210282],[138.632607,36.207621],[138.633604,36.20757],[138.635183,36.207649],[138.634885,36.20784],[138.634706,36.208034],[138.634563,36.208292],[138.634539,36.208535],[138.634444,36.208714],[138.634777,36.210348],[138.63486,36.211317],[138.635027,36.211805],[138.634586,36.212731],[138.634653,36.213095],[138.634661,36.213675],[138.63453,36.21389],[138.633664,36.214354],[138.633381,36.215303],[138.63321,36.21609],[138.633031,36.216316],[138.632758,36.216512],[138.631645,36.217227],[138.631442,36.217303],[138.630002,36.216633],[138.629668,36.216442],[138.629044,36.215938],[138.628817,36.215811]]],[[[138.525894,36.224758],[138.529835,36.222483],[138.530231,36.222213],[138.5311,36.221274],[138.533107,36.220657],[138.533656,36.220426],[138.534615,36.219924],[138.536877,36.219655],[138.538846,36.217906],[138.541632,36.21761],[138.547128,36.213574],[138.548441,36.21498],[138.551588,36.216396],[138.551919,36.218895],[138.551077,36.21909],[138.549341,36.219201],[138.54665,36.221249],[138.545076,36.222054],[138.544206,36.223296],[138.541494,36.223227],[138.54039,36.223831],[138.53814,36.22397],[138.537946,36.224803],[138.536559,36.225344],[138.53571,36.225754],[138.532522,36.225678],[138.530755,36.226289],[138.52974,36.226851],[138.528926,36.226726],[138.525894,36.224758]]],[[[138.536072,36.235982],[138.53364,36.232761],[138.537692,36.229779],[138.53905,36.228249],[138.541415,36.228043],[138.544859,36.227915],[138.54546,36.227773],[138.548259,36.22652],[138.551256,36.22884],[138.551506,36.229663],[138.554085,36.231202],[138.553889,36.231373],[138.547214,36.231553],[138.543498,36.233231],[138.540827,36.233616],[138.536072,36.235982]]],[[[138.576768,36.279673],[138.577111,36.27892],[138.580263,36.280597],[138.583293,36.279257],[138.585336,36.279805],[138.586579,36.279944],[138.587545,36.279778],[138.589498,36.279125],[138.592211,36.277917],[138.593425,36.277445],[138.593791,36.27739],[138.598843,36.277376],[138.599589,36.276855],[138.600707,36.275675],[138.601038,36.275189],[138.601687,36.273245],[138.601756,36.27269],[138.601707,36.27178],[138.60188,36.269351],[138.600969,36.268073],[138.600948,36.267858],[138.600996,36.267712],[138.601542,36.26674],[138.601597,36.266504],[138.601135,36.266046],[138.601107,36.264491],[138.603974,36.263683],[138.604312,36.264376],[138.604633,36.264846],[138.605253,36.26566],[138.605643,36.266037],[138.605912,36.266502],[138.605952,36.266795],[138.605775,36.267051],[138.605528,36.267251],[138.605035,36.267796],[138.604708,36.268238],[138.604364,36.268894],[138.604278,36.269005],[138.60398,36.269177],[138.603813,36.26955],[138.603836,36.27042],[138.603893,36.270732],[138.604008,36.270987],[138.604433,36.271513],[138.604553,36.271774],[138.604541,36.271886],[138.604375,36.272016],[138.603956,36.272132],[138.603618,36.272351],[138.603395,36.272607],[138.603079,36.273296],[138.603119,36.273491],[138.603491,36.274071],[138.603653,36.274711],[138.603642,36.274855],[138.602947,36.275389],[138.602631,36.275845],[138.602396,36.276073],[138.601851,36.276422],[138.601364,36.276846],[138.601054,36.277194],[138.600366,36.27819],[138.600336,36.2784],[138.600425,36.278453],[138.598895,36.280679],[138.598113,36.280702],[138.596426,36.28011],[138.594573,36.280252],[138.587792,36.282386],[138.584137,36.282566],[138.58268,36.282926],[138.581197,36.283208],[138.579715,36.283388],[138.579906,36.281911],[138.57923,36.281695],[138.578422,36.281098],[138.57807,36.28064],[138.577698,36.280251],[138.576768,36.279673]]],[[[138.589331,36.176354],[138.591032,36.173385],[138.593972,36.17336],[138.5958,36.174992],[138.597806,36.178901],[138.600235,36.180765],[138.602424,36.180218],[138.603957,36.181581],[138.605108,36.183227],[138.607964,36.184345],[138.609185,36.18619],[138.608993,36.187842],[138.607306,36.19006],[138.608795,36.193685],[138.611658,36.192978],[138.614716,36.192136],[138.617643,36.192265],[138.622027,36.192907],[138.624315,36.191789],[138.626156,36.190748],[138.62747,36.189941],[138.627337,36.190485],[138.627265,36.191422],[138.627091,36.191764],[138.625972,36.192891],[138.624815,36.193666],[138.624194,36.194169],[138.62331,36.196162],[138.622992,36.196631],[138.622821,36.196805],[138.622798,36.196928],[138.623375,36.197368],[138.623641,36.197725],[138.62384,36.198178],[138.624009,36.198375],[138.62466,36.198839],[138.625451,36.199733],[138.626403,36.200562],[138.626864,36.201026],[138.62727,36.201181],[138.627924,36.201286],[138.628166,36.20139],[138.628612,36.201684],[138.628882,36.201743],[138.629097,36.201874],[138.629271,36.202125],[138.629333,36.202738],[138.629396,36.202817],[138.630413,36.203505],[138.630705,36.203565],[138.631019,36.203692],[138.631277,36.203875],[138.631532,36.203926],[138.632211,36.203835],[138.632456,36.203892],[138.632866,36.204198],[138.63314,36.204556],[138.633923,36.204949],[138.634803,36.205597],[138.636707,36.204271],[138.636636,36.204513],[138.635834,36.205878],[138.635721,36.20616],[138.635972,36.206391],[138.636067,36.206546],[138.636047,36.206677],[138.635884,36.206935],[138.635753,36.207126],[138.635183,36.207649],[138.631396,36.205468],[138.629977,36.204568],[138.629153,36.204131],[138.625817,36.204279],[138.625031,36.202935],[138.623791,36.202762],[138.622379,36.200968],[138.620928,36.200447],[138.617886,36.201315],[138.617624,36.201277],[138.616774,36.200994],[138.615298,36.198628],[138.6168,36.197908],[138.618477,36.198262],[138.618976,36.197182],[138.620561,36.197413],[138.62097,36.196578],[138.620497,36.196102],[138.620305,36.195498],[138.619998,36.195176],[138.619295,36.194842],[138.617915,36.194482],[138.615844,36.194302],[138.614195,36.194289],[138.612534,36.194547],[138.610987,36.194598],[138.609824,36.194714],[138.609453,36.194804],[138.609019,36.195164],[138.608325,36.195504],[138.608057,36.195601],[138.607891,36.195581],[138.606523,36.194212],[138.606325,36.193872],[138.606204,36.193383],[138.604926,36.189854],[138.606811,36.187521],[138.606907,36.187283],[138.606977,36.187006],[138.606977,36.186769],[138.606542,36.185862],[138.60637,36.18538],[138.603679,36.184802],[138.602216,36.183162],[138.600292,36.182912],[138.595256,36.17991],[138.593525,36.177024],[138.590236,36.177374],[138.589628,36.176787],[138.589331,36.176354]]],[[[138.5933,36.149913],[138.5927,36.149615],[138.590134,36.14912],[138.590038,36.147056],[138.588044,36.145481],[138.589418,36.143784],[138.591125,36.142794],[138.592869,36.140615],[138.59464,36.139754],[138.595426,36.13942],[138.597707,36.137343],[138.600525,36.135196],[138.600736,36.135248],[138.601086,36.135505],[138.600767,36.135513],[138.600662,36.135627],[138.600295,36.136344],[138.599778,36.136844],[138.599587,36.137178],[138.599337,36.137447],[138.598122,36.138009],[138.598011,36.138143],[138.597329,36.13943],[138.597002,36.139907],[138.596716,36.140216],[138.595898,36.140937],[138.595788,36.141112],[138.595717,36.141332],[138.595788,36.141947],[138.595717,36.142285],[138.595542,36.142525],[138.594979,36.143083],[138.594297,36.144195],[138.594377,36.144362],[138.594533,36.144496],[138.595301,36.144887],[138.595446,36.145111],[138.595426,36.145897],[138.595486,36.146537],[138.595075,36.147264],[138.595103,36.147998],[138.595043,36.148177],[138.594799,36.148514],[138.593918,36.14912],[138.593651,36.149404],[138.5933,36.149913]]],[[[138.604771,36.257461],[138.602774,36.258007],[138.602556,36.257674],[138.602273,36.256334],[138.601887,36.255001],[138.600099,36.253818],[138.599847,36.253755],[138.59963,36.253755],[138.59904,36.253998],[138.598415,36.254748],[138.597221,36.256556],[138.59699,36.256633],[138.595803,36.256792],[138.595382,36.256907],[138.593401,36.257726],[138.592518,36.257979],[138.591651,36.258056],[138.590564,36.25808],[138.590285,36.258042],[138.589898,36.257931],[138.587564,36.256834],[138.587453,36.255501],[138.587936,36.255154],[138.589124,36.254432],[138.591153,36.254668],[138.592909,36.255633],[138.594607,36.254592],[138.592378,36.252571],[138.592309,36.250989],[138.593213,36.250739],[138.593261,36.249864],[138.593379,36.249683],[138.593786,36.24951],[138.594221,36.249482],[138.594849,36.24867],[138.595277,36.24851],[138.596138,36.248642],[138.597024,36.248344],[138.597873,36.247754],[138.597587,36.247455],[138.597528,36.247153],[138.597397,36.246983],[138.59661,36.246431],[138.596452,36.246202],[138.596396,36.245956],[138.596455,36.245813],[138.596645,36.245692],[138.597269,36.245539],[138.597563,36.245584],[138.598346,36.246219],[138.599509,36.246199],[138.599499,36.245768],[138.601842,36.244269],[138.602691,36.244223],[138.602946,36.24388],[138.603126,36.243758],[138.603547,36.243609],[138.60492,36.243311],[138.605251,36.2432],[138.605821,36.2428],[138.605883,36.242658],[138.605831,36.242533],[138.605044,36.241367],[138.604789,36.240898],[138.604634,36.240777],[138.604085,36.240621],[138.603012,36.240478],[138.602211,36.240312],[138.601314,36.239791],[138.600931,36.239506],[138.600827,36.239371],[138.600644,36.238885],[138.600558,36.238406],[138.601,36.237281],[138.601217,36.235289],[138.601654,36.234883],[138.602116,36.234619],[138.602413,36.234529],[138.603234,36.234716],[138.603655,36.234688],[138.604677,36.234397],[138.605312,36.234362],[138.60565,36.234279],[138.605988,36.234105],[138.606437,36.234001],[138.60772,36.234057],[138.608749,36.2333],[138.609839,36.233349],[138.610191,36.233543],[138.610488,36.233633],[138.611013,36.233515],[138.611599,36.233217],[138.612153,36.232784],[138.612093,36.237905],[138.612576,36.239971],[138.612589,36.240586],[138.612497,36.240918],[138.611664,36.241509],[138.611473,36.241704],[138.6113,36.242042],[138.611326,36.242547],[138.61128,36.242835],[138.611224,36.242939],[138.610804,36.243319],[138.61024,36.244044],[138.609386,36.244334],[138.608258,36.244552],[138.607851,36.244659],[138.607664,36.244757],[138.607477,36.24501],[138.607408,36.246075],[138.607306,36.246277],[138.605948,36.24678],[138.6052,36.246985],[138.603356,36.247642],[138.602745,36.24797],[138.60248,36.248247],[138.602194,36.248774],[138.602119,36.249053],[138.602115,36.24929],[138.602178,36.249501],[138.602424,36.249905],[138.603096,36.250699],[138.603136,36.25097],[138.603008,36.251455],[138.603064,36.251782],[138.603316,36.252301],[138.604118,36.253548],[138.604755,36.254129],[138.604838,36.254734],[138.604616,36.255674],[138.604611,36.255958],[138.604668,36.256126],[138.604984,36.256512],[138.605012,36.256791],[138.604949,36.256996],[138.604812,36.257191],[138.604771,36.257461]]],[[[138.616146,36.222891],[138.615496,36.221512],[138.615132,36.221281],[138.61733,36.217218],[138.618065,36.216145],[138.619656,36.214615],[138.620398,36.214062],[138.620845,36.21385],[138.621829,36.213541],[138.62288,36.213522],[138.624146,36.213612],[138.626319,36.214281],[138.627277,36.214486],[138.629146,36.215107],[138.628817,36.215811],[138.628376,36.215779],[138.627681,36.216081],[138.627471,36.216089],[138.627232,36.216061],[138.626481,36.215827],[138.625726,36.21529],[138.625106,36.214964],[138.623902,36.214578],[138.623175,36.214431],[138.62277,36.214467],[138.622245,36.214586],[138.621134,36.215812],[138.621042,36.216068],[138.621006,36.216459],[138.620868,36.216776],[138.620697,36.216869],[138.620494,36.216882],[138.620323,36.216978],[138.619733,36.21767],[138.619628,36.217881],[138.619404,36.218157],[138.618689,36.218661],[138.61841,36.21902],[138.618013,36.219238],[138.617876,36.219366],[138.617803,36.219595],[138.617787,36.219917],[138.61763,36.220479],[138.617665,36.221216],[138.61758,36.22169],[138.61698,36.222337],[138.616146,36.222891]]],[[[138.616362,36.180533],[138.615863,36.177165],[138.616464,36.17579],[138.618368,36.17426],[138.618803,36.173797],[138.618867,36.173347],[138.61888,36.17264],[138.620235,36.171611],[138.620847,36.171037],[138.621441,36.17123],[138.62186,36.171223],[138.6219,36.171075],[138.621983,36.171011],[138.622119,36.170713],[138.622471,36.170371],[138.622658,36.1703],[138.62286,36.170296],[138.623003,36.170356],[138.623437,36.170733],[138.623568,36.170789],[138.623898,36.170797],[138.624141,36.170731],[138.623737,36.174787],[138.62366,36.175057],[138.623507,36.175262],[138.621372,36.177024],[138.620976,36.178386],[138.619851,36.178476],[138.619659,36.178579],[138.619161,36.180263],[138.616362,36.180533]]],[[[138.617777,36.111149],[138.620416,36.113078],[138.620953,36.116549],[138.62273,36.118297],[138.623906,36.119596],[138.618672,36.1202],[138.617534,36.119313],[138.616486,36.118619],[138.613904,36.117462],[138.611348,36.115263],[138.613904,36.113309],[138.615515,36.111239],[138.617777,36.111149]]],[[[138.525894,36.224758],[138.528926,36.226726],[138.52974,36.226851],[138.530755,36.226289],[138.532522,36.225678],[138.53571,36.225754],[138.536559,36.225344],[138.537946,36.224803],[138.53814,36.22397],[138.54039,36.223831],[138.541494,36.223227],[138.544206,36.223296],[138.545076,36.222054],[138.54665,36.221249],[138.549341,36.219201],[138.551077,36.21909],[138.551919,36.218895],[138.551588,36.216396],[138.548441,36.21498],[138.547128,36.213574],[138.548406,36.212532],[138.550349,36.21072],[138.551001,36.210835],[138.551295,36.210951],[138.552739,36.214486],[138.553979,36.217238],[138.553558,36.220243],[138.547102,36.223405],[138.544406,36.22365],[138.540967,36.225707],[138.539101,36.225655],[138.536187,36.226658],[138.533247,36.226889],[138.531573,36.228008],[138.52919,36.229117],[138.528915,36.228872],[138.526895,36.228551],[138.525093,36.225221],[138.525894,36.224758]]],[[[138.531365,36.231055],[138.53542,36.229448],[138.536967,36.228882],[138.540354,36.227301],[138.543127,36.226979],[138.544303,36.226671],[138.54654,36.226336],[138.547115,36.225449],[138.549378,36.225694],[138.552305,36.224189],[138.554771,36.22283],[138.557417,36.224617],[138.557864,36.224437],[138.558631,36.22427],[138.560063,36.224116],[138.563731,36.224103],[138.567808,36.222689],[138.574621,36.224604],[138.576513,36.223151],[138.581817,36.222457],[138.583248,36.226648],[138.583402,36.226841],[138.583657,36.226957],[138.583926,36.226995],[138.584118,36.226957],[138.584808,36.225658],[138.586648,36.226854],[138.587722,36.226352],[138.587632,36.225967],[138.587223,36.224874],[138.587862,36.224424],[138.587747,36.222907],[138.588502,36.22238],[138.58808,36.220722],[138.590917,36.219783],[138.594317,36.219924],[138.597909,36.218549],[138.598829,36.218407],[138.59966,36.218395],[138.604849,36.220143],[138.603903,36.217842],[138.605552,36.216685],[138.605654,36.215052],[138.605833,36.214949],[138.606114,36.214923],[138.607571,36.216055],[138.607086,36.218099],[138.608236,36.218073],[138.611265,36.219552],[138.611853,36.218819],[138.610307,36.216813],[138.609578,36.215399],[138.611789,36.215245],[138.615176,36.211388],[138.615266,36.211234],[138.615125,36.210977],[138.613604,36.210565],[138.614601,36.20739],[138.613195,36.204729],[138.612684,36.203482],[138.612262,36.20064],[138.610332,36.200447],[138.610511,36.204343],[138.606702,36.200396],[138.606178,36.200293],[138.605859,36.200306],[138.603993,36.202337],[138.603354,36.202774],[138.598663,36.205333],[138.59796,36.206348],[138.596247,36.20505],[138.597615,36.203379],[138.597819,36.198879],[138.59773,36.197979],[138.597282,36.195048],[138.596158,36.194868],[138.595391,36.194675],[138.59447,36.194611],[138.59263,36.194341],[138.592144,36.194392],[138.591914,36.194534],[138.591543,36.194984],[138.591211,36.195151],[138.590138,36.195292],[138.589601,36.195446],[138.589166,36.195665],[138.588885,36.196038],[138.588885,36.196526],[138.588706,36.197092],[138.588297,36.197478],[138.587735,36.197773],[138.581024,36.191847],[138.577842,36.1906],[138.577573,36.189636],[138.577369,36.189263],[138.576615,36.188594],[138.576193,36.188491],[138.576014,36.188684],[138.575579,36.188826],[138.574749,36.188877],[138.574186,36.188697],[138.573854,36.188453],[138.573573,36.188337],[138.573253,36.188299],[138.572895,36.188376],[138.572691,36.188646],[138.572397,36.188723],[138.571451,36.188607],[138.570288,36.188363],[138.569572,36.188479],[138.569227,36.188491],[138.568818,36.188427],[138.570192,36.185727],[138.580136,36.179916],[138.577989,36.175417],[138.575094,36.168642],[138.57356,36.168076],[138.574825,36.162381],[138.575809,36.161828],[138.576985,36.161648],[138.577535,36.161378],[138.578148,36.160992],[138.579644,36.160928],[138.580289,36.160542],[138.582079,36.159334],[138.586092,36.15864],[138.587063,36.157225],[138.588163,36.154988],[138.580801,36.153857],[138.580928,36.152957],[138.581056,36.152443],[138.581491,36.151672],[138.582207,36.151389],[138.584149,36.150386],[138.584635,36.148715],[138.582539,36.1482],[138.583076,36.147121],[138.58351,36.145578],[138.58397,36.143418],[138.588316,36.139998],[138.592892,36.137504],[138.592176,36.13303],[138.593326,36.131539],[138.595013,36.13087],[138.59711,36.130176],[138.598873,36.129919],[138.600215,36.128878],[138.600509,36.127361],[138.602056,36.125689],[138.603526,36.126384],[138.61007,36.126602],[138.615592,36.124648],[138.618046,36.122565],[138.618582,36.120791],[138.618672,36.1202],[138.623906,36.119596],[138.62273,36.118297],[138.620953,36.116549],[138.620416,36.113078],[138.617777,36.111149],[138.619912,36.107267],[138.619694,36.103654],[138.621496,36.102201],[138.624053,36.104348],[138.627159,36.109799],[138.627862,36.110892],[138.630073,36.112846],[138.633128,36.110712],[138.634546,36.104965],[138.63516,36.101379],[138.636668,36.099476],[138.636962,36.098486],[138.637282,36.097121],[138.637476,36.097075],[138.638072,36.09668],[138.638414,36.096324],[138.638669,36.0962],[138.638901,36.096301],[138.639196,36.096533],[138.639847,36.096912],[138.640591,36.097238],[138.641381,36.097694],[138.643067,36.097994],[138.643617,36.098289],[138.644137,36.098327],[138.645183,36.098807],[138.645361,36.099605],[138.645469,36.100595],[138.645205,36.101811],[138.644973,36.102569],[138.644981,36.103413],[138.645143,36.103738],[138.645864,36.10452],[138.64629,36.104868],[138.646709,36.105031],[138.647316,36.105634],[138.647548,36.105921],[138.647618,36.106292],[138.647595,36.106587],[138.647564,36.106641],[138.647153,36.106811],[138.646766,36.107051],[138.646409,36.107407],[138.646363,36.107779],[138.646409,36.108127],[138.646231,36.108414],[138.646231,36.108646],[138.646386,36.109041],[138.646407,36.109573],[138.646345,36.109774],[138.646206,36.109937],[138.645981,36.109999],[138.645377,36.110525],[138.644927,36.110719],[138.644091,36.110928],[138.643401,36.111454],[138.643285,36.111593],[138.642448,36.111857],[138.642262,36.111996],[138.642235,36.112242],[138.642468,36.112785],[138.642793,36.113334],[138.642584,36.114007],[138.642049,36.114464],[138.64201,36.114596],[138.642002,36.115393],[138.641808,36.115856],[138.641645,36.116081],[138.641498,36.11615],[138.640986,36.116236],[138.64077,36.116414],[138.640545,36.116716],[138.640274,36.116979],[138.640165,36.117226],[138.64018,36.11735],[138.64032,36.117412],[138.641281,36.117667],[138.642699,36.118627],[138.643656,36.119145],[138.644214,36.119547],[138.645098,36.119632],[138.64533,36.119803],[138.645392,36.120012],[138.645377,36.120197],[138.645082,36.120639],[138.644974,36.120732],[138.644702,36.121235],[138.644493,36.121359],[138.644013,36.121366],[138.643078,36.121287],[138.642791,36.121472],[138.641698,36.121573],[138.641156,36.121542],[138.640939,36.121472],[138.640931,36.121534],[138.641172,36.121867],[138.64121,36.12203],[138.641164,36.122223],[138.641055,36.122393],[138.640792,36.122587],[138.640614,36.122649],[138.640149,36.122571],[138.639994,36.122657],[138.639939,36.122757],[138.639909,36.123168],[138.6398,36.123586],[138.639599,36.123764],[138.639195,36.123864],[138.638614,36.123849],[138.638119,36.123547],[138.637932,36.123501],[138.637568,36.123834],[138.637336,36.124344],[138.637388,36.124544],[138.63769,36.125147],[138.637713,36.125349],[138.637372,36.1261],[138.637341,36.126859],[138.637364,36.127052],[138.637635,36.127547],[138.637597,36.127865],[138.637527,36.128026],[138.637085,36.128622],[138.636674,36.129776],[138.636666,36.130488],[138.636511,36.131107],[138.635842,36.131927],[138.634618,36.133723],[138.634323,36.133947],[138.634091,36.133971],[138.633045,36.133436],[138.632309,36.133204],[138.631713,36.132911],[138.631279,36.132609],[138.63107,36.132555],[138.630194,36.133159],[138.630016,36.133352],[138.629575,36.133399],[138.628993,36.133135],[138.62835,36.13312],[138.627854,36.132981],[138.627374,36.132717],[138.626537,36.132833],[138.626258,36.132771],[138.625624,36.132381],[138.625113,36.132165],[138.624679,36.131886],[138.62447,36.131855],[138.623238,36.131987],[138.622478,36.131932],[138.621975,36.132017],[138.621653,36.132328],[138.621527,36.132487],[138.621331,36.132902],[138.62106,36.133664],[138.620829,36.133921],[138.620624,36.13401],[138.620172,36.134031],[138.618962,36.133689],[138.617903,36.133501],[138.616919,36.133163],[138.616598,36.133114],[138.616342,36.133159],[138.61579,36.133571],[138.615544,36.133835],[138.615167,36.134096],[138.61457,36.134291],[138.614114,36.134316],[138.613737,36.134279],[138.61329,36.134124],[138.612693,36.133526],[138.612307,36.133387],[138.612216,36.133424],[138.611579,36.134026],[138.611067,36.134429],[138.610113,36.135085],[138.609475,36.135444],[138.608432,36.135798],[138.607237,36.136091],[138.606263,36.136262],[138.605279,36.136295],[138.604471,36.136229],[138.603563,36.136083],[138.601086,36.135505],[138.600736,36.135248],[138.600525,36.135196],[138.597707,36.137343],[138.595426,36.13942],[138.59464,36.139754],[138.592869,36.140615],[138.591125,36.142794],[138.589418,36.143784],[138.588044,36.145481],[138.590038,36.147056],[138.590134,36.14912],[138.5927,36.149615],[138.5933,36.149913],[138.593162,36.15034],[138.593125,36.15096],[138.593305,36.152378],[138.5933,36.15307],[138.59324,36.153227],[138.592687,36.15362],[138.59165,36.154158],[138.590645,36.154757],[138.590557,36.155004],[138.590645,36.155509],[138.590622,36.155756],[138.590087,36.156848],[138.589898,36.157342],[138.589755,36.157559],[138.587827,36.159074],[138.587615,36.159321],[138.587574,36.159762],[138.587703,36.160507],[138.587684,36.160619],[138.587555,36.160776],[138.587076,36.160997],[138.58638,36.160974],[138.585882,36.160881],[138.584697,36.160447],[138.584384,36.160372],[138.583936,36.160349],[138.583577,36.160439],[138.583254,36.160648],[138.582424,36.161595],[138.58099,36.161771],[138.580783,36.161842],[138.580654,36.161943],[138.580266,36.162399],[138.580073,36.162781],[138.580068,36.163727],[138.580114,36.163922],[138.580252,36.16418],[138.58082,36.164763],[138.580852,36.164891],[138.58034,36.16541],[138.580239,36.165586],[138.580137,36.166207],[138.580174,36.166577],[138.580142,36.166611],[138.579888,36.166585],[138.579625,36.16666],[138.579473,36.166794],[138.57892,36.167513],[138.578666,36.167689],[138.578431,36.167744],[138.578187,36.167737],[138.577274,36.168074],[138.57773,36.16862],[138.578413,36.169604],[138.579038,36.170048],[138.579321,36.170319],[138.579361,36.170489],[138.579335,36.171309],[138.579445,36.171862],[138.579768,36.17298],[138.579959,36.173422],[138.580392,36.173896],[138.580629,36.174478],[138.580656,36.174754],[138.580553,36.175357],[138.580583,36.175742],[138.580766,36.175905],[138.581464,36.176026],[138.581624,36.176094],[138.581624,36.176392],[138.581518,36.176684],[138.581478,36.176958],[138.581321,36.177334],[138.581331,36.17744],[138.581448,36.17764],[138.581545,36.177716],[138.582976,36.178667],[138.58339,36.178832],[138.58347,36.17881],[138.58356,36.178672],[138.583714,36.177448],[138.583847,36.177288],[138.584048,36.177202],[138.584912,36.177102],[138.58585,36.177115],[138.586584,36.176972],[138.586798,36.176882],[138.587251,36.176855],[138.587381,36.176936],[138.587475,36.17715],[138.587936,36.177827],[138.588016,36.178209],[138.588012,36.178864],[138.588133,36.179002],[138.588503,36.179057],[138.589417,36.178962],[138.589571,36.178862],[138.589908,36.17848],[138.590582,36.177938],[138.590669,36.17783],[138.590652,36.177706],[138.590236,36.177374],[138.593525,36.177024],[138.595256,36.17991],[138.600292,36.182912],[138.602216,36.183162],[138.603679,36.184802],[138.60637,36.18538],[138.606542,36.185862],[138.606977,36.186769],[138.606977,36.187006],[138.606907,36.187283],[138.606811,36.187521],[138.604926,36.189854],[138.606204,36.193383],[138.606325,36.193872],[138.606523,36.194212],[138.607891,36.195581],[138.608057,36.195601],[138.608325,36.195504],[138.609019,36.195164],[138.609453,36.194804],[138.609824,36.194714],[138.610987,36.194598],[138.612534,36.194547],[138.614195,36.194289],[138.615844,36.194302],[138.617915,36.194482],[138.619295,36.194842],[138.619998,36.195176],[138.620305,36.195498],[138.620497,36.196102],[138.62097,36.196578],[138.620561,36.197413],[138.618976,36.197182],[138.618477,36.198262],[138.6168,36.197908],[138.615298,36.198628],[138.616774,36.200994],[138.617624,36.201277],[138.617886,36.201315],[138.620928,36.200447],[138.622379,36.200968],[138.623791,36.202762],[138.625031,36.202935],[138.625817,36.204279],[138.629153,36.204131],[138.629977,36.204568],[138.631396,36.205468],[138.635183,36.207649],[138.633604,36.20757],[138.632607,36.207621],[138.631763,36.210282],[138.633093,36.211465],[138.632236,36.213355],[138.630064,36.213188],[138.629146,36.215107],[138.627277,36.214486],[138.626319,36.214281],[138.624146,36.213612],[138.62288,36.213522],[138.621829,36.213541],[138.620845,36.21385],[138.620398,36.214062],[138.619656,36.214615],[138.618065,36.216145],[138.61733,36.217218],[138.615132,36.221281],[138.615496,36.221512],[138.616146,36.222891],[138.615769,36.22312],[138.615582,36.223306],[138.614735,36.224224],[138.614598,36.224482],[138.614581,36.224677],[138.614821,36.224983],[138.614985,36.225513],[138.614614,36.226535],[138.614627,36.227959],[138.614519,36.228069],[138.613971,36.228281],[138.612681,36.228907],[138.611871,36.229392],[138.611704,36.229618],[138.61171,36.229871],[138.612048,36.230818],[138.6121,36.231146],[138.612169,36.232088],[138.612153,36.232784],[138.611599,36.233217],[138.611013,36.233515],[138.610488,36.233633],[138.610191,36.233543],[138.609839,36.233349],[138.608749,36.2333],[138.60772,36.234057],[138.606437,36.234001],[138.605988,36.234105],[138.60565,36.234279],[138.605312,36.234362],[138.604677,36.234397],[138.603655,36.234688],[138.603234,36.234716],[138.602413,36.234529],[138.602116,36.234619],[138.601654,36.234883],[138.601217,36.235289],[138.601,36.237281],[138.600558,36.238406],[138.600644,36.238885],[138.600827,36.239371],[138.600931,36.239506],[138.601314,36.239791],[138.602211,36.240312],[138.603012,36.240478],[138.604085,36.240621],[138.604634,36.240777],[138.604789,36.240898],[138.605044,36.241367],[138.605831,36.242533],[138.605883,36.242658],[138.605821,36.2428],[138.605251,36.2432],[138.60492,36.243311],[138.603547,36.243609],[138.603126,36.243758],[138.602946,36.24388],[138.602691,36.244223],[138.601842,36.244269],[138.599499,36.245768],[138.599509,36.246199],[138.598346,36.246219],[138.597563,36.245584],[138.597269,36.245539],[138.596645,36.245692],[138.596455,36.245813],[138.596396,36.245956],[138.596452,36.246202],[138.59661,36.246431],[138.597397,36.246983],[138.597528,36.247153],[138.597587,36.247455],[138.597873,36.247754],[138.597024,36.248344],[138.596138,36.248642],[138.595277,36.24851],[138.594849,36.24867],[138.594221,36.249482],[138.593786,36.24951],[138.593379,36.249683],[138.593261,36.249864],[138.593213,36.250739],[138.592309,36.250989],[138.592378,36.252571],[138.594607,36.254592],[138.592909,36.255633],[138.591153,36.254668],[138.589124,36.254432],[138.587936,36.255154],[138.587453,36.255501],[138.587564,36.256834],[138.589898,36.257931],[138.590285,36.258042],[138.590564,36.25808],[138.591651,36.258056],[138.592518,36.257979],[138.593401,36.257726],[138.595382,36.256907],[138.595803,36.256792],[138.59699,36.256633],[138.597221,36.256556],[138.598415,36.254748],[138.59904,36.253998],[138.59963,36.253755],[138.599847,36.253755],[138.600099,36.253818],[138.601887,36.255001],[138.602273,36.256334],[138.602556,36.257674],[138.602774,36.258007],[138.604771,36.257461],[138.604829,36.258075],[138.604972,36.258606],[138.604986,36.259106],[138.604875,36.259359],[138.604307,36.259932],[138.604261,36.260192],[138.604358,36.261514],[138.604278,36.261714],[138.604123,36.261816],[138.60394,36.262058],[138.603825,36.262356],[138.603733,36.262831],[138.603796,36.263189],[138.603974,36.263683],[138.601107,36.264491],[138.601135,36.266046],[138.601597,36.266504],[138.601542,36.26674],[138.600996,36.267712],[138.600948,36.267858],[138.600969,36.268073],[138.60188,36.269351],[138.601707,36.27178],[138.601756,36.27269],[138.601687,36.273245],[138.601038,36.275189],[138.600707,36.275675],[138.599589,36.276855],[138.598843,36.277376],[138.593791,36.27739],[138.593425,36.277445],[138.592211,36.277917],[138.589498,36.279125],[138.588035,36.279632],[138.586944,36.279896],[138.586579,36.279944],[138.586123,36.279923],[138.585336,36.279805],[138.583293,36.279257],[138.580263,36.280597],[138.577111,36.27892],[138.576641,36.276549],[138.576078,36.274556],[138.576308,36.273682],[138.576589,36.273194],[138.577165,36.272949],[138.577561,36.272924],[138.580092,36.274569],[138.582226,36.274646],[138.582405,36.276048],[138.581894,36.277308],[138.58413,36.27795],[138.583721,36.276189],[138.583709,36.275958],[138.584041,36.274505],[138.587109,36.275276],[138.588118,36.274968],[138.588566,36.274955],[138.590662,36.275508],[138.591224,36.273335],[138.58932,36.272859],[138.588745,36.271612],[138.584923,36.272152],[138.58491,36.272769],[138.584731,36.272911],[138.583389,36.273399],[138.582648,36.273502],[138.58206,36.273515],[138.581267,36.273335],[138.580948,36.273155],[138.5799,36.272371],[138.57944,36.272358],[138.578967,36.272281],[138.578532,36.272127],[138.578162,36.271882],[138.57774,36.271265],[138.577305,36.271124],[138.577484,36.26773],[138.580092,36.267486],[138.579567,36.265223],[138.58183,36.262613],[138.58183,36.261405],[138.582571,36.258833],[138.584118,36.256249],[138.586214,36.254861],[138.58468,36.251943],[138.585383,36.248818],[138.585178,36.247019],[138.583645,36.246556],[138.583415,36.245142],[138.581178,36.243445],[138.581587,36.242313],[138.580756,36.240745],[138.581485,36.239446],[138.581779,36.239434],[138.583185,36.240243],[138.583836,36.240552],[138.584386,36.240539],[138.584961,36.240346],[138.585524,36.240076],[138.58707,36.239189],[138.589396,36.239305],[138.590048,36.237981],[138.590917,36.235332],[138.590444,36.235255],[138.589422,36.23496],[138.587671,36.234214],[138.585472,36.234317],[138.584501,36.234124],[138.583363,36.23406],[138.582482,36.234201],[138.581957,36.234343],[138.581024,36.234085],[138.577139,36.231733],[138.57411,36.230151],[138.571937,36.229393],[138.564728,36.227773],[138.560446,36.229612],[138.555871,36.229637],[138.554085,36.231202],[138.551506,36.229663],[138.551256,36.22884],[138.548259,36.22652],[138.54546,36.227773],[138.544859,36.227915],[138.541415,36.228043],[138.53905,36.228249],[138.537692,36.229779],[138.53364,36.232761],[138.536072,36.235982],[138.534768,36.236702],[138.532711,36.236599],[138.531365,36.231055]]],[[[138.576768,36.279673],[138.577698,36.280251],[138.57807,36.28064],[138.578422,36.281098],[138.57923,36.281695],[138.579906,36.281911],[138.579715,36.283388],[138.579542,36.283581],[138.579286,36.28443],[138.578928,36.284995],[138.578315,36.285587],[138.578149,36.286114],[138.578072,36.286667],[138.577957,36.287065],[138.577753,36.287322],[138.577344,36.287554],[138.577165,36.287952],[138.577088,36.288454],[138.574212,36.288415],[138.571451,36.288994],[138.568895,36.285201],[138.56993,36.283401],[138.570352,36.28155],[138.570761,36.280933],[138.57126,36.28047],[138.571809,36.280174],[138.572333,36.28011],[138.572666,36.279956],[138.573177,36.279622],[138.573739,36.279455],[138.575477,36.279442],[138.576768,36.279673]]],[[[138.589331,36.176354],[138.58905,36.175864],[138.588777,36.175247],[138.588763,36.175052],[138.58883,36.174778],[138.58866,36.174437],[138.588403,36.174074],[138.588209,36.173652],[138.588146,36.173324],[138.588293,36.172639],[138.588626,36.172087],[138.588727,36.171456],[138.588947,36.171109],[138.589033,36.170543],[138.589467,36.17034],[138.589663,36.169678],[138.589959,36.169387],[138.590152,36.169283],[138.591097,36.169031],[138.591424,36.168776],[138.591734,36.167991],[138.591983,36.167731],[138.592303,36.167562],[138.59266,36.166986],[138.592728,36.166941],[138.59297,36.166951],[138.593179,36.166901],[138.593503,36.166721],[138.593703,36.166477],[138.593771,36.166198],[138.594075,36.166017],[138.594271,36.16597],[138.594438,36.165678],[138.594565,36.165606],[138.595553,36.165824],[138.596479,36.165925],[138.596864,36.165851],[138.597057,36.165599],[138.597273,36.165487],[138.598209,36.165705],[138.598833,36.165689],[138.600743,36.16523],[138.601865,36.164829],[138.602018,36.1648],[138.602793,36.164848],[138.603499,36.164463],[138.603924,36.164344],[138.604536,36.164286],[138.60484,36.164198],[138.605042,36.163994],[138.605811,36.163492],[138.605928,36.163365],[138.606157,36.162912],[138.606795,36.16254],[138.607442,36.161999],[138.607622,36.161744],[138.607805,36.161651],[138.608341,36.16175],[138.609348,36.16145],[138.609545,36.161413],[138.609751,36.161476],[138.609773,36.16158],[138.609584,36.161736],[138.609146,36.162371],[138.608573,36.163652],[138.608498,36.164201],[138.608753,36.16475],[138.608681,36.165063],[138.608453,36.165387],[138.609341,36.165694],[138.60994,36.165957],[138.610597,36.166562],[138.611418,36.167434],[138.612546,36.168408],[138.613167,36.168732],[138.61353,36.168838],[138.614432,36.168976],[138.615943,36.169056],[138.617267,36.169347],[138.617578,36.169538],[138.617846,36.169896],[138.618772,36.170399],[138.620209,36.170877],[138.620847,36.171037],[138.620235,36.171611],[138.61888,36.17264],[138.617806,36.172743],[138.614585,36.17291],[138.610546,36.171393],[138.61006,36.171406],[138.608476,36.171688],[138.606635,36.173141],[138.608412,36.17552],[138.608808,36.179711],[138.609358,36.180032],[138.610597,36.180636],[138.612706,36.184005],[138.61286,36.184442],[138.612924,36.186717],[138.613154,36.187566],[138.613575,36.188543],[138.614036,36.189378],[138.613708,36.192395],[138.611658,36.192978],[138.608795,36.193685],[138.607306,36.19006],[138.608993,36.187842],[138.609185,36.18619],[138.607964,36.184345],[138.605108,36.183227],[138.603957,36.181581],[138.602424,36.180218],[138.600235,36.180765],[138.597806,36.178901],[138.5958,36.174992],[138.593972,36.17336],[138.591032,36.173385],[138.589331,36.176354]]],[[[138.598895,36.280679],[138.600425,36.278453],[138.60071,36.278539],[138.601547,36.278572],[138.602551,36.278814],[138.604019,36.279009],[138.604822,36.279051],[138.605459,36.279363],[138.60656,36.279572],[138.607179,36.279596],[138.607316,36.279698],[138.607598,36.280135],[138.607867,36.280307],[138.608555,36.28061],[138.609708,36.281629],[138.610041,36.281787],[138.61078,36.281922],[138.611016,36.281987],[138.611165,36.282081],[138.611228,36.282248],[138.611216,36.282504],[138.611285,36.282862],[138.611457,36.283374],[138.61187,36.283495],[138.612283,36.283746],[138.612375,36.283839],[138.612466,36.284086],[138.612489,36.284495],[138.612413,36.28503],[138.612306,36.285394],[138.612357,36.285594],[138.612509,36.285656],[138.612983,36.285687],[138.613338,36.285636],[138.613886,36.285663],[138.614388,36.285514],[138.6146,36.285524],[138.614778,36.285598],[138.614269,36.287554],[138.613617,36.289482],[138.611214,36.292195],[138.607968,36.293905],[138.606703,36.293982],[138.605987,36.292092],[138.605629,36.291462],[138.604619,36.290626],[138.603392,36.289701],[138.603111,36.289315],[138.602216,36.286898],[138.602229,36.286088],[138.602101,36.285227],[138.601807,36.284507],[138.601091,36.283028],[138.600913,36.281331],[138.600337,36.280637],[138.598895,36.280679]]],[[[138.616362,36.180533],[138.619161,36.180263],[138.619659,36.178579],[138.619851,36.178476],[138.620976,36.178386],[138.621372,36.177024],[138.623507,36.175262],[138.62366,36.175057],[138.623737,36.174787],[138.624141,36.170731],[138.625011,36.17063],[138.62551,36.17085],[138.62594,36.170945],[138.626091,36.171017],[138.626269,36.171204],[138.626905,36.171291],[138.627758,36.171216],[138.628155,36.171419],[138.628398,36.171693],[138.62876,36.17188],[138.628982,36.171931],[138.629638,36.172229],[138.630368,36.172349],[138.63067,36.172651],[138.630909,36.172782],[138.631155,36.172758],[138.63168,36.172341],[138.632085,36.172258],[138.632545,36.172348],[138.632831,36.172237],[138.632915,36.172122],[138.633093,36.172046],[138.633833,36.171895],[138.63429,36.171677],[138.634789,36.171163],[138.635902,36.170933],[138.636069,36.171257],[138.636145,36.171586],[138.636343,36.172067],[138.636363,36.172596],[138.636311,36.17279],[138.636348,36.173126],[138.636578,36.173436],[138.636813,36.173921],[138.636995,36.174385],[138.637105,36.174885],[138.63707,36.174981],[138.636748,36.175136],[138.636354,36.175489],[138.636116,36.175716],[138.63602,36.175886],[138.635948,36.176188],[138.635984,36.176923],[138.635896,36.17726],[138.635749,36.177518],[138.635343,36.177951],[138.634733,36.178422],[138.634403,36.178819],[138.634284,36.179137],[138.633362,36.179817],[138.632615,36.180297],[138.632352,36.180532],[138.63181,36.181142],[138.631515,36.181565],[138.631336,36.182252],[138.631205,36.182527],[138.631062,36.182674],[138.630541,36.182979],[138.629661,36.183204],[138.629455,36.183312],[138.629419,36.183467],[138.629546,36.183967],[138.629824,36.184702],[138.629852,36.184908],[138.629789,36.185368],[138.629403,36.186452],[138.628885,36.18688],[138.628642,36.187174],[138.628527,36.187392],[138.62838,36.187877],[138.627858,36.188829],[138.62747,36.189941],[138.626156,36.190748],[138.624315,36.191789],[138.622027,36.192907],[138.617643,36.192265],[138.617557,36.191243],[138.617384,36.186454],[138.617947,36.185965],[138.618059,36.185367],[138.618519,36.183747],[138.616994,36.183053],[138.616448,36.182481],[138.616362,36.180533]]],[[[138.52919,36.229117],[138.531573,36.228008],[138.533247,36.226889],[138.536187,36.226658],[138.539101,36.225655],[138.540967,36.225707],[138.544406,36.22365],[138.547102,36.223405],[138.553558,36.220243],[138.553455,36.220979],[138.554771,36.22283],[138.552305,36.224189],[138.549378,36.225694],[138.547115,36.225449],[138.54654,36.226336],[138.544303,36.226671],[138.543127,36.226979],[138.540354,36.227301],[138.536967,36.228882],[138.53542,36.229448],[138.531365,36.231055],[138.52919,36.229117]]],[[[138.613708,36.192395],[138.614036,36.189378],[138.613575,36.188543],[138.613154,36.187566],[138.612924,36.186717],[138.61286,36.184442],[138.612706,36.184005],[138.610597,36.180636],[138.609358,36.180032],[138.608808,36.179711],[138.608412,36.17552],[138.606635,36.173141],[138.608476,36.171688],[138.61006,36.171406],[138.610546,36.171393],[138.614585,36.17291],[138.617806,36.172743],[138.61888,36.17264],[138.618867,36.173347],[138.618803,36.173797],[138.618368,36.17426],[138.616464,36.17579],[138.615863,36.177165],[138.616362,36.180533],[138.616448,36.182481],[138.616994,36.183053],[138.618519,36.183747],[138.618059,36.185367],[138.617947,36.185965],[138.617384,36.186454],[138.617557,36.191243],[138.617643,36.192265],[138.614716,36.192136],[138.613708,36.192395]]]]}}]}
