{"type":"FeatureCollection","features":[{"type":"Feature","properties":{"potaRef":"JP-1425","nameJa":"Ibuki","nameEn":"Ibuki Prefectural Nature Park","authority":"環境省 生物多様性「見える化」マップ","boundaryStatus":"全国GIS候補・公開前検証待ち","boundarySource":"環境省 生物多様性「見える化」マップの自然公園区域を、POTA代表座標で一意に空間照合して加工","boundaryScaleNote":"区域は概要データであり、正確性は保証されない。POTA運用可否は公式情報で最終確認すること。","candidateMethod":"POTA representative point inside one public natural-park area","sourceParkKind":"都道府県立自然公園","sourceName":"Ibuki","sourceFeatureCount":1,"cautionMeters":75},"geometry":{"type":"MultiPolygon","coordinates":[[[[136.423118,35.51714],[136.422358,35.517413],[136.421976,35.517673],[136.421363,35.517669],[136.419563,35.516751],[136.418334,35.517197],[136.417485,35.517597],[136.416336,35.517098],[136.414958,35.516341],[136.412655,35.516184],[136.411347,35.515699],[136.410357,35.515525],[136.409501,35.515028],[136.408435,35.515251],[136.407968,35.515197],[136.406572,35.514763],[136.406741,35.513818],[136.405944,35.513399],[136.404702,35.513507],[136.404416,35.512909],[136.404336,35.512078],[136.403737,35.511414],[136.402496,35.512352],[136.402212,35.513209],[136.401642,35.51319],[136.400179,35.513717],[136.399965,35.513179],[136.400629,35.512349],[136.400489,35.511811],[136.399603,35.511451],[136.399695,35.510912],[136.399186,35.51073],[136.397589,35.510008],[136.396796,35.509105],[136.396949,35.508331],[136.396957,35.507436],[136.396305,35.507015],[136.394935,35.506915],[136.394051,35.506345],[136.39373,35.504856],[136.392322,35.504128],[136.389188,35.497982],[136.387835,35.496884],[136.387776,35.496232],[136.388283,35.495019],[136.387976,35.493634],[136.386933,35.492864],[136.386649,35.48907],[136.387044,35.488174],[136.389538,35.48664],[136.391643,35.485263],[136.392543,35.48565],[136.393482,35.485012],[136.393963,35.483489],[136.39493,35.482994],[136.395609,35.482116],[136.3976,35.481294],[136.398111,35.479724],[136.399956,35.475729],[136.40198,35.473663],[136.401426,35.471398],[136.401466,35.470205],[136.404421,35.469103],[136.407416,35.469166],[136.411834,35.468267],[136.413998,35.466703],[136.415464,35.466668],[136.418953,35.467596],[136.420336,35.466222],[136.420905,35.46458],[136.421125,35.462792],[136.420665,35.458974],[136.421262,35.457427],[136.421425,35.45564],[136.422043,35.454952],[136.423887,35.454105],[136.424448,35.453321],[136.425052,35.451059],[136.426119,35.449086],[136.426069,35.448179],[136.424885,35.446956],[136.423956,35.445777],[136.422672,35.443627],[136.421982,35.442574],[136.422172,35.440977],[136.4232,35.440053],[136.421956,35.439092],[136.421356,35.437776],[136.419511,35.435618],[136.418146,35.435085],[136.417105,35.434244],[136.415711,35.433735],[136.415437,35.431849],[136.416114,35.431138],[136.416178,35.430494],[136.418262,35.428909],[136.418794,35.428054],[136.418252,35.426763],[136.414532,35.424971],[136.411592,35.422309],[136.411711,35.418947],[136.414435,35.417366],[136.416073,35.415918],[136.418268,35.414858],[136.420244,35.413062],[136.420666,35.411514],[136.42241,35.408759],[136.422998,35.40819],[136.424549,35.407413],[136.424561,35.406053],[136.424219,35.405216],[136.425785,35.402841],[136.427393,35.402135],[136.427958,35.400946],[136.430385,35.399817],[136.4312,35.399941],[136.431264,35.399345],[136.432961,35.398497],[136.43349,35.397951],[136.434801,35.397935],[136.436553,35.397421],[136.436922,35.395229],[136.439055,35.394503],[136.440777,35.394132],[136.440911,35.392201],[136.441594,35.390688],[136.442383,35.390383],[136.44332,35.389816],[136.44443,35.389441],[136.446845,35.389684],[136.448134,35.388834],[136.448927,35.390599],[136.448926,35.391557],[136.449586,35.39261],[136.452368,35.394201],[136.454994,35.393668],[136.457935,35.393781],[136.460252,35.394362],[136.461562,35.395328],[136.463923,35.395127],[136.463917,35.395819],[136.463598,35.397355],[136.463865,35.39838],[136.464224,35.399028],[136.46378,35.399884],[136.464417,35.401183],[136.465273,35.40404],[136.466404,35.404572],[136.467577,35.40621],[136.46724,35.407274],[136.466811,35.409728],[136.46806,35.411855],[136.468701,35.411811],[136.469833,35.412319],[136.47047,35.412751],[136.470375,35.415377],[136.471267,35.414974],[136.472576,35.415148],[136.473571,35.414677],[136.477182,35.414817],[136.478091,35.415946],[136.480257,35.416361],[136.48059,35.416723],[136.481321,35.417259],[136.484181,35.415742],[136.485111,35.416105],[136.485839,35.416927],[136.485443,35.417909],[136.485819,35.41847],[136.485376,35.420025],[136.48618,35.420571],[136.486232,35.421334],[136.486576,35.421956],[136.486658,35.422672],[136.485776,35.423597],[136.484272,35.422205],[136.48375,35.421916],[136.48245,35.420645],[136.480239,35.420227],[136.478527,35.419502],[136.478375,35.420192],[136.477445,35.42157],[136.476982,35.423022],[136.475411,35.42609],[136.475438,35.428022],[136.473774,35.430159],[136.474403,35.431545],[136.47361,35.432304],[136.473674,35.43327],[136.471217,35.434377],[136.469325,35.434152],[136.468696,35.434386],[136.467193,35.436452],[136.466402,35.436853],[136.464701,35.436462],[136.463045,35.437573],[136.461441,35.437647],[136.462333,35.439036],[136.462005,35.441478],[136.461323,35.442857],[136.459046,35.444943],[136.45769,35.446771],[136.455421,35.447926],[136.452843,35.451035],[136.45308,35.453994],[136.451579,35.455559],[136.452769,35.459477],[136.449685,35.462059],[136.448962,35.461482],[136.447142,35.462926],[136.445624,35.466375],[136.4489,35.468469],[136.44862,35.470375],[136.449406,35.473814],[136.451414,35.474303],[136.45112,35.474516],[136.448582,35.474668],[136.448016,35.476119],[136.447705,35.478192],[136.445649,35.479921],[136.445634,35.481567],[136.445093,35.483447],[136.446023,35.483787],[136.445756,35.484262],[136.444325,35.48454],[136.443532,35.485155],[136.442428,35.484767],[136.442348,35.483956],[136.439591,35.482436],[136.438471,35.480569],[136.437273,35.480825],[136.4354,35.481648],[136.432611,35.48051],[136.432675,35.479867],[136.432006,35.479743],[136.431182,35.480573],[136.42808,35.478599],[136.428044,35.479361],[136.431923,35.482462],[136.426659,35.480975],[136.426009,35.481925],[136.43037,35.483311],[136.430595,35.484194],[136.431785,35.484726],[136.432846,35.486736],[136.43464,35.488273],[136.434074,35.489629],[136.433471,35.491748],[136.43123,35.494501],[136.431151,35.496718],[136.429642,35.499118],[136.42998,35.500455],[136.430557,35.504346],[136.429422,35.507225],[136.428813,35.510083],[136.427373,35.511243],[136.426203,35.514813],[136.424975,35.515115],[136.42397,35.516564],[136.423118,35.51714]]],[[[136.567509,35.417208],[136.567409,35.418925],[136.566709,35.418993],[136.566848,35.419853],[136.566177,35.420064],[136.562562,35.420356],[136.56001,35.418295],[136.559001,35.416835],[136.558955,35.415118],[136.559873,35.41319],[136.559885,35.411569],[136.559491,35.40973],[136.558664,35.407413],[136.558349,35.406787],[136.55859,35.405667],[136.558222,35.404354],[136.557647,35.403277],[136.557531,35.39927],[136.558095,35.398249],[136.558484,35.396915],[136.559713,35.396134],[136.561955,35.396313],[136.564643,35.399045],[136.564783,35.39988],[136.565737,35.400744],[136.568815,35.402094],[136.567906,35.402877],[136.569014,35.402787],[136.568871,35.406364],[136.568977,35.407819],[136.571179,35.409428],[136.571364,35.411909],[136.569675,35.411853],[136.569522,35.412854],[136.569808,35.413571],[136.568425,35.415424],[136.567106,35.416515],[136.568567,35.416021],[136.567509,35.417208]]]]}}]}
