{"type":"FeatureCollection","features":[{"type":"Feature","properties":{"potaRef":"JP-1097","nameJa":"Abukuma kogen chubu","nameEn":"Abukuma Kogen Chubu Prefectural Nature Park","authority":"環境省 生物多様性「見える化」マップ","boundaryStatus":"全国GIS候補・公開前検証待ち","boundarySource":"環境省 生物多様性「見える化」マップの自然公園区域を、POTA代表座標で一意に空間照合して加工","boundaryScaleNote":"区域は概要データであり、正確性は保証されない。POTA運用可否は公式情報で最終確認すること。","candidateMethod":"POTA representative point inside one public natural-park area","sourceParkKind":"都道府県立自然公園","sourceName":"Abukuma kogen chubu","sourceFeatureCount":1,"cautionMeters":75},"geometry":{"type":"MultiPolygon","coordinates":[[[[140.841522,37.484419],[140.841163,37.484619],[140.840876,37.484711],[140.840302,37.484763],[140.839979,37.484876],[140.83966,37.485157],[140.839498,37.485494],[140.839216,37.485691],[140.837922,37.486002],[140.836633,37.486062],[140.836573,37.485829],[140.836203,37.485323],[140.8361,37.485059],[140.836089,37.484699],[140.836383,37.483847],[140.834776,37.483453],[140.83341,37.483224],[140.83287,37.483226],[140.831829,37.483341],[140.831185,37.483308],[140.830828,37.483219],[140.830209,37.482835],[140.829603,37.482542],[140.829062,37.482346],[140.828438,37.482237],[140.828029,37.482101],[140.827273,37.481649],[140.826421,37.481259],[140.825333,37.480937],[140.823893,37.48093],[140.823748,37.480817],[140.823673,37.480673],[140.823581,37.479982],[140.823401,37.479816],[140.822969,37.479642],[140.821931,37.479435],[140.821076,37.479137],[140.820648,37.478889],[140.820436,37.478629],[140.820135,37.477776],[140.819528,37.47703],[140.819318,37.476855],[140.81892,37.476662],[140.818736,37.476517],[140.818611,37.475966],[140.818384,37.475654],[140.817992,37.475426],[140.817414,37.475203],[140.816383,37.47502],[140.816309,37.474421],[140.816023,37.473991],[140.815417,37.473329],[140.81509,37.47322],[140.814376,37.473294],[140.814156,37.473243],[140.814025,37.473156],[140.813905,37.472959],[140.813811,37.471248],[140.813689,37.470561],[140.813521,37.46861],[140.813321,37.467747],[140.813358,37.467211],[140.813466,37.466777],[140.81339,37.466723],[140.812838,37.466646],[140.812705,37.466551],[140.812876,37.466202],[140.813004,37.465685],[140.812799,37.465035],[140.812554,37.464578],[140.81249,37.464289],[140.812521,37.463943],[140.812847,37.463199],[140.812749,37.462373],[140.812754,37.461458],[140.813031,37.46071],[140.812935,37.460652],[140.811998,37.460831],[140.811636,37.460747],[140.811394,37.460566],[140.811208,37.460317],[140.810771,37.460168],[140.810491,37.459996],[140.810378,37.459854],[140.810267,37.459567],[140.809816,37.459278],[140.809731,37.459167],[140.809632,37.458878],[140.809682,37.458337],[140.809778,37.45799],[140.809925,37.457704],[140.810506,37.457316],[140.810822,37.457247],[140.811401,37.457266],[140.81148,37.457229],[140.811556,37.457083],[140.811579,37.456791],[140.811354,37.456394],[140.810957,37.456038],[140.810428,37.455681],[140.810337,37.45546],[140.810138,37.45524],[140.809939,37.454842],[140.809714,37.454651],[140.809149,37.454348],[140.808494,37.454136],[140.808032,37.454098],[140.807636,37.453871],[140.806632,37.453466],[140.806168,37.453093],[140.805957,37.452833],[140.805723,37.452641],[140.805636,37.45215],[140.805919,37.45189],[140.806105,37.45158],[140.806338,37.451461],[140.806559,37.450773],[140.80661,37.450492],[140.806569,37.449603],[140.806662,37.449434],[140.806718,37.448631],[140.806661,37.448398],[140.80607,37.447488],[140.805829,37.447279],[140.804752,37.44668],[140.804573,37.446509],[140.80458,37.446392],[140.804648,37.446326],[140.804904,37.446403],[140.805015,37.446346],[140.805056,37.446253],[140.805041,37.446085],[140.805219,37.445768],[140.806479,37.444827],[140.806768,37.444513],[140.807096,37.444258],[140.807736,37.443569],[140.807812,37.443426],[140.80777,37.443082],[140.807849,37.442655],[140.807846,37.442198],[140.807989,37.442026],[140.808469,37.441745],[140.808536,37.441568],[140.808504,37.441343],[140.808567,37.441253],[140.809094,37.441082],[140.809095,37.440915],[140.808652,37.440078],[140.808646,37.439451],[140.808577,37.439193],[140.808041,37.438534],[140.807966,37.438277],[140.808017,37.437929],[140.808145,37.437706],[140.808187,37.437506],[140.808005,37.43699],[140.808031,37.436566],[140.807823,37.436275],[140.808285,37.435786],[140.808262,37.435332],[140.808376,37.435109],[140.808515,37.435037],[140.809156,37.435163],[140.810377,37.435134],[140.810733,37.435225],[140.811671,37.435615],[140.812565,37.436166],[140.812774,37.43637],[140.812885,37.436683],[140.812991,37.436827],[140.813249,37.437014],[140.813493,37.43706],[140.81421,37.437088],[140.814353,37.437052],[140.814916,37.43648],[140.815034,37.436398],[140.815183,37.436371],[140.815399,37.436395],[140.816045,37.436595],[140.81662,37.436624],[140.816866,37.436749],[140.817147,37.436987],[140.817474,37.437064],[140.818189,37.437056],[140.818339,37.43698],[140.818621,37.436714],[140.818738,37.436671],[140.818869,37.436671],[140.819169,37.436797],[140.819229,37.436868],[140.819088,37.437208],[140.819097,37.43752],[140.819189,37.43767],[140.819659,37.437987],[140.820269,37.438243],[140.820691,37.4385],[140.821056,37.439071],[140.821634,37.439728],[140.821921,37.439951],[140.822313,37.440099],[140.822594,37.440122],[140.822921,37.440071],[140.823529,37.440221],[140.823882,37.44042],[140.823976,37.4407],[140.824144,37.44087],[140.824709,37.440857],[140.825432,37.441221],[140.825537,37.441367],[140.825516,37.441514],[140.825173,37.441879],[140.825077,37.442056],[140.825094,37.442228],[140.825244,37.44237],[140.82539,37.4424],[140.825747,37.442313],[140.826032,37.44232],[140.826293,37.442416],[140.826865,37.442477],[140.827224,37.442733],[140.82744,37.442818],[140.827864,37.442831],[140.828292,37.442922],[140.828869,37.442918],[140.829054,37.442967],[140.829206,37.443082],[140.829446,37.443432],[140.82966,37.443561],[140.829795,37.443493],[140.830043,37.443055],[140.830163,37.442951],[140.830629,37.442776],[140.831055,37.442509],[140.831281,37.442439],[140.83161,37.442477],[140.832031,37.442577],[140.832277,37.442864],[140.832424,37.443406],[140.83267,37.443611],[140.833027,37.443747],[140.833492,37.443817],[140.834174,37.444102],[140.834571,37.444185],[140.834861,37.444158],[140.835648,37.443895],[140.836007,37.443839],[140.836508,37.44384],[140.837902,37.444085],[140.838734,37.444164],[140.839738,37.444016],[140.840534,37.444036],[140.841494,37.444424],[140.842143,37.444848],[140.842546,37.445305],[140.84272,37.445679],[140.842926,37.445968],[140.843486,37.446409],[140.843875,37.446978],[140.843996,37.447482],[140.843978,37.447879],[140.843857,37.448095],[140.842993,37.449062],[140.842894,37.449267],[140.84289,37.449734],[140.843144,37.450061],[140.843438,37.450241],[140.843655,37.450245],[140.844254,37.450113],[140.844698,37.450193],[140.844904,37.450296],[140.844911,37.450355],[140.844738,37.45055],[140.844672,37.450917],[140.844698,37.45106],[140.844875,37.45127],[140.845341,37.451483],[140.845422,37.451586],[140.845364,37.451685],[140.844944,37.45184],[140.844695,37.451998],[140.84447,37.452196],[140.844147,37.452604],[140.844062,37.45289],[140.84414,37.453236],[140.844136,37.453471],[140.844316,37.453886],[140.845014,37.454676],[140.845416,37.455049],[140.84571,37.455114],[140.845845,37.455089],[140.84689,37.454434],[140.848116,37.454103],[140.848835,37.453675],[140.849187,37.453547],[140.851134,37.453072],[140.851304,37.453128],[140.851403,37.453642],[140.851269,37.454416],[140.851284,37.454613],[140.852669,37.454531],[140.852814,37.454448],[140.853583,37.453679],[140.853661,37.453242],[140.853776,37.452929],[140.854497,37.452416],[140.85491,37.451831],[140.855221,37.451937],[140.857557,37.45239],[140.859168,37.452858],[140.859377,37.452843],[140.859967,37.452528],[140.861353,37.452845],[140.861459,37.452842],[140.861646,37.452716],[140.861786,37.452681],[140.863401,37.453032],[140.864482,37.453343],[140.865446,37.453145],[140.865878,37.453148],[140.866767,37.45326],[140.866772,37.452863],[140.8666,37.452463],[140.866384,37.45163],[140.866028,37.451397],[140.865303,37.451182],[140.864904,37.450889],[140.86481,37.450685],[140.864807,37.450457],[140.864914,37.449944],[140.864835,37.449683],[140.864682,37.449449],[140.864637,37.448882],[140.864418,37.448652],[140.863841,37.448253],[140.863488,37.447822],[140.863245,37.447247],[140.86287,37.446792],[140.862806,37.446278],[140.862869,37.445933],[140.862845,37.445738],[140.862878,37.445618],[140.862947,37.445564],[140.864028,37.44568],[140.865068,37.445676],[140.865428,37.445731],[140.866431,37.446107],[140.867612,37.446207],[140.868048,37.446202],[140.868582,37.446109],[140.869196,37.44619],[140.869761,37.446379],[140.870272,37.446677],[140.870731,37.446767],[140.871988,37.446457],[140.874249,37.445629],[140.874893,37.445368],[140.875295,37.445123],[140.876651,37.444651],[140.877914,37.444288],[140.878274,37.444226],[140.878985,37.444324],[140.880131,37.444735],[140.880998,37.444811],[140.881356,37.444781],[140.882223,37.444694],[140.882727,37.444565],[140.883437,37.444208],[140.883914,37.444042],[140.884266,37.444059],[140.88491,37.444189],[140.885303,37.44416],[140.886093,37.443813],[140.886919,37.443723],[140.887608,37.443473],[140.888427,37.443354],[140.889356,37.443567],[140.890292,37.443932],[140.890689,37.44396],[140.890783,37.443904],[140.890862,37.443445],[140.891226,37.443044],[140.891368,37.442987],[140.891761,37.442962],[140.892882,37.443124],[140.893578,37.443134],[140.893763,37.443224],[140.894142,37.44356],[140.894935,37.444055],[140.89531,37.44411],[140.89586,37.444404],[140.896275,37.444481],[140.896465,37.44457],[140.896656,37.444709],[140.896891,37.44508],[140.897099,37.445313],[140.89753,37.446224],[140.898097,37.446709],[140.898391,37.446874],[140.898655,37.446874],[140.899769,37.44661],[140.899916,37.446617],[140.900411,37.446937],[140.901452,37.447353],[140.901701,37.447508],[140.901815,37.447621],[140.902276,37.448356],[140.902946,37.448989],[140.903151,37.449096],[140.904103,37.449056],[140.904628,37.449181],[140.905295,37.449238],[140.905935,37.449467],[140.906287,37.449713],[140.906416,37.449721],[140.906648,37.449666],[140.907089,37.449188],[140.907655,37.449151],[140.908089,37.449283],[140.908591,37.449695],[140.908712,37.449879],[140.908867,37.449945],[140.909554,37.449824],[140.910362,37.44982],[140.910436,37.449794],[140.910641,37.44946],[140.910833,37.449261],[140.911277,37.449123],[140.912004,37.449192],[140.912563,37.449159],[140.912813,37.448989],[140.913059,37.448901],[140.913349,37.448927],[140.914264,37.449181],[140.914466,37.449118],[140.914724,37.448957],[140.915513,37.448739],[140.915723,37.448734],[140.915904,37.448791],[140.916039,37.448875],[140.916539,37.44945],[140.916869,37.449991],[140.917615,37.450823],[140.917874,37.45125],[140.917972,37.451539],[140.917983,37.451963],[140.917908,37.452199],[140.917864,37.452597],[140.918203,37.452935],[140.918355,37.453186],[140.918662,37.453313],[140.919487,37.453277],[140.919847,37.453337],[140.920423,37.453563],[140.920745,37.453767],[140.920966,37.454052],[140.921256,37.454795],[140.921318,37.455056],[140.921299,37.45552],[140.921354,37.455689],[140.922898,37.456716],[140.923505,37.457231],[140.92357,37.457367],[140.923456,37.457572],[140.922461,37.458777],[140.921822,37.459809],[140.92156,37.460526],[140.921118,37.462233],[140.920943,37.462836],[140.92089,37.462891],[140.919332,37.463177],[140.91757,37.463627],[140.916281,37.46372],[140.915888,37.463865],[140.915734,37.464061],[140.915446,37.465163],[140.915378,37.466525],[140.915545,37.467273],[140.915833,37.46809],[140.915025,37.468248],[140.914343,37.468563],[140.913439,37.468837],[140.912836,37.469165],[140.912297,37.469369],[140.91197,37.469354],[140.911391,37.469103],[140.911035,37.469014],[140.910642,37.469067],[140.909346,37.469521],[140.909158,37.469719],[140.909021,37.470066],[140.908809,37.470183],[140.908691,37.47032],[140.90858,37.470948],[140.908124,37.471265],[140.907956,37.471499],[140.907894,37.471784],[140.907906,37.472324],[140.907797,37.472553],[140.907119,37.473127],[140.906614,37.473436],[140.906291,37.473498],[140.905324,37.473468],[140.904389,37.473648],[140.903886,37.473527],[140.903171,37.473522],[140.902635,37.473411],[140.901595,37.473296],[140.901195,37.473377],[140.900412,37.473675],[140.899651,37.47369],[140.899192,37.473789],[140.898679,37.474028],[140.897999,37.474048],[140.897463,37.473996],[140.896321,37.473677],[140.895593,37.473609],[140.893835,37.47292],[140.89352,37.472979],[140.892979,37.473172],[140.892511,37.473138],[140.892144,37.473185],[140.89147,37.473429],[140.891103,37.473442],[140.890861,37.473515],[140.890393,37.473772],[140.890093,37.473995],[140.889952,37.474195],[140.889885,37.474395],[140.889932,37.475113],[140.889848,37.475569],[140.888775,37.476032],[140.888303,37.476311],[140.888052,37.476593],[140.887832,37.476626],[140.887187,37.476552],[140.886832,37.476371],[140.886298,37.475853],[140.885875,37.475537],[140.885541,37.475139],[140.88522,37.474911],[140.884106,37.474629],[140.882572,37.473896],[140.882214,37.473779],[140.881851,37.47373],[140.880377,37.473762],[140.879948,37.473672],[140.879444,37.473453],[140.878579,37.47345],[140.878184,37.473366],[140.876937,37.472463],[140.875998,37.472104],[140.875568,37.471988],[140.875246,37.471811],[140.874327,37.470632],[140.873351,37.469661],[140.872996,37.469423],[140.871919,37.469105],[140.871185,37.468394],[140.870153,37.468792],[140.869291,37.468992],[140.868934,37.46914],[140.868727,37.469373],[140.868508,37.469772],[140.868363,37.469916],[140.868184,37.470035],[140.867864,37.470092],[140.867351,37.470771],[140.866716,37.471145],[140.866667,37.471398],[140.866517,37.471682],[140.865661,37.472307],[140.864515,37.472971],[140.863963,37.473452],[140.863709,37.473794],[140.863418,37.474794],[140.86339,37.475054],[140.863292,37.475201],[140.862786,37.475714],[140.860416,37.477773],[140.859228,37.478628],[140.858368,37.479629],[140.857505,37.48046],[140.857329,37.480528],[140.857075,37.480534],[140.856815,37.480464],[140.856457,37.480234],[140.856101,37.480225],[140.855814,37.48034],[140.855388,37.48072],[140.855133,37.480738],[140.854097,37.480298],[140.853341,37.480246],[140.852839,37.480157],[140.852014,37.479842],[140.851253,37.479429],[140.850633,37.47945],[140.849494,37.479391],[140.848926,37.480247],[140.848789,37.480564],[140.848781,37.480931],[140.848845,37.481105],[140.84888,37.481503],[140.848496,37.482051],[140.848271,37.482216],[140.847554,37.482477],[140.847293,37.482873],[140.847054,37.483108],[140.846508,37.483268],[140.846082,37.483477],[140.845657,37.48382],[140.845181,37.484361],[140.844855,37.48453],[140.844033,37.484647],[140.843348,37.484647],[140.84288,37.484593],[140.842031,37.484344],[140.841845,37.484338],[140.841522,37.484419]]],[[[140.702805,37.297],[140.702446,37.297516],[140.702283,37.298047],[140.69979,37.297784],[140.698887,37.297598],[140.695854,37.297115],[140.695242,37.296921],[140.692987,37.296913],[140.692233,37.296575],[140.691482,37.296436],[140.691016,37.296086],[140.690806,37.296112],[140.690416,37.296321],[140.690266,37.29634],[140.690155,37.296309],[140.690043,37.296168],[140.689904,37.295536],[140.689766,37.29543],[140.689408,37.295343],[140.689268,37.295358],[140.689009,37.295501],[140.688948,37.295648],[140.688893,37.296073],[140.688652,37.296212],[140.68733,37.296333],[140.68672,37.296188],[140.686366,37.296154],[140.684929,37.296383],[140.684746,37.296359],[140.684464,37.296126],[140.684255,37.296029],[140.683967,37.295975],[140.682568,37.295971],[140.682384,37.29599],[140.6821,37.296113],[140.681277,37.296859],[140.681104,37.296928],[140.680773,37.296951],[140.680632,37.296887],[140.679981,37.296312],[140.679951,37.29608],[140.679995,37.295679],[140.679957,37.295591],[140.679843,37.295518],[140.679714,37.295562],[140.679501,37.295914],[140.679414,37.295983],[140.678487,37.295875],[140.677876,37.296043],[140.677698,37.296047],[140.676556,37.295754],[140.675376,37.295321],[140.674762,37.294932],[140.674449,37.2948],[140.672768,37.294707],[140.671938,37.294264],[140.670693,37.293763],[140.670334,37.293697],[140.670333,37.293625],[140.670795,37.2933],[140.671376,37.293],[140.672911,37.292621],[140.674211,37.291982],[140.674857,37.291783],[140.675359,37.291435],[140.675477,37.291295],[140.675532,37.291147],[140.67554,37.290804],[140.67543,37.29029],[140.675431,37.28986],[140.675628,37.289637],[140.67571,37.289458],[140.675676,37.289207],[140.67548,37.288605],[140.676309,37.286746],[140.676515,37.286111],[140.676596,37.285345],[140.676711,37.284773],[140.676726,37.284207],[140.677601,37.283961],[140.679505,37.283662],[140.679967,37.283674],[140.680974,37.283951],[140.681871,37.284011],[140.682006,37.283933],[140.682272,37.283445],[140.682299,37.283302],[140.682125,37.283012],[140.681743,37.282606],[140.681548,37.282498],[140.681518,37.282384],[140.682574,37.280185],[140.683744,37.278094],[140.68408,37.277267],[140.684181,37.277203],[140.684513,37.277158],[140.685156,37.277221],[140.685332,37.277152],[140.685534,37.276951],[140.685556,37.276783],[140.685487,37.276706],[140.684905,37.276557],[140.683403,37.276408],[140.683258,37.276349],[140.683217,37.276233],[140.683262,37.276152],[140.684133,37.27524],[140.685452,37.274124],[140.685808,37.273883],[140.688209,37.274875],[140.689067,37.274765],[140.689534,37.274598],[140.690465,37.274193],[140.690885,37.273835],[140.691289,37.274318],[140.691548,37.274469],[140.691791,37.274541],[140.691946,37.274699],[140.692243,37.275909],[140.692516,37.276468],[140.693335,37.276845],[140.693751,37.277243],[140.693859,37.277756],[140.693708,37.279149],[140.693826,37.279902],[140.694318,37.281238],[140.694657,37.281616],[140.695364,37.282164],[140.695487,37.282673],[140.695618,37.282793],[140.695767,37.282871],[140.696331,37.282945],[140.696553,37.283049],[140.696741,37.283335],[140.697,37.283887],[140.698191,37.284656],[140.698901,37.285347],[140.699036,37.285721],[140.699117,37.286231],[140.698973,37.286834],[140.698709,37.287373],[140.698678,37.28772],[140.69876,37.288002],[140.699251,37.288778],[140.699306,37.289527],[140.69942,37.289801],[140.699643,37.290123],[140.699995,37.290497],[140.700385,37.290842],[140.701529,37.291703],[140.701705,37.291906],[140.702065,37.29213],[140.703347,37.29266],[140.703633,37.292885],[140.703839,37.293314],[140.704096,37.294742],[140.705161,37.295458],[140.705138,37.295545],[140.704836,37.295798],[140.70449,37.295986],[140.703804,37.296231],[140.70323,37.296744],[140.702805,37.297]]],[[[140.585366,37.311381],[140.584254,37.311439],[140.583655,37.31137],[140.583045,37.311371],[140.582795,37.311311],[140.581187,37.311187],[140.580434,37.311071],[140.580107,37.310938],[140.579463,37.310797],[140.579113,37.310663],[140.578572,37.310578],[140.578102,37.310599],[140.577494,37.310834],[140.576925,37.310835],[140.576177,37.311015],[140.575416,37.311032],[140.575281,37.310998],[140.575293,37.310912],[140.576214,37.3098],[140.576433,37.309666],[140.5769,37.309611],[140.577214,37.309259],[140.577414,37.308923],[140.577469,37.308656],[140.577478,37.308145],[140.577345,37.307492],[140.577915,37.306832],[140.577993,37.306317],[140.57788,37.30586],[140.577429,37.305425],[140.577431,37.305174],[140.57754,37.304888],[140.577853,37.304428],[140.578288,37.304032],[140.578938,37.303727],[140.579288,37.303746],[140.579542,37.303661],[140.580011,37.30335],[140.580475,37.302891],[140.580656,37.302777],[140.581776,37.302308],[140.582671,37.301848],[140.585145,37.300384],[140.585538,37.300215],[140.586396,37.300012],[140.587081,37.299973],[140.587445,37.30014],[140.587543,37.300259],[140.58758,37.300601],[140.587439,37.301059],[140.587279,37.302065],[140.587212,37.302915],[140.587105,37.303318],[140.586581,37.303939],[140.586595,37.30446],[140.58648,37.305059],[140.586489,37.305372],[140.586594,37.305544],[140.587343,37.306225],[140.587657,37.306724],[140.588289,37.307067],[140.588588,37.307782],[140.588934,37.30816],[140.589432,37.308453],[140.589511,37.308557],[140.589513,37.308706],[140.589435,37.308789],[140.588934,37.308673],[140.588503,37.308669],[140.588359,37.308725],[140.588065,37.309383],[140.587775,37.309696],[140.587802,37.309961],[140.588005,37.310384],[140.58797,37.310531],[140.587887,37.310589],[140.586553,37.311066],[140.58552,37.311301],[140.585366,37.311381]]],[[[140.582408,37.375377],[140.581225,37.375353],[140.580789,37.375049],[140.579974,37.374603],[140.579793,37.374576],[140.579513,37.374619],[140.579396,37.37458],[140.578973,37.374204],[140.578471,37.373659],[140.578153,37.373508],[140.577759,37.373223],[140.577221,37.37308],[140.576899,37.37294],[140.576857,37.372826],[140.576904,37.372425],[140.576883,37.37216],[140.576763,37.372053],[140.576478,37.371984],[140.576298,37.371877],[140.576256,37.371794],[140.576267,37.371508],[140.57609,37.371274],[140.576147,37.371074],[140.576479,37.370647],[140.576503,37.370539],[140.574521,37.369148],[140.574049,37.36896],[140.573477,37.368891],[140.573373,37.368264],[140.573364,37.367827],[140.572896,37.365027],[140.572822,37.36423],[140.572747,37.364017],[140.572147,37.364086],[140.570524,37.364842],[140.568834,37.36555],[140.568051,37.365762],[140.56773,37.365756],[140.567691,37.365698],[140.567799,37.36544],[140.568187,37.365066],[140.568194,37.364529],[140.56801,37.364297],[140.568034,37.364071],[140.568237,37.363609],[140.568628,37.363237],[140.568708,37.362665],[140.568768,37.36138],[140.568444,37.361066],[140.568719,37.360578],[140.568693,37.360322],[140.567732,37.359315],[140.567605,37.358425],[140.56716,37.357572],[140.567022,37.357429],[140.566522,37.357169],[140.566242,37.356908],[140.56614,37.356416],[140.565615,37.355301],[140.565353,37.355157],[140.564597,37.354963],[140.56424,37.35473],[140.564016,37.354331],[140.563755,37.354093],[140.563179,37.353292],[140.563001,37.35317],[140.562386,37.352926],[140.561968,37.3526],[140.561884,37.352459],[140.561825,37.352204],[140.562165,37.350947],[140.561683,37.350831],[140.561074,37.350772],[140.560827,37.35065],[140.560544,37.350393],[140.560327,37.349736],[140.560373,37.349108],[140.560347,37.348677],[140.560229,37.348363],[140.559827,37.347677],[140.559865,37.347529],[140.560304,37.347045],[140.560385,37.34679],[140.560347,37.346274],[140.560421,37.346016],[140.560758,37.345478],[140.561036,37.345191],[140.561573,37.345189],[140.561894,37.345043],[140.562724,37.345417],[140.562962,37.345446],[140.563006,37.345314],[140.562758,37.344682],[140.562723,37.344424],[140.56273,37.34416],[140.562799,37.344095],[140.563046,37.344175],[140.564082,37.34475],[140.564174,37.344852],[140.564099,37.345061],[140.564124,37.345142],[140.564369,37.345316],[140.564757,37.345422],[140.564881,37.345323],[140.564956,37.345179],[140.565011,37.344802],[140.565207,37.344435],[140.565528,37.344268],[140.565624,37.344273],[140.565799,37.344438],[140.565963,37.34486],[140.566302,37.345238],[140.566801,37.345361],[140.567455,37.34587],[140.567649,37.346562],[140.567799,37.346702],[140.568371,37.346933],[140.568424,37.347279],[140.568546,37.347453],[140.568659,37.347471],[140.569233,37.34731],[140.569628,37.346911],[140.569878,37.346849],[140.570024,37.346907],[140.570564,37.347577],[140.570693,37.347626],[140.570739,37.347516],[140.570738,37.346685],[140.570465,37.345937],[140.569992,37.345423],[140.569775,37.345052],[140.569207,37.34442],[140.569126,37.34428],[140.568997,37.343704],[140.568821,37.343536],[140.5685,37.343491],[140.568427,37.343416],[140.568433,37.341986],[140.568326,37.341727],[140.567981,37.341467],[140.567855,37.341129],[140.567656,37.340921],[140.567677,37.340775],[140.567832,37.340606],[140.568044,37.340579],[140.568903,37.34108],[140.569161,37.341157],[140.569333,37.341127],[140.569582,37.340383],[140.569569,37.34018],[140.569418,37.340097],[140.568799,37.340093],[140.568738,37.340016],[140.568746,37.339843],[140.568815,37.339669],[140.568954,37.339562],[140.569492,37.339417],[140.56964,37.339101],[140.569818,37.338907],[140.57021,37.338812],[140.57043,37.338899],[140.570743,37.339304],[140.570788,37.339959],[140.570663,37.34096],[140.570553,37.341162],[140.570339,37.341332],[140.569909,37.341476],[140.569647,37.341641],[140.569615,37.341788],[140.569702,37.342101],[140.569795,37.342193],[140.569902,37.342217],[140.570695,37.34202],[140.57087,37.341877],[140.570852,37.341454],[140.570948,37.341371],[140.571339,37.341273],[140.57167,37.341301],[140.571977,37.341484],[140.572059,37.341654],[140.572052,37.341801],[140.572125,37.341888],[140.572676,37.34172],[140.57297,37.341092],[140.572964,37.340966],[140.572863,37.340822],[140.572714,37.340704],[140.572531,37.340647],[140.571889,37.340704],[140.571738,37.340623],[140.571693,37.340538],[140.57171,37.34031],[140.571811,37.340194],[140.572288,37.340153],[140.57247,37.340095],[140.572567,37.339996],[140.572524,37.339828],[140.572132,37.339197],[140.572138,37.339107],[140.572288,37.338995],[140.572436,37.338982],[140.572756,37.33916],[140.573075,37.339254],[140.573714,37.339635],[140.57386,37.339662],[140.574112,37.339624],[140.574183,37.339402],[140.574154,37.339114],[140.574083,37.339],[140.573578,37.338486],[140.572831,37.338025],[140.57279,37.337938],[140.572815,37.337788],[140.572937,37.337682],[140.573413,37.337722],[140.574014,37.337624],[140.574621,37.337715],[140.574795,37.337574],[140.575,37.33709],[140.57509,37.337032],[140.575379,37.337091],[140.575594,37.33729],[140.576054,37.338378],[140.576157,37.338526],[140.576413,37.338634],[140.576729,37.338954],[140.577303,37.339384],[140.57798,37.3401],[140.578117,37.340131],[140.578696,37.340045],[140.579054,37.340104],[140.579279,37.340274],[140.57969,37.340827],[140.58008,37.340902],[140.580201,37.340865],[140.580306,37.340775],[140.580343,37.340598],[140.580303,37.340312],[140.579202,37.339219],[140.57848,37.338706],[140.577884,37.33804],[140.577249,37.337609],[140.577016,37.337241],[140.576787,37.337003],[140.576755,37.33689],[140.576789,37.336815],[140.576854,37.336804],[140.577096,37.336982],[140.577461,37.337491],[140.577959,37.337749],[140.579426,37.338041],[140.58049,37.338461],[140.581455,37.33864],[140.582465,37.33869],[140.583397,37.338577],[140.583689,37.338595],[140.58386,37.338666],[140.584686,37.339403],[140.585144,37.339664],[140.585507,37.339748],[140.586036,37.339708],[140.586577,37.339877],[140.587108,37.339975],[140.587544,37.339934],[140.587835,37.339958],[140.588001,37.340082],[140.588107,37.340255],[140.588234,37.340708],[140.5884,37.340818],[140.588664,37.340717],[140.588987,37.340201],[140.589264,37.339969],[140.589442,37.339882],[140.589619,37.339892],[140.590736,37.340423],[140.591164,37.340542],[140.591516,37.3407],[140.591651,37.34084],[140.591677,37.341129],[140.591759,37.341271],[140.591874,37.341321],[140.592218,37.341344],[140.591993,37.342148],[140.592358,37.342502],[140.592533,37.342761],[140.592682,37.342852],[140.59298,37.342852],[140.593371,37.342699],[140.594512,37.3428],[140.595299,37.342976],[140.595945,37.343542],[140.596196,37.343683],[140.59674,37.343731],[140.597453,37.34388],[140.59845,37.344012],[140.59949,37.344072],[140.60035,37.344012],[140.601502,37.343797],[140.602069,37.343497],[140.60319,37.342735],[140.603543,37.342586],[140.604156,37.342506],[140.604274,37.342254],[140.604443,37.342051],[140.605196,37.34162],[140.606281,37.34121],[140.606527,37.341187],[140.606635,37.341228],[140.60688,37.341607],[140.606919,37.342318],[140.606768,37.343462],[140.606956,37.344031],[140.607251,37.344611],[140.607113,37.346325],[140.606941,37.347445],[140.606517,37.347835],[140.606347,37.348124],[140.606368,37.348415],[140.606586,37.348757],[140.60667,37.349059],[140.606173,37.349846],[140.605745,37.3501],[140.605651,37.350583],[140.605548,37.350591],[140.605366,37.350441],[140.605262,37.350416],[140.605152,37.350459],[140.605055,37.350583],[140.605078,37.350781],[140.605289,37.35124],[140.605265,37.35147],[140.605185,37.351553],[140.604789,37.351868],[140.604645,37.351925],[140.604505,37.351887],[140.604101,37.35162],[140.603936,37.351619],[140.603746,37.351776],[140.603699,37.352003],[140.603632,37.352087],[140.603493,37.352167],[140.602746,37.352323],[140.602552,37.352485],[140.602571,37.352602],[140.602668,37.352689],[140.603383,37.352924],[140.603573,37.353059],[140.6036,37.353265],[140.603524,37.353464],[140.603522,37.353665],[140.603669,37.354037],[140.603592,37.354354],[140.603268,37.354578],[140.603016,37.354661],[140.602624,37.354672],[140.60255,37.354716],[140.602507,37.354834],[140.602547,37.354949],[140.602798,37.355181],[140.602862,37.355323],[140.602829,37.355461],[140.602639,37.355687],[140.602692,37.355864],[140.602797,37.355945],[140.604295,37.356335],[140.604653,37.356503],[140.604695,37.356584],[140.604735,37.358152],[140.605182,37.358336],[140.605859,37.358995],[140.606498,37.359422],[140.606549,37.359541],[140.60592,37.359852],[140.605602,37.360077],[140.605196,37.360442],[140.604675,37.360821],[140.60428,37.361288],[140.603949,37.361335],[140.603449,37.361243],[140.603095,37.361385],[140.603112,37.361474],[140.603495,37.361956],[140.603703,37.362444],[140.604009,37.362793],[140.603902,37.362961],[140.603764,37.363023],[140.603367,37.36308],[140.602907,37.363006],[140.602544,37.36288],[140.601822,37.363012],[140.601757,37.363098],[140.601718,37.363328],[140.601717,37.36367],[140.601787,37.363787],[140.602074,37.363985],[140.602167,37.364104],[140.60209,37.364618],[140.602211,37.365017],[140.60214,37.365072],[140.601917,37.365058],[140.601033,37.36526],[140.600879,37.364986],[140.600456,37.364701],[140.600214,37.364464],[140.600166,37.364295],[140.600237,37.364064],[140.600176,37.36399],[140.597089,37.363391],[140.59595,37.363602],[140.595727,37.363704],[140.595648,37.36379],[140.595582,37.36408],[140.595885,37.365255],[140.595637,37.365732],[140.595541,37.365715],[140.595075,37.365339],[140.594935,37.365303],[140.592781,37.365383],[140.591596,37.365526],[140.591573,37.365573],[140.591665,37.365671],[140.592066,37.365946],[140.59274,37.36653],[140.592916,37.366619],[140.593739,37.366582],[140.59396,37.366537],[140.594433,37.366315],[140.594566,37.366334],[140.594608,37.366419],[140.594593,37.366561],[140.594225,37.367445],[140.593986,37.367671],[140.593671,37.367778],[140.592259,37.36778],[140.589927,37.36863],[140.58925,37.368516],[140.58767,37.368823],[140.587384,37.368941],[140.587125,37.369282],[140.586943,37.369653],[140.58599,37.370801],[140.585501,37.37125],[140.585472,37.371338],[140.585503,37.371703],[140.585439,37.372225],[140.585656,37.372823],[140.585826,37.373027],[140.585957,37.373344],[140.585812,37.373972],[140.585931,37.374402],[140.585894,37.374458],[140.585707,37.374544],[140.585203,37.374538],[140.584702,37.374624],[140.584052,37.374816],[140.58359,37.375139],[140.582945,37.375196],[140.582682,37.375322],[140.582408,37.375377]]],[[[140.692703,37.376223],[140.692122,37.376409],[140.691078,37.376917],[140.689641,37.377715],[140.689344,37.377807],[140.689106,37.377666],[140.688854,37.37735],[140.688466,37.377032],[140.687567,37.376495],[140.686464,37.376136],[140.685787,37.37573],[140.684923,37.375506],[140.684494,37.375248],[140.684024,37.375055],[140.683096,37.374875],[140.682705,37.374726],[140.681743,37.37378],[140.681334,37.373472],[140.680882,37.372951],[140.680702,37.372811],[140.680523,37.37275],[140.680243,37.372785],[140.680026,37.372868],[140.67941,37.373374],[140.678838,37.373404],[140.678443,37.373488],[140.677507,37.374112],[140.676824,37.374397],[140.676602,37.374653],[140.67647,37.375029],[140.676174,37.375283],[140.675747,37.375398],[140.675177,37.37536],[140.676068,37.374907],[140.676292,37.374454],[140.676895,37.374025],[140.677515,37.373114],[140.677692,37.372541],[140.678045,37.371881],[140.678379,37.371571],[140.678277,37.371169],[140.677568,37.369565],[140.677279,37.368594],[140.67728,37.368277],[140.677408,37.367386],[140.677393,37.367164],[140.677501,37.366675],[140.677583,37.365877],[140.677794,37.365504],[140.677803,37.365245],[140.677582,37.364847],[140.677304,37.363986],[140.676769,37.362896],[140.676803,37.362755],[140.677029,37.362416],[140.677054,37.362185],[140.67702,37.362067],[140.676953,37.362013],[140.67674,37.36202],[140.67627,37.362099],[140.675953,37.362027],[140.675343,37.361464],[140.674517,37.360865],[140.674368,37.360906],[140.674049,37.361144],[140.673854,37.361371],[140.673871,37.361516],[140.674128,37.361717],[140.674223,37.361864],[140.674145,37.362027],[140.673941,37.362086],[140.673617,37.361976],[140.673405,37.361977],[140.672396,37.362368],[140.671963,37.36235],[140.671676,37.362125],[140.671184,37.362083],[140.670927,37.362129],[140.670538,37.362315],[140.670355,37.362341],[140.670246,37.362307],[140.670102,37.36217],[140.670145,37.361966],[140.670689,37.361677],[140.668562,37.362215],[140.668138,37.362209],[140.667221,37.362052],[140.666118,37.363812],[140.665792,37.364183],[140.665395,37.364528],[140.664963,37.3647],[140.664319,37.364858],[140.662603,37.364829],[140.662316,37.364865],[140.661954,37.364781],[140.661425,37.364451],[140.660671,37.363913],[140.660283,37.363537],[140.659886,37.362709],[140.659784,37.362221],[140.659716,37.361477],[140.659617,37.361246],[140.659397,37.36099],[140.65879,37.36061],[140.658106,37.360071],[140.658363,37.359815],[140.658499,37.35979],[140.660262,37.360838],[140.660903,37.360989],[140.661149,37.361116],[140.661256,37.361136],[140.661344,37.361086],[140.661496,37.360655],[140.66144,37.360457],[140.660557,37.358128],[140.660189,37.357325],[140.660005,37.356786],[140.659997,37.356725],[140.660082,37.356613],[140.661107,37.355504],[140.662072,37.354588],[140.664987,37.352626],[140.665669,37.352027],[140.665966,37.351957],[140.666574,37.35164],[140.666787,37.35158],[140.668503,37.351409],[140.669548,37.351012],[140.670012,37.350665],[140.670324,37.350202],[140.670689,37.349892],[140.670871,37.349091],[140.671192,37.348662],[140.671311,37.348322],[140.671476,37.348091],[140.671425,37.348014],[140.670705,37.347579],[140.668667,37.346596],[140.669318,37.345084],[140.669644,37.344484],[140.670413,37.343747],[140.670643,37.343426],[140.670765,37.343029],[140.670722,37.342773],[140.670871,37.34263],[140.671187,37.342456],[140.671304,37.342315],[140.671345,37.342143],[140.671288,37.341891],[140.671124,37.341685],[140.670446,37.341169],[140.669126,37.339992],[140.66852,37.33899],[140.668484,37.338818],[140.668515,37.338355],[140.668567,37.338276],[140.668667,37.338242],[140.668988,37.338338],[140.670418,37.339029],[140.670745,37.339134],[140.67121,37.339141],[140.671538,37.339092],[140.671948,37.33888],[140.672599,37.339327],[140.673,37.3394],[140.673276,37.339522],[140.673348,37.339801],[140.67332,37.339947],[140.673381,37.340032],[140.673575,37.340047],[140.673933,37.339787],[140.674178,37.339762],[140.674397,37.339835],[140.675319,37.340668],[140.67624,37.341652],[140.676813,37.342391],[140.676866,37.342673],[140.67682,37.343101],[140.676226,37.346019],[140.676247,37.346128],[140.676416,37.346264],[140.677772,37.345907],[140.678883,37.345277],[140.67936,37.345276],[140.679455,37.345255],[140.679562,37.345137],[140.679681,37.344857],[140.679753,37.344284],[140.679721,37.343126],[140.679777,37.342767],[140.679875,37.342485],[140.680288,37.34185],[140.680373,37.341568],[140.680362,37.34117],[140.68011,37.340623],[140.680126,37.340541],[140.680884,37.340227],[140.681013,37.340282],[140.681152,37.340485],[140.681521,37.340798],[140.681949,37.341087],[140.68291,37.341528],[140.684088,37.341964],[140.68549,37.342356],[140.686594,37.342536],[140.687247,37.342561],[140.687959,37.342495],[140.688394,37.342363],[140.688748,37.342155],[140.689079,37.34182],[140.689664,37.34111],[140.690058,37.340078],[140.690157,37.339961],[140.691487,37.339509],[140.692351,37.33903],[140.693138,37.338481],[140.693391,37.338368],[140.69353,37.338358],[140.69363,37.338545],[140.693747,37.339371],[140.693772,37.340371],[140.693681,37.340692],[140.693508,37.340997],[140.692807,37.341488],[140.692789,37.342007],[140.692825,37.342079],[140.693206,37.341942],[140.693302,37.342],[140.693307,37.342087],[140.693245,37.342207],[140.693019,37.342403],[140.692828,37.342656],[140.692773,37.342805],[140.692755,37.343149],[140.692804,37.343174],[140.69294,37.343144],[140.694527,37.34233],[140.694741,37.342093],[140.694793,37.341856],[140.694853,37.341776],[140.694959,37.341797],[140.6952,37.342156],[140.695274,37.342186],[140.695378,37.342154],[140.6961,37.34155],[140.69887,37.339615],[140.69904,37.339438],[140.698862,37.339197],[140.698796,37.338983],[140.699248,37.338216],[140.699243,37.338068],[140.699014,37.337845],[140.698123,37.337211],[140.697185,37.33661],[140.697154,37.336067],[140.697233,37.335518],[140.697181,37.33517],[140.697028,37.334801],[140.69663,37.334344],[140.696556,37.334169],[140.696602,37.334066],[140.696881,37.333966],[140.69702,37.333858],[140.697209,37.333287],[140.69746,37.332916],[140.697605,37.332861],[140.697896,37.332863],[140.698004,37.332777],[140.697883,37.332519],[140.697678,37.332343],[140.696783,37.332083],[140.696689,37.332],[140.696736,37.331882],[140.697099,37.331453],[140.697324,37.331053],[140.697503,37.330968],[140.697822,37.33098],[140.69815,37.331087],[140.698361,37.331261],[140.699012,37.331038],[140.69924,37.330887],[140.699014,37.330314],[140.699079,37.330193],[140.699225,37.33013],[140.700162,37.330796],[140.700549,37.33078],[140.700984,37.330974],[140.701166,37.330992],[140.70129,37.330896],[140.701254,37.330672],[140.701287,37.330572],[140.701486,37.330469],[140.701769,37.330468],[140.70192,37.330422],[140.702179,37.330185],[140.702249,37.330038],[140.702275,37.329751],[140.702343,37.329697],[140.703347,37.329644],[140.704136,37.329984],[140.705209,37.329935],[140.705636,37.330055],[140.706029,37.330256],[140.706365,37.33024],[140.706498,37.330282],[140.706811,37.330654],[140.706934,37.330877],[140.707063,37.331997],[140.70756,37.333056],[140.707638,37.333342],[140.707593,37.333743],[140.70777,37.334059],[140.709024,37.335462],[140.709527,37.33632],[140.711099,37.338153],[140.711451,37.338467],[140.713234,37.33982],[140.713943,37.34029],[140.716304,37.341695],[140.718199,37.342985],[140.719238,37.343555],[140.720526,37.344669],[140.720811,37.344735],[140.721349,37.344702],[140.721637,37.344817],[140.721775,37.344963],[140.722018,37.345623],[140.72217,37.345787],[140.724209,37.346597],[140.724741,37.347001],[140.725089,37.347376],[140.725216,37.34757],[140.725404,37.348398],[140.725495,37.349288],[140.725662,37.349978],[140.725796,37.350123],[140.726428,37.350575],[140.726887,37.351351],[140.727383,37.351637],[140.727626,37.351871],[140.727761,37.352131],[140.727822,37.352524],[140.728063,37.352669],[140.728229,37.352871],[140.72877,37.353022],[140.729277,37.353361],[140.729235,37.353532],[140.729026,37.353572],[140.728879,37.353533],[140.728594,37.353322],[140.728487,37.353309],[140.728366,37.353384],[140.728361,37.353564],[140.728558,37.353904],[140.728669,37.354228],[140.728836,37.354363],[140.729732,37.354848],[140.729803,37.354965],[140.729936,37.355454],[140.730293,37.356055],[140.730656,37.356597],[140.731352,37.357365],[140.731062,37.357402],[140.729438,37.35715],[140.726639,37.356626],[140.72521,37.356245],[140.725001,37.356248],[140.724851,37.356324],[140.724279,37.356869],[140.723676,37.357338],[140.72148,37.357893],[140.721258,37.357998],[140.721112,37.358116],[140.720961,37.358372],[140.720898,37.358747],[140.720683,37.359061],[140.720296,37.359358],[140.719285,37.359945],[140.718713,37.360521],[140.718537,37.360615],[140.716952,37.360654],[140.714266,37.360881],[140.71351,37.361017],[140.712861,37.361209],[140.712178,37.361291],[140.71168,37.361441],[140.71093,37.361413],[140.709959,37.361218],[140.709388,37.360929],[140.708892,37.360602],[140.708313,37.360414],[140.706562,37.360228],[140.703866,37.360059],[140.702332,37.359884],[140.702619,37.360247],[140.70267,37.360749],[140.702771,37.361083],[140.703632,37.362184],[140.703857,37.362638],[140.704328,37.363343],[140.704455,37.363477],[140.704758,37.363591],[140.706382,37.364678],[140.70679,37.365153],[140.70679,37.365436],[140.706741,37.365606],[140.706405,37.366081],[140.705773,37.366628],[140.704823,37.367283],[140.703745,37.367865],[140.703264,37.368056],[140.701644,37.368846],[140.700694,37.369018],[140.699528,37.369069],[140.69923,37.369179],[140.699045,37.369397],[140.699009,37.369509],[140.699235,37.370923],[140.699718,37.372168],[140.699806,37.372636],[140.699776,37.372944],[140.699707,37.373062],[140.699528,37.373155],[140.699087,37.373252],[140.698943,37.373367],[140.698899,37.37348],[140.698869,37.374286],[140.698966,37.374747],[140.699145,37.375176],[140.699152,37.375345],[140.699085,37.375429],[140.696425,37.376078],[140.693415,37.376157],[140.692703,37.376223]]],[[[140.758825,37.502178],[140.7584,37.502388],[140.757494,37.502634],[140.7571,37.502696],[140.75674,37.502608],[140.756165,37.502181],[140.75595,37.502095],[140.755516,37.502105],[140.755052,37.502287],[140.754797,37.502238],[140.754548,37.501973],[140.754533,37.501629],[140.754482,37.501551],[140.753805,37.501419],[140.752792,37.501061],[140.752437,37.500853],[140.752233,37.500533],[140.751823,37.499423],[140.751666,37.499181],[140.751526,37.499037],[140.751472,37.499363],[140.75129,37.499501],[140.75108,37.499497],[140.75098,37.499443],[140.750687,37.499016],[140.750247,37.498561],[140.750159,37.498355],[140.750109,37.497873],[140.750003,37.497731],[140.749574,37.497686],[140.748969,37.497723],[140.748332,37.497611],[140.747999,37.49752],[140.746852,37.497063],[140.745838,37.495835],[140.744171,37.493624],[140.743917,37.493367],[140.743131,37.492735],[140.741088,37.491302],[140.740552,37.490843],[140.740268,37.490664],[140.739946,37.49052],[140.739583,37.490443],[140.738901,37.490408],[140.737289,37.490633],[140.736359,37.490335],[140.734955,37.490169],[140.731198,37.490178],[140.731086,37.490076],[140.730986,37.489843],[140.730544,37.489274],[140.730077,37.48887],[140.730116,37.48876],[140.73045,37.488448],[140.730471,37.488361],[140.73043,37.488275],[140.729653,37.487808],[140.729046,37.487629],[140.728002,37.487149],[140.726637,37.487204],[140.725771,37.486955],[140.7252,37.486944],[140.724592,37.487031],[140.724082,37.487046],[140.723148,37.48745],[140.722715,37.487467],[140.722612,37.487375],[140.722555,37.487147],[140.720727,37.485016],[140.720043,37.48433],[140.719929,37.484015],[140.720012,37.483531],[140.720151,37.483242],[140.720266,37.483138],[140.72055,37.483019],[140.721956,37.48263],[140.723571,37.482029],[140.72439,37.481416],[140.724759,37.481231],[140.725043,37.481165],[140.725366,37.481163],[140.726081,37.481353],[140.726224,37.481341],[140.726768,37.480914],[140.727555,37.480196],[140.728065,37.479917],[140.728931,37.47906],[140.729578,37.477743],[140.729759,37.477634],[140.730406,37.477405],[140.730837,37.477062],[140.732314,37.476093],[140.73243,37.475952],[140.732514,37.475572],[140.732605,37.475377],[140.732778,37.475256],[140.733282,37.475145],[140.733641,37.474834],[140.734184,37.474524],[140.734396,37.47435],[140.734606,37.474062],[140.734904,37.473437],[140.735051,37.4733],[140.735265,37.473261],[140.735586,37.473296],[140.735826,37.47315],[140.735988,37.472468],[140.735915,37.471695],[140.73599,37.471581],[140.736435,37.471214],[140.736494,37.471095],[140.736497,37.470722],[140.736431,37.470434],[140.736137,37.469834],[140.736246,37.469404],[140.735381,37.468549],[140.73528,37.468289],[140.735288,37.468004],[140.735533,37.467658],[140.735815,37.467458],[140.736557,37.46635],[140.736732,37.465918],[140.736586,37.465486],[140.736616,37.465342],[140.736696,37.465236],[140.736913,37.46515],[140.737307,37.465231],[140.737448,37.465571],[140.737938,37.465808],[140.738007,37.465924],[140.738057,37.466348],[140.738133,37.466495],[140.738236,37.466581],[140.738481,37.466635],[140.739519,37.466084],[140.740966,37.465591],[140.741757,37.465393],[140.741942,37.465246],[140.742074,37.464956],[140.742439,37.465208],[140.743228,37.465356],[140.743359,37.465476],[140.743465,37.465849],[140.744155,37.466965],[140.744326,37.467083],[140.745409,37.467447],[140.74572,37.467685],[140.747624,37.470348],[140.747765,37.470405],[140.749128,37.47055],[140.749628,37.471009],[140.749947,37.471218],[140.750347,37.471235],[140.7507,37.471308],[140.751247,37.471548],[140.751495,37.471611],[140.752685,37.471604],[140.752887,37.471657],[140.753609,37.472049],[140.75386,37.472136],[140.754758,37.472193],[140.755258,37.472284],[140.755465,37.472455],[140.755644,37.472741],[140.755914,37.473421],[140.756019,37.473821],[140.756294,37.474227],[140.756869,37.474598],[140.758732,37.47546],[140.759691,37.476066],[140.759951,37.476408],[140.760123,37.476896],[140.760339,37.478525],[140.760336,37.479212],[140.760522,37.479782],[140.76076,37.480074],[140.76144,37.48048],[140.761767,37.480731],[140.761975,37.48102],[140.762054,37.481304],[140.762052,37.481706],[140.761973,37.482105],[140.762033,37.482453],[140.763219,37.484941],[140.763984,37.485825],[140.764214,37.48689],[140.766272,37.490605],[140.76649,37.491119],[140.766577,37.491498],[140.76658,37.491813],[140.766398,37.492896],[140.766475,37.493153],[140.766886,37.493905],[140.76678,37.49476],[140.766891,37.495531],[140.766884,37.495902],[140.766572,37.496907],[140.766404,37.497815],[140.766313,37.498021],[140.766087,37.498211],[140.765371,37.498559],[140.76487,37.498881],[140.764608,37.499129],[140.764421,37.499412],[140.764359,37.499961],[140.764543,37.500705],[140.764469,37.500991],[140.76432,37.501276],[140.763665,37.501965],[140.763493,37.502],[140.763104,37.501808],[140.762458,37.501635],[140.761546,37.501275],[140.760658,37.501238],[140.760338,37.501301],[140.760012,37.501438],[140.758825,37.502178]]],[[[140.698995,37.5489],[140.697727,37.551071],[140.69759,37.551187],[140.697402,37.551141],[140.69713,37.550866],[140.696689,37.550124],[140.696202,37.549062],[140.696006,37.54881],[140.695581,37.54849],[140.695414,37.548548],[140.695256,37.548918],[140.694693,37.54978],[140.694281,37.550266],[140.694144,37.550348],[140.694109,37.550324],[140.694184,37.549804],[140.694053,37.54914],[140.693889,37.548804],[140.693078,37.547768],[140.692968,37.547397],[140.692933,37.54671],[140.692832,37.546588],[140.692108,37.546564],[140.691906,37.546654],[140.691791,37.547451],[140.691596,37.548167],[140.690379,37.547953],[140.690554,37.548364],[140.690713,37.548959],[140.690806,37.549625],[140.690698,37.549739],[140.689816,37.549931],[140.689661,37.550284],[140.689575,37.550334],[140.688826,37.549646],[140.688074,37.549129],[140.687494,37.548906],[140.687389,37.548905],[140.687305,37.548988],[140.687499,37.549692],[140.687477,37.549892],[140.687422,37.549906],[140.686744,37.54942],[140.686237,37.549634],[140.685881,37.549658],[140.685768,37.549524],[140.685798,37.549242],[140.685596,37.549031],[140.684596,37.549104],[140.684048,37.54909],[140.683937,37.548979],[140.683877,37.548742],[140.68376,37.548663],[140.683115,37.548799],[140.682907,37.54879],[140.682831,37.548572],[140.682835,37.548085],[140.682786,37.547832],[140.682698,37.547675],[140.682621,37.547625],[140.682533,37.547671],[140.682481,37.547771],[140.682549,37.548171],[140.682536,37.548486],[140.682404,37.548568],[140.682286,37.54849],[140.682222,37.548255],[140.682178,37.547624],[140.68208,37.547536],[140.68198,37.547623],[140.681912,37.547788],[140.681933,37.548742],[140.681848,37.548912],[140.681677,37.548948],[140.681178,37.548652],[140.680851,37.548509],[140.680714,37.54851],[140.680353,37.548938],[140.679875,37.549793],[140.679804,37.550051],[140.679803,37.550394],[140.679732,37.55051],[140.679404,37.550671],[140.678579,37.550705],[140.678506,37.550624],[140.678504,37.549851],[140.678408,37.549731],[140.678123,37.549558],[140.67807,37.549449],[140.678107,37.549098],[140.678396,37.548643],[140.678343,37.548531],[140.678163,37.548411],[140.677659,37.548327],[140.676692,37.54829],[140.673537,37.546936],[140.671572,37.54619],[140.671625,37.546081],[140.6721,37.54571],[140.672895,37.545202],[140.673718,37.544793],[140.674889,37.544337],[140.674809,37.54426],[140.674186,37.544157],[140.673754,37.543925],[140.673334,37.543819],[140.67319,37.543712],[140.673032,37.543431],[140.672825,37.543311],[140.672752,37.542911],[140.672513,37.542593],[140.672256,37.541792],[140.672374,37.541164],[140.672375,37.540848],[140.672231,37.540619],[140.671877,37.540352],[140.670976,37.540042],[140.670698,37.53984],[140.670589,37.539671],[140.670331,37.539611],[140.669792,37.539612],[140.668358,37.539787],[140.667494,37.539953],[140.666916,37.540262],[140.666303,37.540776],[140.665938,37.540851],[140.665479,37.540865],[140.665156,37.541025],[140.664831,37.540742],[140.664368,37.540503],[140.664073,37.540289],[140.663787,37.540251],[140.66372,37.540197],[140.663767,37.539818],[140.664194,37.538079],[140.664283,37.536567],[140.664543,37.535881],[140.664543,37.535685],[140.665128,37.535325],[140.666234,37.534027],[140.666508,37.533868],[140.666836,37.53382],[140.667734,37.533969],[140.668416,37.533973],[140.66956,37.533557],[140.669578,37.532828],[140.669679,37.532719],[140.673271,37.532811],[140.673879,37.532846],[140.674418,37.532939],[140.67705,37.532896],[140.677149,37.532821],[140.677125,37.532651],[140.677177,37.532562],[140.677944,37.532198],[140.678222,37.531994],[140.678425,37.531744],[140.67845,37.53148],[140.678589,37.531395],[140.679131,37.531484],[140.680358,37.531444],[140.680927,37.531659],[140.681466,37.53166],[140.681826,37.531717],[140.682397,37.53195],[140.683151,37.531762],[140.683221,37.531805],[140.683346,37.532034],[140.683529,37.532703],[140.68387,37.533035],[140.684078,37.533069],[140.684553,37.532908],[140.684916,37.53286],[140.685161,37.532927],[140.685407,37.533104],[140.685727,37.533563],[140.686064,37.534359],[140.686146,37.534676],[140.685154,37.535112],[140.684675,37.535415],[140.684499,37.535674],[140.684388,37.536017],[140.684063,37.536473],[140.684034,37.536643],[140.684199,37.53705],[140.684556,37.537538],[140.685354,37.538221],[140.686069,37.538596],[140.68613,37.538686],[140.68609,37.538851],[140.686138,37.538939],[140.686498,37.53903],[140.686893,37.538915],[140.687074,37.539],[140.687184,37.539199],[140.687002,37.539656],[140.687105,37.539859],[140.687246,37.540006],[140.687468,37.54011],[140.688329,37.540182],[140.688418,37.540142],[140.688456,37.540069],[140.688427,37.539209],[140.688465,37.538886],[140.688701,37.538607],[140.689304,37.53809],[140.689886,37.537503],[140.69021,37.537541],[140.69106,37.537992],[140.691567,37.538185],[140.692431,37.538329],[140.693362,37.538305],[140.693615,37.538387],[140.694193,37.538724],[140.69433,37.538705],[140.694763,37.538504],[140.696597,37.53848],[140.696917,37.538571],[140.696953,37.538717],[140.69681,37.539198],[140.696803,37.539482],[140.696576,37.539936],[140.696565,37.540077],[140.696695,37.540118],[140.697267,37.540013],[140.697591,37.540035],[140.698532,37.540454],[140.698663,37.540577],[140.69857,37.540777],[140.697979,37.541401],[140.69678,37.543027],[140.699993,37.543359],[140.699953,37.543817],[140.699974,37.544315],[140.700112,37.544646],[140.701211,37.546042],[140.701303,37.546247],[140.701274,37.546619],[140.701168,37.546791],[140.698995,37.5489]]]]}}]}
