{"type":"FeatureCollection","features":[{"type":"Feature","properties":{"potaRef":"JP-1182","nameJa":"Yoro keikoku okukiyosumi","nameEn":"Yoro Keikoku Okukiyosumi Prefectural Nature Park","authority":"環境省 生物多様性「見える化」マップ","boundaryStatus":"全国GIS候補・公開前検証待ち","boundarySource":"環境省 生物多様性「見える化」マップの自然公園区域を、POTA代表座標で一意に空間照合して加工","boundaryScaleNote":"区域は概要データであり、正確性は保証されない。POTA運用可否は公式情報で最終確認すること。","candidateMethod":"POTA representative point inside one public natural-park area","sourceParkKind":"都道府県立自然公園","sourceName":"Yoro keikoku okukiyosumi","sourceFeatureCount":1,"cautionMeters":75},"geometry":{"type":"MultiPolygon","coordinates":[[[[140.160876,35.255852],[140.160651,35.255969],[140.160272,35.256414],[140.159991,35.256643],[140.159743,35.257101],[140.159794,35.257217],[140.159933,35.257325],[140.160634,35.257449],[140.160816,35.257566],[140.160883,35.257677],[140.160593,35.258945],[140.160797,35.259528],[140.160954,35.259797],[140.16129,35.260189],[140.16138,35.260419],[140.161302,35.260565],[140.160686,35.261137],[140.160463,35.261833],[140.159657,35.262827],[140.158749,35.2636],[140.158284,35.263768],[140.15806,35.263753],[140.157983,35.26349],[140.15794,35.263005],[140.158052,35.262157],[140.158449,35.261281],[140.158594,35.260436],[140.158714,35.260039],[140.158966,35.259628],[140.159119,35.259171],[140.15912,35.258671],[140.158989,35.258243],[140.158082,35.257733],[140.157744,35.257433],[140.157566,35.25515],[140.15748,35.253078],[140.157682,35.252543],[140.158252,35.25237],[140.158812,35.251979],[140.159665,35.251651],[140.160173,35.251524],[140.160603,35.251308],[140.161411,35.251025],[140.162252,35.250597],[140.162722,35.250287],[140.163069,35.24982],[140.163335,35.248833],[140.163159,35.248559],[140.16284,35.248314],[140.162548,35.248183],[140.16218,35.248169],[140.161668,35.248485],[140.161371,35.248615],[140.160509,35.248511],[140.160129,35.248237],[140.159919,35.247929],[140.15955,35.247525],[140.159593,35.246914],[140.159526,35.246766],[140.159339,35.246617],[140.158776,35.24635],[140.158542,35.24615],[140.158184,35.245105],[140.157909,35.244837],[140.157829,35.244601],[140.157862,35.244067],[140.158051,35.243835],[140.158424,35.243675],[140.158567,35.243534],[140.158783,35.243],[140.158833,35.242734],[140.158796,35.242533],[140.158551,35.242151],[140.158476,35.24181],[140.158505,35.240999],[140.158663,35.240577],[140.158653,35.240229],[140.157814,35.23904],[140.157632,35.238693],[140.157511,35.238303],[140.157464,35.237535],[140.157501,35.236918],[140.15761,35.236539],[140.157885,35.236186],[140.15808,35.236063],[140.158324,35.236008],[140.158489,35.236038],[140.158659,35.236204],[140.158708,35.236388],[140.158685,35.236855],[140.158821,35.237508],[140.158914,35.237627],[140.159249,35.237737],[140.159714,35.237718],[140.160226,35.237595],[140.161536,35.237126],[140.161927,35.23708],[140.162376,35.237198],[140.162619,35.237458],[140.162894,35.237486],[140.16486,35.237268],[140.165279,35.237169],[140.165303,35.237014],[140.165292,35.236325],[140.165149,35.235903],[140.164878,35.235436],[140.164838,35.235054],[140.164884,35.234708],[140.164624,35.234203],[140.164715,35.232783],[140.164679,35.232284],[140.164733,35.23167],[140.165338,35.230183],[140.165415,35.229719],[140.165445,35.229257],[140.16532,35.228756],[140.165202,35.227791],[140.165216,35.227263],[140.165293,35.227026],[140.165633,35.226532],[140.165761,35.226157],[140.16545,35.225649],[140.164979,35.22511],[140.164337,35.224527],[140.163441,35.223843],[140.162576,35.222786],[140.161976,35.222285],[140.161233,35.221203],[140.160633,35.219781],[140.160737,35.219043],[140.160983,35.218394],[140.161048,35.217919],[140.161551,35.216858],[140.16201,35.214639],[140.162325,35.213874],[140.162787,35.213305],[140.16316,35.212455],[140.162783,35.211995],[140.162568,35.211642],[140.162469,35.211376],[140.162419,35.210799],[140.162502,35.210411],[140.162676,35.210038],[140.163463,35.209343],[140.163803,35.209162],[140.163943,35.208851],[140.163856,35.208508],[140.163522,35.208045],[140.163257,35.207502],[140.163153,35.207118],[140.163551,35.206317],[140.163937,35.205866],[140.16418,35.205675],[140.164252,35.205548],[140.164242,35.205403],[140.164064,35.205129],[140.163976,35.204784],[140.164067,35.204201],[140.164191,35.203904],[140.164565,35.20329],[140.165394,35.202364],[140.165608,35.20176],[140.165868,35.200726],[140.165793,35.20019],[140.165688,35.199843],[140.165127,35.198796],[140.164879,35.198225],[140.163879,35.196386],[140.16356,35.196171],[140.163324,35.196179],[140.1628,35.196313],[140.162432,35.196321],[140.162127,35.196012],[140.162107,35.195824],[140.162384,35.195577],[140.162627,35.195438],[140.163328,35.195167],[140.163659,35.1951],[140.163714,35.19499],[140.163707,35.194604],[140.163218,35.192642],[140.16281,35.19152],[140.162649,35.190145],[140.162369,35.188908],[140.162145,35.188597],[140.16177,35.18821],[140.160376,35.187275],[140.159842,35.187077],[140.159665,35.187284],[140.159771,35.187619],[140.159891,35.188389],[140.159974,35.188538],[140.159793,35.188966],[140.159891,35.189514],[140.15977,35.189849],[140.159241,35.190239],[140.158697,35.190561],[140.158607,35.190718],[140.158584,35.191523],[140.158122,35.191675],[140.157827,35.19191],[140.157555,35.192288],[140.157488,35.192542],[140.157352,35.192731],[140.157078,35.193002],[140.156834,35.193359],[140.156495,35.193619],[140.156213,35.19397],[140.156,35.194082],[140.15581,35.194275],[140.155696,35.194406],[140.15543,35.194913],[140.155149,35.195231],[140.155134,35.195399],[140.155354,35.195511],[140.155506,35.195692],[140.155613,35.19638],[140.155506,35.196791],[140.155552,35.197034],[140.155613,35.197127],[140.155902,35.197254],[140.15613,35.197478],[140.156403,35.198045],[140.156396,35.198139],[140.156304,35.198259],[140.156039,35.198377],[140.155307,35.198969],[140.154996,35.198951],[140.154601,35.198851],[140.154388,35.198477],[140.154274,35.198377],[140.154183,35.198371],[140.153659,35.199181],[140.153226,35.199738],[140.153218,35.200174],[140.153329,35.200398],[140.153275,35.200731],[140.153115,35.20103],[140.15304,35.201311],[140.152794,35.201591],[140.152719,35.202016],[140.152826,35.202402],[140.152751,35.202648],[140.152741,35.202973],[140.152869,35.203491],[140.152848,35.203719],[140.151904,35.204163],[140.151741,35.204319],[140.151727,35.204408],[140.151822,35.204754],[140.151958,35.205021],[140.151931,35.205233],[140.151999,35.205612],[140.152413,35.206203],[140.152478,35.206348],[140.152441,35.206501],[140.152248,35.206654],[140.151796,35.206744],[140.151311,35.206933],[140.150613,35.206912],[140.15006,35.206765],[140.149885,35.206757],[140.149557,35.206832],[140.148771,35.207284],[140.148496,35.20752],[140.148313,35.208025],[140.148248,35.208358],[140.148235,35.208694],[140.148523,35.209479],[140.148222,35.210105],[140.148209,35.210943],[140.14813,35.211341],[140.148222,35.211921],[140.148169,35.212039],[140.147709,35.212484],[140.147264,35.213129],[140.14653,35.213935],[140.146255,35.214397],[140.146172,35.214735],[140.140051,35.214495],[140.136561,35.214163],[140.136351,35.214265],[140.136268,35.21446],[140.136303,35.214611],[140.136789,35.215188],[140.137093,35.215657],[140.137152,35.215885],[140.137129,35.216122],[140.137054,35.216231],[140.136817,35.216389],[140.136204,35.216651],[140.135856,35.216946],[140.135771,35.217066],[140.135745,35.217254],[140.135811,35.217413],[140.136008,35.217595],[140.136944,35.217975],[140.137586,35.218356],[140.137732,35.218497],[140.137768,35.218771],[140.137591,35.218936],[140.136356,35.219485],[140.136172,35.219528],[140.13519,35.219562],[140.134828,35.219692],[140.134611,35.219897],[140.134484,35.220103],[140.134437,35.220452],[140.134468,35.221897],[140.134056,35.222659],[140.13404,35.223056],[140.134214,35.223993],[140.134198,35.224231],[140.13396,35.224406],[140.133008,35.224803],[140.131928,35.225327],[140.131436,35.225596],[140.131007,35.22593],[140.130769,35.226279],[140.130769,35.226994],[140.130594,35.227232],[140.129372,35.227248],[140.128769,35.227533],[140.128372,35.227899],[140.128221,35.22819],[140.128108,35.228727],[140.12798,35.228982],[140.127853,35.228829],[140.127878,35.228371],[140.127408,35.227607],[140.126097,35.227289],[140.125918,35.227175],[140.125867,35.226755],[140.12649,35.225778],[140.124621,35.224465],[140.124318,35.223933],[140.124129,35.22325],[140.124084,35.222479],[140.12423,35.221828],[140.124811,35.220567],[140.125961,35.218333],[140.126419,35.217338],[140.127184,35.215243],[140.127341,35.214165],[140.127342,35.211737],[140.12774,35.21136],[140.128587,35.210748],[140.129343,35.210111],[140.127476,35.209825],[140.119056,35.209415],[140.11851,35.209496],[140.118328,35.21002],[140.118248,35.210566],[140.118151,35.210619],[140.117036,35.210361],[140.115824,35.209893],[140.114373,35.209243],[140.11312,35.208499],[140.112042,35.208301],[140.110273,35.208215],[140.106294,35.208403],[140.105689,35.208523],[140.104557,35.208939],[140.104227,35.208891],[140.103811,35.20869],[140.103438,35.208602],[140.101183,35.208395],[140.097827,35.20837],[140.095439,35.208182],[140.093052,35.208345],[140.092342,35.208325],[140.092014,35.208231],[140.091932,35.20814],[140.092029,35.207296],[140.09218,35.207155],[140.092499,35.207021],[140.092833,35.206799],[140.093026,35.206614],[140.093391,35.206075],[140.093746,35.205127],[140.095814,35.204576],[140.096275,35.204363],[140.09651,35.204142],[140.096567,35.203915],[140.096659,35.201794],[140.096887,35.201155],[140.097298,35.200422],[140.097686,35.198926],[140.097885,35.198786],[140.098684,35.198676],[140.099157,35.198532],[140.099716,35.198255],[140.10004,35.197792],[140.100444,35.196761],[140.100535,35.196224],[140.10054,35.195723],[140.10048,35.195383],[140.100076,35.194302],[140.099404,35.193139],[140.099082,35.192179],[140.098449,35.191018],[140.098093,35.190245],[140.097988,35.189521],[140.098102,35.188798],[140.098242,35.188565],[140.098422,35.188421],[140.098699,35.188333],[140.099733,35.188194],[140.099844,35.188085],[140.099918,35.18788],[140.099929,35.187423],[140.099664,35.186268],[140.099667,35.185922],[140.099264,35.185302],[140.099499,35.184348],[140.099458,35.184191],[140.099246,35.183853],[140.099217,35.183499],[140.099329,35.183121],[140.099705,35.182662],[140.099798,35.182469],[140.099846,35.182278],[140.099848,35.18143],[140.099941,35.181276],[140.10021,35.181033],[140.100506,35.180901],[140.100627,35.180991],[140.100769,35.181018],[140.100988,35.180991],[140.101185,35.180865],[140.10159,35.180748],[140.101724,35.180757],[140.10214,35.181099],[140.10237,35.181225],[140.102906,35.18127],[140.103235,35.181521],[140.103487,35.181656],[140.103596,35.181656],[140.103706,35.181602],[140.103914,35.181386],[140.104494,35.181126],[140.104539,35.180568],[140.104615,35.180371],[140.104714,35.180272],[140.104958,35.180209],[140.105987,35.1802],[140.106195,35.180137],[140.106436,35.179976],[140.106568,35.179967],[140.106743,35.179976],[140.106874,35.180066],[140.107017,35.180289],[140.10717,35.180343],[140.107729,35.180226],[140.107893,35.180262],[140.108276,35.180532],[140.109053,35.180712],[140.109471,35.18046],[140.109887,35.179651],[140.110062,35.179499],[140.11015,35.179481],[140.110888,35.179831],[140.111238,35.180091],[140.11219,35.180379],[140.112311,35.180388],[140.112968,35.180208],[140.113471,35.180001],[140.113668,35.180019],[140.113888,35.180199],[140.114508,35.180275],[140.114935,35.180172],[140.115595,35.179794],[140.116479,35.179162],[140.117235,35.178944],[140.117861,35.178225],[140.118607,35.17777],[140.118949,35.17739],[140.119499,35.176581],[140.119882,35.1757],[140.12009,35.175437],[140.120368,35.175258],[140.120927,35.175095],[140.121082,35.17491],[140.121293,35.174479],[140.121635,35.17414],[140.122161,35.173734],[140.122501,35.173304],[140.12268,35.172204],[140.12292,35.171304],[140.123292,35.170535],[140.123321,35.170389],[140.123228,35.170231],[140.122527,35.169689],[140.122489,35.169538],[140.122555,35.169491],[140.123891,35.169365],[140.1245,35.169094],[140.124743,35.168866],[140.124789,35.168709],[140.124767,35.16836],[140.124862,35.168166],[140.125068,35.168016],[140.12531,35.167917],[140.125495,35.167874],[140.126897,35.167882],[140.127458,35.167808],[140.128345,35.167771],[140.129334,35.167518],[140.129657,35.167512],[140.129981,35.167428],[140.130458,35.167175],[140.132055,35.166064],[140.133333,35.165908],[140.134163,35.165732],[140.135298,35.165177],[140.135762,35.164861],[140.136021,35.164811],[140.136163,35.164701],[140.135871,35.164519],[140.135814,35.164414],[140.135866,35.164025],[140.136429,35.163753],[140.136721,35.163496],[140.136767,35.163305],[140.136715,35.163034],[140.1368,35.162644],[140.137079,35.16189],[140.137385,35.161269],[140.138735,35.159479],[140.138914,35.159372],[140.141482,35.159272],[140.141628,35.159346],[140.141718,35.159689],[140.141791,35.161687],[140.141791,35.163148],[140.141711,35.16384],[140.141908,35.164451],[140.142268,35.165262],[140.142631,35.165653],[140.143051,35.165925],[140.143558,35.166349],[140.144118,35.167198],[140.144213,35.167259],[140.145141,35.167285],[140.145563,35.167436],[140.146031,35.167744],[140.146316,35.168042],[140.146908,35.168408],[140.148405,35.168607],[140.148831,35.168754],[140.148958,35.168843],[140.14998,35.170004],[140.151089,35.17101],[140.151502,35.171632],[140.15162,35.17189],[140.151807,35.173244],[140.15171,35.174354],[140.151535,35.17509],[140.150933,35.176074],[140.149711,35.177566],[140.149361,35.178173],[140.149265,35.178364],[140.149136,35.178871],[140.149181,35.179213],[140.149272,35.179289],[140.149413,35.17929],[140.150063,35.179128],[140.151,35.17898],[140.15251,35.178824],[140.152974,35.178814],[140.154652,35.178957],[140.157175,35.179424],[140.158819,35.179919],[140.159603,35.18021],[140.160108,35.180457],[140.161259,35.180785],[140.161268,35.181243],[140.162161,35.18308],[140.162128,35.183256],[140.161665,35.183916],[140.161576,35.18426],[140.162747,35.184555],[140.163343,35.184781],[140.163469,35.184885],[140.163529,35.185377],[140.16399,35.185591],[140.164033,35.185655],[140.163915,35.186031],[140.164224,35.186267],[140.164368,35.186568],[140.164681,35.186811],[140.16506,35.187196],[140.165246,35.187467],[140.165294,35.187665],[140.16508,35.188505],[140.165409,35.189121],[140.165594,35.189737],[140.16565,35.190469],[140.165619,35.191428],[140.165664,35.191514],[140.16576,35.19156],[140.1666,35.191716],[140.16671,35.191785],[140.166574,35.192126],[140.166724,35.192393],[140.166708,35.193321],[140.167367,35.195888],[140.167599,35.196505],[140.16848,35.198043],[140.16877,35.198748],[140.168816,35.199372],[140.168756,35.200542],[140.16945,35.201009],[140.169574,35.201176],[140.168916,35.202671],[140.168731,35.202975],[140.168621,35.20307],[140.168248,35.20323],[140.168024,35.203554],[140.167414,35.203701],[140.167123,35.203919],[140.166877,35.204376],[140.166829,35.205225],[140.166924,35.205761],[140.166917,35.206262],[140.166566,35.206882],[140.166319,35.20717],[140.166248,35.207563],[140.166265,35.208108],[140.166362,35.208487],[140.16655,35.208913],[140.166607,35.209254],[140.166582,35.20979],[140.16629,35.210475],[140.165774,35.211165],[140.165596,35.211552],[140.165703,35.213189],[140.165661,35.213789],[140.165341,35.214433],[140.164815,35.215277],[140.164677,35.215659],[140.164618,35.217612],[140.164428,35.218991],[140.164252,35.219375],[140.163973,35.219719],[140.163446,35.220216],[140.163403,35.220331],[140.163435,35.220489],[140.163657,35.220834],[140.164377,35.221683],[140.166187,35.223075],[140.167833,35.2249],[140.168219,35.225511],[140.168347,35.226127],[140.168266,35.226895],[140.16804,35.227582],[140.167964,35.228643],[140.167961,35.229117],[140.16813,35.230006],[140.168108,35.230275],[140.167826,35.230848],[140.167542,35.231693],[140.16755,35.232567],[140.167391,35.233111],[140.167379,35.233765],[140.167516,35.234841],[140.16717,35.235874],[140.167223,35.236027],[140.167552,35.236324],[140.16787,35.236419],[140.168473,35.23651],[140.168948,35.236761],[140.169136,35.237],[140.169827,35.238141],[140.169997,35.23777],[140.17015,35.237585],[140.17026,35.236971],[140.170221,35.236736],[140.170067,35.236474],[140.170019,35.236281],[140.170034,35.235934],[140.17025,35.2357],[140.170385,35.235402],[140.170415,35.234937],[140.170567,35.234133],[140.170855,35.233829],[140.170937,35.233633],[140.170952,35.23302],[140.171368,35.232788],[140.17143,35.2326],[140.171401,35.232493],[140.171242,35.232361],[140.17035,35.232017],[140.17007,35.231863],[140.169805,35.231625],[140.169419,35.230936],[140.169243,35.230091],[140.169373,35.229329],[140.169725,35.228863],[140.170239,35.228471],[140.170797,35.228195],[140.171522,35.227985],[140.171636,35.227882],[140.171425,35.227417],[140.170933,35.22664],[140.17042,35.225641],[140.170344,35.224954],[140.170516,35.224568],[140.170761,35.224314],[140.171458,35.224149],[140.172205,35.224195],[140.173465,35.224368],[140.174438,35.224622],[140.174499,35.224444],[140.17404,35.223516],[140.174042,35.223016],[140.174132,35.222669],[140.174376,35.222211],[140.174631,35.221918],[140.175282,35.221576],[140.176133,35.221459],[140.176831,35.221634],[140.177387,35.221837],[140.177567,35.221856],[140.17771,35.221812],[140.177965,35.221437],[140.178246,35.220551],[140.178465,35.220204],[140.178657,35.220081],[140.179608,35.219763],[140.180014,35.21955],[140.180473,35.21892],[140.180812,35.218255],[140.180848,35.218075],[140.180974,35.217915],[140.181441,35.217635],[140.182336,35.217429],[140.182966,35.217354],[140.183352,35.217417],[140.183422,35.217586],[140.18341,35.21802],[140.18323,35.218322],[140.182905,35.218666],[140.1827,35.219005],[140.182643,35.219292],[140.182687,35.219577],[140.182628,35.219998],[140.182519,35.220278],[140.182164,35.220765],[140.181737,35.220946],[140.180577,35.221194],[140.1803,35.221413],[140.180156,35.221642],[140.180021,35.222015],[140.180173,35.222942],[140.180039,35.223326],[140.179802,35.223561],[140.179646,35.223652],[140.179278,35.22374],[140.178674,35.223736],[140.177129,35.223357],[140.176471,35.223369],[140.176329,35.223423],[140.176233,35.223486],[140.176183,35.223647],[140.176522,35.224107],[140.17673,35.224576],[140.176734,35.225069],[140.17651,35.225688],[140.176246,35.2261],[140.175978,35.226335],[140.175693,35.22652],[140.175462,35.226596],[140.175085,35.226636],[140.17447,35.226492],[140.173264,35.226073],[140.173084,35.226096],[140.172934,35.226236],[140.172918,35.226469],[140.173036,35.226847],[140.173398,35.227427],[140.173718,35.227815],[140.17417,35.228551],[140.174263,35.228776],[140.17427,35.228971],[140.174176,35.229129],[140.173832,35.229336],[140.174427,35.229855],[140.17393,35.230121],[140.17367,35.230498],[140.173582,35.231193],[140.173346,35.231767],[140.173378,35.232426],[140.173759,35.233077],[140.17397,35.233737],[140.174107,35.234743],[140.174047,35.235344],[140.173856,35.235762],[140.173175,35.236726],[140.172834,35.237186],[140.172275,35.23761],[140.171376,35.238958],[140.170838,35.239551],[140.17017,35.239958],[140.169621,35.240389],[140.169158,35.240889],[140.168832,35.241619],[140.168559,35.241826],[140.168277,35.24194],[140.168003,35.24199],[140.167277,35.241969],[140.166739,35.24206],[140.16614,35.242326],[140.165468,35.242852],[140.165243,35.243128],[140.165221,35.243502],[140.16531,35.243849],[140.165301,35.24401],[140.164989,35.244658],[140.164693,35.244999],[140.164455,35.245112],[140.164321,35.24511],[140.163476,35.244793],[140.163253,35.244876],[140.163253,35.245716],[140.163147,35.24622],[140.162699,35.246739],[140.161904,35.247277],[140.161627,35.24737],[140.161547,35.247441],[140.161578,35.247666],[140.161917,35.247877],[140.162152,35.247859],[140.163316,35.247127],[140.163499,35.247097],[140.164063,35.247149],[140.164728,35.247012],[140.165377,35.246728],[140.165566,35.246536],[140.165709,35.246545],[140.165931,35.246637],[140.166026,35.246737],[140.166053,35.247549],[140.166389,35.248237],[140.166671,35.248622],[140.166719,35.248781],[140.166629,35.248943],[140.166194,35.249118],[140.166009,35.249312],[140.16601,35.24942],[140.166164,35.249649],[140.166224,35.249874],[140.166173,35.25011],[140.165763,35.250355],[140.16511,35.250504],[140.164822,35.250644],[140.164262,35.251104],[140.163956,35.251556],[140.163463,35.252009],[140.162977,35.252343],[140.161986,35.25316],[140.161689,35.253538],[140.161646,35.253734],[140.161842,35.255177],[140.161693,35.255714],[140.161563,35.255844],[140.160876,35.255852]]],[[[140.129785,35.256156],[140.129762,35.25858],[140.129626,35.258624],[140.12906,35.258389],[140.128185,35.257864],[140.127104,35.257527],[140.126877,35.257368],[140.126413,35.256827],[140.126178,35.256673],[140.1259,35.256589],[140.125571,35.256363],[140.125253,35.256268],[140.124261,35.25615],[140.124096,35.256201],[140.12401,35.256418],[140.124079,35.25681],[140.124008,35.257187],[140.123924,35.257309],[140.123647,35.257469],[140.123273,35.257483],[140.122848,35.257336],[140.121689,35.256253],[140.120671,35.255829],[140.120336,35.25563],[140.120184,35.255438],[140.120237,35.255281],[140.12072,35.255062],[140.121539,35.254898],[140.121747,35.254684],[140.121974,35.254556],[140.122729,35.253825],[140.122975,35.253457],[140.123137,35.252956],[140.123228,35.252874],[140.123353,35.252895],[140.123867,35.253359],[140.124195,35.253516],[140.124432,35.253554],[140.125552,35.253506],[140.126407,35.253341],[140.127007,35.25316],[140.127046,35.25325],[140.126827,35.253567],[140.12672,35.253908],[140.126722,35.254522],[140.126828,35.254825],[140.127038,35.255061],[140.127415,35.255257],[140.128159,35.255341],[140.128438,35.255337],[140.128722,35.255237],[140.12914,35.255353],[140.129422,35.255346],[140.129712,35.255276],[140.129825,35.255317],[140.12985,35.255661],[140.129804,35.255893],[140.129925,35.256006],[140.129785,35.256156]]]]}}]}
