{"type":"FeatureCollection","features":[{"type":"Feature","properties":{"potaRef":"JP-1660","nameJa":"Sasa yama","nameEn":"Sasayama Prefectural Nature Park","authority":"環境省 生物多様性「見える化」マップ","boundaryStatus":"全国GIS候補・公開前検証待ち","boundarySource":"環境省 生物多様性「見える化」マップの自然公園区域を、POTA代表座標で一意に空間照合して加工","boundaryScaleNote":"区域は概要データであり、正確性は保証されない。POTA運用可否は公式情報で最終確認すること。","candidateMethod":"POTA representative point inside one public natural-park area","sourceParkKind":"都道府県立自然公園","sourceName":"Sasa yama","sourceFeatureCount":1,"cautionMeters":75},"geometry":{"type":"MultiPolygon","coordinates":[[[[132.65798,33.079441],[132.658386,33.079951],[132.658856,33.080379],[132.658922,33.080506],[132.658926,33.080636],[132.65882,33.080769],[132.658199,33.081046],[132.657907,33.081402],[132.657593,33.081501],[132.657323,33.08187],[132.657102,33.081973],[132.656854,33.081908],[132.656524,33.081468],[132.656251,33.081194],[132.654961,33.080547],[132.654514,33.079943],[132.654158,33.079666],[132.653843,33.07921],[132.653556,33.079048],[132.652915,33.079048],[132.65223,33.079196],[132.651584,33.079477],[132.65114,33.079744],[132.65091,33.079952],[132.650636,33.080053],[132.650313,33.079979],[132.650089,33.079795],[132.649799,33.079458],[132.649525,33.079034],[132.649202,33.078827],[132.648703,33.078799],[132.647712,33.079011],[132.647521,33.078947],[132.647389,33.078463],[132.64699,33.078112],[132.646963,33.077914],[132.647072,33.077757],[132.647204,33.077665],[132.647856,33.077485],[132.648217,33.07731],[132.64831,33.077167],[132.648324,33.076609],[132.64822,33.076485],[132.648029,33.076402],[132.646863,33.076185],[132.646715,33.076143],[132.646605,33.076047],[132.64656,33.075913],[132.646576,33.075041],[132.646478,33.074779],[132.644235,33.071385],[132.643539,33.070643],[132.642462,33.069734],[132.640731,33.0689],[132.640517,33.068545],[132.64049,33.068337],[132.640567,33.067835],[132.640961,33.067093],[132.641224,33.06677],[132.64147,33.066558],[132.641831,33.066346],[132.642165,33.066226],[132.642949,33.066055],[132.643163,33.065967],[132.643283,33.065852],[132.643311,33.065691],[132.643234,33.065543],[132.643037,33.0654],[132.642528,33.06523],[132.642429,33.065124],[132.642402,33.064944],[132.642435,33.064769],[132.642626,33.064575],[132.642999,33.064428],[132.642997,33.063985],[132.643096,33.063685],[132.643632,33.063404],[132.643797,33.063256],[132.644184,33.062708],[132.644518,33.062675],[132.64506,33.062763],[132.645295,33.062698],[132.646007,33.062353],[132.646188,33.06232],[132.646369,33.062343],[132.646483,33.062431],[132.646779,33.062851],[132.646932,33.062883],[132.647146,33.062855],[132.647493,33.062703],[132.647647,33.062583],[132.647685,33.062435],[132.647668,33.061933],[132.647745,33.061818],[132.647909,33.061739],[132.648659,33.061619],[132.649092,33.06149],[132.649464,33.061311],[132.649705,33.061131],[132.649864,33.060933],[132.649962,33.060697],[132.650127,33.060568],[132.650247,33.060564],[132.650471,33.060647],[132.650625,33.06061],[132.651159,33.059792],[132.651591,33.05947],[132.651819,33.059428],[132.653089,33.059447],[132.654044,33.059517],[132.654363,33.059616],[132.655017,33.059952],[132.655084,33.060002],[132.655144,33.060211],[132.655271,33.060374],[132.65549,33.060542],[132.655757,33.060603],[132.656025,33.060446],[132.656143,33.060455],[132.656254,33.060605],[132.656615,33.06087],[132.656789,33.060932],[132.657377,33.060988],[132.658186,33.061309],[132.658541,33.061338],[132.659042,33.061304],[132.659843,33.061173],[132.660232,33.061158],[132.660299,33.061253],[132.660309,33.061614],[132.660449,33.061897],[132.660724,33.062072],[132.661122,33.062233],[132.662331,33.063468],[132.663367,33.064094],[132.664217,33.064424],[132.665275,33.065106],[132.665679,33.065501],[132.666268,33.065902],[132.666638,33.066226],[132.668356,33.069208],[132.66872,33.069936],[132.669312,33.070803],[132.669502,33.071183],[132.669486,33.071304],[132.669344,33.071471],[132.669208,33.071801],[132.668359,33.074882],[132.667875,33.076192],[132.667891,33.076464],[132.668434,33.077886],[132.668456,33.078086],[132.668166,33.078706],[132.668061,33.078826],[132.667966,33.078854],[132.66703,33.078568],[132.666362,33.078568],[132.665354,33.078826],[132.664883,33.078877],[132.664774,33.078831],[132.664538,33.078347],[132.664423,33.078278],[132.663925,33.07825],[132.663711,33.078315],[132.663569,33.078402],[132.663383,33.078647],[132.663295,33.078674],[132.66276,33.07831],[132.662442,33.078213],[132.661902,33.078157],[132.66155,33.078402],[132.660805,33.078444],[132.660416,33.078661],[132.660268,33.07867],[132.660148,33.078642],[132.659682,33.078342],[132.659436,33.078278],[132.659102,33.078269],[132.658291,33.078389],[132.657499,33.078742],[132.65798,33.079441]]],[[[132.639697,33.056899],[132.639568,33.057022],[132.6395,33.057202],[132.639363,33.058239],[132.639055,33.058938],[132.638798,33.059219],[132.638508,33.059435],[132.637112,33.06014],[132.636477,33.060575],[132.635452,33.062342],[132.635408,33.062323],[132.635532,33.060482],[132.635789,33.059338],[132.636293,33.057895],[132.636298,33.057425],[132.63604,33.056738],[132.635969,33.056291],[132.636035,33.055761],[132.636222,33.055073],[132.636332,33.05405],[132.63648,33.053497],[132.636846,33.052842],[132.637104,33.052524],[132.639314,33.050403],[132.640184,33.049448],[132.640376,33.049126],[132.640495,33.048559],[132.640568,33.048499],[132.640974,33.048525],[132.641248,33.048446],[132.641476,33.048277],[132.64189,33.04777],[132.641957,33.047544],[132.64177,33.046609],[132.641743,33.04586],[132.641877,33.045544],[132.642024,33.045358],[132.642318,33.045133],[132.64294,33.044936],[132.643388,33.044711],[132.644178,33.044046],[132.64506,33.043595],[132.645374,33.043325],[132.645435,33.043178],[132.645475,33.04271],[132.645956,33.041995],[132.646037,33.041381],[132.646117,33.041139],[132.646371,33.041037],[132.647601,33.040789],[132.647755,33.040671],[132.647889,33.040406],[132.64819,33.040282],[132.648825,33.040378],[132.649173,33.040339],[132.649654,33.039894],[132.65051,33.039561],[132.650952,33.039274],[132.651681,33.038907],[132.652042,33.038829],[132.653071,33.038767],[132.653312,33.038666],[132.654316,33.037848],[132.654951,33.037533],[132.655191,33.037353],[132.655419,33.037015],[132.65566,33.036389],[132.655874,33.036209],[132.656449,33.03591],[132.656964,33.035347],[132.657325,33.035099],[132.657806,33.034975],[132.658334,33.034964],[132.658887,33.035037],[132.659123,33.035282],[132.659595,33.036559],[132.659717,33.037149],[132.660329,33.037588],[132.660486,33.037758],[132.660583,33.037935],[132.660718,33.038613],[132.660885,33.039041],[132.661535,33.040056],[132.661806,33.040579],[132.661907,33.041026],[132.66196,33.041815],[132.662148,33.042302],[132.662315,33.042523],[132.662621,33.042815],[132.66326,33.043287],[132.665157,33.044356],[132.665752,33.044965],[132.665892,33.045054],[132.666548,33.045162],[132.666472,33.045681],[132.666459,33.046582],[132.666238,33.047348],[132.666232,33.047861],[132.666316,33.04859],[132.666281,33.048682],[132.666191,33.048712],[132.666111,33.048822],[132.66582,33.049409],[132.665779,33.049828],[132.665458,33.050247],[132.663715,33.052073],[132.663178,33.052568],[132.662922,33.052685],[132.662609,33.052719],[132.662229,33.052623],[132.66194,33.052464],[132.661091,33.052361],[132.660959,33.052258],[132.660835,33.051789],[132.660588,33.051472],[132.660192,33.051134],[132.6594,33.050727],[132.658913,33.050624],[132.657519,33.050555],[132.656867,33.050555],[132.656447,33.05061],[132.655886,33.050906],[132.655333,33.050989],[132.655193,33.051086],[132.655094,33.051265],[132.654962,33.051382],[132.654492,33.051616],[132.654121,33.051989],[132.653461,33.052147],[132.653007,33.052382],[132.652908,33.052568],[132.652834,33.052871],[132.652879,33.053571],[132.652769,33.053898],[132.652414,33.054096],[132.65142,33.054138],[132.65114,33.054198],[132.650593,33.054498],[132.649805,33.055231],[132.649377,33.055798],[132.649026,33.056457],[132.648747,33.05672],[132.648347,33.056867],[132.647023,33.056886],[132.646404,33.057066],[132.646234,33.057204],[132.645615,33.057992],[132.645406,33.058702],[132.645193,33.058868],[132.644985,33.05891],[132.644443,33.058887],[132.64366,33.05873],[132.643217,33.058592],[132.642511,33.058268],[132.64163,33.05762],[132.6408,33.057115],[132.640184,33.056878],[132.639902,33.056856],[132.639697,33.056899]]],[[[132.577511,33.097489],[132.577259,33.097593],[132.577188,33.097538],[132.577077,33.096451],[132.577064,33.096222],[132.57712,33.095993],[132.577236,33.095875],[132.577402,33.095818],[132.578487,33.095886],[132.58052,33.095771],[132.582048,33.095287],[132.58365,33.095003],[132.584247,33.094928],[132.58545,33.094888],[132.586303,33.094748],[132.586962,33.094541],[132.587857,33.094144],[132.588387,33.094021],[132.590584,33.093889],[132.591307,33.093932],[132.594149,33.094791],[132.594835,33.095118],[132.594244,33.095768],[132.594159,33.096003],[132.594073,33.096039],[132.593564,33.095849],[132.593066,33.095785],[132.592292,33.095372],[132.591362,33.095462],[132.591087,33.095447],[132.590553,33.095338],[132.590199,33.095208],[132.589686,33.095161],[132.589166,33.095299],[132.587268,33.095333],[132.586942,33.095414],[132.586461,33.095637],[132.585131,33.096408],[132.584627,33.096579],[132.583744,33.096789],[132.583018,33.097058],[132.582482,33.097146],[132.581478,33.097202],[132.580507,33.097134],[132.579975,33.097448],[132.579349,33.097568],[132.577703,33.097427],[132.577511,33.097489]]]]}}]}
