{"type":"FeatureCollection","features":[{"type":"Feature","properties":{"potaRef":"JP-1473","nameJa":"Akame Ichishikyo","nameEn":"Akame Ichishikyo Prefectural Nature Park","authority":"環境省 生物多様性「見える化」マップ","boundaryStatus":"全国GIS候補・公開前検証待ち","boundarySource":"環境省 生物多様性「見える化」マップの自然公園区域を、POTA代表座標で一意に空間照合して加工","boundaryScaleNote":"区域は概要データであり、正確性は保証されない。POTA運用可否は公式情報で最終確認すること。","candidateMethod":"POTA representative point inside one public natural-park area","sourceParkKind":"都道府県立自然公園","sourceName":"Akame Ichishikyo","sourceFeatureCount":1,"cautionMeters":75},"geometry":{"type":"MultiPolygon","coordinates":[[[[136.308513,34.613602],[136.308595,34.614008],[136.308562,34.614141],[136.307396,34.613714],[136.306681,34.613559],[136.305408,34.613577],[136.304914,34.613461],[136.303499,34.613481],[136.302793,34.613366],[136.302284,34.61316],[136.301863,34.613099],[136.300876,34.612685],[136.300021,34.612469],[136.297883,34.611626],[136.29747,34.611608],[136.296546,34.611389],[136.293718,34.611419],[136.292801,34.611658],[136.292455,34.611676],[136.291189,34.611983],[136.289979,34.612658],[136.288509,34.612982],[136.288091,34.613167],[136.28682,34.613532],[136.286262,34.613489],[136.284982,34.613156],[136.28449,34.613157],[136.284064,34.612985],[136.283264,34.612296],[136.282688,34.611425],[136.282468,34.610902],[136.281936,34.610133],[136.281897,34.609794],[136.282385,34.60955],[136.283312,34.609502],[136.284223,34.609138],[136.284982,34.608534],[136.285258,34.608058],[136.285481,34.607915],[136.287163,34.607526],[136.28744,34.607513],[136.287864,34.607331],[136.288464,34.606796],[136.288564,34.606453],[136.288416,34.60622],[136.287694,34.605648],[136.285558,34.604802],[136.285121,34.604533],[136.284785,34.604441],[136.28364,34.603762],[136.282933,34.603181],[136.281852,34.601908],[136.281398,34.600631],[136.281391,34.599754],[136.281525,34.599286],[136.281744,34.599053],[136.281762,34.598885],[136.281996,34.598575],[136.282137,34.598167],[136.282413,34.597697],[136.282394,34.596474],[136.282031,34.595951],[136.281102,34.595392],[136.279767,34.595151],[136.275173,34.595202],[136.274687,34.59532],[136.274117,34.595209],[136.273624,34.59534],[136.272774,34.595344],[136.272284,34.595471],[136.266697,34.595518],[136.266478,34.595581],[136.266144,34.595467],[136.265945,34.595237],[136.265688,34.594302],[136.266999,34.593005],[136.26716,34.592602],[136.267029,34.592301],[136.266864,34.592142],[136.266156,34.591788],[136.265793,34.591511],[136.265286,34.591334],[136.26542,34.590984],[136.265115,34.590648],[136.264818,34.589988],[136.265125,34.589464],[136.265115,34.589179],[136.265248,34.588882],[136.265197,34.588763],[136.264907,34.588648],[136.26399,34.588657],[136.263061,34.588205],[136.262311,34.587493],[136.262192,34.587169],[136.26177,34.586935],[136.261126,34.586415],[136.260057,34.585371],[136.259604,34.585095],[136.259399,34.584628],[136.259077,34.584436],[136.258837,34.584162],[136.258259,34.583935],[136.25799,34.584005],[136.257781,34.583983],[136.256263,34.583222],[136.255726,34.583171],[136.255098,34.582902],[136.254849,34.582646],[136.254358,34.58267],[136.253564,34.582198],[136.253232,34.582151],[136.252925,34.581889],[136.252726,34.581535],[136.252324,34.581062],[136.252267,34.580788],[136.252142,34.580606],[136.251803,34.580414],[136.251562,34.580152],[136.250081,34.579633],[136.249651,34.57929],[136.24915,34.579009],[136.248801,34.578713],[136.248714,34.578365],[136.24844,34.578071],[136.248421,34.577845],[136.248148,34.577492],[136.248103,34.576742],[136.247739,34.576489],[136.24727,34.575751],[136.246652,34.575046],[136.246622,34.574411],[136.246467,34.574137],[136.244839,34.573431],[136.24441,34.573514],[136.243211,34.573451],[136.242002,34.572922],[136.241793,34.572907],[136.241603,34.573066],[136.241582,34.57353],[136.241224,34.574172],[136.241184,34.574568],[136.240757,34.57489],[136.240478,34.574952],[136.240255,34.574847],[136.240029,34.574502],[136.239553,34.574258],[136.239244,34.573615],[136.239025,34.573408],[136.238268,34.573383],[136.237773,34.573269],[136.237274,34.573045],[136.235651,34.573059],[136.235074,34.572783],[136.234839,34.57255],[136.234826,34.572438],[136.234976,34.572298],[136.235909,34.57223],[136.236477,34.571995],[136.236907,34.572064],[136.237251,34.572005],[136.23768,34.572114],[136.238454,34.572097],[136.239066,34.571727],[136.2391,34.571628],[136.238975,34.571358],[136.238012,34.570588],[136.237508,34.570306],[136.237008,34.569794],[136.236529,34.5697],[136.236216,34.569526],[136.2358,34.569456],[136.235232,34.569226],[136.234795,34.568958],[136.234447,34.568875],[136.234337,34.568756],[136.234277,34.568418],[136.23367,34.567886],[136.233532,34.567476],[136.232859,34.5665],[136.23215,34.566211],[136.231802,34.566254],[136.231245,34.566026],[136.230947,34.56582],[136.230528,34.565695],[136.230104,34.565351],[136.22945,34.564606],[136.228518,34.564088],[136.228029,34.563562],[136.227669,34.562981],[136.227606,34.562458],[136.227687,34.562275],[136.227925,34.562043],[136.22835,34.561865],[136.228771,34.561857],[136.229404,34.561501],[136.229594,34.561264],[136.229601,34.560916],[136.22969,34.560766],[136.230294,34.560383],[136.230723,34.56038],[136.231018,34.560279],[136.231369,34.560033],[136.231561,34.559788],[136.231569,34.559438],[136.231483,34.559268],[136.230845,34.558747],[136.230472,34.558288],[136.230313,34.557761],[136.230334,34.557583],[136.230742,34.55732],[136.231372,34.557198],[136.231873,34.556755],[136.232355,34.556724],[136.232782,34.556435],[136.233369,34.556295],[136.233445,34.556139],[136.233418,34.555682],[136.233716,34.555318],[136.233625,34.554872],[136.234094,34.554558],[136.234104,34.554094],[136.234016,34.553932],[136.233448,34.553587],[136.232961,34.553582],[136.232748,34.553518],[136.232583,34.553365],[136.232462,34.553004],[136.232239,34.55281],[136.231954,34.552887],[136.231754,34.552837],[136.230976,34.552313],[136.23095,34.552209],[136.231259,34.551799],[136.231334,34.551393],[136.231785,34.550967],[136.231869,34.550793],[136.231836,34.550566],[136.231561,34.550156],[136.231566,34.54986],[136.231424,34.549509],[136.231462,34.549333],[136.231772,34.549062],[136.232253,34.549126],[136.232558,34.549026],[136.232679,34.548909],[136.23262,34.548802],[136.232099,34.54847],[136.231404,34.548454],[136.230905,34.548285],[136.230465,34.547972],[136.229121,34.547264],[136.22863,34.547267],[136.228328,34.547469],[136.227712,34.547676],[136.227351,34.547644],[136.227211,34.547451],[136.227453,34.547088],[136.227372,34.54674],[136.226837,34.546352],[136.226485,34.545885],[136.225936,34.545415],[136.22591,34.54503],[136.225348,34.54484],[136.224861,34.544979],[136.224561,34.544931],[136.224212,34.544683],[136.223791,34.544211],[136.223204,34.543817],[136.223211,34.543748],[136.223564,34.543571],[136.223856,34.54324],[136.224043,34.543138],[136.224321,34.543124],[136.224692,34.54338],[136.22484,34.543396],[136.225758,34.542998],[136.226089,34.54295],[136.22631,34.542847],[136.227067,34.541556],[136.227,34.540966],[136.226709,34.540502],[136.226345,34.540098],[136.226491,34.539744],[136.226615,34.539665],[136.226829,34.539662],[136.227185,34.539731],[136.227606,34.53991],[136.227884,34.539905],[136.228517,34.539549],[136.228811,34.539223],[136.22936,34.538861],[136.229759,34.53881],[136.230341,34.538487],[136.23083,34.537898],[136.231304,34.53748],[136.231455,34.537133],[136.231989,34.536472],[136.232559,34.536237],[136.233044,34.535827],[136.233191,34.53542],[136.233466,34.535118],[136.233505,34.534957],[136.23326,34.534754],[136.232521,34.534455],[136.23223,34.534268],[136.231919,34.533779],[136.23195,34.5335],[136.231619,34.533032],[136.23158,34.532805],[136.231722,34.532507],[136.231933,34.532378],[136.232287,34.53228],[136.232714,34.532382],[136.233283,34.532152],[136.233083,34.531791],[136.233024,34.531342],[136.232399,34.530838],[136.231908,34.530776],[136.231545,34.530611],[136.230785,34.530821],[136.230291,34.530821],[136.230089,34.530942],[136.229654,34.531522],[136.228896,34.531558],[136.226486,34.530446],[136.225916,34.530404],[136.22554,34.530204],[136.225209,34.530187],[136.224851,34.530065],[136.223441,34.530079],[136.222926,34.529765],[136.222376,34.529682],[136.221441,34.529183],[136.221015,34.528779],[136.218885,34.527619],[136.218855,34.52534],[136.218702,34.524935],[136.218704,34.524411],[136.219084,34.523985],[136.219395,34.52312],[136.219631,34.522809],[136.219632,34.522536],[136.2199,34.522223],[136.22067,34.520528],[136.22103,34.520117],[136.220996,34.519824],[136.221196,34.519255],[136.221827,34.518526],[136.221818,34.517824],[136.222116,34.517421],[136.222116,34.516898],[136.222236,34.516715],[136.222256,34.516257],[136.222503,34.515667],[136.222383,34.515373],[136.222493,34.515025],[136.222354,34.51456],[136.22248,34.514149],[136.22235,34.513801],[136.222344,34.512981],[136.22218,34.512458],[136.222329,34.511932],[136.222313,34.511583],[136.222008,34.511227],[136.222019,34.510768],[136.221225,34.509851],[136.220531,34.509318],[136.22003,34.508797],[136.219242,34.507929],[136.219081,34.507585],[136.218371,34.507007],[136.218047,34.506589],[136.218,34.506312],[136.217809,34.506013],[136.217655,34.505607],[136.217775,34.505205],[136.217336,34.503862],[136.217478,34.503453],[136.217456,34.501644],[136.217718,34.501286],[136.21777,34.500869],[136.218258,34.500461],[136.218699,34.499763],[136.219536,34.499067],[136.220123,34.498855],[136.220364,34.498568],[136.220496,34.498554],[136.220931,34.498696],[136.221426,34.498454],[136.221988,34.498438],[136.222353,34.498176],[136.222902,34.498031],[136.223599,34.497955],[136.223948,34.498005],[136.224259,34.497807],[136.224665,34.497729],[136.225215,34.497412],[136.225572,34.497416],[136.226205,34.497278],[136.226561,34.497348],[136.226904,34.497289],[136.227329,34.49739],[136.227754,34.497272],[136.228666,34.497263],[136.229093,34.497142],[136.229518,34.497143],[136.230008,34.497001],[136.230424,34.496992],[136.231647,34.49553],[136.231731,34.495185],[136.232094,34.494488],[136.232076,34.494138],[136.231934,34.493788],[136.23191,34.492673],[136.23198,34.492384],[136.231902,34.492097],[136.231897,34.491335],[136.231721,34.49099],[136.231756,34.490632],[136.231397,34.490168],[136.231375,34.489765],[136.231178,34.489234],[136.230959,34.488945],[136.230875,34.488592],[136.230293,34.488397],[136.229052,34.487726],[136.228669,34.487393],[136.227584,34.486677],[136.226315,34.486269],[136.2259,34.486257],[136.225045,34.486102],[136.224612,34.485825],[136.223867,34.48566],[136.223618,34.485415],[136.22312,34.485142],[136.22263,34.485062],[136.222415,34.48466],[136.222151,34.484518],[136.222057,34.48437],[136.222055,34.483955],[136.22232,34.483075],[136.222324,34.482844],[136.222316,34.482671],[136.222029,34.482264],[136.222172,34.481854],[136.222124,34.479513],[136.222307,34.479003],[136.222581,34.478536],[136.222887,34.478334],[136.223034,34.477933],[136.223235,34.477694],[136.224069,34.477026],[136.224278,34.476933],[136.2247,34.476918],[136.225059,34.476805],[136.226039,34.47627],[136.226521,34.476138],[136.226753,34.475871],[136.227424,34.475415],[136.227967,34.474945],[136.228282,34.474437],[136.228361,34.47414],[136.228263,34.473915],[136.22791,34.473843],[136.227476,34.473628],[136.226777,34.473623],[136.226137,34.47328],[136.225357,34.473334],[136.225006,34.473176],[136.224513,34.473059],[136.22414,34.472866],[136.223508,34.472721],[136.22317,34.472772],[136.223021,34.472685],[136.222943,34.472502],[136.223024,34.472438],[136.222583,34.471978],[136.222087,34.471694],[136.221727,34.471285],[136.221285,34.471006],[136.22108,34.470476],[136.220709,34.470075],[136.22055,34.469728],[136.22024,34.469477],[136.219949,34.469079],[136.219733,34.468613],[136.219688,34.468333],[136.21935,34.46809],[136.219417,34.467807],[136.219145,34.467453],[136.219101,34.467058],[136.218781,34.466757],[136.218449,34.466225],[136.218263,34.465655],[136.218256,34.465362],[136.217983,34.465068],[136.217979,34.463796],[136.218114,34.46356],[136.218436,34.463256],[136.218656,34.462675],[136.21863,34.461444],[136.21849,34.461093],[136.218483,34.460802],[136.218164,34.460392],[136.218172,34.459817],[136.217778,34.459111],[136.218162,34.458297],[136.218162,34.457948],[136.218033,34.457765],[136.218263,34.457352],[136.218421,34.456717],[136.218381,34.455963],[136.218927,34.455298],[136.218961,34.454786],[136.219238,34.454372],[136.219121,34.454016],[136.219214,34.453559],[136.218938,34.453204],[136.21892,34.452975],[136.218675,34.452672],[136.218606,34.452403],[136.218239,34.451984],[136.218389,34.451449],[136.218567,34.451247],[136.219043,34.450935],[136.219892,34.450604],[136.220935,34.450607],[136.221434,34.450852],[136.222063,34.450726],[136.222568,34.451004],[136.22285,34.451071],[136.225105,34.451045],[136.22581,34.450913],[136.22608,34.450935],[136.22701,34.451259],[136.227929,34.45125],[136.228352,34.451132],[136.228909,34.451114],[136.229333,34.450983],[136.231239,34.450983],[136.231728,34.450856],[136.234057,34.450838],[136.234898,34.45059],[136.235392,34.450707],[136.236029,34.450701],[136.236792,34.450555],[136.237293,34.450339],[136.238347,34.450321],[136.238981,34.45008],[136.23919,34.450146],[136.239564,34.450407],[136.239899,34.450416],[136.24027,34.45063],[136.240607,34.450658],[136.240982,34.450858],[136.241884,34.450875],[136.242804,34.450532],[136.243293,34.450462],[136.243908,34.450192],[136.244468,34.449782],[136.244753,34.44967],[136.245033,34.449681],[136.245461,34.449849],[136.246099,34.449834],[136.246591,34.449952],[136.246805,34.450127],[136.247017,34.450183],[136.248007,34.450165],[136.2485,34.450282],[136.24949,34.450267],[136.249982,34.450384],[136.250478,34.450379],[136.250968,34.450252],[136.251671,34.450253],[136.251889,34.450358],[136.252743,34.451056],[136.254499,34.452056],[136.254944,34.452435],[136.255029,34.452605],[136.255018,34.452955],[136.254394,34.453952],[136.254339,34.454481],[136.253953,34.455021],[136.253937,34.455657],[136.254094,34.456121],[136.253812,34.456708],[136.253839,34.45805],[136.254089,34.458463],[136.253984,34.459107],[136.254271,34.459454],[136.254312,34.459792],[136.254579,34.460041],[136.254575,34.460381],[136.254919,34.460674],[136.255042,34.461065],[136.255333,34.461529],[136.256083,34.462293],[136.257406,34.463231],[136.25752,34.463499],[136.258102,34.464136],[136.258195,34.464652],[136.258451,34.464828],[136.259297,34.465007],[136.260499,34.464995],[136.260912,34.464902],[136.261274,34.46499],[136.261623,34.464971],[136.262055,34.465204],[136.262911,34.465236],[136.263315,34.46539],[136.263695,34.465631],[136.264186,34.465755],[136.264544,34.466091],[136.265037,34.466215],[136.266243,34.466969],[136.266728,34.467164],[136.267383,34.467666],[136.267524,34.467716],[136.267869,34.467656],[136.268295,34.467837],[136.26906,34.467799],[136.269361,34.467593],[136.269552,34.467349],[136.269552,34.467119],[136.269466,34.46695],[136.26884,34.466424],[136.268757,34.466136],[136.268176,34.46562],[136.268084,34.465276],[136.267601,34.46469],[136.267381,34.463697],[136.266977,34.463225],[136.266931,34.462948],[136.266724,34.462655],[136.266533,34.462121],[136.266506,34.461779],[136.266146,34.461198],[136.265826,34.460896],[136.265611,34.46033],[136.265637,34.460037],[136.26535,34.459695],[136.265406,34.459344],[136.265043,34.458935],[136.26498,34.458581],[136.264815,34.458282],[136.264826,34.457762],[136.264494,34.457416],[136.264603,34.456365],[136.264582,34.455603],[136.264656,34.455197],[136.264635,34.454434],[136.264709,34.454028],[136.264801,34.451425],[136.265102,34.451432],[136.265788,34.451289],[136.266835,34.451358],[136.267086,34.451334],[136.267579,34.451207],[136.267879,34.450958],[136.267954,34.450954],[136.268877,34.451093],[136.269449,34.451519],[136.269996,34.451604],[136.270885,34.452218],[136.271269,34.452369],[136.272242,34.452316],[136.272785,34.452381],[136.273401,34.452271],[136.274491,34.4523],[136.275836,34.452881],[136.276534,34.452946],[136.277787,34.453346],[136.278823,34.453289],[136.279396,34.453484],[136.279564,34.453468],[136.28097,34.4529],[136.281108,34.452884],[136.28206,34.453092],[136.282321,34.453338],[136.282578,34.453501],[136.28312,34.454209],[136.283263,34.454294],[136.283683,34.454357],[136.284028,34.454651],[136.284858,34.454855],[136.285232,34.455014],[136.285721,34.455337],[136.286185,34.455535],[136.286476,34.455906],[136.286521,34.456026],[136.286595,34.456312],[136.286535,34.456846],[136.286604,34.457134],[136.287152,34.457923],[136.287216,34.458049],[136.287261,34.458557],[136.287335,34.458679],[136.287478,34.458777],[136.287601,34.459063],[136.287621,34.459726],[136.287666,34.459771],[136.288819,34.460217],[136.289313,34.460592],[136.290478,34.460495],[136.290537,34.460524],[136.290739,34.460952],[136.290759,34.461353],[136.291065,34.461631],[136.291494,34.461836],[136.292426,34.461922],[136.292658,34.462007],[136.293408,34.462555],[136.293975,34.462584],[136.294406,34.462489],[136.295032,34.46224],[136.296039,34.462032],[136.296418,34.462032],[136.297774,34.462281],[136.29895,34.462187],[136.299201,34.461999],[136.299798,34.461895],[136.300015,34.461781],[136.30038,34.461389],[136.300454,34.461369],[136.300937,34.461475],[136.301836,34.461578],[136.302981,34.461129],[136.303632,34.461145],[136.303948,34.461108],[136.304135,34.461145],[136.304476,34.461305],[136.30528,34.461247],[136.305838,34.461632],[136.306034,34.461869],[136.306227,34.462209],[136.306257,34.462699],[136.306409,34.462829],[136.307782,34.463276],[136.308648,34.463365],[136.308897,34.463504],[136.309477,34.463602],[136.30982,34.463765],[136.310179,34.463788],[136.310424,34.463734],[136.310533,34.463783],[136.310846,34.464143],[136.311129,34.464683],[136.31113,34.46588],[136.311254,34.46638],[136.311508,34.466674],[136.311624,34.46674],[136.311899,34.46671],[136.312284,34.466759],[136.312444,34.466861],[136.312792,34.467318],[136.312879,34.467372],[136.313337,34.467457],[136.313853,34.467975],[136.314222,34.468173],[136.314243,34.468275],[136.314049,34.468847],[136.313961,34.469604],[136.313773,34.469961],[136.313758,34.470243],[136.314005,34.470832],[136.314564,34.471325],[136.314978,34.471934],[136.315472,34.472806],[136.315791,34.473479],[136.315892,34.473976],[136.315979,34.474141],[136.316204,34.47428],[136.317532,34.474778],[136.318332,34.475188],[136.319195,34.47532],[136.320378,34.476],[136.321286,34.476391],[136.321888,34.47707],[136.322259,34.477269],[136.323173,34.478484],[136.323805,34.478803],[136.324305,34.479272],[136.324384,34.479466],[136.324426,34.479764],[136.324367,34.480189],[136.324384,34.480653],[136.324158,34.481418],[136.324267,34.481912],[136.324267,34.482162],[136.324434,34.482411],[136.324476,34.482578],[136.324509,34.482844],[136.324434,34.483315],[136.324593,34.483682],[136.324618,34.484232],[136.324744,34.484698],[136.324744,34.48483],[136.324392,34.485875],[136.324334,34.486232],[136.324476,34.486704],[136.324644,34.486983],[136.324862,34.487246],[136.325155,34.487484],[136.325238,34.487685],[136.325188,34.487949],[136.324887,34.48824],[136.324753,34.488477],[136.324686,34.489296],[136.324543,34.489817],[136.32456,34.490032],[136.324644,34.490081],[136.324968,34.490117],[136.326915,34.490268],[136.327854,34.490067],[136.328508,34.49031],[136.328959,34.490296],[136.329177,34.490359],[136.330267,34.490928],[136.331198,34.491525],[136.332013,34.491121],[136.332708,34.491086],[136.332917,34.491031],[136.333913,34.49056],[136.334064,34.490539],[136.334223,34.490553],[136.335196,34.491199],[136.335934,34.492026],[136.336168,34.492421],[136.336295,34.492498],[136.336848,34.492644],[136.337132,34.492824],[136.337535,34.49354],[136.33834,34.494783],[136.338507,34.494879],[136.339076,34.495025],[136.339604,34.495692],[136.339873,34.495914],[136.340384,34.496193],[136.340552,34.496492],[136.341054,34.497032],[136.341557,34.497284],[136.3418,34.497734],[136.341993,34.497943],[136.342219,34.498297],[136.343077,34.498939],[136.343334,34.499272],[136.343591,34.499799],[136.343647,34.500328],[136.343803,34.500578],[136.343803,34.501393],[136.344082,34.502317],[136.344183,34.502483],[136.34502,34.503291],[136.345393,34.503966],[136.345503,34.504274],[136.345528,34.504448],[136.34547,34.504658],[136.345255,34.505119],[136.345217,34.505297],[136.34525,34.505459],[136.345629,34.505824],[136.345906,34.506482],[136.346051,34.506687],[136.346389,34.506988],[136.347408,34.507459],[136.348202,34.507611],[136.347901,34.508544],[136.347724,34.508891],[136.347748,34.509261],[136.347306,34.509587],[136.346915,34.50997],[136.346506,34.510531],[136.346134,34.51086],[136.345712,34.511472],[136.345674,34.511612],[136.345746,34.511964],[136.345418,34.512795],[136.345298,34.513557],[136.34476,34.514429],[136.344682,34.515069],[136.344573,34.515276],[136.344224,34.515619],[136.343324,34.516251],[136.343186,34.516456],[136.342905,34.516722],[136.342783,34.517189],[136.34252,34.517446],[136.342446,34.51759],[136.342464,34.517684],[136.342801,34.518197],[136.342795,34.518365],[136.342232,34.519191],[136.341881,34.519419],[136.341584,34.520262],[136.341193,34.520961],[136.341035,34.521046],[136.339664,34.521043],[136.338273,34.522236],[136.33813,34.522473],[136.337879,34.523815],[136.337919,34.523973],[136.33809,34.524099],[136.338262,34.524358],[136.338317,34.524563],[136.338307,34.524618],[136.338106,34.524677],[136.337969,34.524778],[136.337872,34.524889],[136.337803,34.525087],[136.338094,34.525592],[136.337994,34.527729],[136.338036,34.527925],[136.338279,34.528174],[136.338303,34.528277],[136.338275,34.528345],[136.338038,34.528461],[136.337918,34.528586],[136.337709,34.529017],[136.337389,34.529363],[136.33724,34.529608],[136.337106,34.529853],[136.337106,34.530422],[136.337157,34.530563],[136.337302,34.530678],[136.337358,34.530785],[136.337371,34.531105],[136.337528,34.531517],[136.33802,34.531828],[136.338486,34.532276],[136.338699,34.532356],[136.338934,34.532341],[136.339264,34.532531],[136.339566,34.532627],[136.340138,34.532673],[136.340297,34.532731],[136.340356,34.532816],[136.34039,34.533133],[136.340469,34.533204],[136.341263,34.533241],[136.341856,34.533567],[136.342218,34.534315],[136.342715,34.534356],[136.343136,34.534478],[136.344039,34.53491],[136.344403,34.535226],[136.344838,34.535512],[136.346054,34.53607],[136.34636,34.536291],[136.346818,34.536732],[136.347368,34.536913],[136.347864,34.536907],[136.348059,34.536988],[136.348177,34.537142],[136.348324,34.537552],[136.348667,34.537814],[136.349384,34.537863],[136.349605,34.537946],[136.349924,34.538241],[136.349961,34.538483],[136.350551,34.539306],[136.350647,34.539674],[136.351206,34.539849],[136.351319,34.540394],[136.351477,34.540456],[136.351589,34.540637],[136.351657,34.541133],[136.351891,34.541217],[136.352396,34.541208],[136.352796,34.541139],[136.352929,34.541177],[136.353269,34.541602],[136.353652,34.541748],[136.353973,34.542267],[136.354182,34.542448],[136.354676,34.542625],[136.354701,34.542705],[136.354589,34.543264],[136.354772,34.543639],[136.354783,34.543841],[136.354649,34.54431],[136.354955,34.544706],[136.354966,34.544832],[136.354897,34.544978],[136.354197,34.545784],[136.354069,34.546746],[136.354104,34.547198],[136.354221,34.547266],[136.354932,34.547338],[136.35595,34.547641],[136.356691,34.547663],[136.356856,34.547781],[136.357098,34.548206],[136.357623,34.548378],[136.357795,34.548501],[136.357989,34.548747],[136.358306,34.548961],[136.35852,34.54907],[136.358954,34.54919],[136.359866,34.549284],[136.360047,34.549416],[136.360401,34.549895],[136.360573,34.550469],[136.360572,34.550734],[136.360625,34.550929],[136.361035,34.551703],[136.361031,34.552274],[136.361218,34.55312],[136.361725,34.553802],[136.362034,34.55408],[136.362298,34.554483],[136.362652,34.554733],[136.362789,34.55498],[136.362825,34.55549],[136.362673,34.555882],[136.36238,34.556296],[136.362173,34.556933],[136.362139,34.557264],[136.362217,34.557483],[136.36335,34.558044],[136.363634,34.558322],[136.36415,34.558493],[136.364274,34.558684],[136.364537,34.558897],[136.364648,34.559072],[136.364665,34.559216],[136.364596,34.559571],[136.364742,34.559841],[136.365345,34.560487],[136.365709,34.560721],[136.366073,34.561067],[136.366283,34.561198],[136.366966,34.56143],[136.367151,34.561552],[136.367358,34.561717],[136.367759,34.562164],[136.368861,34.563042],[136.369001,34.563402],[136.368996,34.563645],[136.369081,34.563996],[136.369468,34.564687],[136.369551,34.565054],[136.369529,34.565168],[136.369423,34.565314],[136.368755,34.565691],[136.368377,34.566032],[136.369224,34.566903],[136.36951,34.567374],[136.369842,34.567557],[136.370522,34.568101],[136.37068,34.5683],[136.370843,34.568679],[136.371093,34.568862],[136.37147,34.569296],[136.371456,34.569456],[136.371194,34.569658],[136.371114,34.569932],[136.370806,34.570226],[136.370734,34.570611],[136.37076,34.57079],[136.370965,34.57111],[136.370989,34.571557],[136.371065,34.571712],[136.371557,34.572273],[136.371941,34.572499],[136.371925,34.573599],[136.371747,34.574187],[136.37144,34.574705],[136.371356,34.574992],[136.371077,34.575311],[136.370631,34.576179],[136.370079,34.576708],[136.369595,34.576964],[136.369088,34.577059],[136.36853,34.577248],[136.367759,34.577268],[136.367348,34.577446],[136.366928,34.577411],[136.366269,34.577859],[136.365648,34.578917],[136.365472,34.579454],[136.365445,34.579735],[136.365196,34.580156],[136.36521,34.581032],[136.365079,34.581387],[136.365142,34.581735],[136.365009,34.582086],[136.364878,34.5822],[136.364529,34.582394],[136.364313,34.582445],[136.362051,34.58247],[136.361697,34.582355],[136.361424,34.582339],[136.360929,34.582165],[136.360421,34.582133],[136.359722,34.58233],[136.359504,34.582496],[136.359403,34.582676],[136.359575,34.583202],[136.360051,34.584001],[136.360473,34.584408],[136.360818,34.584995],[136.360776,34.585172],[136.360463,34.585692],[136.360286,34.586228],[136.360272,34.586456],[136.360153,34.586756],[136.360151,34.587278],[136.360018,34.587921],[136.360038,34.588682],[136.359826,34.589266],[136.35851,34.590394],[136.35788,34.590694],[136.357024,34.591439],[136.356553,34.591643],[136.356062,34.59205],[136.355646,34.592184],[136.355354,34.592395],[136.354874,34.592596],[136.354515,34.592872],[136.354034,34.593073],[136.353198,34.593783],[136.352709,34.594134],[136.352499,34.594546],[136.352343,34.594717],[136.352293,34.594899],[136.352329,34.59735],[136.351876,34.597952],[136.35158,34.598187],[136.35129,34.598295],[136.351013,34.598309],[136.350655,34.598415],[136.350092,34.598426],[136.349602,34.598553],[136.348258,34.598568],[136.347764,34.598452],[136.346067,34.598476],[136.345433,34.598358],[136.344935,34.598366],[136.344511,34.598483],[136.343944,34.598541],[136.343459,34.598792],[136.342714,34.599451],[136.342372,34.599982],[136.342357,34.600732],[136.342234,34.600975],[136.341462,34.601572],[136.340269,34.601939],[136.339832,34.602031],[136.339348,34.602227],[136.338506,34.60236],[136.337589,34.602599],[136.336033,34.602616],[136.335411,34.602474],[136.334974,34.602205],[136.333687,34.601708],[136.333198,34.601717],[136.332564,34.601897],[136.331311,34.602958],[136.331032,34.60343],[136.330598,34.603718],[136.329917,34.604897],[136.32977,34.605245],[136.329365,34.605837],[136.329251,34.60608],[136.328898,34.606432],[136.328269,34.607196],[136.327708,34.607666],[136.327227,34.607867],[136.326734,34.608216],[136.326174,34.608457],[136.325682,34.608524],[136.325465,34.608631],[136.323864,34.60999],[136.323655,34.6104],[136.323166,34.610813],[136.322536,34.611577],[136.321775,34.61223],[136.321494,34.612584],[136.32101,34.61288],[136.320242,34.613529],[136.31976,34.613727],[136.319191,34.613784],[136.318767,34.613901],[136.317211,34.613918],[136.316428,34.613697],[136.316077,34.613696],[136.315515,34.613574],[136.31508,34.613362],[136.314388,34.613159],[136.313951,34.612888],[136.313169,34.612666],[136.312814,34.612433],[136.31195,34.612114],[136.311449,34.611772],[136.311026,34.611655],[136.310741,34.611481],[136.310044,34.611277],[136.309765,34.611269],[136.309275,34.611402],[136.309043,34.611542],[136.30876,34.611841],[136.308441,34.612669],[136.308423,34.612842],[136.30851,34.61325],[136.308513,34.613602]]],[[[136.472077,34.598479],[136.471803,34.599008],[136.471835,34.600818],[136.471712,34.601694],[136.471554,34.602331],[136.468235,34.608634],[136.467464,34.609174],[136.466205,34.609777],[136.465849,34.609831],[136.465425,34.609823],[136.463939,34.609424],[136.462365,34.609122],[136.461307,34.608708],[136.460385,34.608255],[136.459376,34.606686],[136.459084,34.606399],[136.458716,34.605586],[136.458694,34.605004],[136.459102,34.603716],[136.459088,34.602955],[136.458641,34.60197],[136.457122,34.600472],[136.456596,34.599529],[136.456331,34.598775],[136.456018,34.598327],[136.455677,34.598037],[136.455036,34.597871],[136.45455,34.59799],[136.453904,34.598012],[136.453632,34.597935],[136.452911,34.597252],[136.451981,34.596619],[136.45106,34.596273],[136.449787,34.59605],[136.447734,34.59608],[136.44654,34.596333],[136.44562,34.596344],[136.444053,34.595966],[136.44356,34.595781],[136.443349,34.595612],[136.443207,34.595376],[136.443453,34.594028],[136.444026,34.591991],[136.445175,34.590509],[136.445657,34.59009],[136.445862,34.59001],[136.446279,34.590045],[136.448911,34.590821],[136.452336,34.592037],[136.453031,34.592045],[136.453396,34.591889],[136.453886,34.591401],[136.45427,34.589932],[136.454247,34.588998],[136.453474,34.587655],[136.453357,34.582526],[136.452719,34.581479],[136.452055,34.58073],[136.448625,34.577965],[136.448381,34.577568],[136.447959,34.577161],[136.447532,34.575597],[136.446913,34.574935],[136.445228,34.574476],[136.444401,34.574319],[136.44348,34.573683],[136.443177,34.573358],[136.442175,34.572549],[136.441175,34.572214],[136.440878,34.57193],[136.440085,34.570652],[136.43923,34.569965],[136.438661,34.569732],[136.43845,34.569563],[136.438308,34.569326],[136.43832,34.568868],[136.438901,34.567856],[136.439328,34.567446],[136.441321,34.564285],[136.440995,34.563834],[136.439294,34.562419],[136.437311,34.561356],[136.435986,34.560915],[136.435605,34.560675],[136.434535,34.559748],[136.433748,34.558924],[136.433455,34.558771],[136.431424,34.558801],[136.431124,34.559069],[136.430736,34.559728],[136.430386,34.560024],[136.430101,34.560088],[136.428289,34.560188],[136.427769,34.560325],[136.424,34.563012],[136.422453,34.563844],[136.421646,34.563997],[136.419887,34.562582],[136.418184,34.561023],[136.416712,34.559461],[136.415835,34.558945],[136.413983,34.558823],[136.411041,34.55924],[136.408735,34.559697],[136.406497,34.56068],[136.404496,34.562042],[136.402734,34.561948],[136.401959,34.562507],[136.401913,34.562734],[136.402095,34.562982],[136.402157,34.563254],[136.402399,34.563558],[136.402488,34.563837],[136.402344,34.564312],[136.401891,34.564912],[136.401884,34.56549],[136.401813,34.565671],[136.401308,34.565829],[136.401091,34.566014],[136.401023,34.566773],[136.400293,34.567436],[136.400148,34.567732],[136.39965,34.567835],[136.398604,34.568267],[136.397904,34.568803],[136.397766,34.569037],[136.397799,34.570213],[136.397721,34.570382],[136.397441,34.5705],[136.396604,34.570529],[136.396312,34.570688],[136.396114,34.570987],[136.396126,34.571572],[136.39605,34.571748],[136.395425,34.572042],[136.394988,34.57268],[136.394799,34.572648],[136.394208,34.572114],[136.394282,34.571945],[136.394843,34.571466],[136.39498,34.571231],[136.394893,34.570767],[136.394565,34.570506],[136.394191,34.570369],[136.393484,34.570368],[136.392797,34.57053],[136.392144,34.569855],[136.391784,34.569687],[136.391297,34.569717],[136.390373,34.570106],[136.389104,34.569891],[136.388312,34.570116],[136.388323,34.569864],[136.388546,34.569395],[136.388509,34.568504],[136.387939,34.567628],[136.387893,34.56739],[136.388002,34.567109],[136.388546,34.566573],[136.388749,34.565932],[136.388618,34.565692],[136.388334,34.565447],[136.388027,34.565315],[136.387696,34.565274],[136.387457,34.565137],[136.387028,34.564314],[136.387112,34.564082],[136.387583,34.563826],[136.38797,34.563357],[136.388138,34.562726],[136.388111,34.562439],[136.387983,34.56226],[136.387549,34.56193],[136.386923,34.561669],[136.386877,34.561577],[136.387254,34.560923],[136.387249,34.560222],[136.386659,34.558714],[136.386862,34.558539],[136.387765,34.558201],[136.391554,34.558277],[136.392785,34.559268],[136.393759,34.5605],[136.394373,34.560924],[136.395823,34.559448],[136.398369,34.557816],[136.401098,34.557349],[136.401534,34.556017],[136.401511,34.555916],[136.401381,34.555795],[136.400562,34.555401],[136.400548,34.555288],[136.40138,34.554503],[136.401405,34.553872],[136.401482,34.553696],[136.402246,34.553231],[136.402861,34.552624],[136.403574,34.552101],[136.403898,34.551504],[136.403899,34.550808],[136.404312,34.5494],[136.40444,34.549244],[136.405065,34.549212],[136.405558,34.549328],[136.408379,34.549286],[136.409863,34.548933],[136.410426,34.548914],[136.411493,34.549367],[136.411844,34.549372],[136.412334,34.549245],[136.412757,34.549246],[136.414101,34.549767],[136.414744,34.549804],[136.415305,34.54979],[136.416789,34.549437],[136.417838,34.549293],[136.418262,34.549176],[136.419464,34.549167],[136.420728,34.548914],[136.421653,34.548861],[136.422066,34.548553],[136.4227,34.548255],[136.422961,34.547952],[136.423125,34.547319],[136.423373,34.546898],[136.423363,34.546256],[136.423504,34.545848],[136.423486,34.545145],[136.423901,34.543337],[136.424087,34.543094],[136.42465,34.542686],[136.42542,34.542608],[136.426478,34.542606],[136.427329,34.542829],[136.428047,34.5434],[136.429046,34.54397],[136.429417,34.544313],[136.429762,34.545134],[136.429779,34.545775],[136.429941,34.546235],[136.430363,34.54676],[136.430795,34.5471],[136.431215,34.547222],[136.432081,34.547658],[136.433129,34.547969],[136.433844,34.548123],[136.438791,34.548294],[136.442179,34.548493],[136.451751,34.549538],[136.453087,34.549977],[136.454216,34.550569],[136.458216,34.553267],[136.462374,34.556248],[136.462689,34.559105],[136.462515,34.559644],[136.46235,34.559882],[136.462089,34.559974],[136.461294,34.559772],[136.460786,34.559556],[136.460591,34.559547],[136.459803,34.559769],[136.459583,34.560012],[136.459531,34.560314],[136.459698,34.560719],[136.460325,34.561483],[136.46104,34.561774],[136.461834,34.56197],[136.462325,34.562327],[136.463611,34.564304],[136.464221,34.56575],[136.464678,34.567261],[136.464678,34.567843],[136.463987,34.569366],[136.463549,34.570494],[136.463004,34.571726],[136.462101,34.573252],[136.461963,34.573835],[136.461948,34.574607],[136.462155,34.575286],[136.462563,34.575815],[136.465536,34.578075],[136.46558,34.578466],[136.465317,34.57923],[136.465215,34.580327],[136.46576,34.580916],[136.467107,34.582013],[136.469135,34.583854],[136.46968,34.584911],[136.470383,34.585777],[136.47119,34.587797],[136.471797,34.588774],[136.472138,34.589127],[136.472351,34.589831],[136.472386,34.591814],[136.47227,34.593395],[136.472077,34.598479]]]]}}]}
