{"type":"FeatureCollection","features":[{"type":"Feature","properties":{"potaRef":"JP-1667","nameJa":"Yokokura yama","nameEn":"Yokogurayama Prefectural Nature Park","authority":"環境省 生物多様性「見える化」マップ","boundaryStatus":"全国GIS候補・公開前検証待ち","boundarySource":"環境省 生物多様性「見える化」マップの自然公園区域を、POTA代表座標で一意に空間照合して加工","boundaryScaleNote":"区域は概要データであり、正確性は保証されない。POTA運用可否は公式情報で最終確認すること。","candidateMethod":"POTA representative point inside one public natural-park area","sourceParkKind":"都道府県立自然公園","sourceName":"Yokokura yama","sourceFeatureCount":1,"cautionMeters":75},"geometry":{"type":"MultiPolygon","coordinates":[[[[133.206446,33.534241],[133.206852,33.534633],[133.207517,33.534872],[133.208378,33.534989],[133.210146,33.535026],[133.210275,33.535702],[133.210456,33.53602],[133.210774,33.53641],[133.211222,33.536799],[133.214044,33.537507],[133.214842,33.538176],[133.215574,33.538868],[133.216068,33.539728],[133.216396,33.540526],[133.216374,33.540614],[133.21594,33.540906],[133.215186,33.5408],[133.205377,33.540637],[133.202644,33.540549],[133.200577,33.540358],[133.199907,33.540059],[133.199493,33.539612],[133.199379,33.539367],[133.199392,33.539212],[133.199772,33.537262],[133.200534,33.534159],[133.200775,33.534037],[133.202258,33.534056],[133.203498,33.533953],[133.205755,33.533965],[133.206446,33.534241]]],[[[133.244716,33.515192],[133.244806,33.515214],[133.245214,33.51588],[133.245647,33.517069],[133.245738,33.517767],[133.245398,33.517995],[133.242584,33.518041],[133.242141,33.517968],[133.241722,33.517827],[133.241526,33.51768],[133.241633,33.517241],[133.241887,33.516787],[133.242553,33.516175],[133.243483,33.515421],[133.244066,33.515098],[133.244217,33.515152],[133.244716,33.515192]]],[[[133.249945,33.536695],[133.249545,33.537875],[133.249556,33.540175],[133.247512,33.539327],[133.246102,33.53886],[133.244683,33.538519],[133.243943,33.538147],[133.244302,33.536865],[133.244616,33.536255],[133.244682,33.536172],[133.245316,33.535852],[133.246194,33.534821],[133.246389,33.535422],[133.246933,33.535771],[133.247064,33.535769],[133.247234,33.53561],[133.247826,33.535344],[133.248692,33.535166],[133.250651,33.535616],[133.249945,33.536695]]]]}}]}
