{"type":"FeatureCollection","features":[{"type":"Feature","properties":{"potaRef":"JP-1599","nameJa":"Aono san","nameEn":"Aonoyama Prefectural Nature Park","authority":"環境省 生物多様性「見える化」マップ","boundaryStatus":"全国GIS候補・公開前検証待ち","boundarySource":"環境省 生物多様性「見える化」マップの自然公園区域を、POTA代表座標で一意に空間照合して加工","boundaryScaleNote":"区域は概要データであり、正確性は保証されない。POTA運用可否は公式情報で最終確認すること。","candidateMethod":"POTA representative point inside one public natural-park area","sourceParkKind":"都道府県立自然公園","sourceName":"Aono san","sourceFeatureCount":1,"cautionMeters":75},"geometry":{"type":"MultiPolygon","coordinates":[[[[131.799806,34.478788],[131.799488,34.479495],[131.79913,34.480058],[131.798195,34.478902],[131.797452,34.47826],[131.796447,34.477486],[131.796026,34.477259],[131.795428,34.477051],[131.794758,34.476931],[131.794124,34.4769],[131.792929,34.477056],[131.791738,34.477368],[131.790612,34.477824],[131.789045,34.478559],[131.788476,34.478756],[131.787589,34.478883],[131.786934,34.478866],[131.786432,34.478798],[131.786412,34.478663],[131.785514,34.478232],[131.785079,34.477952],[131.784887,34.477703],[131.784638,34.47757],[131.78388,34.476795],[131.783409,34.476429],[131.782651,34.476105],[131.778534,34.475095],[131.777977,34.474757],[131.777416,34.474171],[131.777206,34.473811],[131.777025,34.473241],[131.776982,34.472909],[131.77701,34.472382],[131.777157,34.471932],[131.777368,34.471551],[131.777858,34.470856],[131.778604,34.469923],[131.778724,34.469708],[131.778776,34.469512],[131.778807,34.468938],[131.778735,34.467758],[131.77857,34.467217],[131.777978,34.465976],[131.777606,34.464234],[131.777429,34.463696],[131.775661,34.460478],[131.775213,34.459533],[131.775104,34.459119],[131.774984,34.458212],[131.774837,34.457792],[131.77443,34.457248],[131.77349,34.456395],[131.773387,34.456205],[131.77335,34.456007],[131.773371,34.454693],[131.773422,34.454231],[131.773336,34.452915],[131.773367,34.45246],[131.773524,34.452072],[131.773691,34.451839],[131.774796,34.450736],[131.774898,34.450518],[131.774986,34.450001],[131.775264,34.449979],[131.775801,34.449844],[131.776561,34.449563],[131.776884,34.449564],[131.777005,34.44963],[131.777286,34.44996],[131.777915,34.450416],[131.778045,34.450434],[131.778678,34.450303],[131.779441,34.450416],[131.780072,34.450303],[131.780345,34.450387],[131.780514,34.450621],[131.780684,34.450747],[131.781428,34.450895],[131.781825,34.451136],[131.782071,34.451188],[131.782621,34.451461],[131.782825,34.451586],[131.783514,34.452216],[131.783783,34.452663],[131.784211,34.453076],[131.784324,34.453246],[131.784847,34.453627],[131.784996,34.454135],[131.784643,34.454636],[131.784473,34.455631],[131.784133,34.456338],[131.784044,34.456618],[131.783992,34.457026],[131.784003,34.457482],[131.783808,34.458187],[131.784009,34.458354],[131.784169,34.458405],[131.785979,34.458474],[131.787015,34.458672],[131.787679,34.458697],[131.7883,34.458645],[131.788481,34.458566],[131.789415,34.457751],[131.789971,34.457366],[131.791301,34.456639],[131.791865,34.456006],[131.792405,34.45602],[131.794696,34.455718],[131.795177,34.455788],[131.7957,34.455993],[131.796079,34.456055],[131.796376,34.456002],[131.796832,34.455752],[131.79797,34.455757],[131.80047,34.456154],[131.800987,34.456295],[131.801511,34.456512],[131.801996,34.456781],[131.803153,34.457536],[131.803559,34.457615],[131.803733,34.457796],[131.803972,34.458235],[131.804516,34.458643],[131.804889,34.459053],[131.805251,34.45926],[131.80559,34.459368],[131.80576,34.459358],[131.805859,34.459284],[131.806136,34.458904],[131.806603,34.458445],[131.808145,34.457799],[131.808777,34.45771],[131.809009,34.457622],[131.810333,34.457509],[131.810491,34.45757],[131.810916,34.45788],[131.811028,34.4579],[131.811516,34.457812],[131.811693,34.457934],[131.811742,34.458086],[131.811751,34.458407],[131.811813,34.458526],[131.811989,34.458582],[131.812617,34.458617],[131.812704,34.458582],[131.812724,34.458449],[131.81253,34.458177],[131.812691,34.458029],[131.812808,34.457742],[131.812907,34.457656],[131.813274,34.457519],[131.813678,34.457699],[131.813792,34.45769],[131.813846,34.457598],[131.813815,34.457257],[131.813858,34.457188],[131.814098,34.457329],[131.814624,34.457462],[131.814697,34.457525],[131.814726,34.457626],[131.814586,34.457828],[131.814585,34.458001],[131.814878,34.458458],[131.814988,34.45854],[131.815044,34.458822],[131.815421,34.459479],[131.815428,34.459753],[131.815338,34.460168],[131.815327,34.460529],[131.815153,34.461178],[131.814919,34.461502],[131.814797,34.46201],[131.814331,34.46261],[131.81412,34.463022],[131.813962,34.463782],[131.813689,34.464261],[131.813718,34.464759],[131.813895,34.465194],[131.813974,34.465669],[131.814121,34.465979],[131.814203,34.466374],[131.814669,34.466834],[131.81505,34.466982],[131.815209,34.467109],[131.815214,34.467517],[131.815301,34.467732],[131.815842,34.468179],[131.816031,34.468396],[131.815582,34.46852],[131.81518,34.468787],[131.814404,34.469074],[131.813714,34.469134],[131.81365,34.46909],[131.813605,34.46894],[131.813586,34.468522],[131.813542,34.468405],[131.81346,34.46841],[131.813301,34.468561],[131.813166,34.468616],[131.813054,34.468571],[131.812873,34.468314],[131.812771,34.468283],[131.812701,34.46838],[131.812768,34.468642],[131.812767,34.468894],[131.812614,34.469337],[131.812525,34.46947],[131.812428,34.469514],[131.812335,34.469473],[131.812243,34.469263],[131.812054,34.469127],[131.811856,34.468874],[131.811731,34.468855],[131.811501,34.468913],[131.811374,34.469022],[131.811386,34.469244],[131.811323,34.469335],[131.811232,34.469701],[131.811293,34.469917],[131.811261,34.470137],[131.811188,34.470208],[131.810655,34.470427],[131.810584,34.470385],[131.810407,34.46998],[131.810228,34.469755],[131.809932,34.469474],[131.80966,34.46937],[131.809657,34.469481],[131.81006,34.47009],[131.810169,34.470381],[131.810462,34.47073],[131.810403,34.471081],[131.810078,34.471978],[131.80911,34.472401],[131.808876,34.472551],[131.808171,34.473311],[131.807694,34.473928],[131.807428,34.47414],[131.806366,34.474375],[131.805497,34.474956],[131.805342,34.47515],[131.805342,34.475495],[131.805289,34.475689],[131.804968,34.476192],[131.80452,34.477322],[131.804267,34.47763],[131.803693,34.478009],[131.803062,34.478581],[131.802691,34.478805],[131.801979,34.47907],[131.801344,34.479017],[131.800922,34.478881],[131.799806,34.478788]]],[[[131.76602,34.46535],[131.765772,34.465408],[131.765153,34.465409],[131.765112,34.465265],[131.765143,34.464913],[131.764431,34.46424],[131.76407,34.46401],[131.763873,34.46369],[131.763217,34.463731],[131.762765,34.463849],[131.761409,34.463829],[131.761261,34.463761],[131.761016,34.463456],[131.760084,34.463234],[131.759826,34.463048],[131.759334,34.462407],[131.759276,34.462248],[131.760332,34.462215],[131.760488,34.462052],[131.759517,34.461686],[131.759458,34.461543],[131.75933,34.461487],[131.759335,34.461368],[131.759441,34.461231],[131.759596,34.461133],[131.75965,34.460993],[131.759988,34.460836],[131.759961,34.460551],[131.759762,34.460483],[131.759141,34.460577],[131.758886,34.460553],[131.758533,34.46002],[131.758369,34.459927],[131.758295,34.459786],[131.758162,34.459685],[131.75806,34.459433],[131.758099,34.459299],[131.758026,34.459086],[131.758012,34.458809],[131.758043,34.458738],[131.758187,34.458671],[131.758221,34.458586],[131.758205,34.458388],[131.758109,34.458292],[131.758093,34.458197],[131.758141,34.457995],[131.75826,34.457864],[131.758295,34.45774],[131.758297,34.45759],[131.758209,34.457376],[131.758129,34.457309],[131.757892,34.457302],[131.757828,34.456611],[131.757661,34.456369],[131.755927,34.454814],[131.756044,34.454761],[131.756095,34.454629],[131.756279,34.454553],[131.756427,34.454671],[131.756736,34.454511],[131.756907,34.454306],[131.757149,34.454154],[131.757293,34.453923],[131.757926,34.453468],[131.758136,34.453451],[131.758395,34.453345],[131.758486,34.453189],[131.758417,34.453039],[131.758945,34.45267],[131.759362,34.452462],[131.759845,34.452411],[131.76049,34.452493],[131.760563,34.452545],[131.760621,34.452758],[131.760928,34.452902],[131.761194,34.452924],[131.761511,34.452828],[131.762108,34.453069],[131.762319,34.453018],[131.762404,34.453049],[131.762886,34.453347],[131.763261,34.453695],[131.7642,34.454422],[131.764505,34.454732],[131.764811,34.454891],[131.765319,34.455251],[131.765676,34.455726],[131.765867,34.456398],[131.766413,34.457555],[131.766589,34.458084],[131.766898,34.458439],[131.766928,34.458652],[131.767393,34.459608],[131.767356,34.460102],[131.767514,34.46025],[131.76751,34.460437],[131.767754,34.461049],[131.76802,34.461362],[131.768103,34.461639],[131.768201,34.461793],[131.768182,34.46202],[131.767962,34.462361],[131.767831,34.46297],[131.767712,34.463107],[131.767366,34.463233],[131.767276,34.46341],[131.767375,34.463522],[131.767711,34.463621],[131.767848,34.463718],[131.767961,34.463916],[131.767988,34.464304],[131.768467,34.464482],[131.76882,34.464908],[131.768808,34.465089],[131.768533,34.465222],[131.768507,34.465376],[131.767634,34.46507],[131.766803,34.465321],[131.76602,34.46535]]],[[[131.830299,34.487272],[131.830002,34.487413],[131.829466,34.487516],[131.829107,34.487695],[131.827994,34.488064],[131.82763,34.48828],[131.827261,34.488645],[131.827028,34.488723],[131.826567,34.488601],[131.825462,34.488467],[131.824836,34.488133],[131.824425,34.487978],[131.823343,34.487678],[131.822872,34.48737],[131.822619,34.48726],[131.821691,34.487148],[131.82058,34.486934],[131.819717,34.486627],[131.819581,34.486043],[131.819331,34.485487],[131.818872,34.48483],[131.818737,34.4847],[131.818364,34.48448],[131.817564,34.484142],[131.817853,34.483018],[131.818202,34.482091],[131.818396,34.481703],[131.818665,34.481331],[131.819481,34.481085],[131.820074,34.48101],[131.820298,34.48107],[131.820918,34.481037],[131.821256,34.480964],[131.822245,34.4806],[131.822459,34.480438],[131.823271,34.480091],[131.823797,34.479776],[131.824284,34.479652],[131.824755,34.479322],[131.825813,34.478921],[131.826004,34.478676],[131.826157,34.478589],[131.827175,34.478854],[131.827649,34.479083],[131.82814,34.479445],[131.82843,34.479571],[131.8291,34.479653],[131.829503,34.479821],[131.830271,34.479845],[131.830771,34.479945],[131.832061,34.48024],[131.832913,34.480568],[131.83342,34.480991],[131.833402,34.481157],[131.832858,34.481481],[131.832606,34.481764],[131.832739,34.482138],[131.832388,34.482757],[131.832342,34.483064],[131.832422,34.483364],[131.832377,34.483608],[131.831686,34.484173],[131.831504,34.484451],[131.831274,34.484648],[131.831224,34.484727],[131.831157,34.485314],[131.830698,34.485649],[131.83029,34.486149],[131.830236,34.486485],[131.830299,34.487272]]]]}}]}
