{"type":"FeatureCollection","features":[{"type":"Feature","properties":{"potaRef":"JP-1065","nameJa":"Tazawako dakigaeri","nameEn":"Tazawako Dakigaeri Prefectural Nature Park","authority":"環境省 生物多様性「見える化」マップ","boundaryStatus":"全国GIS候補・公開前検証待ち","boundarySource":"環境省 生物多様性「見える化」マップの自然公園区域を、POTA代表座標で一意に空間照合して加工","boundaryScaleNote":"区域は概要データであり、正確性は保証されない。POTA運用可否は公式情報で最終確認すること。","candidateMethod":"POTA representative point inside one public natural-park area","sourceParkKind":"都道府県立自然公園","sourceName":"Tazawako dakigaeri","sourceFeatureCount":1,"cautionMeters":75},"geometry":{"type":"MultiPolygon","coordinates":[[[[140.659728,39.757086],[140.659255,39.757147],[140.658475,39.757554],[140.658295,39.758042],[140.658178,39.75821],[140.657652,39.75834],[140.657522,39.758494],[140.657458,39.758729],[140.657357,39.758845],[140.656804,39.759051],[140.656485,39.759284],[140.656135,39.759803],[140.655835,39.760477],[140.6557,39.760628],[140.654971,39.761021],[140.654874,39.761019],[140.654628,39.760915],[140.654395,39.760734],[140.654313,39.760255],[140.65421,39.760139],[140.653961,39.760022],[140.652961,39.759757],[140.652692,39.759521],[140.652216,39.758868],[140.651364,39.758481],[140.651284,39.758365],[140.651452,39.757939],[140.651433,39.757801],[140.651227,39.757517],[140.65076,39.757181],[140.650085,39.756917],[140.649313,39.756759],[140.648961,39.756746],[140.648513,39.756811],[140.64757,39.757128],[140.646915,39.757287],[140.646693,39.757413],[140.646314,39.757517],[140.646071,39.757519],[140.645522,39.757362],[140.64475,39.756959],[140.644549,39.756974],[140.644155,39.757157],[140.643924,39.757154],[140.643772,39.757033],[140.643405,39.756511],[140.642886,39.756217],[140.642662,39.756183],[140.641915,39.75627],[140.641592,39.756153],[140.640864,39.755759],[140.639945,39.755789],[140.639593,39.755716],[140.639348,39.755594],[140.638752,39.75515],[140.638605,39.754974],[140.63841,39.754164],[140.638222,39.753863],[140.63795,39.753219],[140.637476,39.751663],[140.637156,39.75141],[140.637059,39.751235],[140.637042,39.750928],[140.637162,39.750546],[140.636995,39.750377],[140.636924,39.750067],[140.636603,39.749875],[140.636494,39.749562],[140.636391,39.749491],[140.636215,39.749465],[140.635591,39.749561],[140.635165,39.749504],[140.634917,39.749097],[140.633999,39.748421],[140.63359,39.747819],[140.633449,39.746452],[140.632824,39.745991],[140.632687,39.745801],[140.632501,39.745259],[140.632472,39.744855],[140.632545,39.744608],[140.632529,39.744202],[140.632725,39.743739],[140.632787,39.74339],[140.632569,39.742928],[140.632335,39.74278],[140.630767,39.742179],[140.630321,39.741886],[140.62981,39.741382],[140.629603,39.741249],[140.629129,39.741207],[140.628658,39.741288],[140.628533,39.741362],[140.628133,39.741804],[140.627933,39.741941],[140.627832,39.741979],[140.627699,39.74194],[140.627606,39.741339],[140.627411,39.740818],[140.626576,39.739313],[140.626376,39.739063],[140.625676,39.73839],[140.625535,39.738194],[140.62523,39.737388],[140.625212,39.737098],[140.625494,39.73602],[140.625478,39.735619],[140.625802,39.734344],[140.625691,39.733677],[140.625755,39.732807],[140.625713,39.732366],[140.625449,39.731497],[140.62522,39.731137],[140.624703,39.730933],[140.624595,39.730825],[140.624549,39.73065],[140.624556,39.730111],[140.624489,39.729935],[140.623223,39.728738],[140.623174,39.728124],[140.623073,39.727816],[140.622881,39.727567],[140.622741,39.727495],[140.621879,39.726698],[140.621777,39.726506],[140.621735,39.726196],[140.621774,39.726041],[140.621881,39.725772],[140.622592,39.724622],[140.622744,39.724276],[140.622795,39.72389],[140.622703,39.723465],[140.622233,39.722751],[140.622185,39.7225],[140.622225,39.721659],[140.621593,39.719788],[140.621504,39.719292],[140.6214,39.71833],[140.621276,39.717821],[140.62129,39.71728],[140.621239,39.717117],[140.621237,39.716728],[140.621394,39.716542],[140.621807,39.716361],[140.621889,39.716187],[140.621743,39.715901],[140.621319,39.715612],[140.621219,39.715497],[140.621134,39.715226],[140.6212,39.714805],[140.621322,39.71463],[140.621526,39.71446],[140.622099,39.714228],[140.622188,39.714149],[140.622192,39.713982],[140.621944,39.713398],[140.621998,39.713053],[140.622198,39.712707],[140.623008,39.712057],[140.623106,39.711827],[140.623177,39.711112],[140.623378,39.710709],[140.623767,39.710253],[140.625164,39.70939],[140.625819,39.708894],[140.626168,39.708471],[140.626309,39.708221],[140.626294,39.707759],[140.626342,39.707505],[140.626503,39.707242],[140.626694,39.707102],[140.626947,39.70701],[140.628091,39.706795],[140.628739,39.706569],[140.629293,39.70621],[140.629499,39.705866],[140.629547,39.705364],[140.629345,39.704711],[140.629004,39.704227],[140.628524,39.703863],[140.628388,39.703666],[140.628306,39.703436],[140.628242,39.702916],[140.628243,39.701704],[140.628293,39.701339],[140.628531,39.700687],[140.628751,39.70034],[140.629168,39.699858],[140.629727,39.699537],[140.631026,39.699004],[140.631379,39.698753],[140.631548,39.69848],[140.631659,39.697848],[140.631777,39.697559],[140.632043,39.697017],[140.632549,39.696328],[140.634359,39.694699],[140.635011,39.694183],[140.635644,39.693515],[140.636435,39.693031],[140.637064,39.692497],[140.637348,39.691826],[140.637721,39.691365],[140.638111,39.69105],[140.63881,39.690748],[140.63919,39.690213],[140.63969,39.68981],[140.64069,39.689179],[140.641542,39.688784],[140.64204,39.688433],[140.642449,39.687937],[140.643346,39.686361],[140.643801,39.685746],[140.643649,39.685455],[140.643203,39.684934],[140.642855,39.684184],[140.642515,39.682413],[140.642337,39.681835],[140.642246,39.681352],[140.642264,39.681138],[140.642396,39.680733],[140.642961,39.679721],[140.642971,39.679587],[140.642836,39.6795],[140.64238,39.679378],[140.642215,39.679275],[140.642158,39.679141],[140.642161,39.67891],[140.642088,39.678736],[140.641592,39.678408],[140.641385,39.678197],[140.64097,39.677212],[140.640278,39.676056],[140.639963,39.675401],[140.63953,39.674146],[140.639404,39.673282],[140.639432,39.672917],[140.639512,39.672726],[140.63965,39.672531],[140.639904,39.672336],[140.640355,39.672302],[140.641396,39.672529],[140.642343,39.672653],[140.643048,39.672591],[140.643418,39.67245],[140.64342,39.672273],[140.643156,39.671296],[140.643105,39.670504],[140.643181,39.670332],[140.643351,39.670156],[140.643625,39.67],[140.644151,39.669908],[140.644502,39.669921],[140.645141,39.669994],[140.647453,39.670409],[140.64632,39.669397],[140.645584,39.66881],[140.644606,39.668124],[140.643965,39.667543],[140.643214,39.666966],[140.643041,39.666619],[140.643051,39.66627],[140.643004,39.666096],[140.642433,39.665652],[140.642148,39.665288],[140.642083,39.664979],[140.642094,39.664693],[140.642307,39.664016],[140.642534,39.663612],[140.642864,39.663286],[140.643239,39.663076],[140.643492,39.663024],[140.643742,39.663046],[140.644239,39.663206],[140.644757,39.663465],[140.646369,39.664472],[140.647558,39.665306],[140.64843,39.66565],[140.649103,39.665998],[140.6493,39.666289],[140.649496,39.666963],[140.649846,39.667189],[140.650563,39.667351],[140.65131,39.667336],[140.652355,39.667229],[140.652604,39.667264],[140.652853,39.667375],[140.652904,39.667474],[140.652763,39.668437],[140.652872,39.668647],[140.65307,39.668821],[140.653665,39.669093],[140.654338,39.669133],[140.654816,39.669085],[140.657552,39.668525],[140.659793,39.667911],[140.661914,39.667616],[140.662561,39.667559],[140.662859,39.667585],[140.662785,39.667733],[140.661062,39.668591],[140.660511,39.669034],[140.660409,39.669169],[140.660159,39.669804],[140.659198,39.671241],[140.65903,39.671937],[140.658734,39.673633],[140.658604,39.673939],[140.65827,39.674379],[140.658492,39.675167],[140.658461,39.675628],[140.657928,39.676496],[140.658305,39.677418],[140.658284,39.677785],[140.658127,39.67815],[140.6579,39.679034],[140.657741,39.679261],[140.656458,39.680199],[140.656321,39.680545],[140.656748,39.680816],[140.657092,39.680879],[140.657417,39.68088],[140.657991,39.680787],[140.658609,39.680573],[140.658984,39.680508],[140.659535,39.680499],[140.660062,39.680549],[140.660904,39.680715],[140.662426,39.68069],[140.663437,39.680806],[140.664911,39.680783],[140.665487,39.680677],[140.665833,39.680533],[140.666143,39.680292],[140.666244,39.680059],[140.666247,39.679925],[140.666339,39.67987],[140.666935,39.679791],[140.668877,39.679699],[140.66933,39.679865],[140.669753,39.679952],[140.670596,39.679951],[140.672258,39.680638],[140.672515,39.680901],[140.672758,39.681461],[140.67304,39.681852],[140.67342,39.682065],[140.673721,39.68208],[140.674468,39.681985],[140.675195,39.682044],[140.676106,39.682397],[140.676956,39.682457],[140.677178,39.682519],[140.678299,39.683038],[140.678524,39.683018],[140.679274,39.682736],[140.67972,39.682655],[140.680466,39.682658],[140.681569,39.682335],[140.681962,39.682357],[140.682213,39.682448],[140.682584,39.682682],[140.682853,39.682953],[140.683032,39.683279],[140.683185,39.683451],[140.683604,39.683723],[140.683675,39.683878],[140.683715,39.684515],[140.683846,39.684706],[140.684361,39.684941],[140.684523,39.685225],[140.684744,39.685476],[140.685084,39.685768],[140.685814,39.686247],[140.685931,39.686558],[140.686226,39.686886],[140.68633,39.687116],[140.686423,39.687751],[140.686573,39.688137],[140.68703,39.688931],[140.687708,39.689834],[140.687903,39.690316],[140.687811,39.690646],[140.687469,39.690947],[140.687376,39.691103],[140.687405,39.691773],[140.687529,39.692044],[140.687746,39.6922],[140.687993,39.692299],[140.688441,39.692397],[140.689591,39.692246],[140.690062,39.692303],[140.69128,39.692844],[140.691727,39.693116],[140.691901,39.693289],[140.692044,39.693523],[140.6922,39.693963],[140.692293,39.6941],[140.692517,39.694275],[140.692889,39.694469],[140.694336,39.695026],[140.694433,39.695201],[140.694443,39.695454],[140.694244,39.69593],[140.694273,39.696126],[140.694509,39.696392],[140.694557,39.696739],[140.694674,39.697049],[140.694817,39.697282],[140.695266,39.697782],[140.695638,39.698054],[140.695985,39.698231],[140.698001,39.698964],[140.698236,39.699133],[140.698371,39.699311],[140.698476,39.699695],[140.698394,39.699926],[140.6978,39.700272],[140.697764,39.700426],[140.69794,39.700639],[140.698419,39.700925],[140.698907,39.701353],[140.699352,39.701836],[140.69933,39.702063],[140.699029,39.702389],[140.698953,39.702542],[140.699134,39.703199],[140.699065,39.703484],[140.699072,39.70372],[140.699149,39.703969],[140.699947,39.705412],[140.699955,39.705781],[140.700059,39.706138],[140.700331,39.706474],[140.7009,39.706976],[140.701068,39.707264],[140.700903,39.708051],[140.700899,39.708397],[140.701163,39.70944],[140.701193,39.709784],[140.701073,39.710094],[140.700509,39.710723],[140.700419,39.710899],[140.700418,39.711128],[140.700552,39.711422],[140.700867,39.711763],[140.701682,39.712363],[140.702003,39.712653],[140.702555,39.713288],[140.703241,39.71385],[140.703686,39.71441],[140.703801,39.714776],[140.703738,39.71514],[140.703609,39.715466],[140.703613,39.7156],[140.703677,39.715738],[140.703989,39.7161],[140.704091,39.71633],[140.704156,39.71666],[140.704109,39.71712],[140.704905,39.718103],[140.704864,39.718972],[140.704941,39.719241],[140.705257,39.719667],[140.705858,39.720302],[140.705779,39.720744],[140.705419,39.721433],[140.705324,39.721898],[140.705353,39.722051],[140.705321,39.722474],[140.705049,39.723244],[140.704827,39.72363],[140.70434,39.724202],[140.704273,39.724339],[140.704241,39.724878],[140.704389,39.72559],[140.704394,39.725996],[140.704016,39.727054],[140.70393,39.727627],[140.703956,39.72807],[140.704065,39.728556],[140.704238,39.72894],[140.704145,39.729108],[140.70297,39.72997],[140.702525,39.730472],[140.702296,39.730833],[140.702244,39.731048],[140.702315,39.731358],[140.702469,39.731666],[140.702444,39.731761],[140.701168,39.732288],[140.700981,39.73242],[140.700823,39.733008],[140.700295,39.733449],[140.700359,39.734045],[140.700151,39.735066],[140.700189,39.735429],[140.700511,39.736065],[140.700685,39.736174],[140.701077,39.736225],[140.701154,39.736433],[140.701271,39.736519],[140.702247,39.736615],[140.703265,39.73769],[140.703988,39.738095],[140.704134,39.738288],[140.704267,39.738766],[140.704592,39.73942],[140.704655,39.739827],[140.704632,39.740099],[140.70437,39.74048],[140.703656,39.741155],[140.70354,39.741342],[140.703445,39.74171],[140.703349,39.741789],[140.702845,39.741896],[140.702498,39.742167],[140.701352,39.742244],[140.701172,39.742338],[140.700876,39.743107],[140.700948,39.743225],[140.701217,39.743418],[140.701224,39.743553],[140.701123,39.743957],[140.700522,39.744725],[140.700289,39.745473],[140.699569,39.746012],[140.699164,39.746665],[140.699012,39.746717],[140.697719,39.746734],[140.697091,39.746805],[140.696519,39.747018],[140.69619,39.74727],[140.696178,39.747404],[140.696267,39.747581],[140.696262,39.747732],[140.696001,39.747966],[140.695942,39.7481],[140.696084,39.748563],[140.696094,39.748889],[140.69544,39.749502],[140.695103,39.74994],[140.694943,39.750293],[140.69471,39.751097],[140.694349,39.751902],[140.694099,39.752229],[140.693775,39.752495],[140.693608,39.7526],[140.693356,39.752655],[140.693109,39.752608],[140.692638,39.752315],[140.692362,39.752242],[140.692082,39.752234],[140.691839,39.752286],[140.691189,39.752591],[140.690437,39.752873],[140.688888,39.752862],[140.6863,39.753154],[140.683487,39.753153],[140.68288,39.753329],[140.682331,39.75366],[140.681624,39.754291],[140.681278,39.754696],[140.681082,39.754832],[140.678876,39.755707],[140.678086,39.756077],[140.677614,39.756254],[140.677086,39.756343],[140.676092,39.756053],[140.675792,39.756263],[140.675364,39.756352],[140.67514,39.756452],[140.67464,39.756892],[140.674115,39.757256],[140.673916,39.757295],[140.673345,39.757278],[140.672597,39.757528],[140.672294,39.757578],[140.671721,39.757577],[140.671077,39.757697],[140.670648,39.757883],[140.670043,39.758296],[140.669847,39.758362],[140.668628,39.758408],[140.668055,39.758234],[140.667459,39.757862],[140.664717,39.758148],[140.663961,39.757963],[140.663245,39.758004],[140.662543,39.757843],[140.661922,39.757512],[140.6612,39.757204],[140.660624,39.757168],[140.660278,39.757063],[140.659728,39.757086]]],[[[140.71407,39.661714],[140.713722,39.662407],[140.713554,39.662639],[140.713243,39.662843],[140.712843,39.662874],[140.711454,39.662575],[140.710386,39.662242],[140.709596,39.661693],[140.708995,39.661182],[140.708323,39.661257],[140.707924,39.661219],[140.707306,39.660964],[140.706906,39.66062],[140.70653,39.660395],[140.704994,39.659995],[140.704452,39.659583],[140.703353,39.659266],[140.702902,39.659095],[140.702656,39.658935],[140.702484,39.65876],[140.702417,39.658585],[140.702162,39.658258],[140.702087,39.658245],[140.701633,39.657741],[140.701092,39.656623],[140.700909,39.656349],[140.700282,39.655944],[140.700135,39.65579],[140.699942,39.655288],[140.69986,39.654887],[140.699988,39.654186],[140.700063,39.65415],[140.699761,39.653753],[140.699273,39.653378],[140.698873,39.653115],[140.698154,39.652764],[140.697012,39.652373],[140.693425,39.65172],[140.693081,39.651634],[140.692974,39.651562],[140.692933,39.651445],[140.693112,39.650964],[140.693292,39.650158],[140.693603,39.64912],[140.693599,39.648923],[140.693341,39.648405],[140.692715,39.647944],[140.692237,39.647379],[140.691575,39.646745],[140.691565,39.646689],[140.69181,39.646535],[140.691858,39.646284],[140.691332,39.645554],[140.690794,39.645031],[140.690543,39.644704],[140.690029,39.644332],[140.689085,39.643963],[140.68792,39.643171],[140.68732,39.642693],[140.687026,39.642363],[140.686803,39.641922],[140.685656,39.640651],[140.685213,39.640034],[140.684967,39.639844],[140.684475,39.639675],[140.683753,39.639566],[140.683229,39.639431],[140.681733,39.638917],[140.680526,39.63844],[140.679801,39.638351],[140.678704,39.638075],[140.67811,39.637799],[140.67792,39.637508],[140.677865,39.637163],[140.677763,39.636993],[140.677615,39.636916],[140.67575,39.637102],[140.674305,39.637153],[140.673529,39.637227],[140.670997,39.637281],[140.669428,39.63763],[140.668877,39.63769],[140.668207,39.637694],[140.66644,39.637461],[140.666065,39.637479],[140.665941,39.637423],[140.665374,39.637393],[140.664699,39.637263],[140.664149,39.637056],[140.663161,39.636562],[140.662892,39.63635],[140.662763,39.63614],[140.662772,39.636008],[140.663062,39.635658],[140.663285,39.635498],[140.665176,39.636452],[140.665625,39.636589],[140.665901,39.636604],[140.666894,39.636458],[140.667192,39.6365],[140.668063,39.636746],[140.668559,39.636752],[140.669229,39.636634],[140.670177,39.636268],[140.670903,39.636171],[140.673544,39.63633],[140.673762,39.636303],[140.674009,39.636205],[140.674384,39.635937],[140.674608,39.635842],[140.675531,39.635872],[140.676304,39.635679],[140.676636,39.635431],[140.676753,39.635237],[140.677143,39.634888],[140.677262,39.63468],[140.677242,39.634582],[140.677132,39.63454],[140.676759,39.634522],[140.675882,39.634709],[140.675285,39.634745],[140.673171,39.635267],[140.672723,39.635305],[140.672469,39.635271],[140.671431,39.63493],[140.671187,39.634778],[140.670434,39.633528],[140.670121,39.63312],[140.669773,39.632811],[140.669128,39.632406],[140.668606,39.632002],[140.667666,39.631817],[140.667093,39.631496],[140.667019,39.631324],[140.667132,39.630999],[140.667138,39.630633],[140.667072,39.630439],[140.66668,39.629801],[140.666738,39.628973],[140.666656,39.628534],[140.666439,39.627818],[140.665881,39.626975],[140.665599,39.62597],[140.665178,39.625334],[140.664948,39.624873],[140.664099,39.622752],[140.664099,39.622559],[140.664238,39.621889],[140.664491,39.619637],[140.664622,39.619158],[140.664895,39.618619],[140.664939,39.618406],[140.66498,39.617885],[140.664868,39.617579],[140.664568,39.617264],[140.66425,39.617152],[140.663828,39.617092],[140.662185,39.617187],[140.660916,39.61718],[140.658802,39.616602],[140.657439,39.615387],[140.657022,39.615184],[140.656148,39.61486],[140.655738,39.614336],[140.655311,39.614028],[140.655054,39.613665],[140.654864,39.613508],[140.654639,39.613394],[140.653994,39.613256],[140.653787,39.613122],[140.653584,39.612866],[140.653476,39.612503],[140.653416,39.611519],[140.653249,39.610948],[140.65259,39.610231],[140.651798,39.609594],[140.649982,39.608709],[140.649832,39.608569],[140.649669,39.607317],[140.649697,39.607144],[140.650614,39.607185],[140.651308,39.607287],[140.652012,39.607469],[140.652923,39.607852],[140.653716,39.608279],[140.65447,39.60842],[140.654768,39.608536],[140.65546,39.60893],[140.655607,39.60891],[140.655762,39.608823],[140.656032,39.608587],[140.656402,39.608765],[140.657152,39.608877],[140.657399,39.60886],[140.657721,39.608763],[140.658119,39.608013],[140.65852,39.607495],[140.658801,39.606766],[140.659146,39.60613],[140.65937,39.60588],[140.659576,39.605725],[140.660254,39.605467],[140.661325,39.60524],[140.662123,39.605165],[140.662711,39.605188],[140.663033,39.605335],[140.663165,39.605529],[140.662908,39.606047],[140.662952,39.606166],[140.663054,39.606245],[140.6645,39.606223],[140.6652,39.606336],[140.665815,39.606509],[140.666074,39.606521],[140.666144,39.606403],[140.665706,39.605591],[140.66567,39.605266],[140.66572,39.605014],[140.666278,39.604191],[140.666479,39.603629],[140.666534,39.602999],[140.666532,39.602228],[140.666466,39.601208],[140.666261,39.600171],[140.666092,39.599727],[140.665852,39.599397],[140.665361,39.599141],[140.665325,39.599028],[140.666004,39.598858],[140.666336,39.598439],[140.666778,39.598014],[140.6669,39.597978],[140.667079,39.598017],[140.667347,39.598308],[140.6676,39.598399],[140.667816,39.598539],[140.668537,39.599348],[140.671564,39.60073],[140.671789,39.60074],[140.671988,39.600609],[140.67217,39.600361],[140.672318,39.599917],[140.67231,39.599727],[140.672242,39.599552],[140.672145,39.599456],[140.671599,39.599377],[140.671472,39.599318],[140.671452,39.599242],[140.671504,39.599192],[140.671774,39.599163],[140.672219,39.599226],[140.672468,39.599323],[140.67269,39.599475],[140.673231,39.600171],[140.673905,39.60071],[140.674029,39.601056],[140.674045,39.601773],[140.673997,39.602597],[140.67387,39.603212],[140.673721,39.603481],[140.673269,39.60398],[140.67302,39.604156],[140.672123,39.60452],[140.672008,39.604649],[140.672008,39.604724],[140.672115,39.604881],[140.672836,39.605212],[140.673194,39.605727],[140.673505,39.60606],[140.673906,39.606286],[140.674125,39.606352],[140.674822,39.606406],[140.675271,39.606234],[140.675844,39.605775],[140.676245,39.605566],[140.676967,39.605453],[140.677615,39.605412],[140.677942,39.605485],[140.678158,39.605611],[140.678416,39.605954],[140.678976,39.606535],[140.679179,39.606682],[140.679643,39.606852],[140.679994,39.606863],[140.681163,39.606575],[140.681617,39.60649],[140.681741,39.606523],[140.681787,39.606581],[140.681772,39.606661],[140.681501,39.607],[140.681389,39.607274],[140.681388,39.607445],[140.681532,39.607908],[140.681341,39.60843],[140.681356,39.608696],[140.681459,39.609041],[140.681625,39.609275],[140.682045,39.609492],[140.682273,39.609718],[140.682857,39.610762],[140.683189,39.611201],[140.683197,39.611476],[140.68325,39.611591],[140.683354,39.611668],[140.683706,39.611761],[140.683879,39.612072],[140.684227,39.612204],[140.684305,39.612281],[140.684528,39.612667],[140.684795,39.612821],[140.685168,39.612826],[140.685913,39.612691],[140.686334,39.612687],[140.686888,39.612508],[140.687209,39.612483],[140.687435,39.612535],[140.687658,39.612773],[140.68773,39.613024],[140.687683,39.613276],[140.687559,39.613469],[140.687502,39.613678],[140.687565,39.614047],[140.687849,39.614563],[140.688085,39.614856],[140.688539,39.615276],[140.688817,39.61539],[140.689608,39.615279],[140.689936,39.615294],[140.690156,39.615358],[140.691127,39.615856],[140.691447,39.615865],[140.692214,39.615783],[140.692543,39.615828],[140.692705,39.615965],[140.69343,39.617348],[140.694699,39.617544],[140.695023,39.617552],[140.6953,39.617509],[140.695698,39.617361],[140.696366,39.616987],[140.697568,39.61592],[140.699115,39.615136],[140.699661,39.614727],[140.69976,39.614328],[140.699673,39.612243],[140.69971,39.611902],[140.699899,39.611247],[140.700202,39.610496],[140.700111,39.610034],[140.699142,39.60782],[140.699095,39.607165],[140.699152,39.606378],[140.699007,39.604704],[140.699052,39.60395],[140.699154,39.603758],[140.699536,39.603299],[140.700011,39.6028],[140.701013,39.602077],[140.702308,39.601289],[140.70268,39.601149],[140.703007,39.601205],[140.703504,39.601439],[140.703987,39.601889],[140.70434,39.602106],[140.705759,39.602623],[140.706,39.602779],[140.706302,39.603183],[140.706944,39.603743],[140.70735,39.604241],[140.708649,39.60648],[140.708899,39.606826],[140.709056,39.607304],[140.709657,39.607889],[140.70986,39.608196],[140.710188,39.608463],[140.711059,39.608827],[140.712022,39.609129],[140.712523,39.609489],[140.713737,39.609727],[140.715056,39.610225],[140.715273,39.61096],[140.715519,39.612211],[140.715493,39.613344],[140.715583,39.613597],[140.717003,39.614158],[140.717192,39.614277],[140.717287,39.614424],[140.717349,39.614717],[140.717441,39.614854],[140.718096,39.615313],[140.718311,39.615529],[140.718833,39.616395],[140.719086,39.616932],[140.719679,39.617761],[140.720147,39.618283],[140.720661,39.618749],[140.720671,39.618938],[140.72029,39.619765],[140.720238,39.620091],[140.720234,39.620649],[140.720156,39.62084],[140.719896,39.621133],[140.719291,39.621534],[140.719136,39.621782],[140.719089,39.622107],[140.719355,39.622822],[140.719379,39.62309],[140.719124,39.623512],[140.718691,39.624013],[140.719052,39.624342],[140.719275,39.624478],[140.719849,39.624553],[140.721241,39.625056],[140.721464,39.625114],[140.721917,39.625104],[140.722387,39.62499],[140.722879,39.624766],[140.723957,39.624746],[140.724502,39.624606],[140.72527,39.624309],[140.726219,39.624146],[140.727219,39.623576],[140.727717,39.623403],[140.728166,39.623345],[140.728537,39.623438],[140.728857,39.623769],[140.729204,39.623929],[140.729831,39.623975],[140.731089,39.62424],[140.732041,39.624257],[140.733903,39.624499],[140.73413,39.624568],[140.73418,39.624665],[140.734119,39.624932],[140.733828,39.625182],[140.733059,39.625572],[140.732598,39.625948],[140.731232,39.627872],[140.7302,39.628983],[140.729283,39.629812],[140.727352,39.630996],[140.727146,39.631328],[140.72691,39.631863],[140.726687,39.632172],[140.726461,39.632382],[140.726085,39.632628],[140.725091,39.63311],[140.724294,39.634014],[140.72417,39.634187],[140.724142,39.634322],[140.724214,39.634431],[140.725632,39.635221],[140.726749,39.635917],[140.727891,39.636535],[140.728804,39.637126],[140.729379,39.637408],[140.72992,39.637842],[140.730172,39.63795],[140.730738,39.638056],[140.730917,39.638164],[140.730991,39.638472],[140.731064,39.638589],[140.731503,39.638919],[140.731553,39.639035],[140.731636,39.639378],[140.731569,39.640268],[140.731374,39.640511],[140.730631,39.64105],[140.729634,39.641972],[140.729386,39.642148],[140.729014,39.642286],[140.728216,39.64232],[140.727913,39.642409],[140.72784,39.642527],[140.727836,39.642889],[140.727285,39.643793],[140.727034,39.644],[140.726315,39.644294],[140.725946,39.644543],[140.725769,39.644735],[140.725538,39.645117],[140.724828,39.645882],[140.724738,39.646097],[140.724737,39.646251],[140.724836,39.646577],[140.724713,39.646752],[140.724187,39.647076],[140.72369,39.647481],[140.720084,39.650952],[140.720038,39.651051],[140.720073,39.651163],[140.720538,39.651551],[140.720803,39.652055],[140.720804,39.652281],[140.72065,39.652646],[140.720665,39.652799],[140.720804,39.653072],[140.720763,39.653326],[140.720578,39.653688],[140.720245,39.65405],[140.71965,39.654527],[140.718802,39.655028],[140.718682,39.655185],[140.718813,39.656051],[140.718206,39.65682],[140.717987,39.657391],[140.717784,39.65816],[140.71777,39.658491],[140.717818,39.65868],[140.718017,39.659049],[140.717987,39.65926],[140.717892,39.659377],[140.717169,39.659821],[140.716893,39.659878],[140.71619,39.659845],[140.715545,39.659923],[140.715429,39.660006],[140.715093,39.660561],[140.71407,39.661714]]]]}}]}
