{"type":"FeatureCollection","features":[{"type":"Feature","properties":{"potaRef":"JP-1568","nameJa":"Ryumon zan","nameEn":"Ryumonzan Prefectural Nature Park","authority":"環境省 生物多様性「見える化」マップ","boundaryStatus":"全国GIS候補・公開前検証待ち","boundarySource":"環境省 生物多様性「見える化」マップの自然公園区域を、POTA代表座標で一意に空間照合して加工","boundaryScaleNote":"区域は概要データであり、正確性は保証されない。POTA運用可否は公式情報で最終確認すること。","candidateMethod":"POTA representative point inside one public natural-park area","sourceParkKind":"都道府県立自然公園","sourceName":"Ryumon zan","sourceFeatureCount":1,"cautionMeters":75},"geometry":{"type":"MultiPolygon","coordinates":[[[[135.406921,34.2435],[135.406608,34.243677],[135.40626,34.243709],[135.406117,34.243653],[135.405767,34.243305],[135.405588,34.242985],[135.405229,34.242727],[135.405088,34.242381],[135.404081,34.242265],[135.403629,34.242083],[135.403127,34.241658],[135.402968,34.241393],[135.402902,34.241137],[135.402923,34.240668],[135.402844,34.240408],[135.402733,34.240203],[135.402421,34.239973],[135.402176,34.239566],[135.402039,34.239215],[135.401949,34.238614],[135.401683,34.238285],[135.400769,34.237563],[135.400693,34.237389],[135.400772,34.237188],[135.400771,34.237039],[135.400832,34.236984],[135.40122,34.237042],[135.401951,34.236969],[135.402269,34.236888],[135.40374,34.236893],[135.403822,34.236681],[135.403664,34.236454],[135.403375,34.235668],[135.402973,34.235109],[135.402765,34.234929],[135.402747,34.234853],[135.402821,34.234774],[135.403168,34.23476],[135.403474,34.234642],[135.403682,34.234031],[135.404323,34.233433],[135.404635,34.233451],[135.404883,34.233643],[135.405086,34.23369],[135.405761,34.233992],[135.406559,34.23392],[135.406678,34.23402],[135.406778,34.23434],[135.407122,34.234404],[135.407402,34.234525],[135.408421,34.234513],[135.408825,34.234452],[135.408975,34.234514],[135.409052,34.234817],[135.409171,34.234942],[135.409964,34.234897],[135.410212,34.234937],[135.410442,34.235038],[135.410666,34.235233],[135.411228,34.235433],[135.411513,34.235383],[135.411715,34.235172],[135.411825,34.235121],[135.412001,34.235162],[135.41221,34.235339],[135.41234,34.235337],[135.412558,34.235231],[135.412659,34.235258],[135.412917,34.235562],[135.413227,34.235596],[135.413612,34.235714],[135.413994,34.235626],[135.414454,34.235765],[135.415535,34.23583],[135.415814,34.235823],[135.416166,34.235733],[135.416447,34.235815],[135.416657,34.23571],[135.416896,34.235717],[135.416976,34.235851],[135.416971,34.236441],[135.417018,34.236507],[135.417532,34.236187],[135.417783,34.23611],[135.417904,34.236145],[135.418119,34.236491],[135.41818,34.236778],[135.418057,34.23707],[135.418126,34.237109],[135.41838,34.237033],[135.418475,34.237076],[135.418447,34.237176],[135.418277,34.237278],[135.418206,34.237391],[135.41866,34.237799],[135.41919,34.237964],[135.419538,34.237997],[135.419718,34.237944],[135.419921,34.237778],[135.420055,34.237801],[135.420302,34.237947],[135.420419,34.237572],[135.420552,34.237636],[135.421066,34.2382],[135.421052,34.238715],[135.42124,34.239034],[135.421228,34.23922],[135.421437,34.239324],[135.420935,34.239701],[135.420703,34.239964],[135.420005,34.240176],[135.418951,34.24125],[135.417492,34.242245],[135.417144,34.242421],[135.416994,34.242718],[135.416929,34.242763],[135.416832,34.242748],[135.416747,34.242662],[135.416698,34.242189],[135.416507,34.242002],[135.416266,34.241957],[135.415848,34.242023],[135.415466,34.241971],[135.415042,34.242025],[135.41476,34.242005],[135.414546,34.241911],[135.414341,34.241646],[135.413835,34.241316],[135.413501,34.241292],[135.41325,34.241211],[135.413118,34.241249],[135.412796,34.241505],[135.412058,34.241597],[135.411973,34.241689],[135.411808,34.24209],[135.411472,34.242248],[135.41129,34.242255],[135.411049,34.24218],[135.410837,34.241922],[135.410621,34.24176],[135.410026,34.241732],[135.409537,34.2415],[135.409441,34.241545],[135.409199,34.241813],[135.409091,34.242277],[135.408944,34.242596],[135.408769,34.242828],[135.408395,34.243035],[135.408175,34.243354],[135.408043,34.243463],[135.407762,34.24351],[135.407381,34.243343],[135.406921,34.2435]]]]}}]}
