{"type":"FeatureCollection","features":[{"type":"Feature","properties":{"potaRef":"JP-1152","nameJa":"Angyo bunan","nameEn":"Angyo Bunan Prefectural Nature Park","authority":"環境省 生物多様性「見える化」マップ","boundaryStatus":"全国GIS候補・公開前検証待ち","boundarySource":"環境省 生物多様性「見える化」マップの自然公園区域を、POTA代表座標で一意に空間照合して加工","boundaryScaleNote":"区域は概要データであり、正確性は保証されない。POTA運用可否は公式情報で最終確認すること。","candidateMethod":"POTA representative point inside one public natural-park area","sourceParkKind":"都道府県立自然公園","sourceName":"Angyo bunan","sourceFeatureCount":1,"cautionMeters":75},"geometry":{"type":"MultiPolygon","coordinates":[[[[139.719125,35.863386],[139.718609,35.86634],[139.718985,35.86663],[139.719019,35.866815],[139.718935,35.866987],[139.718848,35.867385],[139.719,35.867529],[139.718878,35.867843],[139.718905,35.867987],[139.719094,35.868018],[139.719275,35.868145],[139.719632,35.86828],[139.719957,35.868498],[139.720143,35.86881],[139.720199,35.869359],[139.720054,35.868981],[139.7197,35.868587],[139.718722,35.868123],[139.71774,35.867737],[139.717483,35.867561],[139.717321,35.867223],[139.717233,35.866692],[139.717241,35.865727],[139.717289,35.865558],[139.718068,35.864197],[139.717464,35.864036],[139.714247,35.863412],[139.713822,35.863247],[139.713594,35.86307],[139.711539,35.862914],[139.709897,35.862696],[139.709398,35.863025],[139.708634,35.863406],[139.708251,35.863696],[139.707655,35.863918],[139.706818,35.863721],[139.706848,35.862891],[139.707799,35.863142],[139.708301,35.862652],[139.708933,35.862203],[139.709645,35.861956],[139.710946,35.861916],[139.713245,35.862249],[139.714968,35.862629],[139.718539,35.863253],[139.718547,35.862899],[139.71845,35.862658],[139.718467,35.862064],[139.718606,35.86161],[139.718941,35.861225],[139.719151,35.860463],[139.719032,35.859644],[139.719045,35.858841],[139.718942,35.858062],[139.718419,35.855806],[139.718424,35.854466],[139.718157,35.853713],[139.718079,35.852425],[139.718187,35.85223],[139.719834,35.852167],[139.720703,35.852364],[139.721126,35.852636],[139.72114,35.852797],[139.721268,35.853013],[139.72133,35.853255],[139.721539,35.853565],[139.722147,35.852634],[139.723694,35.850573],[139.724682,35.849525],[139.725775,35.84809],[139.726038,35.848079],[139.726286,35.846996],[139.725595,35.845917],[139.725373,35.845432],[139.725875,35.844888],[139.726272,35.843767],[139.727174,35.842906],[139.727605,35.842736],[139.72933,35.842928],[139.730153,35.842884],[139.730701,35.842595],[139.730785,35.842475],[139.730855,35.842234],[139.730937,35.842222],[139.731638,35.842671],[139.732015,35.842756],[139.73417,35.842779],[139.736027,35.842972],[139.736051,35.843509],[139.73618,35.843684],[139.738435,35.843641],[139.739327,35.843436],[139.740206,35.843016],[139.740368,35.843179],[139.740729,35.843263],[139.74071,35.843397],[139.740409,35.843702],[139.739267,35.84515],[139.740137,35.845293],[139.740579,35.845459],[139.740691,35.845661],[139.740639,35.845821],[139.740766,35.846104],[139.741324,35.846217],[139.74177,35.846141],[139.742202,35.845864],[139.742518,35.845613],[139.742479,35.844956],[139.742871,35.845148],[139.743249,35.845205],[139.744009,35.845012],[139.744756,35.844632],[139.745829,35.845447],[139.74609,35.845583],[139.746685,35.845442],[139.747895,35.844919],[139.748857,35.844433],[139.751354,35.842597],[139.753009,35.840952],[139.753865,35.839903],[139.754996,35.838065],[139.756087,35.835665],[139.756534,35.833378],[139.757193,35.833304],[139.757557,35.833201],[139.75764,35.833108],[139.758704,35.833508],[139.759385,35.833059],[139.759377,35.83251],[139.759238,35.831932],[139.76013,35.83174],[139.761006,35.831454],[139.762061,35.831358],[139.762392,35.831268],[139.763426,35.831385],[139.764512,35.831423],[139.764936,35.831629],[139.765249,35.831632],[139.765401,35.831392],[139.766198,35.830945],[139.766107,35.832525],[139.766287,35.832634],[139.768554,35.831787],[139.770335,35.83151],[139.771089,35.831719],[139.771397,35.832043],[139.770962,35.832454],[139.770674,35.833028],[139.770734,35.833417],[139.771142,35.833595],[139.771384,35.833919],[139.77143,35.834147],[139.771559,35.83431],[139.771603,35.834645],[139.771287,35.834883],[139.771542,35.835408],[139.772058,35.836124],[139.772596,35.836437],[139.772997,35.837138],[139.773368,35.837571],[139.773414,35.837799],[139.771555,35.838852],[139.769442,35.840318],[139.761769,35.845934],[139.760797,35.847036],[139.760065,35.848623],[139.759893,35.849103],[139.759323,35.849741],[139.758571,35.850443],[139.756881,35.852235],[139.756181,35.852803],[139.755609,35.853628],[139.75461,35.855387],[139.753975,35.854924],[139.753748,35.855753],[139.752753,35.85731],[139.751791,35.856724],[139.750069,35.856318],[139.749415,35.856043],[139.749082,35.856254],[139.748593,35.857053],[139.747976,35.857555],[139.747091,35.857292],[139.746671,35.856791],[139.746249,35.856385],[139.745581,35.855976],[139.745469,35.855747],[139.744347,35.855923],[139.742841,35.85643],[139.742681,35.85616],[139.742432,35.856318],[139.740355,35.856498],[139.739757,35.856866],[139.738814,35.857151],[139.738467,35.857201],[139.738167,35.856421],[139.737805,35.856431],[139.736728,35.855803],[139.736043,35.856466],[139.734754,35.855782],[139.733747,35.855973],[139.73422,35.859301],[139.734463,35.861635],[139.734478,35.86481],[139.734324,35.865224],[139.733992,35.865368],[139.73138,35.865019],[139.727551,35.86463],[139.72813,35.86343],[139.728325,35.862575],[139.728511,35.861097],[139.727714,35.861107],[139.726467,35.861332],[139.721122,35.862484],[139.719519,35.863027],[139.719189,35.863077],[139.719128,35.863195],[139.719125,35.863386]]],[[[139.701344,35.90918],[139.700325,35.909591],[139.699333,35.909802],[139.698295,35.909851],[139.697625,35.909984],[139.696753,35.910417],[139.695248,35.911807],[139.69454,35.911297],[139.693633,35.910885],[139.695267,35.909154],[139.693654,35.908265],[139.69466,35.90764],[139.69508,35.907022],[139.695507,35.906564],[139.69608,35.906289],[139.696473,35.906454],[139.696666,35.906718],[139.696809,35.907021],[139.697053,35.907204],[139.697794,35.907212],[139.697944,35.907113],[139.698188,35.905789],[139.698546,35.90507],[139.699457,35.903733],[139.700557,35.902961],[139.700886,35.902442],[139.70122,35.901682],[139.701825,35.900925],[139.703326,35.899795],[139.704321,35.899344],[139.704576,35.898864],[139.704367,35.898058],[139.703759,35.897489],[139.703494,35.897023],[139.703425,35.896721],[139.703437,35.895978],[139.703571,35.895376],[139.703778,35.894775],[139.704355,35.894259],[139.704976,35.894025],[139.705177,35.893826],[139.705378,35.893607],[139.70541,35.893145],[139.705341,35.892843],[139.705145,35.89274],[139.703762,35.892725],[139.703394,35.89256],[139.703374,35.892279],[139.703587,35.891316],[139.703954,35.890054],[139.705023,35.888116],[139.705065,35.887011],[139.705148,35.886489],[139.706088,35.884912],[139.706464,35.884554],[139.706933,35.884539],[139.707229,35.884602],[139.708244,35.884432],[139.708569,35.884215],[139.709201,35.883297],[139.709773,35.883082],[139.711035,35.882935],[139.712561,35.883213],[139.713025,35.883539],[139.713443,35.883644],[139.71575,35.883046],[139.716123,35.882869],[139.716281,35.882308],[139.716662,35.881649],[139.717368,35.880752],[139.719012,35.879058],[139.720099,35.878351],[139.720775,35.877812],[139.721367,35.877254],[139.722124,35.876442],[139.722333,35.876297],[139.722462,35.876297],[139.723951,35.876964],[139.724441,35.877093],[139.725908,35.877948],[139.726317,35.878656],[139.726212,35.879037],[139.726245,35.880042],[139.72634,35.880304],[139.726658,35.880509],[139.727192,35.881077],[139.727613,35.881021],[139.727978,35.881327],[139.727224,35.882143],[139.725971,35.883315],[139.724984,35.884792],[139.724392,35.886253],[139.722717,35.889029],[139.721151,35.891183],[139.7205,35.891779],[139.719875,35.892235],[139.719117,35.893252],[139.718881,35.894134],[139.718424,35.894892],[139.717413,35.896329],[139.716482,35.897364],[139.713397,35.901753],[139.71312,35.902091],[139.712493,35.902708],[139.711516,35.903521],[139.710065,35.904611],[139.710177,35.905336],[139.709796,35.906015],[139.709392,35.906554],[139.706661,35.907328],[139.706379,35.907968],[139.705602,35.908643],[139.705343,35.909424],[139.704319,35.910097],[139.704117,35.910376],[139.703894,35.910414],[139.703772,35.910292],[139.703907,35.90957],[139.703143,35.909461],[139.702846,35.909498],[139.701942,35.908905],[139.701344,35.90918]]]]}}]}
