{"type":"FeatureCollection","features":[{"type":"Feature","properties":{"potaRef":"JP-1475","nameJa":"Okuise miyagawa kyo","nameEn":"Okuise Miyagawakyo Prefectural Nature Park","authority":"環境省 生物多様性「見える化」マップ","boundaryStatus":"全国GIS候補・公開前検証待ち","boundarySource":"環境省 生物多様性「見える化」マップの自然公園区域を、POTA代表座標で一意に空間照合して加工","boundaryScaleNote":"区域は概要データであり、正確性は保証されない。POTA運用可否は公式情報で最終確認すること。","candidateMethod":"POTA representative point inside one public natural-park area","sourceParkKind":"都道府県立自然公園","sourceName":"Okuise miyagawa kyo","sourceFeatureCount":1,"cautionMeters":75},"geometry":{"type":"MultiPolygon","coordinates":[[[[136.548746,34.457221],[136.548592,34.457721],[136.548327,34.458149],[136.548324,34.458637],[136.547961,34.459249],[136.547925,34.459599],[136.54784,34.45966],[136.546677,34.459369],[136.546451,34.459252],[136.545882,34.458821],[136.54564,34.45841],[136.545446,34.458289],[136.545083,34.458259],[136.544646,34.458129],[136.544379,34.45795],[136.543918,34.457469],[136.54364,34.457328],[136.543192,34.457218],[136.542877,34.457208],[136.54225,34.457306],[136.541996,34.457457],[136.541269,34.458088],[136.540748,34.458399],[136.540142,34.45862],[136.539949,34.458737],[136.539401,34.459338],[136.53911,34.459427],[136.538699,34.459448],[136.537814,34.459398],[136.537633,34.459268],[136.537608,34.458977],[136.537536,34.458837],[136.537117,34.458472],[136.537033,34.458314],[136.536887,34.457179],[136.536818,34.457027],[136.536269,34.45661],[136.535902,34.456518],[136.535087,34.456459],[136.533941,34.455937],[136.533383,34.455736],[136.532944,34.455655],[136.531357,34.455655],[136.530325,34.455448],[136.530095,34.455328],[136.529879,34.454907],[136.529804,34.454857],[136.527939,34.454586],[136.526385,34.45429],[136.52607,34.45429],[136.525828,34.454721],[136.525659,34.454882],[136.525368,34.454982],[136.524581,34.454862],[136.523548,34.454787],[136.523003,34.454927],[136.522325,34.455207],[136.521901,34.455288],[136.521283,34.455137],[136.520717,34.455083],[136.519797,34.455134],[136.5193,34.455323],[136.518755,34.455113],[136.518283,34.454812],[136.517845,34.454694],[136.516973,34.453901],[136.516511,34.453578],[136.515929,34.453368],[136.515554,34.452636],[136.514355,34.452585],[136.513988,34.452524],[136.513686,34.452575],[136.513298,34.452715],[136.512269,34.452374],[136.511033,34.451722],[136.510597,34.452354],[136.510574,34.452791],[136.510525,34.452924],[136.509801,34.453631],[136.509318,34.454217],[136.508522,34.454909],[136.507973,34.454949],[136.507763,34.454851],[136.507407,34.45448],[136.506897,34.454365],[136.506681,34.45439],[136.506279,34.454608],[136.506078,34.454198],[136.505815,34.453904],[136.505877,34.453635],[136.506218,34.453235],[136.506559,34.452544],[136.507115,34.452429],[136.50761,34.452493],[136.50781,34.451943],[136.507841,34.451632],[136.507378,34.450403],[136.507408,34.450365],[136.508197,34.450212],[136.507933,34.449761],[136.507407,34.449108],[136.507314,34.448801],[136.507206,34.448711],[136.506711,34.448724],[136.50648,34.448801],[136.505861,34.449159],[136.505691,34.449184],[136.505443,34.448952],[136.505399,34.448749],[136.505433,34.448537],[136.505261,34.448519],[136.504938,34.448601],[136.504776,34.448586],[136.504645,34.448562],[136.504336,34.44837],[136.504042,34.448063],[136.503943,34.447603],[136.503804,34.447507],[136.502836,34.447308],[136.502342,34.447423],[136.502126,34.447385],[136.501847,34.447406],[136.501313,34.447661],[136.501076,34.447593],[136.501035,34.447431],[136.500871,34.44732],[136.50047,34.447414],[136.500078,34.447395],[136.499749,34.447182],[136.498197,34.446416],[136.497817,34.446356],[136.496993,34.446381],[136.496954,34.445973],[136.496872,34.445797],[136.496755,34.445714],[136.495929,34.445554],[136.49551,34.4454],[136.495275,34.445171],[136.495078,34.444799],[136.494944,34.444446],[136.49488,34.444026],[136.494953,34.443404],[136.495038,34.443093],[136.495512,34.442472],[136.495928,34.442072],[136.496758,34.441537],[136.496956,34.441352],[136.497204,34.441239],[136.497424,34.440899],[136.497711,34.44057],[136.498259,34.440275],[136.498561,34.43998],[136.498999,34.439878],[136.49889,34.43939],[136.498758,34.439304],[136.498506,34.439209],[136.498259,34.439231],[136.497601,34.439505],[136.497103,34.43924],[136.496512,34.439722],[136.496069,34.439928],[136.495539,34.440122],[136.49513,34.440089],[136.495029,34.440028],[136.494794,34.439661],[136.49468,34.439617],[136.494143,34.439667],[136.493821,34.439567],[136.493573,34.439428],[136.493318,34.439461],[136.493277,34.439444],[136.493264,34.43925],[136.493116,34.439156],[136.492186,34.439169],[136.492098,34.438952],[136.492219,34.438635],[136.492119,34.43853],[136.491662,34.438258],[136.490857,34.438224],[136.489283,34.438403],[136.488978,34.438385],[136.488357,34.4382],[136.487666,34.4379],[136.486713,34.4372],[136.485772,34.436608],[136.485604,34.436536],[136.485181,34.436519],[136.484839,34.436324],[136.484544,34.436224],[136.484282,34.436169],[136.483644,34.436219],[136.483373,34.436156],[136.482867,34.435824],[136.482639,34.435779],[136.482458,34.435796],[136.482096,34.436107],[136.481981,34.436152],[136.481773,34.436141],[136.481317,34.435969],[136.480612,34.435791],[136.479569,34.435705],[136.479348,34.435633],[136.478925,34.435355],[136.47824,34.435238],[136.477536,34.435033],[136.47716,34.434955],[136.47633,34.434932],[136.474867,34.434548],[136.474478,34.434504],[136.472995,34.434487],[136.472471,34.43467],[136.472042,34.43472],[136.471761,34.434823],[136.471654,34.434917],[136.471526,34.435229],[136.471459,34.43529],[136.471083,34.435351],[136.470372,34.435373],[136.46903,34.435734],[136.468882,34.435723],[136.468263,34.43536],[136.467658,34.43521],[136.467202,34.434888],[136.466974,34.434593],[136.466719,34.43386],[136.466509,34.433595],[136.466187,34.433445],[136.464596,34.432989],[136.464563,34.432917],[136.46465,34.432745],[136.465066,34.432278],[136.465604,34.431447],[136.466047,34.430463],[136.466389,34.429443],[136.466705,34.428118],[136.466698,34.427923],[136.466591,34.427801],[136.465763,34.427499],[136.464877,34.427333],[136.463649,34.426866],[136.463452,34.426741],[136.462875,34.426186],[136.462761,34.426169],[136.462432,34.426258],[136.462163,34.426202],[136.461868,34.426024],[136.461559,34.425924],[136.461023,34.42588],[136.459724,34.4252],[136.458925,34.425056],[136.458771,34.424917],[136.45855,34.424417],[136.45807,34.423747],[136.457627,34.423536],[136.456802,34.42338],[136.456299,34.423219],[136.456048,34.423022],[136.455793,34.42265],[136.455458,34.4224],[136.454833,34.422133],[136.45435,34.421828],[136.453838,34.421202],[136.453577,34.420997],[136.452993,34.420712],[136.452678,34.420412],[136.45255,34.420396],[136.451602,34.420631],[136.45078,34.420592],[136.450189,34.420497],[136.449783,34.420267],[136.44944,34.419971],[136.448333,34.419576],[136.448008,34.419587],[136.446283,34.420054],[136.445895,34.420054],[136.445596,34.419971],[136.445153,34.419752],[136.443692,34.419337],[136.443269,34.419037],[136.442719,34.418944],[136.441984,34.418665],[136.441265,34.418498],[136.440982,34.418392],[136.440358,34.41802],[136.439995,34.417922],[136.438423,34.417907],[136.437315,34.417977],[136.437233,34.417952],[136.436756,34.417481],[136.435991,34.417089],[136.435874,34.417089],[136.435635,34.417202],[136.435136,34.417161],[136.433688,34.416476],[136.433549,34.416345],[136.433481,34.416132],[136.433469,34.415758],[136.433377,34.41559],[136.433111,34.415447],[136.432436,34.415451],[136.431906,34.415676],[136.43132,34.41579],[136.430637,34.416046],[136.430527,34.41605],[136.429731,34.415822],[136.429286,34.415923],[136.428976,34.416052],[136.428211,34.416649],[136.428008,34.416908],[136.42775,34.417067],[136.426828,34.417123],[136.426427,34.417204],[136.425931,34.417588],[136.425829,34.417714],[136.425743,34.41798],[136.425364,34.418518],[136.424946,34.418991],[136.42466,34.419153],[136.424151,34.418982],[136.423279,34.418473],[136.422898,34.418423],[136.422236,34.418601],[136.421747,34.418798],[136.421439,34.418859],[136.420785,34.418854],[136.420345,34.418902],[136.419423,34.419219],[136.418969,34.419289],[136.418756,34.41923],[136.41868,34.41916],[136.41837,34.418726],[136.418294,34.418394],[136.418493,34.418036],[136.418437,34.417797],[136.417486,34.417067],[136.41734,34.417033],[136.417095,34.417077],[136.416817,34.417334],[136.416468,34.417514],[136.41633,34.417517],[136.41565,34.417254],[136.415412,34.417056],[136.415209,34.416963],[136.414818,34.416876],[136.414366,34.416845],[136.413839,34.416695],[136.41323,34.416742],[136.412002,34.416654],[136.411736,34.416551],[136.411549,34.416389],[136.411141,34.415859],[136.410963,34.415771],[136.410768,34.415801],[136.409801,34.416337],[136.40902,34.416381],[136.407886,34.417135],[136.407294,34.417437],[136.406451,34.417356],[136.406208,34.417376],[136.405608,34.417636],[136.405428,34.417626],[136.405173,34.417504],[136.40437,34.416874],[136.403705,34.416514],[136.402746,34.416352],[136.402046,34.416073],[136.401123,34.415852],[136.400599,34.415808],[136.400075,34.415852],[136.39931,34.416103],[136.39844,34.416045],[136.398055,34.415894],[136.396493,34.414666],[136.395739,34.414621],[136.395561,34.414504],[136.395274,34.413904],[136.395044,34.413801],[136.394671,34.413809],[136.394476,34.413742],[136.393367,34.412911],[136.392861,34.412683],[136.391863,34.411856],[136.391171,34.411451],[136.39055,34.411363],[136.389802,34.411159],[136.388562,34.410731],[136.387546,34.410227],[136.386889,34.410109],[136.385966,34.410146],[136.385735,34.409962],[136.385389,34.4098],[136.3846,34.409087],[136.384289,34.408888],[136.384116,34.408659],[136.384077,34.408393],[136.384008,34.408259],[136.383568,34.408009],[136.383133,34.407656],[136.382947,34.407612],[136.382122,34.407605],[136.381368,34.407289],[136.380546,34.40731],[136.379179,34.40692],[136.378736,34.406854],[136.378336,34.406677],[136.378044,34.406434],[136.377955,34.406221],[136.378086,34.405836],[136.37805,34.40549],[136.377864,34.405137],[136.377544,34.404703],[136.377482,34.404471],[136.377536,34.404],[136.377216,34.40278],[136.375947,34.40278],[136.374785,34.402912],[136.373862,34.403125],[136.373534,34.403154],[136.372913,34.403066],[136.372415,34.403449],[136.37155,34.403666],[136.371196,34.403641],[136.370856,34.403524],[136.370314,34.403224],[136.36986,34.403156],[136.369676,34.403205],[136.36899,34.403859],[136.368588,34.404899],[136.367478,34.405043],[136.367235,34.40513],[136.367049,34.405358],[136.366793,34.405556],[136.366214,34.405729],[136.365818,34.405966],[136.364588,34.405942],[136.364264,34.405888],[136.363597,34.405906],[136.362472,34.406131],[136.362226,34.4061],[136.361681,34.406133],[136.361481,34.406249],[136.361332,34.406467],[136.360144,34.407183],[136.359596,34.407609],[136.357706,34.407589],[136.357479,34.407522],[136.35732,34.407343],[136.357153,34.406307],[136.357053,34.406086],[136.356602,34.405849],[136.356285,34.405517],[136.355718,34.405075],[136.355585,34.405102],[136.355201,34.405476],[136.354751,34.405766],[136.353913,34.405987],[136.352996,34.405973],[136.352729,34.405946],[136.352096,34.405738],[136.351545,34.405877],[136.351274,34.405835],[136.350924,34.405628],[136.350457,34.4056],[136.34964,34.405268],[136.349087,34.405448],[136.348637,34.405517],[136.348298,34.405492],[136.347887,34.405337],[136.347369,34.405241],[136.346569,34.405324],[136.346236,34.405282],[136.345552,34.405075],[136.345352,34.404909],[136.345041,34.404917],[136.344809,34.405061],[136.344209,34.405205],[136.343726,34.405093],[136.343436,34.404933],[136.342953,34.404516],[136.34276,34.404404],[136.342528,34.404356],[136.342195,34.404437],[136.341654,34.404757],[136.340204,34.405254],[136.339209,34.405239],[136.338813,34.405029],[136.336876,34.405141],[136.335771,34.404724],[136.334554,34.404612],[136.334302,34.40474],[136.33407,34.405013],[136.333682,34.405671],[136.333382,34.405845],[136.332978,34.405926],[136.332309,34.405944],[136.331653,34.406056],[136.330899,34.406392],[136.330664,34.406585],[136.330378,34.406916],[136.329867,34.407323],[136.329563,34.407691],[136.328751,34.407194],[136.328577,34.407178],[136.328306,34.407434],[136.328131,34.407497],[136.327512,34.406167],[136.3272,34.405748],[136.326388,34.405267],[136.325673,34.404643],[136.325326,34.404274],[136.323507,34.403745],[136.323371,34.403825],[136.323236,34.404178],[136.322908,34.404482],[136.322403,34.405093],[136.322132,34.405254],[136.321823,34.405366],[136.320451,34.405542],[136.319658,34.40551],[136.318785,34.405189],[136.318089,34.404821],[136.31778,34.404821],[136.317529,34.404885],[136.317142,34.405173],[136.315083,34.406137],[136.313103,34.406429],[136.31223,34.406653],[136.311628,34.406902],[136.311529,34.406873],[136.311065,34.406409],[136.310783,34.40638],[136.310153,34.40608],[136.309511,34.406144],[136.309172,34.406113],[136.308602,34.406264],[136.307702,34.406601],[136.306884,34.406729],[136.304739,34.406649],[136.30443,34.406777],[136.303869,34.406905],[136.30344,34.406871],[136.302987,34.406937],[136.302091,34.406783],[136.301604,34.406985],[136.301101,34.407097],[136.300888,34.407226],[136.29907,34.407658],[136.298354,34.407994],[136.298159,34.407882],[136.297981,34.407632],[136.29766,34.407368],[136.297333,34.407264],[136.29667,34.407202],[136.296184,34.407064],[136.295917,34.406872],[136.29557,34.406387],[136.295335,34.406181],[136.295103,34.406069],[136.293827,34.406197],[136.293479,34.406085],[136.293264,34.406084],[136.293012,34.406004],[136.292452,34.405556],[136.292104,34.405379],[136.291582,34.405203],[136.290751,34.405075],[136.290094,34.405123],[136.289067,34.405477],[136.288679,34.405894],[136.288041,34.405814],[136.287809,34.40583],[136.286882,34.405958],[136.285542,34.406276],[136.285139,34.406295],[136.284676,34.406487],[136.284328,34.406744],[136.283632,34.406872],[136.283353,34.406999],[136.282876,34.407337],[136.282393,34.407497],[136.28162,34.407465],[136.281156,34.407337],[136.279626,34.407401],[136.278903,34.40735],[136.277805,34.407364],[136.27717,34.407295],[136.27621,34.407397],[136.275903,34.407321],[136.275209,34.407339],[136.275,34.407317],[136.274004,34.406867],[136.27326,34.406821],[136.273009,34.406757],[136.272448,34.405457],[136.2721,34.405104],[136.271673,34.404781],[136.271267,34.404332],[136.271112,34.404076],[136.270803,34.403131],[136.270861,34.402839],[136.270822,34.402615],[136.270397,34.402022],[136.269698,34.401653],[136.269273,34.401732],[136.268742,34.401599],[136.268535,34.401631],[136.268176,34.401585],[136.267758,34.401324],[136.267502,34.401037],[136.266933,34.400739],[136.266817,34.39971],[136.267145,34.398476],[136.266374,34.398249],[136.265904,34.398054],[136.265367,34.397627],[136.265131,34.397271],[136.264961,34.396902],[136.264911,34.396635],[136.264926,34.395935],[136.264805,34.395613],[136.264506,34.395403],[136.264186,34.395059],[136.263738,34.394852],[136.263622,34.394619],[136.263238,34.394094],[136.262716,34.393597],[136.262735,34.393179],[136.262656,34.392904],[136.26259,34.392278],[136.262329,34.391913],[136.261919,34.391683],[136.261644,34.391301],[136.261217,34.390856],[136.260939,34.390647],[136.260784,34.390304],[136.260403,34.389771],[136.26022,34.388652],[136.259969,34.388251],[136.259892,34.387755],[136.259678,34.387351],[136.259504,34.387158],[136.258859,34.386818],[136.258615,34.386597],[136.2579,34.386277],[136.257067,34.386189],[136.256914,34.386085],[136.256563,34.385013],[136.256566,34.384904],[136.25705,34.384511],[136.257069,34.384366],[136.256992,34.384207],[136.256779,34.383982],[136.256528,34.383534],[136.25652,34.383345],[136.256722,34.38313],[136.256837,34.382549],[136.256981,34.382405],[136.258114,34.382072],[136.258717,34.381815],[136.259426,34.381414],[136.259837,34.38127],[136.261819,34.381086],[136.261908,34.380803],[136.262101,34.380579],[136.262461,34.380347],[136.262804,34.380206],[136.262814,34.380119],[136.262649,34.379852],[136.262528,34.379267],[136.26258,34.379092],[136.262778,34.37883],[136.262838,34.378232],[136.262894,34.378074],[136.263153,34.377879],[136.263449,34.377766],[136.263562,34.377597],[136.263561,34.377409],[136.263088,34.37706],[136.262966,34.376901],[136.262911,34.376481],[136.262561,34.376027],[136.262527,34.375924],[136.262585,34.375747],[136.262764,34.375583],[136.264131,34.374674],[136.264595,34.374466],[136.265119,34.374353],[136.265766,34.374083],[136.266376,34.373763],[136.266643,34.373583],[136.266857,34.373275],[136.266957,34.373039],[136.267246,34.372745],[136.267496,34.372609],[136.268734,34.372377],[136.268831,34.372201],[136.269111,34.37198],[136.269514,34.371521],[136.269643,34.371237],[136.269991,34.370852],[136.270841,34.370482],[136.271151,34.370146],[136.271266,34.369809],[136.271158,34.368985],[136.271151,34.368578],[136.270358,34.368416],[136.269723,34.36818],[136.268986,34.368159],[136.267385,34.367939],[136.266414,34.367387],[136.265795,34.367115],[136.264344,34.366146],[136.264026,34.365984],[136.263686,34.36575],[136.263388,34.365466],[136.263225,34.365427],[136.262504,34.365443],[136.26161,34.365227],[136.260965,34.364894],[136.260724,34.364851],[136.259942,34.364863],[136.259389,34.364817],[136.259339,34.364765],[136.259331,34.364577],[136.259375,34.364356],[136.259044,34.363818],[136.259009,34.363689],[136.259041,34.363359],[136.258902,34.362949],[136.258669,34.362729],[136.258254,34.36254],[136.256801,34.362224],[136.256546,34.362025],[136.256437,34.361823],[136.256371,34.361448],[136.256178,34.360887],[136.256024,34.360768],[136.255984,34.360136],[136.255822,34.359858],[136.255876,34.358869],[136.255839,34.358624],[136.255636,34.358285],[136.255365,34.358076],[136.255107,34.35793],[136.254669,34.35782],[136.254611,34.357307],[136.254458,34.357081],[136.253865,34.356778],[136.253624,34.356536],[136.253431,34.356279],[136.253273,34.355409],[136.252923,34.355084],[136.252705,34.355007],[136.252219,34.355044],[136.251891,34.354931],[136.251205,34.355052],[136.250684,34.355324],[136.249988,34.35499],[136.249632,34.354969],[136.248255,34.354666],[136.247691,34.354666],[136.247131,34.354858],[136.246918,34.354811],[136.246683,34.354689],[136.245603,34.354494],[136.245133,34.35427],[136.243067,34.354067],[136.242571,34.353945],[136.242093,34.354168],[136.241711,34.354181],[136.241221,34.354345],[136.241038,34.354358],[136.24087,34.354231],[136.240034,34.354002],[136.239697,34.353799],[136.239468,34.353749],[136.238841,34.353736],[136.238489,34.35366],[136.23803,34.35347],[136.237403,34.353128],[136.237204,34.353102],[136.236348,34.353267],[136.235939,34.353284],[136.235373,34.353196],[136.235143,34.353107],[136.234624,34.352486],[136.234302,34.352246],[136.233634,34.351881],[136.233145,34.351729],[136.231524,34.35164],[136.231172,34.351666],[136.230136,34.35199],[136.229693,34.352003],[136.229387,34.351927],[136.229188,34.351813],[136.228867,34.351369],[136.228759,34.351048],[136.228545,34.350744],[136.228208,34.350466],[136.227948,34.350377],[136.226954,34.350187],[136.226572,34.349946],[136.226236,34.349883],[136.224481,34.349819],[136.222905,34.35011],[136.222507,34.350059],[136.222018,34.349882],[136.221457,34.34955],[136.221151,34.349448],[136.220279,34.349461],[136.219178,34.349182],[136.218643,34.349157],[136.217919,34.349196],[136.217659,34.349145],[136.217384,34.348993],[136.217032,34.348701],[136.216757,34.348562],[136.215362,34.34823],[136.215041,34.348205],[136.214476,34.348357],[136.213176,34.349117],[136.212564,34.349294],[136.212075,34.34937],[136.211876,34.34937],[136.211421,34.349106],[136.21084,34.348979],[136.210366,34.348953],[136.208561,34.349498],[136.207671,34.350135],[136.207518,34.350135],[136.207319,34.350008],[136.206891,34.349527],[136.206353,34.348503],[136.206185,34.348338],[136.205466,34.348046],[136.205007,34.347742],[136.204518,34.34759],[136.204136,34.347552],[136.203387,34.347616],[136.202274,34.347417],[136.201525,34.34743],[136.200531,34.347126],[136.200102,34.346885],[136.199679,34.346553],[136.199572,34.346337],[136.19945,34.346211],[136.198578,34.345818],[136.198425,34.34559],[136.198226,34.345476],[136.197966,34.345412],[136.197508,34.345362],[136.196992,34.345406],[136.19609,34.345672],[136.195249,34.345583],[136.194943,34.345355],[136.19439,34.34482],[136.194008,34.344339],[136.193626,34.344022],[136.192966,34.343626],[136.191954,34.342761],[136.190838,34.341962],[136.190517,34.341658],[136.190226,34.34119],[136.190043,34.341063],[136.189095,34.340771],[136.188427,34.340273],[136.187953,34.340096],[136.187601,34.340058],[136.18642,34.340125],[136.186286,34.340121],[136.18624,34.340045],[136.1865,34.339272],[136.186935,34.338249],[136.187317,34.337919],[136.187592,34.337568],[136.187654,34.337213],[136.188009,34.336642],[136.187989,34.336342],[136.188394,34.335639],[136.188885,34.334498],[136.189065,34.333872],[136.189003,34.333509],[136.188573,34.332962],[136.188362,34.332453],[136.188468,34.331623],[136.188183,34.331248],[136.18773,34.331039],[136.18666,34.330799],[136.186521,34.330664],[136.18637,34.330356],[136.186345,34.32997],[136.186219,34.329573],[136.186307,34.328828],[136.186471,34.328233],[136.186446,34.328024],[136.186094,34.327588],[136.186067,34.327301],[136.186112,34.327032],[136.186302,34.326519],[136.186553,34.326101],[136.18676,34.325938],[136.187856,34.325386],[136.188209,34.325031],[136.188435,34.324592],[136.187246,34.324182],[136.186044,34.324134],[136.185707,34.323972],[136.184933,34.323378],[136.184608,34.323338],[136.184014,34.323399],[136.183548,34.323054],[136.183322,34.322981],[136.182059,34.323022],[136.180789,34.323443],[136.180451,34.323511],[136.180349,34.323472],[136.179931,34.323064],[136.179428,34.322772],[136.179197,34.322562],[136.178417,34.322406],[136.177951,34.322155],[136.177611,34.322113],[136.177234,34.322218],[136.176868,34.322625],[136.176717,34.322636],[136.175618,34.322439],[136.175115,34.32247],[136.174825,34.322752],[136.174347,34.323086],[136.172509,34.323681],[136.171877,34.323694],[136.171009,34.32386],[136.170147,34.323917],[136.16989,34.324027],[136.169437,34.324332],[136.168742,34.324599],[136.168428,34.324831],[136.167306,34.324445],[136.16696,34.324409],[136.166141,34.324198],[136.165148,34.323806],[136.164532,34.32343],[136.164003,34.322845],[136.163498,34.322572],[136.162894,34.322122],[136.162554,34.322138],[136.162313,34.322095],[136.161998,34.321959],[136.161847,34.321719],[136.16152,34.321552],[136.160714,34.321291],[136.160474,34.321058],[136.160261,34.320745],[136.160261,34.320421],[136.160295,34.320165],[136.160626,34.319542],[136.160575,34.319395],[136.160434,34.319167],[136.160038,34.318719],[136.159472,34.318418],[136.15924,34.317919],[136.159202,34.317355],[136.159064,34.317146],[136.158409,34.316841],[136.158101,34.316508],[136.158006,34.316257],[136.158031,34.315818],[136.158522,34.314856],[136.158569,34.314635],[136.158371,34.313918],[136.158388,34.313592],[136.158279,34.313452],[136.15804,34.3134],[136.157471,34.313398],[136.156806,34.313296],[136.156655,34.313317],[136.156253,34.313609],[136.155987,34.31371],[136.153129,34.314138],[136.152631,34.314163],[136.15203,34.314447],[136.15135,34.314555],[136.149539,34.3146],[136.148467,34.315112],[136.14796,34.315158],[136.147456,34.315346],[136.147104,34.315366],[136.145702,34.315074],[136.144771,34.315199],[136.143542,34.315533],[136.142136,34.31567],[136.141746,34.315994],[136.141564,34.316039],[136.140796,34.315946],[136.139917,34.315515],[136.139447,34.31539],[136.138866,34.315296],[136.138301,34.315301],[136.137992,34.31521],[136.136679,34.315116],[136.135949,34.314907],[136.135662,34.314877],[136.134967,34.315001],[136.134589,34.314959],[136.134111,34.31474],[136.133972,34.31473],[136.133582,34.314761],[136.132624,34.315039],[136.131956,34.315373],[136.131162,34.315911],[136.129505,34.316174],[136.129354,34.315914],[136.128567,34.315302],[136.127835,34.314939],[136.126354,34.314378],[136.12525,34.313334],[136.124456,34.312291],[136.123971,34.311841],[136.123046,34.311182],[136.122523,34.310569],[136.122311,34.310428],[136.121441,34.310192],[136.120945,34.310231],[136.120047,34.310441],[136.119504,34.310464],[136.118662,34.310317],[136.118017,34.310068],[136.11631,34.309656],[136.11602,34.30947],[136.115692,34.309089],[136.114944,34.308812],[136.113734,34.307331],[136.113126,34.306415],[136.112144,34.306174],[136.111966,34.305895],[136.111964,34.305185],[136.111646,34.305014],[136.110102,34.30527],[136.109017,34.304742],[136.108198,34.304555],[136.10788,34.304602],[136.107187,34.304827],[136.106654,34.304757],[136.10469,34.305479],[136.102478,34.305533],[136.101645,34.305339],[136.101009,34.305371],[136.10036,34.305541],[136.100047,34.305391],[136.09877,34.304426],[136.097478,34.303587],[136.096417,34.303154],[136.096002,34.303052],[136.095774,34.302944],[136.095021,34.301768],[136.094904,34.301451],[136.095125,34.300863],[136.095601,34.300069],[136.095488,34.299184],[136.095666,34.298531],[136.09577,34.297915],[136.096116,34.297294],[136.096174,34.296769],[136.096099,34.29524],[136.095921,34.294397],[136.095921,34.293784],[136.09623,34.293544],[136.096735,34.293319],[136.09698,34.292962],[136.097603,34.291276],[136.097854,34.291033],[136.097705,34.289752],[136.097829,34.288822],[136.098054,34.288667],[136.098975,34.288594],[136.100145,34.288192],[136.100534,34.287896],[136.101119,34.286533],[136.101443,34.286119],[136.102078,34.285727],[136.103285,34.285386],[136.103787,34.285059],[136.105456,34.283003],[136.107373,34.282301],[136.107859,34.281712],[136.109658,34.281335],[136.110231,34.280881],[136.111377,34.280932],[136.111987,34.280736],[136.112323,34.280034],[136.113419,34.278763],[136.113485,34.277733],[136.113784,34.277134],[136.114382,34.276504],[136.114681,34.275739],[136.114756,34.274824],[136.115279,34.274081],[136.116686,34.273988],[136.116562,34.273296],[136.117022,34.272696],[136.117072,34.272169],[136.117236,34.271711],[136.117236,34.271101],[136.11756,34.270843],[136.118182,34.270512],[136.118755,34.270347],[136.119191,34.270047],[136.119465,34.270047],[136.120237,34.270275],[136.120548,34.270172],[136.120626,34.269776],[136.120925,34.269362],[136.120862,34.268949],[136.120726,34.268687],[136.120937,34.268233],[136.121834,34.267127],[136.121862,34.266987],[136.125364,34.268607],[136.125968,34.268954],[136.127913,34.269019],[136.128724,34.269124],[136.12908,34.269215],[136.130494,34.269409],[136.130773,34.269502],[136.132266,34.269799],[136.132902,34.269987],[136.13312,34.269996],[136.133339,34.270079],[136.134322,34.270278],[136.135554,34.270196],[136.137225,34.270409],[136.137782,34.270578],[136.138846,34.270768],[136.13899,34.270911],[136.13931,34.27092],[136.140305,34.271205],[136.140549,34.27133],[136.140844,34.271589],[136.140985,34.271912],[136.141398,34.272415],[136.14231,34.273162],[136.142478,34.273192],[136.142666,34.273363],[136.143189,34.273659],[136.144973,34.274599],[136.145319,34.274924],[136.145463,34.275211],[136.145444,34.275565],[136.145382,34.275713],[136.145363,34.276792],[136.1456,34.277145],[136.14616,34.277805],[136.146544,34.27816],[136.147153,34.278858],[136.147686,34.279502],[136.147783,34.279704],[136.148365,34.280227],[136.14851,34.280308],[136.149222,34.280448],[136.149426,34.280416],[136.150169,34.280476],[136.151721,34.280397],[136.152715,34.280113],[136.154811,34.27933],[136.155122,34.279257],[136.155471,34.279281],[136.156329,34.279932],[136.157307,34.280427],[136.157489,34.280609],[136.157724,34.280666],[136.158898,34.281276],[136.159975,34.281708],[136.160462,34.281836],[136.161518,34.282023],[136.161848,34.282132],[136.162727,34.282203],[136.163079,34.282186],[136.163327,34.282256],[136.164214,34.282241],[136.168491,34.282721],[136.169022,34.282708],[136.169546,34.282547],[136.169971,34.28231],[136.171929,34.281437],[136.172219,34.281091],[136.174326,34.279077],[136.17437,34.278927],[136.177527,34.275142],[136.178507,34.274316],[136.179385,34.273782],[136.180119,34.273483],[136.180436,34.273391],[136.180647,34.273398],[136.180816,34.273297],[136.181211,34.273231],[136.183327,34.27318],[136.18428,34.273231],[136.185267,34.27319],[136.185865,34.273087],[136.186775,34.27288],[136.187626,34.272614],[136.18844,34.272267],[136.189209,34.272037],[136.189769,34.271775],[136.190753,34.271188],[136.191349,34.270712],[136.191691,34.270376],[136.192062,34.269842],[136.19287,34.268226],[136.193111,34.267904],[136.193523,34.267638],[136.194672,34.267435],[136.195673,34.267462],[136.196704,34.267583],[136.198178,34.267532],[136.199027,34.267448],[136.199486,34.267468],[136.200228,34.267384],[136.20048,34.267128],[136.201134,34.266209],[136.201736,34.265057],[136.20202,34.264704],[136.203278,34.263891],[136.203484,34.26381],[136.204156,34.263336],[136.20587,34.261979],[136.206576,34.261655],[136.206786,34.261703],[136.206844,34.261555],[136.206954,34.261491],[136.20962,34.260498],[136.211622,34.25966],[136.211836,34.259607],[136.213728,34.258732],[136.21411,34.258605],[136.215203,34.258043],[136.215245,34.257946],[136.213754,34.255946],[136.213257,34.255157],[136.213056,34.254725],[136.212886,34.254311],[136.212738,34.253698],[136.212578,34.253266],[136.212394,34.252149],[136.212426,34.251621],[136.212488,34.251326],[136.212685,34.250881],[136.21345,34.249586],[136.214388,34.248231],[136.215498,34.247104],[136.216063,34.246697],[136.216661,34.246317],[136.217645,34.245908],[136.217778,34.246082],[136.218961,34.246369],[136.220194,34.245964],[136.220537,34.245903],[136.220801,34.24594],[136.221435,34.246183],[136.221979,34.246109],[136.222454,34.246298],[136.223202,34.246372],[136.223994,34.246628],[136.224477,34.246557],[136.225741,34.246598],[136.226629,34.246194],[136.228125,34.245352],[136.228581,34.24538],[136.229302,34.245256],[136.229523,34.245313],[136.230636,34.24586],[136.230802,34.245978],[136.23103,34.246289],[136.2314,34.246562],[136.232428,34.246691],[136.233459,34.246959],[136.233851,34.246884],[136.234612,34.246918],[136.234948,34.24703],[136.235574,34.24711],[136.236052,34.247343],[136.236413,34.247427],[136.237543,34.247489],[136.238362,34.247666],[136.23921,34.247755],[136.239911,34.247577],[136.240388,34.247577],[136.240496,34.247795],[136.240431,34.248168],[136.240267,34.248712],[136.240104,34.248994],[136.240111,34.249151],[136.240756,34.250017],[136.241182,34.251132],[136.241117,34.25126],[136.240807,34.251553],[136.24028,34.252232],[136.239943,34.252793],[136.238963,34.254898],[136.238381,34.255742],[136.238397,34.256077],[136.238742,34.25662],[136.238995,34.257242],[136.239828,34.257809],[136.240054,34.258077],[136.240345,34.258318],[136.240813,34.258398],[136.241039,34.258519],[136.241462,34.259146],[136.241734,34.259377],[136.241947,34.259757],[136.242337,34.260126],[136.242779,34.261159],[136.242962,34.261431],[136.243396,34.261677],[136.244141,34.261939],[136.244519,34.262138],[136.245132,34.262719],[136.245994,34.26338],[136.246565,34.263666],[136.247526,34.264247],[136.247916,34.264366],[136.248347,34.264334],[136.248859,34.264404],[136.249083,34.264459],[136.249672,34.264772],[136.250119,34.264786],[136.250344,34.264701],[136.250747,34.26439],[136.251582,34.264071],[136.252132,34.263586],[136.25241,34.263409],[136.253356,34.263185],[136.253867,34.262874],[136.254119,34.262804],[136.254215,34.262804],[136.254606,34.263034],[136.25541,34.26366],[136.255652,34.263794],[136.256256,34.26381],[136.256697,34.264056],[136.257041,34.264178],[136.257398,34.264224],[136.257704,34.264321],[136.2579,34.264533],[136.258155,34.264979],[136.258399,34.265271],[136.259722,34.265917],[136.260675,34.266584],[136.261187,34.267068],[136.261342,34.267371],[136.261983,34.267824],[136.262074,34.2682],[136.262234,34.26833],[136.2625,34.268441],[136.263162,34.269067],[136.265698,34.270613],[136.266091,34.27082],[136.266397,34.270866],[136.266891,34.271418],[136.267661,34.272499],[136.268724,34.273137],[136.268941,34.27337],[136.26908,34.273675],[136.269796,34.274266],[136.270464,34.274217],[136.270635,34.274103],[136.270996,34.273719],[136.271265,34.273143],[136.271407,34.272965],[136.27198,34.272468],[136.272642,34.272097],[136.273179,34.271913],[136.274033,34.271724],[136.27538,34.271672],[136.276564,34.272601],[136.276852,34.27276],[136.278124,34.273229],[136.278652,34.273127],[136.278881,34.273023],[136.279374,34.272568],[136.279472,34.272245],[136.279582,34.272172],[136.279727,34.272166],[136.280197,34.272284],[136.280671,34.272482],[136.281183,34.272496],[136.281844,34.272411],[136.282955,34.272376],[136.283756,34.27222],[136.284284,34.272236],[136.285409,34.272051],[136.28689,34.271561],[136.287406,34.271574],[136.288216,34.271716],[136.288351,34.271699],[136.288477,34.271623],[136.288796,34.270904],[136.288934,34.270836],[136.289297,34.270658],[136.290333,34.270436],[136.290904,34.270399],[136.29129,34.270252],[136.292114,34.269677],[136.292913,34.269005],[136.293008,34.26889],[136.293245,34.268372],[136.293537,34.268264],[136.294064,34.268172],[136.294633,34.267531],[136.29544,34.26721],[136.296179,34.267189],[136.296601,34.267091],[136.296772,34.266984],[136.296844,34.26682],[136.296843,34.266323],[136.297097,34.265997],[136.297458,34.265337],[136.297675,34.264697],[136.298196,34.264092],[136.298874,34.263657],[136.299546,34.262835],[136.299618,34.262641],[136.29958,34.262494],[136.298794,34.262095],[136.298151,34.261684],[136.29755,34.26082],[136.297083,34.260313],[136.296911,34.260221],[136.296436,34.260121],[136.29624,34.260034],[136.295956,34.259751],[136.295853,34.25959],[136.29581,34.25939],[136.295995,34.258862],[136.296078,34.258383],[136.295577,34.257553],[136.295627,34.257169],[136.295691,34.257056],[136.295802,34.256961],[136.297054,34.256359],[136.297679,34.255674],[136.297729,34.255217],[136.298292,34.254712],[136.299272,34.25419],[136.299348,34.253736],[136.29951,34.253319],[136.299395,34.253093],[136.299383,34.25278],[136.299446,34.252437],[136.299864,34.251707],[136.300131,34.251455],[136.300562,34.251242],[136.301173,34.251048],[136.30187,34.25048],[136.302136,34.250396],[136.303036,34.250716],[136.303273,34.25076],[136.303696,34.250743],[136.303784,34.250701],[136.304,34.250301],[136.304203,34.250196],[136.305166,34.250112],[136.305318,34.249985],[136.305555,34.249631],[136.306083,34.249341],[136.306243,34.249156],[136.30645,34.248426],[136.306609,34.248282],[136.306844,34.247782],[136.307029,34.247574],[136.307243,34.247434],[136.308429,34.247067],[136.309354,34.246508],[136.309411,34.246411],[136.309388,34.246337],[136.308786,34.245871],[136.308856,34.245142],[136.308959,34.245091],[136.309445,34.24509],[136.309653,34.245043],[136.309817,34.244769],[136.309883,34.244399],[136.310206,34.244186],[136.310395,34.243686],[136.31057,34.243446],[136.310684,34.243366],[136.311366,34.243158],[136.312114,34.242594],[136.312311,34.242549],[136.313049,34.242697],[136.314708,34.242911],[136.315289,34.242804],[136.316371,34.242861],[136.316794,34.242971],[136.317274,34.243268],[136.317935,34.243342],[136.318985,34.243317],[136.319556,34.243206],[136.32017,34.243354],[136.320379,34.243281],[136.320795,34.242909],[136.321111,34.242778],[136.321806,34.242925],[136.322384,34.24289],[136.322728,34.242964],[136.323887,34.243342],[136.324544,34.243629],[136.324869,34.243608],[136.325086,34.243525],[136.325586,34.243176],[136.325784,34.243176],[136.326623,34.243459],[136.326927,34.243469],[136.327444,34.243324],[136.327811,34.243044],[136.32822,34.242981],[136.328792,34.242701],[136.32972,34.242741],[136.330151,34.24247],[136.330986,34.242434],[136.331293,34.242238],[136.331508,34.241987],[136.331868,34.241813],[136.332093,34.241472],[136.332216,34.241424],[136.332304,34.241424],[136.332579,34.241603],[136.332738,34.241627],[136.33304,34.241527],[136.333557,34.24162],[136.333811,34.241578],[136.333892,34.241544],[136.334074,34.241182],[136.334996,34.240783],[136.335449,34.240469],[136.337184,34.240271],[136.337369,34.240322],[136.337713,34.240563],[136.33833,34.240517],[136.338513,34.240556],[136.3391,34.241127],[136.33959,34.241492],[136.339797,34.241629],[136.340138,34.241693],[136.340268,34.24187],[136.340205,34.242056],[136.339986,34.242404],[136.34018,34.242635],[136.340328,34.242978],[136.340744,34.243349],[136.34241,34.243976],[136.342896,34.244365],[136.343036,34.244386],[136.343686,34.244272],[136.344544,34.244281],[136.344951,34.244208],[136.345221,34.244081],[136.345726,34.244079],[136.345936,34.244029],[136.346133,34.243923],[136.346841,34.243234],[136.346922,34.243081],[136.347068,34.242368],[136.347014,34.241893],[136.347043,34.241755],[136.347657,34.241509],[136.348061,34.241117],[136.348531,34.240986],[136.349392,34.240927],[136.349555,34.240836],[136.349743,34.240639],[136.350078,34.240525],[136.350561,34.240516],[136.351201,34.240864],[136.351738,34.240884],[136.352484,34.240747],[136.352924,34.240485],[136.353266,34.240599],[136.35357,34.24061],[136.354096,34.24046],[136.354698,34.240505],[136.355883,34.240226],[136.356133,34.240252],[136.356532,34.240374],[136.356795,34.240287],[136.356888,34.240202],[136.356943,34.240064],[136.356888,34.239754],[136.356951,34.239293],[136.357009,34.239151],[136.357262,34.238837],[136.357281,34.238466],[136.357666,34.238154],[136.357755,34.237849],[136.357851,34.23698],[136.357911,34.236822],[136.358496,34.236264],[136.358809,34.235748],[136.358924,34.235343],[136.359003,34.235215],[136.359084,34.235132],[136.359655,34.234964],[136.359753,34.234876],[136.359891,34.234385],[136.360361,34.233833],[136.360736,34.233049],[136.361284,34.232643],[136.361405,34.23249],[136.36153,34.231824],[136.361825,34.231048],[136.362008,34.230734],[136.362345,34.230456],[136.36255,34.230366],[136.363275,34.230427],[136.363339,34.23039],[136.363392,34.230259],[136.364016,34.229808],[136.36428,34.229537],[136.365214,34.229104],[136.366439,34.229044],[136.36662,34.229367],[136.366761,34.229482],[136.367072,34.229602],[136.367641,34.22962],[136.368215,34.229966],[136.368384,34.230167],[136.368641,34.23031],[136.36892,34.230692],[136.369081,34.230824],[136.369429,34.230919],[136.370173,34.230999],[136.370276,34.231052],[136.370424,34.231408],[136.370748,34.231605],[136.370775,34.231689],[136.370724,34.23184],[136.370792,34.232016],[136.370768,34.232218],[136.370812,34.232399],[136.37111,34.23269],[136.371189,34.232868],[136.371184,34.232975],[136.371068,34.233151],[136.371078,34.233329],[136.370956,34.233538],[136.371033,34.234122],[136.370723,34.234601],[136.370745,34.234676],[136.370474,34.234945],[136.370415,34.235125],[136.370564,34.235326],[136.371162,34.235577],[136.371525,34.235868],[136.372236,34.236247],[136.372622,34.236571],[136.372868,34.23689],[136.372881,34.23718],[136.37299,34.237443],[136.373467,34.23805],[136.373823,34.238399],[136.374206,34.238868],[136.374356,34.23919],[136.374325,34.23945],[136.374399,34.2396],[136.375116,34.239913],[136.375365,34.239927],[136.375723,34.240039],[136.375894,34.240164],[136.376158,34.24051],[136.376484,34.240827],[136.37683,34.240968],[136.377144,34.241207],[136.377303,34.241582],[136.377512,34.241816],[136.377735,34.242009],[136.378463,34.242423],[136.378757,34.242889],[136.378879,34.243265],[136.379497,34.243752],[136.380036,34.244422],[136.380151,34.244424],[136.380622,34.244976],[136.380671,34.24515],[136.38088,34.245327],[136.381278,34.246026],[136.381995,34.246958],[136.38273,34.247613],[136.382974,34.247704],[136.383154,34.247686],[136.383679,34.247407],[136.38402,34.247343],[136.384662,34.247661],[136.385297,34.247566],[136.385582,34.247675],[136.385711,34.247939],[136.38566,34.248318],[136.385703,34.248704],[136.386049,34.249453],[136.386071,34.249601],[136.385549,34.250487],[136.385277,34.250724],[136.38506,34.251021],[136.385069,34.25137],[136.384706,34.251762],[136.384627,34.252139],[136.384628,34.252372],[136.384564,34.252493],[136.383171,34.253505],[136.382894,34.253837],[136.383288,34.254119],[136.383826,34.254642],[136.384039,34.254789],[136.384406,34.255189],[136.385077,34.255382],[136.38603,34.255766],[136.386526,34.25581],[136.387345,34.256046],[136.387871,34.255999],[136.388718,34.255819],[136.38938,34.255769],[136.390473,34.255427],[136.391458,34.255369],[136.39185,34.255281],[136.392024,34.255336],[136.392167,34.255304],[136.393546,34.255316],[136.394177,34.25514],[136.394987,34.25504],[136.395982,34.255087],[136.396327,34.255053],[136.396681,34.255106],[136.396828,34.255159],[136.397363,34.255777],[136.398218,34.256442],[136.398737,34.257105],[136.39899,34.257632],[136.399195,34.258333],[136.399168,34.258538],[136.399304,34.25892],[136.399723,34.259643],[136.400192,34.260323],[136.40051,34.260375],[136.400725,34.260354],[136.401311,34.260171],[136.402435,34.259609],[136.403038,34.259092],[136.403199,34.259139],[136.403564,34.259811],[136.403724,34.260245],[136.404081,34.26086],[136.404438,34.261091],[136.404615,34.261153],[136.405107,34.261067],[136.405389,34.261085],[136.405821,34.261395],[136.405935,34.261569],[136.405988,34.262033],[136.406213,34.262686],[136.406667,34.263612],[136.407069,34.264186],[136.407353,34.264269],[136.407711,34.26425],[136.408401,34.264121],[136.408692,34.264151],[136.408907,34.264116],[136.411698,34.264611],[136.413157,34.264965],[136.414102,34.265055],[136.414958,34.265219],[136.416434,34.26521],[136.418107,34.265533],[136.419446,34.265514],[136.419794,34.265551],[136.420512,34.26576],[136.421288,34.265921],[136.421531,34.26593],[136.421824,34.26578],[136.422061,34.265964],[136.422809,34.266151],[136.423643,34.266112],[136.42464,34.266319],[136.425279,34.266341],[136.426242,34.266917],[136.426879,34.267926],[136.427073,34.26857],[136.427412,34.268849],[136.427731,34.26893],[136.428313,34.269251],[136.428593,34.269809],[136.428187,34.270184],[136.427674,34.27091],[136.426976,34.271667],[136.426608,34.271946],[136.426377,34.27222],[136.425789,34.273165],[136.425594,34.273392],[136.425128,34.273736],[136.424535,34.274067],[136.424436,34.274215],[136.424353,34.274712],[136.42395,34.275625],[136.423343,34.276134],[136.42313,34.27665],[136.423072,34.276978],[136.423109,34.277544],[136.423299,34.277904],[136.423361,34.278099],[136.423361,34.278333],[136.422769,34.279086],[136.422178,34.279971],[136.422036,34.280126],[136.421249,34.280672],[136.421098,34.281037],[136.4211,34.281271],[136.420885,34.281739],[136.420441,34.282019],[136.420308,34.282151],[136.419889,34.282893],[136.41933,34.283302],[136.419286,34.283569],[136.419499,34.284342],[136.419747,34.284854],[136.419767,34.285251],[136.419815,34.285378],[136.420659,34.285697],[136.422046,34.286018],[136.42287,34.286431],[136.423606,34.286895],[136.423948,34.286751],[136.424446,34.286276],[136.424904,34.286194],[136.425821,34.285454],[136.426179,34.285367],[136.426873,34.284983],[136.427043,34.284946],[136.428873,34.284961],[136.429683,34.284909],[136.430934,34.285151],[136.431184,34.284911],[136.431778,34.284483],[136.431943,34.284302],[136.432327,34.284092],[136.432718,34.283961],[136.432953,34.28395],[136.433228,34.284041],[136.433395,34.28415],[136.433498,34.284266],[136.433647,34.284586],[136.434316,34.284879],[136.434574,34.285419],[136.434916,34.285851],[136.435273,34.286153],[136.435381,34.286365],[136.435524,34.286517],[136.436087,34.286679],[136.436155,34.286809],[136.436329,34.286957],[136.437281,34.287466],[136.437736,34.287628],[136.438716,34.28783],[136.439598,34.28822],[136.439964,34.288302],[136.44106,34.288235],[136.441209,34.28826],[136.441442,34.288412],[136.442084,34.28844],[136.442489,34.289019],[136.44301,34.289578],[136.443227,34.289677],[136.444396,34.289967],[136.444999,34.290039],[136.445452,34.290231],[136.445808,34.290259],[136.447683,34.290023],[136.449939,34.290068],[136.450253,34.290016],[136.450516,34.289862],[136.450791,34.289775],[136.451101,34.290068],[136.451918,34.290613],[136.452531,34.290844],[136.452758,34.290856],[136.453117,34.290959],[136.453362,34.291272],[136.453883,34.291766],[136.454175,34.292285],[136.454217,34.292926],[136.453946,34.293352],[136.453937,34.29351],[136.454351,34.294415],[136.454624,34.295295],[136.454843,34.295794],[136.454743,34.295964],[136.453998,34.296501],[136.453423,34.296693],[136.453249,34.29682],[136.453031,34.297156],[136.452877,34.297279],[136.453026,34.297777],[136.453009,34.297858],[136.452899,34.297966],[136.452919,34.298361],[136.453387,34.299203],[136.453812,34.299527],[136.453889,34.299666],[136.453904,34.299907],[136.45384,34.300242],[136.453559,34.300646],[136.453575,34.301047],[136.453509,34.301464],[136.453565,34.301853],[136.454025,34.303117],[136.454539,34.303742],[136.454782,34.304231],[136.455408,34.305201],[136.456028,34.305866],[136.45655,34.306211],[136.457065,34.306793],[136.457147,34.307195],[136.45703,34.307647],[136.457096,34.307858],[136.45717,34.307959],[136.457804,34.30834],[136.458287,34.308871],[136.458401,34.309116],[136.458049,34.309649],[136.457651,34.310608],[136.457265,34.311192],[136.456851,34.311579],[136.456794,34.311762],[136.45682,34.312228],[136.456999,34.312801],[136.456864,34.313667],[136.456871,34.314588],[136.456732,34.315137],[136.456727,34.315399],[136.456939,34.316334],[136.457386,34.317069],[136.4572,34.317461],[136.457228,34.317663],[136.457172,34.318148],[136.457192,34.318375],[136.457461,34.318976],[136.457538,34.319351],[136.457531,34.319468],[136.457301,34.319806],[136.457266,34.320016],[136.457701,34.3205],[136.458062,34.320989],[136.458579,34.321396],[136.458603,34.322595],[136.459022,34.323297],[136.459086,34.323616],[136.459378,34.323589],[136.459903,34.323707],[136.460544,34.323988],[136.461217,34.324364],[136.461542,34.324801],[136.461933,34.325122],[136.462704,34.325628],[136.463583,34.326474],[136.463876,34.327074],[136.463919,34.32755],[136.464118,34.327517],[136.464883,34.327176],[136.465427,34.327063],[136.467522,34.327391],[136.467854,34.327367],[136.468886,34.327092],[136.469091,34.327112],[136.469532,34.327377],[136.469952,34.327754],[136.470111,34.328016],[136.470362,34.328755],[136.4705,34.328986],[136.470721,34.328559],[136.470855,34.328476],[136.47253,34.328277],[136.473251,34.327964],[136.47413,34.327336],[136.475612,34.327042],[136.475888,34.327071],[136.476944,34.326893],[136.480453,34.326893],[136.482147,34.327042],[136.482729,34.327169],[136.483537,34.32711],[136.483683,34.327133],[136.483907,34.327262],[136.484047,34.32727],[136.484785,34.32685],[136.485129,34.32652],[136.485583,34.325896],[136.486157,34.325537],[136.48736,34.325256],[136.487634,34.325255],[136.488157,34.32516],[136.488779,34.324964],[136.489224,34.324949],[136.490129,34.324987],[136.490494,34.325049],[136.490996,34.32525],[136.491991,34.325466],[136.492866,34.326012],[136.493108,34.326219],[136.494455,34.326919],[136.494623,34.326927],[136.49501,34.326776],[136.495836,34.326599],[136.496707,34.32653],[136.497107,34.326449],[136.4973,34.326487],[136.497663,34.326567],[136.499855,34.327318],[136.499964,34.32744],[136.500343,34.327647],[136.500386,34.328151],[136.500474,34.328424],[136.500909,34.328724],[136.501253,34.32904],[136.501707,34.329582],[136.501967,34.329691],[136.502641,34.329757],[136.502851,34.329853],[136.503231,34.330221],[136.503311,34.330367],[136.503311,34.330563],[136.502876,34.331631],[136.502892,34.332039],[136.503386,34.332956],[136.504038,34.333449],[136.504111,34.333599],[136.504183,34.334123],[136.504373,34.334415],[136.504689,34.334836],[136.505017,34.335163],[136.505288,34.335334],[136.505626,34.336084],[136.505709,34.336648],[136.5059,34.336967],[136.506351,34.337438],[136.507523,34.337844],[136.509119,34.338045],[136.510515,34.338062],[136.511164,34.338143],[136.512272,34.338009],[136.512528,34.339119],[136.512612,34.339848],[136.512718,34.340183],[136.512833,34.34121],[136.512946,34.341391],[136.513495,34.341775],[136.513584,34.342612],[136.513662,34.342901],[136.513813,34.343188],[136.51444,34.343972],[136.51467,34.344543],[136.514866,34.344831],[136.515438,34.345395],[136.515543,34.345632],[136.515515,34.345798],[136.515157,34.346376],[136.514565,34.346852],[136.514351,34.347099],[136.514267,34.347664],[136.514345,34.348258],[136.514477,34.348705],[136.514138,34.349954],[136.514152,34.350168],[136.514484,34.350593],[136.514828,34.35094],[136.514989,34.351062],[136.515361,34.351221],[136.515579,34.351395],[136.515993,34.352321],[136.516027,34.353151],[136.516381,34.353428],[136.516872,34.353922],[136.517227,34.354379],[136.51735,34.354628],[136.517451,34.355687],[136.51785,34.356],[136.518431,34.356342],[136.519455,34.356819],[136.519848,34.357116],[136.520201,34.357715],[136.520426,34.358244],[136.520616,34.358859],[136.520423,34.359487],[136.519984,34.360382],[136.519613,34.360809],[136.519369,34.361182],[136.518722,34.361906],[136.517993,34.362567],[136.517546,34.363139],[136.517556,34.363295],[136.517915,34.363769],[136.517963,34.364008],[136.517824,34.364371],[136.517748,34.365135],[136.518056,34.365531],[136.518227,34.366045],[136.518685,34.366605],[136.519054,34.367514],[136.519293,34.367868],[136.519293,34.368119],[136.518833,34.368819],[136.51822,34.369148],[136.517697,34.369285],[136.517332,34.369566],[136.517378,34.369837],[136.51725,34.370422],[136.517124,34.370739],[136.516684,34.371251],[136.516402,34.371669],[136.51638,34.372425],[136.515879,34.373029],[136.515901,34.373204],[136.516168,34.373669],[136.516412,34.373977],[136.516491,34.374359],[136.516585,34.374528],[136.516777,34.374684],[136.517089,34.374801],[136.51802,34.374987],[136.519039,34.375311],[136.519865,34.375755],[136.520838,34.376567],[136.521819,34.377293],[136.521956,34.377347],[136.522421,34.37734],[136.522569,34.37738],[136.523039,34.377718],[136.523692,34.377975],[136.524069,34.378336],[136.524158,34.378589],[136.524267,34.378679],[136.524573,34.378729],[136.525163,34.378676],[136.526171,34.379022],[136.52695,34.379381],[136.527276,34.379647],[136.527988,34.380495],[136.526924,34.380965],[136.526415,34.381371],[136.525488,34.381772],[136.525384,34.381901],[136.525366,34.382469],[136.525296,34.38283],[136.525039,34.383102],[136.52476,34.383522],[136.524709,34.384445],[136.52464,34.384613],[136.524167,34.385146],[136.523636,34.385523],[136.523549,34.386369],[136.523466,34.386608],[136.522928,34.387019],[136.522795,34.387237],[136.52257,34.387434],[136.521739,34.388837],[136.521582,34.389187],[136.521446,34.389768],[136.521154,34.390292],[136.521105,34.390524],[136.520926,34.392152],[136.52096,34.392546],[136.521094,34.392875],[136.520944,34.393216],[136.520919,34.393486],[136.520977,34.393839],[136.521202,34.394188],[136.521874,34.394574],[136.523502,34.396096],[136.524053,34.396684],[136.524516,34.397649],[136.52471,34.397831],[136.525159,34.398088],[136.525642,34.398442],[136.526018,34.398924],[136.526664,34.399581],[136.5269,34.40009],[136.527032,34.400537],[136.52704,34.400706],[136.526949,34.401072],[136.527065,34.401627],[136.52696,34.402246],[136.527144,34.402899],[136.527222,34.403487],[136.527148,34.404222],[136.527177,34.404471],[136.527375,34.404807],[136.527782,34.405252],[136.528743,34.406113],[136.529755,34.406776],[136.530086,34.407208],[136.530534,34.407616],[136.531152,34.408725],[136.531326,34.409327],[136.53153,34.409538],[136.531774,34.41001],[136.532098,34.410435],[136.532367,34.411344],[136.53266,34.411873],[136.53322,34.412267],[136.533404,34.412555],[136.533675,34.413227],[136.534197,34.413597],[136.534492,34.414106],[136.534443,34.414208],[136.534175,34.414421],[136.533678,34.416173],[136.533535,34.417277],[136.53342,34.419972],[136.533504,34.420074],[136.533676,34.420594],[136.533911,34.420845],[136.535232,34.421885],[136.535043,34.422639],[136.535108,34.4228],[136.534953,34.423357],[136.534784,34.423668],[136.534577,34.423786],[136.534356,34.423819],[136.534123,34.423744],[136.533553,34.423282],[136.533178,34.423132],[136.532468,34.423153],[136.531574,34.423014],[136.531432,34.423057],[136.531328,34.423185],[136.530569,34.423661],[136.530543,34.423768],[136.530595,34.423939],[136.53075,34.42409],[136.530802,34.424283],[136.53075,34.424454],[136.530517,34.424647],[136.53031,34.424722],[136.530232,34.424969],[136.530051,34.425226],[136.529765,34.425508],[136.529687,34.425905],[136.529337,34.426795],[136.529617,34.426959],[136.529694,34.427431],[136.529643,34.427678],[136.529409,34.428225],[136.529358,34.428529],[136.5295,34.428829],[136.529578,34.42929],[136.529254,34.429719],[136.529371,34.429884],[136.529669,34.430012],[136.529759,34.430345],[136.529733,34.430431],[136.529604,34.430549],[136.529177,34.430667],[136.529241,34.430817],[136.529371,34.430902],[136.529409,34.431428],[136.529708,34.431621],[136.529811,34.431739],[136.529961,34.43222],[136.52963,34.433224],[136.529598,34.433459],[136.529317,34.433913],[136.529084,34.434093],[136.528843,34.434171],[136.527732,34.434336],[136.527334,34.434518],[136.527009,34.434761],[136.526727,34.435325],[136.527801,34.436306],[136.528401,34.436763],[136.530329,34.437754],[136.532774,34.438553],[136.533579,34.438684],[136.534937,34.438645],[136.539617,34.438161],[136.542115,34.438122],[136.543374,34.438056],[136.544132,34.437964],[136.544811,34.437964],[136.546789,34.438317],[136.547136,34.438435],[136.547531,34.438671],[136.547862,34.438997],[136.547989,34.439233],[136.548164,34.439905],[136.547895,34.441955],[136.547942,34.442492],[136.548227,34.442858],[136.548527,34.443159],[136.549064,34.443394],[136.549727,34.443538],[136.550599,34.443629],[136.551104,34.443603],[136.552036,34.443969],[136.552306,34.444169],[136.552654,34.444535],[136.552922,34.445019],[136.553001,34.445281],[136.553001,34.446189],[136.552843,34.44679],[136.552701,34.449136],[136.552764,34.449594],[136.552779,34.450222],[136.55289,34.450431],[136.551987,34.450482],[136.551805,34.450452],[136.55104,34.450006],[136.550725,34.449615],[136.550531,34.449595],[136.550267,34.449656],[136.549998,34.449795],[136.549877,34.449936],[136.54978,34.450397],[136.549623,34.450808],[136.549331,34.451248],[136.54898,34.451559],[136.54852,34.451739],[136.54835,34.4519],[136.548289,34.45211],[136.548386,34.452511],[136.548302,34.452672],[136.547148,34.453126],[136.546906,34.453296],[136.546749,34.453527],[136.546773,34.453878],[136.546906,34.454088],[136.547162,34.454728],[136.547792,34.455199],[136.548363,34.455522],[136.548568,34.455732],[136.549108,34.456035],[136.549178,34.456132],[136.549101,34.456344],[136.548871,34.456685],[136.548746,34.457221]]]]}}]}
