{"type":"FeatureCollection","features":[{"type":"Feature","properties":{"potaRef":"JP-1148","nameJa":"Nagatoro tamayodo","nameEn":"Nagatoro Tamayodo Prefectural Nature Park","authority":"環境省 生物多様性「見える化」マップ","boundaryStatus":"全国GIS候補・公開前検証待ち","boundarySource":"環境省 生物多様性「見える化」マップの自然公園区域を、POTA代表座標で一意に空間照合して加工","boundaryScaleNote":"区域は概要データであり、正確性は保証されない。POTA運用可否は公式情報で最終確認すること。","candidateMethod":"POTA representative point inside one public natural-park area","sourceParkKind":"都道府県立自然公園","sourceName":"Nagatoro tamayodo","sourceFeatureCount":1,"cautionMeters":75},"geometry":{"type":"MultiPolygon","coordinates":[[[[139.128548,36.146823],[139.128224,36.147303],[139.126873,36.14809],[139.126533,36.148348],[139.126196,36.148388],[139.124846,36.148237],[139.124563,36.14816],[139.124065,36.147926],[139.123448,36.14783],[139.122714,36.147331],[139.122403,36.147205],[139.121814,36.146775],[139.121587,36.146731],[139.121192,36.146555],[139.120269,36.146983],[139.119961,36.147016],[139.119675,36.146961],[139.119302,36.146709],[139.118994,36.146358],[139.118368,36.145995],[139.117939,36.145622],[139.117774,36.145281],[139.117544,36.145128],[139.117477,36.144974],[139.117225,36.144688],[139.117071,36.144249],[139.116939,36.144128],[139.116453,36.143926],[139.115255,36.143125],[139.115068,36.143092],[139.114464,36.143191],[139.114167,36.143158],[139.11364,36.142993],[139.112925,36.142576],[139.112299,36.142378],[139.11176,36.142038],[139.111398,36.142422],[139.111068,36.142598],[139.108015,36.143213],[139.10752,36.143377],[139.106663,36.143839],[139.106311,36.14397],[139.106223,36.143948],[139.105971,36.143707],[139.1053,36.142488],[139.104971,36.141741],[139.104806,36.141566],[139.104509,36.141401],[139.103903,36.14126],[139.103639,36.141096],[139.103474,36.140865],[139.103419,36.14058],[139.103255,36.140283],[139.102683,36.139581],[139.102617,36.13935],[139.102628,36.138944],[139.10232,36.138241],[139.101562,36.137044],[139.101409,36.136682],[139.101277,36.136495],[139.100496,36.136375],[139.100211,36.136396],[139.100081,36.136482],[139.099795,36.136878],[139.099355,36.137602],[139.099201,36.13769],[139.098663,36.137767],[139.097553,36.1378],[139.096004,36.137942],[139.095729,36.13791],[139.095575,36.137833],[139.095366,36.13758],[139.094718,36.137152],[139.093531,36.136614],[139.093136,36.136153],[139.092466,36.135758],[139.091173,36.134367],[139.090745,36.13373],[139.089756,36.133115],[139.08947,36.132885],[139.089075,36.132457],[139.088844,36.132281],[139.088602,36.131985],[139.088026,36.131483],[139.087835,36.131239],[139.087608,36.130821],[139.087608,36.130665],[139.087382,36.130143],[139.087243,36.129655],[139.087103,36.129463],[139.086842,36.129237],[139.086755,36.129046],[139.086755,36.128837],[139.087156,36.128471],[139.087243,36.128298],[139.087452,36.12727],[139.087486,36.125843],[139.087945,36.125035],[139.088049,36.124628],[139.08782,36.123846],[139.087674,36.123763],[139.087079,36.123763],[139.085859,36.123502],[139.08517,36.123138],[139.084878,36.123054],[139.083815,36.123179],[139.083408,36.12319],[139.08322,36.123138],[139.082588,36.121852],[139.082548,36.12163],[139.082732,36.121201],[139.083476,36.119941],[139.083621,36.119828],[139.083968,36.119349],[139.084113,36.118977],[139.084259,36.118412],[139.084272,36.117492],[139.084405,36.116975],[139.084449,36.116581],[139.084638,36.116241],[139.085585,36.11511],[139.085894,36.114903],[139.086481,36.114713],[139.0866,36.114625],[139.086638,36.11448],[139.086424,36.114203],[139.086144,36.114067],[139.085775,36.113597],[139.085546,36.113512],[139.085391,36.113688],[139.085209,36.114198],[139.085022,36.114439],[139.084717,36.11463],[139.084313,36.114721],[139.083683,36.11467],[139.083316,36.114493],[139.082797,36.114412],[139.081673,36.114434],[139.081045,36.114262],[139.080644,36.114271],[139.079995,36.115368],[139.079912,36.114683],[139.079983,36.114228],[139.078579,36.113807],[139.077531,36.113611],[139.07666,36.11354],[139.076087,36.113629],[139.075345,36.114439],[139.074978,36.114661],[139.07406,36.114882],[139.073068,36.114882],[139.072395,36.114505],[139.071663,36.114493],[139.071163,36.114868],[139.070851,36.114887],[139.070664,36.114762],[139.070443,36.114775],[139.070338,36.114976],[139.070105,36.11507],[139.069766,36.114975],[139.069485,36.115003],[139.069065,36.114956],[139.068641,36.11464],[139.068303,36.114504],[139.067865,36.114408],[139.067998,36.114678],[139.067634,36.114827],[139.067202,36.114828],[139.066643,36.114746],[139.066046,36.114541],[139.065586,36.114102],[139.063922,36.112025],[139.063447,36.111757],[139.06256,36.111149],[139.062099,36.110718],[139.062044,36.110481],[139.062184,36.110117],[139.062835,36.109322],[139.062913,36.109014],[139.062844,36.108541],[139.062873,36.107761],[139.062511,36.107405],[139.061137,36.107],[139.059939,36.106387],[139.059594,36.105348],[139.059218,36.10474],[139.058137,36.103404],[139.057848,36.102529],[139.05769,36.101607],[139.057444,36.101017],[139.057433,36.100642],[139.058187,36.099743],[139.058537,36.099407],[139.059164,36.099173],[139.059423,36.098844],[139.059916,36.098746],[139.061815,36.098598],[139.062517,36.098194],[139.062932,36.097623],[139.063528,36.097022],[139.063724,36.096375],[139.063812,36.094871],[139.064176,36.094307],[139.064787,36.093096],[139.065253,36.092502],[139.066996,36.09052],[139.067157,36.089677],[139.06759,36.088797],[139.06767,36.087569],[139.067546,36.087299],[139.06736,36.087133],[139.067386,36.086889],[139.067582,36.086665],[139.067636,36.086486],[139.067487,36.086435],[139.067276,36.086464],[139.067061,36.086656],[139.066655,36.086845],[139.066448,36.087094],[139.066462,36.087761],[139.065601,36.088114],[139.065159,36.088147],[139.064899,36.088119],[139.064576,36.088219],[139.064398,36.088119],[139.064424,36.087891],[139.064527,36.087779],[139.064481,36.087591],[139.064175,36.087399],[139.063874,36.087003],[139.063846,36.086499],[139.064001,36.086322],[139.064067,36.086087],[139.06397,36.085972],[139.063642,36.086251],[139.063618,36.086015],[139.06386,36.085522],[139.064085,36.085371],[139.064089,36.085176],[139.063131,36.085014],[139.06271,36.084999],[139.062537,36.085135],[139.062492,36.085321],[139.062299,36.085424],[139.062211,36.085341],[139.062219,36.084999],[139.062105,36.084754],[139.061844,36.084774],[139.061749,36.084976],[139.061882,36.085279],[139.06164,36.085316],[139.060709,36.084275],[139.060287,36.084308],[139.059507,36.084117],[139.059039,36.084148],[139.058289,36.083957],[139.05636,36.083716],[139.055961,36.083766],[139.055375,36.084015],[139.054613,36.084003],[139.053395,36.083006],[139.053494,36.082587],[139.053869,36.082036],[139.053801,36.081423],[139.054131,36.080178],[139.054227,36.079018],[139.054083,36.07846],[139.054074,36.077534],[139.053301,36.075169],[139.05275,36.073999],[139.051386,36.073354],[139.051721,36.07313],[139.052494,36.072838],[139.052758,36.072638],[139.053125,36.072492],[139.05364,36.072456],[139.054297,36.07251],[139.055286,36.072722],[139.055111,36.072007],[139.055111,36.071792],[139.055174,36.071528],[139.055368,36.071225],[139.055392,36.071006],[139.055302,36.070644],[139.055125,36.07035],[139.055049,36.069873],[139.05513,36.069306],[139.055526,36.06824],[139.055545,36.068016],[139.055437,36.066759],[139.055518,36.066572],[139.056042,36.066121],[139.056148,36.06596],[139.056208,36.065744],[139.055994,36.063891],[139.055336,36.0629],[139.0547,36.062444],[139.054442,36.062073],[139.054471,36.061682],[139.054862,36.060982],[139.054843,36.060705],[139.054887,36.06057],[139.055044,36.060511],[139.055292,36.060596],[139.055723,36.060562],[139.055962,36.06061],[139.056019,36.06058],[139.056069,36.060363],[139.056146,36.060249],[139.056522,36.060058],[139.057016,36.05998],[139.057478,36.060004],[139.057614,36.059949],[139.05772,36.059722],[139.057781,36.059353],[139.058169,36.058983],[139.0597,36.059653],[139.060627,36.060234],[139.061685,36.0605],[139.063732,36.060919],[139.064289,36.061101],[139.065574,36.062185],[139.065791,36.062247],[139.066249,36.062176],[139.066489,36.062226],[139.067526,36.062843],[139.068664,36.063442],[139.069391,36.063716],[139.06968,36.063723],[139.069832,36.063675],[139.070075,36.0635],[139.070144,36.06337],[139.070282,36.062673],[139.070366,36.062456],[139.070472,36.062319],[139.070587,36.062276],[139.070844,36.062236],[139.071801,36.062291],[139.073559,36.062664],[139.074388,36.06301],[139.074729,36.063271],[139.074977,36.06364],[139.075198,36.063768],[139.075415,36.063852],[139.07628,36.06397],[139.078488,36.064705],[139.079584,36.064961],[139.079868,36.065126],[139.08029,36.065519],[139.080685,36.065617],[139.08282,36.065725],[139.083894,36.065883],[139.084412,36.066071],[139.084628,36.066227],[139.085053,36.066668],[139.085696,36.067561],[139.086169,36.068417],[139.086348,36.068417],[139.08681,36.066563],[139.086974,36.066081],[139.087489,36.065094],[139.087815,36.064648],[139.08801,36.064516],[139.088251,36.064433],[139.09106,36.063658],[139.091802,36.063188],[139.092454,36.062575],[139.09274,36.061904],[139.093374,36.061055],[139.094366,36.059896],[139.09479,36.059287],[139.095309,36.05836],[139.095428,36.058014],[139.095538,36.057871],[139.095847,36.057586],[139.09603,36.057509],[139.096125,36.057531],[139.096417,36.057151],[139.097506,36.056045],[139.097903,36.055352],[139.097879,36.053838],[139.098111,36.051726],[139.098443,36.051243],[139.098536,36.049031],[139.098395,36.048248],[139.098323,36.046639],[139.098696,36.045693],[139.098833,36.044946],[139.100311,36.043781],[139.101096,36.04301],[139.102113,36.04179],[139.102271,36.041463],[139.102442,36.040431],[139.102598,36.040224],[139.102867,36.04014],[139.104007,36.040269],[139.104671,36.040121],[139.105679,36.039651],[139.10654,36.039491],[139.106998,36.039613],[139.108441,36.039619],[139.109053,36.03914],[139.10952,36.038057],[139.10956,36.037228],[139.10943,36.036803],[139.109516,36.036544],[139.110294,36.03584],[139.111486,36.034606],[139.112211,36.033625],[139.113023,36.032319],[139.113164,36.031443],[139.113226,36.030548],[139.113427,36.029673],[139.113959,36.028379],[139.114869,36.028019],[139.115348,36.028076],[139.116162,36.028381],[139.116644,36.028356],[139.118405,36.027603],[139.119673,36.027346],[139.119705,36.026826],[139.119203,36.026037],[139.119198,36.024588],[139.121844,36.0245],[139.123073,36.024226],[139.123514,36.0242],[139.124413,36.024296],[139.129182,36.025119],[139.129723,36.025111],[139.130029,36.024888],[139.130187,36.024126],[139.130482,36.023528],[139.130345,36.023379],[139.13023,36.02315],[139.130499,36.02278],[139.130828,36.022443],[139.131948,36.022509],[139.132371,36.021588],[139.132893,36.020669],[139.133304,36.020236],[139.134487,36.020189],[139.136979,36.019007],[139.13746,36.018982],[139.137837,36.019135],[139.139839,36.019214],[139.141644,36.019096],[139.144123,36.018467],[139.14527,36.017411],[139.146237,36.017165],[139.147581,36.017089],[139.148355,36.016531],[139.14871,36.015918],[139.149181,36.015486],[139.149357,36.014789],[139.150449,36.01435],[139.150867,36.013624],[139.151508,36.012755],[139.151683,36.012123],[139.152168,36.011105],[139.152265,36.010374],[139.152116,36.009884],[139.152102,36.009607],[139.152534,36.009142],[139.153605,36.008719],[139.155028,36.008692],[139.155126,36.008807],[139.154284,36.008827],[139.15392,36.008952],[139.153816,36.009129],[139.153951,36.009343],[139.154112,36.009345],[139.154395,36.009219],[139.155135,36.009247],[139.155514,36.00935],[139.155715,36.009305],[139.156236,36.009296],[139.156473,36.009414],[139.156955,36.009389],[139.157059,36.009211],[139.157385,36.008972],[139.157806,36.008979],[139.157982,36.00916],[139.158301,36.009214],[139.158483,36.009152],[139.158507,36.008973],[139.158204,36.008204],[139.158872,36.007059],[139.159045,36.006492],[139.158934,36.006099],[139.158942,36.005741],[139.15931,36.005438],[139.159591,36.005426],[139.159703,36.004923],[139.15997,36.004602],[139.159897,36.004308],[139.160134,36.003579],[139.160833,36.002841],[139.161518,36.00264],[139.161609,36.002169],[139.162363,36.001628],[139.163148,36.000582],[139.163699,36.000151],[139.166341,35.999345],[139.167826,35.998375],[139.168581,35.997752],[139.168579,35.996992],[139.168445,35.996745],[139.168392,35.996427],[139.168451,35.996054],[139.168947,35.995834],[139.169356,35.995449],[139.169589,35.994484],[139.169483,35.994279],[139.16941,35.993969],[139.169586,35.99372],[139.169919,35.993635],[139.169977,35.993278],[139.169785,35.992421],[139.170221,35.991906],[139.170529,35.991657],[139.170724,35.991316],[139.170918,35.991112],[139.171191,35.99097],[139.171899,35.990272],[139.173072,35.989669],[139.174609,35.989046],[139.174724,35.989715],[139.175039,35.990858],[139.175129,35.991036],[139.175486,35.991399],[139.175423,35.992237],[139.175533,35.992405],[139.175838,35.992641],[139.17588,35.992824],[139.175838,35.992992],[139.175318,35.993855],[139.175302,35.994254],[139.175244,35.994427],[139.175071,35.994637],[139.175065,35.994849],[139.175355,35.995604],[139.176011,35.996476],[139.176064,35.99707],[139.176201,35.997731],[139.176772,35.997651],[139.178821,35.997879],[139.179888,35.99791],[139.180625,35.997885],[139.181148,35.997757],[139.181346,35.997764],[139.182225,35.99811],[139.183326,35.998631],[139.183567,35.998703],[139.184166,35.998621],[139.184376,35.998662],[139.185034,35.999028],[139.185662,35.999122],[139.18576,35.999618],[139.186015,36.000016],[139.186266,36.001043],[139.186789,36.001611],[139.186896,36.002024],[139.187443,36.002527],[139.187806,36.002754],[139.188548,36.003092],[139.188648,36.003181],[139.188766,36.003589],[139.188946,36.003975],[139.189566,36.004871],[139.190207,36.006096],[139.191305,36.005925],[139.192505,36.005908],[139.192731,36.005986],[139.193292,36.006339],[139.193703,36.006414],[139.194321,36.006377],[139.195319,36.006499],[139.19547,36.006561],[139.196287,36.006494],[139.198052,36.006582],[139.199898,36.006288],[139.200378,36.006483],[139.201573,36.007273],[139.202227,36.007576],[139.20255,36.007614],[139.202928,36.007566],[139.203559,36.007392],[139.204234,36.007503],[139.204891,36.007379],[139.205374,36.007051],[139.206138,36.006633],[139.206352,36.006427],[139.206597,36.006302],[139.206806,36.006302],[139.20771,36.006611],[139.208528,36.00682],[139.209061,36.006884],[139.209343,36.006771],[139.209403,36.006131],[139.20955,36.005829],[139.210182,36.005174],[139.210712,36.004947],[139.211154,36.004901],[139.211531,36.004994],[139.211888,36.005485],[139.212101,36.005607],[139.212975,36.005845],[139.213373,36.006088],[139.213572,36.006982],[139.213742,36.008188],[139.213841,36.00843],[139.21417,36.008791],[139.214919,36.010648],[139.215368,36.011307],[139.215616,36.011554],[139.216561,36.011197],[139.217356,36.011173],[139.218025,36.010889],[139.219946,36.010705],[139.220173,36.010777],[139.220537,36.011046],[139.220776,36.011131],[139.22242,36.010919],[139.223151,36.010927],[139.223795,36.010872],[139.223993,36.011032],[139.224139,36.011293],[139.224511,36.011737],[139.22489,36.012092],[139.225087,36.012216],[139.225387,36.012601],[139.225829,36.012765],[139.22599,36.012954],[139.226043,36.013151],[139.226036,36.013536],[139.226107,36.013989],[139.22638,36.014595],[139.226627,36.014946],[139.227256,36.015607],[139.227449,36.016116],[139.227714,36.016496],[139.228944,36.017519],[139.22937,36.018536],[139.229629,36.019044],[139.22973,36.019127],[139.230372,36.019373],[139.231317,36.019476],[139.233144,36.019847],[139.233775,36.020208],[139.234432,36.020483],[139.234479,36.020656],[139.234455,36.021049],[139.234563,36.021371],[139.234747,36.021649],[139.23496,36.021862],[139.23551,36.022294],[139.235524,36.022437],[139.235437,36.022799],[139.235546,36.02305],[139.237125,36.023485],[139.237584,36.023556],[139.238488,36.023501],[139.238913,36.023384],[139.239682,36.023007],[139.239664,36.023344],[139.239431,36.02391],[139.238963,36.024212],[139.238896,36.024537],[139.239052,36.024734],[139.238963,36.02514],[139.239356,36.025455],[139.239291,36.025682],[139.238757,36.026292],[139.238568,36.026664],[139.23888,36.027059],[139.238995,36.027289],[139.238713,36.027366],[139.238238,36.027115],[139.238105,36.026755],[139.237652,36.026406],[139.237193,36.026351],[139.237086,36.026626],[139.237542,36.027772],[139.237244,36.028532],[139.237084,36.029425],[139.238169,36.030173],[139.238725,36.031304],[139.23879,36.031989],[139.238387,36.032976],[139.238377,36.034645],[139.239029,36.035904],[139.239292,36.037226],[139.238968,36.037836],[139.238929,36.03829],[139.238667,36.038615],[139.238654,36.03926],[139.239166,36.039875],[139.239341,36.040348],[139.240316,36.041618],[139.240495,36.042096],[139.240996,36.042725],[139.241149,36.044201],[139.241096,36.044505],[139.240693,36.044613],[139.24048,36.044301],[139.240038,36.044327],[139.239069,36.044671],[139.238551,36.044673],[139.235884,36.04389],[139.234539,36.043869],[139.233697,36.043514],[139.23338,36.043323],[139.233073,36.04293],[139.232929,36.042524],[139.232939,36.041879],[139.232852,36.041275],[139.232557,36.041059],[139.232291,36.040388],[139.231555,36.03939],[139.23082,36.038967],[139.230223,36.038763],[139.229247,36.038521],[139.22812,36.037837],[139.227305,36.037564],[139.226384,36.037534],[139.225476,36.037781],[139.225016,36.037742],[139.224859,36.038521],[139.226034,36.039743],[139.226743,36.04029],[139.227009,36.04005],[139.227891,36.040493],[139.228382,36.040864],[139.229325,36.042152],[139.22958,36.043024],[139.22973,36.044268],[139.229621,36.045968],[139.229423,36.046778],[139.228833,36.047177],[139.22774,36.047632],[139.225531,36.047828],[139.224346,36.048728],[139.223574,36.049125],[139.222788,36.049254],[139.22211,36.049092],[139.220882,36.048353],[139.219854,36.047478],[139.219367,36.046597],[139.218252,36.046255],[139.217497,36.045967],[139.215254,36.046812],[139.214246,36.047058],[139.211516,36.047474],[139.209451,36.04824],[139.207603,36.049248],[139.206967,36.049733],[139.206406,36.051024],[139.206333,36.051641],[139.206474,36.052046],[139.206243,36.053201],[139.206002,36.053585],[139.206036,36.053803],[139.205793,36.053951],[139.205183,36.054204],[139.204219,36.054347],[139.203165,36.054418],[139.201814,36.054396],[139.201248,36.054306],[139.200871,36.054448],[139.200386,36.054387],[139.199808,36.054443],[139.19921,36.054585],[139.198546,36.055061],[139.197842,36.055239],[139.196885,36.055728],[139.196022,36.05681],[139.194681,36.059433],[139.194043,36.060437],[139.193806,36.060614],[139.192049,36.060862],[139.191086,36.061264],[139.190527,36.061068],[139.189958,36.060528],[139.189248,36.060113],[139.188631,36.060158],[139.188013,36.060501],[139.187625,36.06097],[139.187223,36.061736],[139.187106,36.062197],[139.186598,36.062967],[139.186065,36.06322],[139.185656,36.063828],[139.185256,36.06421],[139.184077,36.064974],[139.183751,36.065448],[139.183337,36.065695],[139.183093,36.066025],[139.182674,36.066352],[139.181539,36.067752],[139.181231,36.067992],[139.180465,36.068281],[139.179707,36.069108],[139.1797,36.06952],[139.180311,36.070607],[139.180383,36.070999],[139.180199,36.071335],[139.179772,36.071579],[139.179686,36.071923],[139.179319,36.072474],[139.179263,36.073563],[139.179351,36.074288],[139.178877,36.074851],[139.178542,36.075464],[139.178127,36.07606],[139.178222,36.077184],[139.177508,36.077694],[139.177093,36.078306],[139.176814,36.079116],[139.176466,36.079436],[139.175895,36.07985],[139.175561,36.080399],[139.174927,36.081821],[139.174557,36.082222],[139.174073,36.082345],[139.172355,36.084646],[139.172236,36.085458],[139.172809,36.08672],[139.173602,36.088831],[139.173703,36.089646],[139.17331,36.090194],[139.172988,36.090221],[139.17284,36.090577],[139.172151,36.090876],[139.172244,36.091203],[139.172821,36.091374],[139.174143,36.09146],[139.174287,36.092145],[139.174701,36.09334],[139.174434,36.09358],[139.174387,36.093904],[139.17573,36.09565],[139.17579,36.096513],[139.177534,36.096556],[139.17829,36.096828],[139.178995,36.096692],[139.179755,36.096736],[139.180363,36.096485],[139.181583,36.096601],[139.182768,36.095659],[139.185577,36.095604],[139.186308,36.095192],[139.188415,36.09511],[139.189074,36.09525],[139.190586,36.09664],[139.191889,36.097522],[139.191742,36.099571],[139.191396,36.099777],[139.191168,36.100115],[139.191485,36.101178],[139.192187,36.101172],[139.193239,36.100765],[139.193466,36.100492],[139.193531,36.098507],[139.194587,36.097042],[139.195609,36.098848],[139.195655,36.099467],[139.196176,36.100337],[139.196864,36.101845],[139.198591,36.101741],[139.200083,36.100477],[139.200674,36.100096],[139.201936,36.100147],[139.202119,36.10002],[139.202093,36.099417],[139.201883,36.098926],[139.202729,36.097469],[139.203181,36.097166],[139.203335,36.09679],[139.203555,36.096667],[139.203941,36.096613],[139.204088,36.096355],[139.20445,36.096295],[139.204545,36.096525],[139.204438,36.096816],[139.204276,36.09779],[139.204675,36.097877],[139.20479,36.098107],[139.205211,36.098113],[139.205561,36.09859],[139.205574,36.098884],[139.205812,36.099017],[139.206026,36.099281],[139.206488,36.100134],[139.206514,36.100785],[139.207068,36.101087],[139.207043,36.101314],[139.20676,36.101424],[139.206554,36.101632],[139.206527,36.101974],[139.206423,36.102135],[139.206429,36.102737],[139.206805,36.10297],[139.206514,36.103406],[139.20617,36.103531],[139.206004,36.103805],[139.206065,36.104636],[139.206187,36.105435],[139.206378,36.105861],[139.206009,36.106213],[139.205913,36.106928],[139.206385,36.107326],[139.206382,36.107456],[139.20608,36.107484],[139.206074,36.10776],[139.206251,36.107926],[139.206164,36.108234],[139.206443,36.109182],[139.206717,36.109463],[139.20673,36.109788],[139.20701,36.109809],[139.207168,36.109925],[139.207321,36.110253],[139.207374,36.110563],[139.206966,36.110866],[139.206957,36.111273],[139.206484,36.111786],[139.206558,36.11208],[139.206483,36.11273],[139.206123,36.113538],[139.205256,36.11377],[139.204446,36.114099],[139.20237,36.115402],[139.201902,36.114842],[139.201132,36.114277],[139.199508,36.113374],[139.199473,36.113178],[139.198815,36.112989],[139.198648,36.113296],[139.197892,36.112992],[139.197109,36.112166],[139.196695,36.111867],[139.196114,36.111842],[139.195908,36.112051],[139.195357,36.111603],[139.194661,36.111332],[139.194647,36.111071],[139.193224,36.110139],[139.19284,36.110295],[139.192794,36.110555],[139.19251,36.110697],[139.192129,36.110692],[139.191338,36.111054],[139.190612,36.111245],[139.190377,36.11155],[139.189846,36.111588],[139.18896,36.112025],[139.187137,36.113236],[139.186242,36.113743],[139.185074,36.113986],[139.184865,36.114341],[139.185062,36.115337],[139.185903,36.11631],[139.186676,36.116696],[139.183087,36.118366],[139.183058,36.118756],[139.18336,36.12047],[139.184223,36.120434],[139.185001,36.120641],[139.185885,36.120541],[139.186793,36.120343],[139.187513,36.120403],[139.188469,36.120726],[139.190085,36.120976],[139.191239,36.121515],[139.192091,36.122126],[139.193643,36.122497],[139.193562,36.123439],[139.193,36.124294],[139.193066,36.124929],[139.194431,36.125226],[139.195192,36.125161],[139.19682,36.125732],[139.19827,36.125814],[139.199117,36.126002],[139.200457,36.126641],[139.200928,36.126747],[139.201516,36.127115],[139.202364,36.127298],[139.20303,36.127775],[139.203279,36.128168],[139.203308,36.128636],[139.203144,36.130038],[139.202967,36.130674],[139.203037,36.131356],[139.202729,36.133863],[139.202329,36.134638],[139.200089,36.137039],[139.199323,36.136923],[139.198816,36.137039],[139.198329,36.137065],[139.197521,36.136877],[139.196892,36.136821],[139.196,36.136872],[139.195634,36.136801],[139.194572,36.136246],[139.193705,36.135963],[139.193335,36.135775],[139.192955,36.135491],[139.192344,36.134622],[139.191735,36.134633],[139.191247,36.134523],[139.191042,36.134301],[139.190992,36.133946],[139.190627,36.133553],[139.189604,36.133596],[139.189438,36.133641],[139.189139,36.133812],[139.188951,36.134017],[139.188762,36.134089],[139.188568,36.134056],[139.188162,36.133823],[139.188018,36.133685],[139.187459,36.13348],[139.187104,36.13327],[139.186904,36.133186],[139.186688,36.133186],[139.185435,36.133665],[139.185278,36.133763],[139.184541,36.133874],[139.183913,36.134158],[139.183519,36.134186],[139.183303,36.134396],[139.182916,36.134922],[139.18184,36.134772],[139.181076,36.134512],[139.180907,36.134495],[139.180763,36.134667],[139.180685,36.1349],[139.18068,36.135104],[139.180884,36.13583],[139.180851,36.136063],[139.18034,36.137819],[139.180246,36.137819],[139.179933,36.137756],[139.179739,36.137651],[139.179297,36.137209],[139.178745,36.136846],[139.178022,36.136196],[139.17767,36.135787],[139.177359,36.135263],[139.176742,36.13481],[139.176323,36.134684],[139.1758,36.134446],[139.175418,36.134357],[139.17496,36.134334],[139.174491,36.134204],[139.174277,36.134083],[139.174131,36.133858],[139.173912,36.1337],[139.17347,36.133607],[139.173056,36.133249],[139.172676,36.133159],[139.1723,36.132921],[139.1699,36.132115],[139.169286,36.132064],[139.167671,36.132175],[139.166055,36.1322],[139.165546,36.132065],[139.164939,36.132016],[139.164794,36.132043],[139.164517,36.132239],[139.164208,36.132794],[139.163985,36.133366],[139.163644,36.133898],[139.163153,36.134154],[139.162329,36.13484],[139.161617,36.134753],[139.16062,36.134972],[139.160327,36.135209],[139.160188,36.1354],[139.159607,36.135856],[139.159295,36.136365],[139.159182,36.136687],[139.159064,36.136796],[139.158559,36.137048],[139.158196,36.13737],[139.157635,36.138098],[139.157574,36.138318],[139.157624,36.138621],[139.157686,36.138732],[139.157856,36.138949],[139.1584,36.139446],[139.157738,36.139555],[139.156395,36.140073],[139.155468,36.140252],[139.154999,36.140603],[139.154563,36.14113],[139.153701,36.141622],[139.151925,36.141387],[139.150953,36.141374],[139.150606,36.141409],[139.150383,36.1415],[139.150137,36.141502],[139.149036,36.141853],[139.148728,36.141893],[139.147784,36.141752],[139.14737,36.141771],[139.146941,36.141973],[139.146579,36.142234],[139.146148,36.142643],[139.145834,36.142876],[139.145652,36.142933],[139.144357,36.142809],[139.143845,36.14284],[139.14242,36.143014],[139.139615,36.143542],[139.139419,36.143634],[139.138735,36.144217],[139.137128,36.145161],[139.136662,36.145659],[139.13614,36.14563],[139.135962,36.145528],[139.135579,36.145138],[139.135402,36.145067],[139.134752,36.14497],[139.134242,36.144999],[139.133487,36.145238],[139.132572,36.145181],[139.132022,36.145238],[139.131774,36.145319],[139.131484,36.145693],[139.13102,36.145965],[139.130637,36.146028],[139.130057,36.146042],[139.129239,36.145999],[139.128548,36.146823]]]]}}]}
