{"type":"FeatureCollection","features":[{"type":"Feature","properties":{"potaRef":"JP-1889","nameJa":"Goyo zan","nameEn":"Ohokuboyama Forest Prefectural Park","authority":"環境省 生物多様性「見える化」マップ","boundaryStatus":"全国GIS候補・公開前検証待ち","boundarySource":"環境省 生物多様性「見える化」マップの自然公園区域を、POTA代表座標で一意に空間照合して加工","boundaryScaleNote":"区域は概要データであり、正確性は保証されない。POTA運用可否は公式情報で最終確認すること。","candidateMethod":"POTA representative point inside one public natural-park area","sourceParkKind":"都道府県立自然公園","sourceName":"Goyo zan","sourceFeatureCount":1,"cautionMeters":75},"geometry":{"type":"MultiPolygon","coordinates":[[[[141.70858,39.218401],[141.707166,39.218605],[141.70599,39.218915],[141.704476,39.219624],[141.704027,39.219972],[141.703746,39.220343],[141.703712,39.22178],[141.703858,39.222409],[141.704167,39.223192],[141.706056,39.22678],[141.706808,39.227832],[141.707597,39.228727],[141.709135,39.230126],[141.709531,39.230369],[141.710078,39.230965],[141.710086,39.231213],[141.709453,39.231533],[141.708565,39.231737],[141.708229,39.231666],[141.705644,39.229173],[141.703944,39.227305],[141.702702,39.225523],[141.701662,39.223553],[141.70124,39.222058],[141.701102,39.220801],[141.701139,39.220007],[141.701463,39.218225],[141.701709,39.217496],[141.701818,39.217336],[141.702167,39.217231],[141.703763,39.217307],[141.70554,39.216499],[141.70636,39.216267],[141.707154,39.21617],[141.714951,39.216277],[141.715131,39.215646],[141.715052,39.214407],[141.714737,39.2135],[141.714549,39.213234],[141.714109,39.212946],[141.713133,39.212672],[141.708477,39.210871],[141.704927,39.209065],[141.70367,39.208736],[141.702972,39.208436],[141.702089,39.207796],[141.701717,39.207656],[141.700837,39.207529],[141.699132,39.207852],[141.69862,39.207456],[141.698282,39.20664],[141.697723,39.206205],[141.697361,39.206115],[141.696905,39.20617],[141.69619,39.2066],[141.695751,39.2065],[141.695398,39.206039],[141.695149,39.205932],[141.693639,39.206057],[141.69213,39.206535],[141.691594,39.20646],[141.690974,39.206116],[141.690751,39.205597],[141.690637,39.204859],[141.690251,39.204155],[141.688282,39.202743],[141.687732,39.202064],[141.686531,39.201484],[141.686614,39.200871],[141.68687,39.200535],[141.687478,39.200225],[141.6883,39.200006],[141.688919,39.199601],[141.689171,39.199351],[141.689161,39.199191],[141.688179,39.198931],[141.686345,39.198102],[141.68552,39.197942],[141.684455,39.198101],[141.683664,39.1981],[141.683301,39.197853],[141.683132,39.197483],[141.683284,39.197033],[141.684182,39.19588],[141.684526,39.195162],[141.68503,39.193852],[141.685687,39.191248],[141.686165,39.190105],[141.686847,39.189024],[141.688577,39.18557],[141.689175,39.184624],[141.689516,39.184807],[141.689772,39.184835],[141.690402,39.184827],[141.690999,39.184723],[141.69192,39.184486],[141.694472,39.183539],[141.695467,39.183302],[141.69559,39.182536],[141.695962,39.181371],[141.695961,39.179083],[141.69585,39.178174],[141.695597,39.176745],[141.694364,39.174247],[141.693888,39.173014],[141.693699,39.172119],[141.693884,39.171674],[141.694165,39.171572],[141.694975,39.171718],[141.700658,39.173371],[141.701545,39.173807],[141.70244,39.174971],[141.702805,39.175212],[141.703584,39.175305],[141.704401,39.175156],[141.704486,39.175058],[141.706002,39.174872],[141.708311,39.175064],[141.711966,39.175078],[141.712222,39.175318],[141.712045,39.176569],[141.71206,39.177102],[141.712219,39.177399],[141.712496,39.177528],[141.712762,39.177473],[141.714286,39.176596],[141.715151,39.176269],[141.716074,39.176047],[141.717037,39.176043],[141.717826,39.175924],[141.718204,39.17569],[141.71842,39.175398],[141.718561,39.173987],[141.718714,39.173547],[141.71933,39.17247],[141.719546,39.171862],[141.720077,39.171149],[141.720475,39.170147],[141.721309,39.169456],[141.722297,39.168937],[141.722666,39.168576],[141.722823,39.168206],[141.722866,39.167764],[141.722742,39.167222],[141.722205,39.166333],[141.721653,39.165827],[141.720341,39.165313],[141.719254,39.165205],[141.718477,39.164868],[141.717554,39.16477],[141.715448,39.163702],[141.714197,39.163196],[141.713125,39.162421],[141.712563,39.161357],[141.712322,39.161086],[141.711704,39.160864],[141.710617,39.160779],[141.710014,39.160517],[141.709734,39.160295],[141.709381,39.159663],[141.70814,39.158852],[141.70786,39.158326],[141.707616,39.158122],[141.706525,39.157811],[141.705733,39.157256],[141.705283,39.157091],[141.703383,39.157021],[141.705292,39.154413],[141.706618,39.152095],[141.707494,39.15084],[141.708582,39.149604],[141.709649,39.148895],[141.71072,39.148457],[141.714381,39.147951],[141.717045,39.147121],[141.718908,39.146677],[141.721039,39.146576],[141.723176,39.146222],[141.726812,39.146072],[141.727717,39.146127],[141.730296,39.146567],[141.731013,39.146834],[141.731631,39.147209],[141.731878,39.147475],[141.731951,39.147731],[141.731906,39.148259],[141.732094,39.148978],[141.732867,39.149628],[141.733597,39.14995],[141.734042,39.150497],[141.734447,39.151575],[141.73519,39.152455],[141.736009,39.153034],[141.737236,39.153703],[141.739449,39.155307],[141.740886,39.155303],[141.741788,39.15555],[141.743019,39.155733],[141.745233,39.155265],[141.745777,39.155022],[141.746125,39.154763],[141.746846,39.153877],[141.747131,39.15372],[141.747842,39.153659],[141.749345,39.153965],[141.750038,39.153748],[141.750411,39.153514],[141.75139,39.152271],[141.751756,39.151946],[141.75271,39.151604],[141.753404,39.151669],[141.753802,39.151528],[141.754186,39.151137],[141.754518,39.150585],[141.754858,39.149688],[141.754952,39.148537],[141.755205,39.147553],[141.755296,39.145603],[141.755223,39.145329],[141.754368,39.144247],[141.754198,39.143658],[141.753522,39.142484],[141.753621,39.142131],[141.754083,39.141515],[141.754257,39.141069],[141.754568,39.138825],[141.755783,39.136886],[141.756022,39.136074],[141.755247,39.134808],[141.755262,39.13429],[141.754977,39.133573],[141.754631,39.133029],[141.754743,39.13276],[141.756636,39.132418],[141.757891,39.131728],[141.758947,39.131432],[141.760628,39.130518],[141.761552,39.130243],[141.7626,39.129572],[141.76421,39.129056],[141.765263,39.129071],[141.766529,39.129465],[141.767585,39.129495],[141.768119,39.129714],[141.769641,39.129724],[141.771067,39.129245],[141.772565,39.12832],[141.773126,39.128178],[141.773445,39.128319],[141.774537,39.130021],[141.77639,39.131719],[141.776573,39.132428],[141.77657,39.133587],[141.776666,39.134118],[141.776843,39.134478],[141.777209,39.134717],[141.777927,39.134691],[141.77863,39.134312],[141.780235,39.133877],[141.781208,39.133683],[141.78263,39.133679],[141.783422,39.133568],[141.784498,39.133321],[141.785032,39.133032],[141.785271,39.133071],[141.785383,39.133503],[141.785203,39.135456],[141.785376,39.136437],[141.786292,39.137839],[141.787172,39.138556],[141.78761,39.138751],[141.788593,39.13946],[141.788886,39.139892],[141.789041,39.140352],[141.789106,39.141322],[141.789033,39.142127],[141.788409,39.145595],[141.788613,39.146302],[141.789297,39.147118],[141.789842,39.147485],[141.789903,39.147644],[141.789769,39.147917],[141.789109,39.148356],[141.789109,39.148717],[141.78956,39.149005],[141.790271,39.149044],[141.790824,39.148824],[141.791989,39.148035],[141.79278,39.147855],[141.793027,39.147997],[141.793172,39.148339],[141.793139,39.149344],[141.792974,39.149615],[141.791525,39.149864],[141.790094,39.150485],[141.788948,39.150586],[141.788064,39.15079],[141.78762,39.151217],[141.787583,39.151475],[141.78771,39.151915],[141.787979,39.152268],[141.78983,39.153804],[141.791434,39.154688],[141.793835,39.155519],[141.796608,39.155996],[141.79776,39.156366],[141.798118,39.156313],[141.798896,39.155967],[141.79937,39.155592],[141.8014,39.154394],[141.804152,39.153042],[141.80541,39.152902],[141.805869,39.153168],[141.805868,39.153515],[141.805518,39.153739],[141.804788,39.153962],[141.804092,39.154413],[141.803814,39.154946],[141.803677,39.155652],[141.803823,39.156274],[141.803815,39.156905],[141.80366,39.157359],[141.803247,39.158052],[141.802548,39.15875],[141.801314,39.159101],[141.800515,39.159479],[141.799618,39.160094],[141.79935,39.160642],[141.799388,39.160985],[141.799885,39.162157],[141.799816,39.164552],[141.800644,39.166944],[141.800959,39.168824],[141.800968,39.169632],[141.800698,39.171232],[141.800581,39.172734],[141.800223,39.174169],[141.800002,39.174661],[141.7999,39.175325],[141.800156,39.176485],[141.800507,39.177465],[141.800491,39.178106],[141.799983,39.178252],[141.799345,39.178365],[141.798723,39.178385],[141.798202,39.178236],[141.795793,39.177175],[141.794633,39.17702],[141.793677,39.177104],[141.793184,39.177287],[141.792701,39.177616],[141.792457,39.177872],[141.791844,39.178736],[141.790743,39.179652],[141.790205,39.179875],[141.787081,39.180947],[141.785372,39.181378],[141.784642,39.181428],[141.783778,39.181278],[141.783325,39.181141],[141.783011,39.180954],[141.782599,39.18059],[141.781791,39.180141],[141.781162,39.179936],[141.780426,39.179832],[141.78016,39.179705],[141.779787,39.179621],[141.779325,39.179595],[141.778724,39.179317],[141.778399,39.179227],[141.777928,39.179251],[141.777408,39.179532],[141.776957,39.179595],[141.775983,39.179347],[141.775092,39.179271],[141.773956,39.179485],[141.773516,39.179497],[141.772749,39.179409],[141.771635,39.179184],[141.771041,39.179012],[141.769956,39.178883],[141.768697,39.178894],[141.767776,39.178955],[141.766394,39.178726],[141.765941,39.178764],[141.765084,39.178738],[141.764689,39.178781],[141.76359,39.178745],[141.761998,39.178156],[141.761683,39.177992],[141.76069,39.177687],[141.760273,39.177748],[141.759755,39.178016],[141.759262,39.178008],[141.756953,39.177233],[141.755529,39.17658],[141.754256,39.176251],[141.753283,39.175331],[141.753039,39.17566],[141.752905,39.176926],[141.753045,39.177654],[141.753803,39.179504],[141.754061,39.180486],[141.754101,39.18138],[141.753709,39.182273],[141.753964,39.182437],[141.754546,39.182527],[141.754675,39.18279],[141.754435,39.182893],[141.753523,39.182805],[141.752809,39.182579],[141.752193,39.18272],[141.751498,39.183542],[141.750762,39.18387],[141.74996,39.184918],[141.749433,39.185297],[141.748981,39.185549],[141.747016,39.186244],[141.745686,39.186967],[141.744082,39.188119],[141.741964,39.189456],[141.744021,39.190409],[141.745593,39.191534],[141.746336,39.192401],[141.747031,39.193658],[141.747301,39.194814],[141.747193,39.196958],[141.747539,39.198475],[141.748212,39.199915],[141.748979,39.200787],[141.749698,39.201403],[141.75085,39.202126],[141.752627,39.202846],[141.754069,39.203157],[141.756017,39.203375],[141.757975,39.203188],[141.759399,39.203168],[141.760287,39.203276],[141.761362,39.203705],[141.762888,39.20385],[141.763856,39.204234],[141.764554,39.204713],[141.766779,39.206581],[141.772309,39.208421],[141.773099,39.208977],[141.773589,39.209663],[141.773702,39.210224],[141.774176,39.211286],[141.7742,39.211923],[141.773275,39.213865],[141.77351,39.215036],[141.774237,39.21592],[141.774631,39.216794],[141.774496,39.217586],[141.773708,39.218413],[141.773422,39.218919],[141.773303,39.219923],[141.772827,39.221067],[141.772224,39.221884],[141.771931,39.222098],[141.770095,39.222624],[141.768755,39.223471],[141.767755,39.223716],[141.766324,39.223879],[141.764826,39.224282],[141.762776,39.22444],[141.759847,39.225218],[141.758679,39.225196],[141.757975,39.225066],[141.75761,39.225144],[141.757167,39.225514],[141.756537,39.226306],[141.755037,39.227565],[141.753348,39.229173],[141.750885,39.231055],[141.748971,39.227486],[141.748249,39.226333],[141.747025,39.224811],[141.746052,39.223822],[141.745426,39.223386],[141.744358,39.222406],[141.742583,39.221238],[141.741582,39.220903],[141.739301,39.220867],[141.737775,39.220707],[141.735369,39.220763],[141.734404,39.220579],[141.733053,39.220534],[141.731117,39.221181],[141.726479,39.222076],[141.722909,39.222976],[141.720947,39.221703],[141.719179,39.220696],[141.718286,39.220259],[141.717127,39.219818],[141.715786,39.219467],[141.715519,39.219302],[141.714679,39.219236],[141.712047,39.218677],[141.709828,39.218395],[141.70858,39.218401]]]]}}]}
