{"type":"FeatureCollection","features":[{"type":"Feature","properties":{"potaRef":"JP-1492","nameJa":"Rurikei","nameEn":"Rurikei Prefectural Nature Park","authority":"環境省 生物多様性「見える化」マップ","boundaryStatus":"全国GIS候補・公開前検証待ち","boundarySource":"環境省 生物多様性「見える化」マップの自然公園区域を、POTA代表座標で一意に空間照合して加工","boundaryScaleNote":"区域は概要データであり、正確性は保証されない。POTA運用可否は公式情報で最終確認すること。","candidateMethod":"POTA representative point inside one public natural-park area","sourceParkKind":"都道府県立自然公園","sourceName":"Rurikei","sourceFeatureCount":1,"cautionMeters":75},"geometry":{"type":"MultiPolygon","coordinates":[[[[135.413431,35.045653],[135.413152,35.046443],[135.413786,35.04666],[135.413725,35.046784],[135.413588,35.046958],[135.412875,35.047339],[135.412773,35.047352],[135.412335,35.047176],[135.412461,35.046399],[135.412047,35.046113],[135.411674,35.045332],[135.411599,35.04466],[135.41132,35.043765],[135.41144,35.043357],[135.411906,35.043068],[135.412561,35.042868],[135.413083,35.042083],[135.413116,35.04201],[135.413095,35.041673],[135.413257,35.041052],[135.41364,35.040656],[135.413804,35.040407],[135.413688,35.040087],[135.413449,35.039742],[135.413157,35.039935],[135.412448,35.039623],[135.412122,35.039413],[135.411758,35.039065],[135.411312,35.038469],[135.410433,35.038725],[135.409323,35.038901],[135.409123,35.039251],[135.409068,35.039249],[135.408993,35.038915],[135.407913,35.038427],[135.407728,35.038109],[135.407465,35.037941],[135.40719,35.037873],[135.406684,35.037854],[135.406455,35.037643],[135.406079,35.037556],[135.405987,35.037384],[135.405972,35.036976],[135.405914,35.036908],[135.405499,35.036769],[135.405027,35.03674],[135.404631,35.03658],[135.404177,35.03648],[135.404097,35.036355],[135.403843,35.036229],[135.403742,35.036094],[135.403316,35.0358],[135.402378,35.035262],[135.402348,35.035059],[135.402669,35.034653],[135.40268,35.034399],[135.402735,35.03425],[135.402878,35.034118],[135.402981,35.033688],[135.402857,35.033501],[135.402769,35.033142],[135.402778,35.032838],[135.40266,35.032444],[135.402565,35.032319],[135.40234,35.032223],[135.401972,35.032524],[135.401523,35.032439],[135.401386,35.032314],[135.401372,35.03206],[135.401196,35.03194],[135.400847,35.031866],[135.400218,35.031904],[135.400053,35.031866],[135.399759,35.031755],[135.399162,35.031339],[135.398671,35.031148],[135.398545,35.03105],[135.398484,35.03091],[135.398489,35.030395],[135.398383,35.030104],[135.39846,35.029869],[135.398609,35.029763],[135.398894,35.029716],[135.39911,35.029759],[135.399813,35.030093],[135.399876,35.030062],[135.400024,35.029814],[135.400247,35.029731],[135.400783,35.029602],[135.401361,35.029372],[135.401815,35.029358],[135.401948,35.029271],[135.402045,35.028872],[135.402288,35.028574],[135.402544,35.028448],[135.402724,35.028372],[135.403047,35.028526],[135.40323,35.028877],[135.403205,35.029137],[135.403305,35.029292],[135.403542,35.02941],[135.403584,35.029483],[135.403618,35.030084],[135.403674,35.030136],[135.403671,35.030216],[135.403495,35.030527],[135.403488,35.030745],[135.403403,35.031049],[135.403249,35.0312],[135.403206,35.031452],[135.403252,35.031705],[135.403889,35.032356],[135.403841,35.032632],[135.403886,35.032888],[135.403982,35.033101],[135.404148,35.033251],[135.40425,35.033208],[135.40424,35.033311],[135.404362,35.033602],[135.404291,35.034115],[135.404565,35.034414],[135.404581,35.034507],[135.404556,35.035337],[135.404629,35.035651],[135.405376,35.035672],[135.405644,35.035846],[135.406166,35.036077],[135.406678,35.03611],[135.407113,35.036194],[135.407639,35.036464],[135.408341,35.036997],[135.408281,35.03707],[135.40947,35.03793],[135.409701,35.037971],[135.410287,35.037887],[135.411227,35.03756],[135.411627,35.037507],[135.411856,35.037577],[135.412145,35.037751],[135.412729,35.038773],[135.413157,35.038937],[135.413468,35.039173],[135.413601,35.039203],[135.413623,35.039313],[135.413508,35.039644],[135.413835,35.04012],[135.413895,35.040427],[135.413869,35.04057],[135.413494,35.041062],[135.413252,35.041522],[135.413228,35.042208],[135.412784,35.042895],[135.412592,35.043038],[135.411991,35.043247],[135.411682,35.043474],[135.411526,35.043801],[135.411626,35.04404],[135.412032,35.044333],[135.412103,35.044433],[135.412105,35.044873],[135.413182,35.044714],[135.413773,35.044114],[135.413903,35.044174],[135.413431,35.045653]]]]}}]}
