{"type":"FeatureCollection","features":[{"type":"Feature","properties":{"potaRef":"JP-1618","nameJa":"Buttsuji mitsugi hachimangu","nameEn":"Buttsuji Mitsugi Hachimangu Prefectural Nature Park","authority":"環境省 生物多様性「見える化」マップ","boundaryStatus":"全国GIS候補・公開前検証待ち","boundarySource":"環境省 生物多様性「見える化」マップの自然公園区域を、POTA代表座標で一意に空間照合して加工","boundaryScaleNote":"区域は概要データであり、正確性は保証されない。POTA運用可否は公式情報で最終確認すること。","candidateMethod":"POTA representative point inside one public natural-park area","sourceParkKind":"都道府県立自然公園","sourceName":"Buttsuji mitsugi hachimangu","sourceFeatureCount":1,"cautionMeters":75},"geometry":{"type":"MultiPolygon","coordinates":[[[[133.079424,34.476748],[133.079318,34.477012],[133.078956,34.477271],[133.078462,34.477253],[133.07819,34.477187],[133.077394,34.476599],[133.077027,34.476566],[133.076477,34.47661],[133.075932,34.476871],[133.075618,34.476886],[133.075435,34.476846],[133.075174,34.476711],[133.074942,34.476455],[133.074868,34.476113],[133.074926,34.475632],[133.074817,34.475317],[133.074703,34.475189],[133.074529,34.475168],[133.074119,34.47528],[133.073753,34.475254],[133.073574,34.475169],[133.073391,34.475006],[133.073249,34.474661],[133.072963,34.474528],[133.072818,34.474545],[133.072698,34.47462],[133.072514,34.474884],[133.072368,34.475008],[133.072222,34.475051],[133.072089,34.475019],[133.072021,34.474873],[133.072027,34.473858],[133.071862,34.4734],[133.071677,34.473291],[133.070998,34.473066],[133.070655,34.472784],[133.07062,34.472643],[133.07082,34.472234],[133.070824,34.472037],[133.070667,34.471737],[133.070541,34.471675],[133.069853,34.47169],[133.069668,34.47154],[133.069406,34.47116],[133.069454,34.470816],[133.069711,34.470413],[133.069675,34.470114],[133.069526,34.469891],[133.069366,34.469729],[133.06914,34.469617],[133.068593,34.469644],[133.068312,34.469728],[133.067953,34.469685],[133.067635,34.469414],[133.067455,34.469059],[133.067137,34.468646],[133.067122,34.4685],[133.06727,34.468204],[133.067056,34.467779],[133.066885,34.467723],[133.066726,34.467923],[133.066378,34.467984],[133.066101,34.467812],[133.065802,34.467428],[133.065611,34.466983],[133.065524,34.466456],[133.065556,34.466158],[133.065513,34.465932],[133.065685,34.46522],[133.065949,34.464509],[133.066039,34.464069],[133.066291,34.463465],[133.066326,34.462419],[133.066252,34.461854],[133.066016,34.461037],[133.065959,34.460427],[133.065604,34.459944],[133.065346,34.45973],[133.065201,34.459683],[133.065021,34.45973],[133.064783,34.45992],[133.064514,34.460633],[133.06436,34.460888],[133.064456,34.462953],[133.064346,34.463397],[133.064209,34.463659],[133.064195,34.46411],[133.064149,34.464144],[133.064129,34.464288],[133.063942,34.46466],[133.063536,34.465224],[133.06318,34.465489],[133.062804,34.46566],[133.062277,34.465567],[133.061766,34.465598],[133.06114,34.465409],[133.060645,34.465032],[133.060519,34.464996],[133.060408,34.46504],[133.060061,34.465342],[133.059331,34.465462],[133.059237,34.465529],[133.0591,34.465756],[133.058914,34.465863],[133.05864,34.465899],[133.057694,34.465648],[133.057602,34.465575],[133.057601,34.465428],[133.057818,34.465175],[133.057889,34.465017],[133.057854,34.464905],[133.057763,34.464857],[133.057164,34.465037],[133.056487,34.465075],[133.055451,34.464873],[133.055138,34.464718],[133.054734,34.464718],[133.054096,34.464562],[133.053562,34.464358],[133.053177,34.46411],[133.052778,34.463651],[133.052194,34.463451],[133.051699,34.463156],[133.051419,34.463049],[133.051188,34.463099],[133.050459,34.463675],[133.050282,34.463703],[133.050102,34.463479],[133.049755,34.463318],[133.04973,34.463202],[133.049854,34.462952],[133.049845,34.46276],[133.049767,34.462639],[133.049231,34.462219],[133.04915,34.461883],[133.049,34.461622],[133.048884,34.46154],[133.048609,34.461532],[133.048331,34.461752],[133.047836,34.461889],[133.047752,34.461976],[133.047683,34.462274],[133.047506,34.462381],[133.046784,34.462256],[133.046352,34.461861],[133.046163,34.461796],[133.045978,34.461826],[133.045306,34.462133],[133.045222,34.462085],[133.045034,34.461815],[133.044971,34.461607],[133.044699,34.461431],[133.044715,34.461058],[133.044966,34.460655],[133.045403,34.460295],[133.045712,34.459846],[133.04603,34.459665],[133.046173,34.45944],[133.045806,34.459327],[133.045134,34.459425],[133.04445,34.459402],[133.043517,34.459089],[133.042063,34.458857],[133.041951,34.458889],[133.041304,34.459384],[133.040517,34.459607],[133.039928,34.459715],[133.03929,34.459698],[133.038952,34.459765],[133.037662,34.459792],[133.036264,34.45962],[133.035945,34.459512],[133.035587,34.459473],[133.034916,34.459229],[133.034645,34.459214],[133.034102,34.459279],[133.033181,34.459743],[133.03246,34.459923],[133.032193,34.459866],[133.031608,34.45947],[133.030812,34.458677],[133.030488,34.458481],[133.030353,34.458255],[133.030315,34.458022],[133.030062,34.457767],[133.029038,34.457321],[133.028862,34.45734],[133.027898,34.45826],[133.027608,34.458725],[133.027134,34.459321],[133.026887,34.459576],[133.02645,34.459878],[133.026089,34.460207],[133.025967,34.460385],[133.02592,34.460941],[133.025803,34.461315],[133.024831,34.462691],[133.02474,34.462918],[133.024605,34.463138],[133.024474,34.46325],[133.023997,34.4641],[133.023447,34.464738],[133.023293,34.46522],[133.022932,34.465735],[133.022779,34.465922],[133.022537,34.46607],[133.021698,34.466854],[133.0213,34.467131],[133.0206,34.467893],[133.019907,34.46888],[133.018948,34.469717],[133.018624,34.470344],[133.018571,34.471012],[133.018705,34.471583],[133.0188,34.471776],[133.018167,34.472064],[133.017677,34.472039],[133.017691,34.471839],[133.017301,34.471577],[133.016857,34.471686],[133.01607,34.472103],[133.015707,34.472174],[133.015518,34.472093],[133.015364,34.471902],[133.015351,34.471715],[133.01547,34.471522],[133.016186,34.471061],[133.016424,34.470765],[133.016916,34.470362],[133.017031,34.470235],[133.017063,34.470115],[133.017017,34.469903],[133.016814,34.469715],[133.01681,34.469652],[133.01696,34.469461],[133.016967,34.469356],[133.016919,34.469333],[133.016422,34.469286],[133.016051,34.469328],[133.015956,34.469378],[133.015829,34.469577],[133.01529,34.469764],[133.015207,34.469726],[133.015276,34.469505],[133.015252,34.46931],[133.015324,34.469162],[133.015109,34.469043],[133.015113,34.468984],[133.015688,34.46862],[133.015744,34.468507],[133.015661,34.468377],[133.015411,34.468199],[133.015262,34.467854],[133.015418,34.467713],[133.015769,34.467643],[133.01583,34.467531],[133.016012,34.467377],[133.01599,34.467182],[133.016027,34.467076],[133.016095,34.467],[133.016409,34.466884],[133.01647,34.466614],[133.016454,34.466351],[133.016401,34.466258],[133.015749,34.466095],[133.0155,34.465836],[133.015465,34.465731],[133.015499,34.46565],[133.015644,34.465507],[133.015826,34.465429],[133.016139,34.465386],[133.017052,34.465427],[133.017642,34.465325],[133.018182,34.465053],[133.018363,34.465012],[133.01859,34.465001],[133.018861,34.465069],[133.019359,34.465076],[133.019667,34.46513],[133.020041,34.465099],[133.020318,34.465013],[133.020416,34.464906],[133.020426,34.464716],[133.020508,34.464534],[133.020467,34.464497],[133.020738,34.464046],[133.021323,34.463637],[133.021816,34.463173],[133.022276,34.462654],[133.022803,34.462238],[133.022989,34.462026],[133.023153,34.461686],[133.023234,34.461195],[133.023398,34.460835],[133.024198,34.459537],[133.024686,34.458937],[133.025066,34.458157],[133.025258,34.457459],[133.025258,34.456929],[133.025206,34.456852],[133.025073,34.456844],[133.024529,34.45705],[133.024205,34.457085],[133.023179,34.456657],[133.022583,34.456481],[133.022431,34.456247],[133.022425,34.455613],[133.02216,34.454938],[133.021696,34.454473],[133.021398,34.453867],[133.021114,34.453459],[133.020902,34.453267],[133.020587,34.453081],[133.019196,34.452539],[133.018801,34.452328],[133.018753,34.452259],[133.018673,34.451694],[133.01823,34.45109],[133.01822,34.450966],[133.018301,34.450827],[133.018945,34.450281],[133.019852,34.449828],[133.020273,34.449799],[133.020976,34.449943],[133.021555,34.450252],[133.021927,34.450609],[133.022466,34.450961],[133.022935,34.451722],[133.023107,34.451881],[133.023634,34.452205],[133.023875,34.452241],[133.024321,34.452153],[133.024763,34.452132],[133.025954,34.452397],[133.026296,34.452325],[133.026538,34.452335],[133.026797,34.452506],[133.026981,34.452543],[133.027214,34.452519],[133.027659,34.452364],[133.02861,34.452662],[133.029192,34.452973],[133.029664,34.453304],[133.030385,34.454018],[133.030518,34.454309],[133.030482,34.454437],[133.030327,34.45462],[133.029948,34.454827],[133.029836,34.454952],[133.029817,34.455134],[133.029936,34.455262],[133.030168,34.4554],[133.030933,34.455666],[133.031426,34.455701],[133.032153,34.455579],[133.032787,34.455616],[133.033553,34.455363],[133.034391,34.454759],[133.034656,34.454342],[133.034834,34.453603],[133.035289,34.452487],[133.035916,34.451485],[133.03616,34.451004],[133.03635,34.450779],[133.036442,34.450522],[133.036868,34.449817],[133.03742,34.448999],[133.038149,34.448142],[133.039398,34.44726],[133.040363,34.446787],[133.041365,34.446593],[133.041768,34.446562],[133.042628,34.446644],[133.044754,34.446489],[133.045936,34.446128],[133.04684,34.445987],[133.04843,34.446093],[133.048875,34.446227],[133.04941,34.446604],[133.049711,34.446913],[133.049957,34.447319],[133.050455,34.447899],[133.050684,34.448132],[133.050954,34.448304],[133.052032,34.44856],[133.053212,34.44853],[133.053651,34.448672],[133.054331,34.449146],[133.054867,34.449162],[133.055733,34.448834],[133.056064,34.448762],[133.057096,34.448324],[133.05765,34.448158],[133.05788,34.44802],[133.058106,34.447991],[133.058654,34.447681],[133.059877,34.447162],[133.061062,34.446888],[133.061203,34.446819],[133.061609,34.446771],[133.062433,34.446819],[133.063833,34.446756],[133.064279,34.446847],[133.064602,34.446822],[133.066965,34.446252],[133.06751,34.446063],[133.067827,34.446033],[133.069229,34.445708],[133.069557,34.445704],[133.070609,34.44541],[133.071603,34.445324],[133.072007,34.445245],[133.073407,34.445202],[133.073824,34.445284],[133.07462,34.445324],[133.075749,34.445623],[133.07611,34.445821],[133.076692,34.445989],[133.077179,34.446043],[133.07764,34.446248],[133.078933,34.44706],[133.079679,34.447682],[133.080314,34.448035],[133.08059,34.448354],[133.080842,34.448477],[133.081372,34.448946],[133.081852,34.449481],[133.08253,34.449897],[133.083554,34.451387],[133.083971,34.451766],[133.084503,34.451977],[133.085584,34.452174],[133.08604,34.45239],[133.086624,34.452922],[133.087971,34.454484],[133.08811,34.454969],[133.088098,34.45527],[133.087955,34.455903],[133.087985,34.456385],[133.08821,34.456735],[133.088654,34.456953],[133.089014,34.456975],[133.089379,34.45691],[133.090092,34.457099],[133.090396,34.457299],[133.090816,34.457817],[133.090962,34.458426],[133.090958,34.458873],[133.09064,34.460287],[133.09035,34.461107],[133.089995,34.461662],[133.089753,34.461927],[133.089657,34.462187],[133.08923,34.462927],[133.08873,34.463523],[133.088246,34.464256],[133.086777,34.465962],[133.086662,34.466219],[133.085944,34.466818],[133.085472,34.467328],[133.085244,34.46803],[133.085211,34.468711],[133.085289,34.469608],[133.085477,34.470442],[133.08562,34.470814],[133.086294,34.472067],[133.087075,34.472929],[133.087725,34.473395],[133.087972,34.473655],[133.088007,34.473813],[133.08781,34.473882],[133.087271,34.473694],[133.08673,34.473843],[133.0864,34.473788],[133.085728,34.473822],[133.085563,34.47376],[133.085335,34.473567],[133.085157,34.473517],[133.085067,34.473571],[133.08501,34.473691],[133.084997,34.474056],[133.085191,34.474365],[133.085061,34.474729],[133.085122,34.474805],[133.085355,34.474879],[133.085476,34.47501],[133.085433,34.475116],[133.085245,34.475194],[133.085115,34.475197],[133.084755,34.475087],[133.08434,34.475088],[133.083982,34.475022],[133.08348,34.475194],[133.083216,34.475349],[133.082894,34.475336],[133.082039,34.474994],[133.081773,34.474982],[133.081057,34.474743],[133.080909,34.474776],[133.080678,34.475077],[133.080503,34.475166],[133.07965,34.474998],[133.079542,34.475137],[133.079604,34.475396],[133.079724,34.475553],[133.080211,34.475859],[133.080294,34.476049],[133.080167,34.476168],[133.079476,34.476412],[133.079422,34.476519],[133.079424,34.476748]]]]}}]}
