{"type":"FeatureCollection","features":[{"type":"Feature","properties":{"potaRef":"JP-1567","nameJa":"Koyasancho ishimichi tamagawakyo","nameEn":"Koyasan Choishimichi Tamagawakyo Prefectural Nature Park","authority":"環境省 生物多様性「見える化」マップ","boundaryStatus":"全国GIS候補・公開前検証待ち","boundarySource":"環境省 生物多様性「見える化」マップの自然公園区域を、POTA代表座標で一意に空間照合して加工","boundaryScaleNote":"区域は概要データであり、正確性は保証されない。POTA運用可否は公式情報で最終確認すること。","candidateMethod":"POTA representative point inside one public natural-park area","sourceParkKind":"都道府県立自然公園","sourceName":"Koyasancho ishimichi tamagawakyo","sourceFeatureCount":1,"cautionMeters":75},"geometry":{"type":"MultiPolygon","coordinates":[[[[135.625468,34.277559],[135.625371,34.277767],[135.624907,34.278174],[135.624785,34.278429],[135.624588,34.278667],[135.624104,34.279079],[135.623407,34.27946],[135.622706,34.279607],[135.621774,34.279704],[135.620959,34.279608],[135.620501,34.279481],[135.619684,34.279083],[135.619374,34.27884],[135.619146,34.278585],[135.618753,34.277771],[135.618766,34.277624],[135.619252,34.277578],[135.619405,34.277475],[135.619515,34.277321],[135.619531,34.276484],[135.619568,34.276366],[135.619508,34.276072],[135.619089,34.274939],[135.619217,34.274659],[135.619421,34.274394],[135.619594,34.273784],[135.619826,34.273576],[135.620112,34.273501],[135.620499,34.273672],[135.620973,34.273783],[135.621361,34.273354],[135.621678,34.273157],[135.62252,34.272784],[135.623112,34.272626],[135.624123,34.272648],[135.624613,34.272186],[135.625282,34.271815],[135.626185,34.271679],[135.626568,34.271667],[135.626886,34.271679],[135.627448,34.27179],[135.628786,34.272211],[135.629102,34.272356],[135.629482,34.272595],[135.630341,34.273597],[135.631142,34.273628],[135.632428,34.273968],[135.632502,34.273799],[135.632651,34.272989],[135.632754,34.272697],[135.632757,34.272498],[135.633076,34.271034],[135.63343,34.270424],[135.634118,34.269741],[135.635028,34.269022],[135.635477,34.268806],[135.636529,34.268631],[135.637407,34.268627],[135.637926,34.268679],[135.637874,34.268104],[135.638019,34.267552],[135.638417,34.266843],[135.638873,34.266276],[135.639608,34.265928],[135.6407,34.265703],[135.640856,34.265033],[135.641782,34.264129],[135.642287,34.263974],[135.642839,34.263904],[135.642997,34.263387],[135.643419,34.262859],[135.643796,34.262503],[135.644163,34.262262],[135.644414,34.262032],[135.645401,34.261548],[135.64594,34.261354],[135.646557,34.260739],[135.64652,34.260367],[135.646596,34.259726],[135.646925,34.259112],[135.647023,34.258452],[135.64726,34.257743],[135.647784,34.257052],[135.648689,34.256407],[135.648881,34.256004],[135.648496,34.255251],[135.648457,34.254764],[135.648623,34.253807],[135.648873,34.253366],[135.649147,34.253078],[135.64961,34.251918],[135.650031,34.251333],[135.650246,34.250825],[135.650644,34.250211],[135.650757,34.249886],[135.65102,34.249645],[135.651077,34.24953],[135.651119,34.2491],[135.651182,34.248029],[135.651038,34.247271],[135.651174,34.246399],[135.650792,34.245992],[135.650438,34.24547],[135.650044,34.245038],[135.649449,34.244516],[135.649236,34.244256],[135.64886,34.243477],[135.648801,34.243214],[135.648802,34.242864],[135.648904,34.242486],[135.649327,34.241846],[135.649842,34.241407],[135.65012,34.24128],[135.650151,34.241204],[135.64996,34.240302],[135.648565,34.239114],[135.648621,34.238937],[135.648595,34.238562],[135.648637,34.238041],[135.648722,34.237973],[135.64922,34.237806],[135.649739,34.237713],[135.650369,34.237745],[135.650692,34.23788],[135.651219,34.237717],[135.652328,34.23726],[135.652644,34.237029],[135.653431,34.236235],[135.653573,34.235859],[135.653513,34.235658],[135.65355,34.235557],[135.654664,34.235737],[135.655677,34.235765],[135.657221,34.236135],[135.657539,34.236157],[135.657639,34.236012],[135.657658,34.235689],[135.657614,34.235545],[135.656478,34.23474],[135.656219,34.234337],[135.656201,34.234076],[135.656268,34.2339],[135.6566,34.233566],[135.656734,34.233339],[135.656745,34.233138],[135.656648,34.232822],[135.656941,34.232002],[135.657259,34.231689],[135.657723,34.231423],[135.65809,34.231007],[135.658476,34.230864],[135.658589,34.230779],[135.658733,34.230545],[135.658822,34.230162],[135.658891,34.230046],[135.658993,34.230011],[135.659799,34.230008],[135.660953,34.22988],[135.661508,34.229753],[135.661789,34.229777],[135.662003,34.229889],[135.662743,34.230548],[135.663918,34.231469],[135.664196,34.231847],[135.664295,34.232111],[135.664035,34.232466],[135.663466,34.232898],[135.663321,34.233102],[135.663289,34.233248],[135.663392,34.23424],[135.663581,34.235081],[135.663748,34.235598],[135.663761,34.235806],[135.664127,34.236592],[135.664429,34.236286],[135.665103,34.23604],[135.665869,34.235969],[135.666215,34.236004],[135.666957,34.236191],[135.667582,34.236465],[135.667969,34.236745],[135.668475,34.237216],[135.66857,34.237182],[135.668848,34.236793],[135.669126,34.236559],[135.670137,34.236054],[135.67077,34.235912],[135.671363,34.235912],[135.67245,34.236198],[135.673008,34.236579],[135.6734,34.237121],[135.673601,34.237548],[135.673706,34.237931],[135.673793,34.238012],[135.674605,34.238155],[135.675408,34.238011],[135.675896,34.238007],[135.676248,34.238058],[135.676813,34.238258],[135.677129,34.238464],[135.677519,34.238869],[135.677788,34.239338],[135.677878,34.239797],[135.677745,34.240237],[135.677528,34.240644],[135.677149,34.241053],[135.67666,34.241347],[135.67624,34.241492],[135.675158,34.241735],[135.673826,34.241742],[135.672983,34.241516],[135.672355,34.24143],[135.672043,34.241721],[135.671177,34.242291],[135.670642,34.242447],[135.669594,34.24253],[135.668933,34.242373],[135.668365,34.242154],[135.668189,34.242043],[135.667563,34.241447],[135.666785,34.241471],[135.666265,34.241367],[135.665909,34.241233],[135.665487,34.240973],[135.664955,34.240484],[135.664261,34.240746],[135.663842,34.241123],[135.663107,34.241471],[135.662663,34.241573],[135.6622,34.24158],[135.661467,34.241445],[135.66101,34.241865],[135.660764,34.242005],[135.660521,34.242114],[135.660077,34.242206],[135.65944,34.242286],[135.658851,34.242218],[135.658427,34.242078],[135.657691,34.242237],[135.65657,34.242186],[135.656006,34.242352],[135.655696,34.242393],[135.655069,34.242376],[135.655003,34.242424],[135.654643,34.243005],[135.654121,34.243415],[135.654088,34.243508],[135.654386,34.243936],[135.655331,34.244893],[135.655616,34.245444],[135.655691,34.246056],[135.65562,34.246835],[135.655452,34.247337],[135.655593,34.24812],[135.65545,34.249141],[135.655693,34.249553],[135.655723,34.250442],[135.655496,34.250902],[135.654778,34.251767],[135.654274,34.252133],[135.654157,34.252575],[135.654045,34.252728],[135.654031,34.252839],[135.653549,34.253685],[135.653355,34.253906],[135.653403,34.254078],[135.653554,34.254278],[135.653924,34.254458],[135.654343,34.255067],[135.654483,34.255363],[135.654602,34.255869],[135.654455,34.25647],[135.654228,34.256892],[135.653946,34.257206],[135.653588,34.25752],[135.652704,34.25791],[135.652148,34.258723],[135.651314,34.259226],[135.651264,34.259304],[135.651157,34.25955],[135.651172,34.259719],[135.651029,34.260036],[135.651253,34.260558],[135.651331,34.260901],[135.651332,34.261367],[135.65114,34.262067],[135.650804,34.262538],[135.650291,34.262986],[135.649591,34.263338],[135.649312,34.263652],[135.648613,34.264176],[135.647954,34.264507],[135.647281,34.264758],[135.647221,34.264826],[135.64721,34.265026],[135.647057,34.265413],[135.647053,34.265757],[135.647364,34.266223],[135.647512,34.266571],[135.647546,34.267179],[135.647505,34.267526],[135.647371,34.267847],[135.647135,34.268169],[135.646272,34.268933],[135.645696,34.269298],[135.645498,34.269334],[135.644732,34.269633],[135.64379,34.269761],[135.642527,34.269678],[135.642432,34.269798],[135.642372,34.270236],[135.642265,34.270526],[135.641848,34.271022],[135.641559,34.271285],[135.641039,34.271554],[135.640447,34.271735],[135.639469,34.272404],[135.639113,34.272538],[135.638485,34.272625],[135.638035,34.272601],[135.637298,34.272451],[135.637196,34.272471],[135.637098,34.272646],[135.636986,34.273427],[135.636841,34.273746],[135.636621,34.274771],[135.636615,34.27532],[135.636456,34.275869],[135.636438,34.276335],[135.636113,34.277129],[135.635921,34.277443],[135.635656,34.277739],[135.634604,34.278349],[135.633877,34.278496],[135.632675,34.278347],[135.632115,34.278171],[135.63156,34.277808],[135.631271,34.277711],[135.630425,34.277223],[135.629205,34.277161],[135.62861,34.277042],[135.628119,34.276836],[135.627557,34.277169],[135.627107,34.277354],[135.626192,34.277527],[135.625563,34.277502],[135.625468,34.277559]]],[[[135.469222,34.29303],[135.468938,34.293469],[135.468791,34.293553],[135.468697,34.293541],[135.468642,34.293475],[135.46871,34.293055],[135.468616,34.292984],[135.468341,34.293027],[135.468198,34.292855],[135.467886,34.292651],[135.46777,34.292396],[135.467845,34.292162],[135.46812,34.291921],[135.468255,34.291849],[135.468505,34.291836],[135.46858,34.291784],[135.468715,34.291344],[135.468704,34.290743],[135.468857,34.290678],[135.469118,34.290748],[135.469281,34.290976],[135.469282,34.291129],[135.469344,34.291269],[135.46969,34.291325],[135.469699,34.291542],[135.469767,34.291597],[135.470427,34.291807],[135.470643,34.292033],[135.470715,34.292385],[135.470482,34.292471],[135.470391,34.29273],[135.470261,34.292845],[135.469955,34.292799],[135.469532,34.292862],[135.469222,34.29303]]],[[[135.546739,34.286574],[135.546941,34.286777],[135.547572,34.287852],[135.547739,34.28825],[135.547909,34.289242],[135.548195,34.289871],[135.548413,34.290004],[135.548558,34.290167],[135.548578,34.290374],[135.548744,34.290539],[135.549301,34.291471],[135.549506,34.292055],[135.549503,34.292583],[135.549298,34.292966],[135.549334,34.293233],[135.549451,34.293443],[135.549683,34.2937],[135.549978,34.29477],[135.550269,34.295313],[135.550229,34.295395],[135.548971,34.296169],[135.54875,34.295928],[135.548406,34.295802],[135.54809,34.295323],[135.547981,34.295077],[135.548402,34.294379],[135.548423,34.293775],[135.548263,34.2935],[135.548207,34.292934],[135.548425,34.29235],[135.548435,34.29206],[135.547091,34.290035],[135.546871,34.289359],[135.546654,34.288371],[135.546104,34.28736],[135.54601,34.287269],[135.545442,34.287166],[135.545191,34.287061],[135.544907,34.286816],[135.544794,34.286587],[135.544476,34.28654],[135.544464,34.286784],[135.544178,34.287139],[135.54431,34.28748],[135.54423,34.287826],[135.544231,34.288124],[135.544117,34.288384],[135.54434,34.288615],[135.544476,34.289024],[135.544441,34.290097],[135.544251,34.290482],[135.54386,34.290827],[135.543438,34.290924],[135.543093,34.290821],[135.54287,34.290663],[135.542638,34.290279],[135.542387,34.28967],[135.542234,34.289471],[135.541709,34.288979],[135.541115,34.288567],[135.540511,34.288286],[135.540026,34.288281],[135.539289,34.288023],[135.537922,34.287707],[135.536932,34.287231],[135.536408,34.28685],[135.535955,34.286034],[135.535844,34.28545],[135.53544,34.284702],[135.535462,34.284099],[135.534742,34.283887],[135.534527,34.283749],[135.534258,34.283462],[135.534149,34.282989],[135.533719,34.282324],[135.53352,34.281661],[135.533005,34.281313],[135.532842,34.281133],[135.532691,34.280758],[135.532722,34.280002],[135.532671,34.279717],[135.531521,34.278089],[135.531396,34.277683],[135.531532,34.27733],[135.531518,34.2771],[135.530872,34.276061],[135.530593,34.275475],[135.530572,34.275037],[135.530711,34.274689],[135.530692,34.274398],[135.530449,34.273817],[135.530458,34.273419],[135.530215,34.27295],[135.530199,34.272235],[135.529903,34.27193],[135.529756,34.271848],[135.529239,34.271806],[135.528845,34.271681],[135.528537,34.271413],[135.528415,34.271158],[135.52804,34.271066],[135.527768,34.270833],[135.527689,34.270689],[135.527708,34.27057],[135.528008,34.270054],[135.528057,34.269872],[135.52825,34.269618],[135.529001,34.269275],[135.529431,34.269234],[135.530126,34.26904],[135.530197,34.268967],[135.530052,34.267947],[135.529852,34.267363],[135.529761,34.266699],[135.529815,34.266315],[135.529965,34.265882],[135.529964,34.265448],[135.529867,34.265276],[135.529655,34.265099],[135.529588,34.264901],[135.529601,34.264552],[135.529495,34.264376],[135.529323,34.263881],[135.529345,34.263613],[135.529497,34.263297],[135.529654,34.263117],[135.529674,34.263007],[135.529241,34.262224],[135.528848,34.261792],[135.528092,34.261296],[135.527899,34.261039],[135.527772,34.260656],[135.527302,34.260111],[135.527202,34.260076],[135.526854,34.260115],[135.526045,34.260316],[135.525454,34.260585],[135.525209,34.260643],[135.524956,34.260901],[135.524795,34.261342],[135.524758,34.262123],[135.524583,34.262298],[135.524357,34.262683],[135.524418,34.263001],[135.524388,34.263263],[135.524001,34.264628],[135.524014,34.264884],[135.523899,34.26499],[135.523692,34.264981],[135.522896,34.264698],[135.522688,34.264737],[135.522551,34.264814],[135.522566,34.265464],[135.522288,34.265178],[135.521538,34.264971],[135.520714,34.263875],[135.520549,34.263293],[135.520155,34.262864],[135.519756,34.262766],[135.519201,34.262469],[135.518677,34.261682],[135.518562,34.261344],[135.518588,34.261163],[135.51838,34.260995],[135.518021,34.260851],[135.517969,34.26079],[135.518005,34.260695],[135.518377,34.260261],[135.518603,34.260191],[135.518809,34.259965],[135.518798,34.259916],[135.518623,34.259821],[135.518589,34.259504],[135.519042,34.259506],[135.519599,34.259161],[135.520364,34.259146],[135.520683,34.259073],[135.521376,34.258705],[135.522538,34.258568],[135.523128,34.258326],[135.52379,34.258266],[135.524141,34.25838],[135.524494,34.258612],[135.5253,34.258693],[135.525628,34.258852],[135.526113,34.259233],[135.526566,34.259241],[135.526865,34.259175],[135.526838,34.258658],[135.52676,34.258311],[135.526154,34.25756],[135.525837,34.256512],[135.525555,34.256019],[135.525099,34.255439],[135.525002,34.255202],[135.525021,34.255115],[135.525137,34.254855],[135.525581,34.254297],[135.525979,34.253923],[135.526357,34.25331],[135.526864,34.251822],[135.5269,34.251561],[135.526867,34.251415],[135.526939,34.251127],[135.527179,34.250717],[135.527591,34.250387],[135.52805,34.250248],[135.528231,34.2499],[135.528567,34.249684],[135.528815,34.249612],[135.529341,34.249721],[135.529515,34.249715],[135.529758,34.249649],[135.529832,34.249574],[135.52993,34.249337],[135.529931,34.248989],[135.530039,34.248699],[135.530364,34.248177],[135.530378,34.248085],[135.529759,34.247591],[135.529696,34.247482],[135.529686,34.24721],[135.52943,34.246838],[135.529551,34.246456],[135.529809,34.246139],[135.529568,34.245207],[135.529553,34.244629],[135.529763,34.244281],[135.530109,34.244128],[135.53039,34.243843],[135.530687,34.243663],[135.530678,34.243346],[135.530796,34.242965],[135.531437,34.24148],[135.531451,34.241129],[135.531696,34.240548],[135.53172,34.240203],[135.531973,34.239733],[135.532327,34.239385],[135.532472,34.238949],[135.532699,34.238789],[135.532983,34.23871],[135.534208,34.238645],[135.534627,34.238673],[135.534976,34.238522],[135.535258,34.238466],[135.536278,34.238633],[135.536768,34.23881],[135.53726,34.239214],[135.537718,34.239503],[135.538238,34.239949],[135.538555,34.240067],[135.538622,34.239999],[135.538609,34.239353],[135.538796,34.23912],[135.539045,34.23895],[135.539604,34.238803],[135.539813,34.238796],[135.540122,34.238837],[135.54048,34.238951],[135.540579,34.238915],[135.540476,34.238415],[135.540555,34.237163],[135.540498,34.236848],[135.540589,34.236502],[135.540516,34.235945],[135.540638,34.235482],[135.540961,34.234923],[135.540311,34.234259],[135.53996,34.233037],[135.539946,34.232836],[135.539492,34.232489],[135.539375,34.232203],[135.539036,34.231705],[135.538922,34.231444],[135.53904,34.23069],[135.538995,34.230636],[135.538737,34.230557],[135.538522,34.230316],[135.538455,34.229733],[135.538049,34.228815],[135.537652,34.228567],[135.537019,34.227932],[135.53643,34.227098],[135.536493,34.226837],[135.537161,34.226214],[135.537184,34.22567],[135.537336,34.225371],[135.537518,34.225142],[135.53685,34.224183],[135.536431,34.223863],[135.536293,34.223606],[135.536085,34.223399],[135.536001,34.223112],[135.536046,34.22265],[135.535649,34.2223],[135.535482,34.222093],[135.53536,34.221663],[135.535457,34.221397],[135.53602,34.220932],[135.536356,34.220374],[135.53665,34.220116],[135.536688,34.219999],[135.536574,34.219529],[135.536744,34.21927],[135.537264,34.219003],[135.537653,34.218601],[135.538072,34.218393],[135.538389,34.218305],[135.538596,34.218357],[135.538726,34.218295],[135.538974,34.218289],[135.539181,34.218065],[135.539407,34.217691],[135.539537,34.217577],[135.539992,34.217399],[135.540689,34.2173],[135.540827,34.21707],[135.540809,34.216813],[135.540874,34.216611],[135.541489,34.21613],[135.541614,34.216089],[135.54162,34.216192],[135.541455,34.216599],[135.541535,34.216716],[135.541569,34.217096],[135.541837,34.217447],[135.541536,34.217943],[135.541223,34.218179],[135.540972,34.218231],[135.540734,34.21821],[135.540245,34.218306],[135.539777,34.218998],[135.539271,34.219128],[135.538803,34.219156],[135.538474,34.219227],[135.538009,34.219726],[135.537841,34.219829],[135.537729,34.220341],[135.537592,34.220576],[135.537306,34.220864],[135.536903,34.221453],[135.536563,34.221742],[135.53661,34.221834],[135.536972,34.222148],[135.53708,34.222323],[135.537223,34.222808],[135.537216,34.222948],[135.537356,34.223165],[135.537403,34.223381],[135.538042,34.224004],[135.538245,34.224384],[135.538619,34.224873],[135.538643,34.22537],[135.538315,34.225861],[135.538272,34.226479],[135.538156,34.226673],[135.537724,34.227027],[135.537687,34.227142],[135.537851,34.22735],[135.538492,34.227982],[135.538902,34.228306],[135.539068,34.228512],[135.539478,34.229407],[135.539525,34.229807],[135.539902,34.229975],[135.540104,34.230162],[135.540144,34.230598],[135.540013,34.231301],[135.540045,34.231409],[135.540252,34.231644],[135.540389,34.231907],[135.540502,34.232021],[135.540811,34.232198],[135.54095,34.232371],[135.54101,34.232886],[135.541323,34.233876],[135.541565,34.23414],[135.541883,34.234371],[135.542135,34.234741],[135.542059,34.235179],[135.541717,34.235707],[135.541605,34.236087],[135.541657,34.23661],[135.54158,34.237016],[135.541628,34.237628],[135.541557,34.238498],[135.541662,34.239373],[135.54183,34.239801],[135.541831,34.240045],[135.541541,34.24031],[135.541224,34.240358],[135.54077,34.240182],[135.540033,34.239757],[135.539716,34.239701],[135.539682,34.239728],[135.539719,34.240166],[135.539657,34.240691],[135.53959,34.240839],[135.539447,34.24096],[135.539225,34.241033],[135.538873,34.241041],[135.53822,34.240977],[135.53745,34.240606],[135.536917,34.240117],[135.535963,34.239488],[135.535404,34.239395],[135.534702,34.239576],[135.533901,34.23955],[135.533548,34.239579],[135.533411,34.239638],[135.532802,34.240393],[135.532783,34.240689],[135.532699,34.240984],[135.5325,34.241388],[135.532453,34.2418],[135.532349,34.241968],[135.532427,34.242175],[135.532336,34.242491],[135.532001,34.242852],[135.531772,34.243337],[135.531751,34.244092],[135.531526,34.244394],[135.531135,34.24454],[135.530913,34.244825],[135.530685,34.245029],[135.530781,34.245352],[135.530827,34.245785],[135.530939,34.246137],[135.530896,34.246455],[135.530704,34.246719],[135.530791,34.246951],[135.5308,34.247151],[135.531291,34.247499],[135.531606,34.247877],[135.531586,34.248202],[135.531099,34.249017],[135.531003,34.249656],[135.530673,34.250236],[135.530191,34.250509],[135.529769,34.250596],[135.529141,34.250632],[135.528681,34.251052],[135.528189,34.25114],[135.528044,34.25123],[135.527953,34.251499],[135.527951,34.251933],[135.527767,34.252551],[135.527381,34.25354],[135.526949,34.254294],[135.526244,34.255108],[135.526227,34.255201],[135.526445,34.255456],[135.526759,34.25598],[135.527119,34.257141],[135.527778,34.258072],[135.52791,34.258502],[135.528029,34.259381],[135.528768,34.26028],[135.5289,34.260674],[135.529364,34.260923],[135.529624,34.261145],[135.530288,34.261929],[135.530786,34.262891],[135.530768,34.263322],[135.530563,34.263678],[135.530386,34.263816],[135.530649,34.264343],[135.530676,34.264659],[135.530911,34.264916],[135.53105,34.265356],[135.531057,34.266054],[135.530898,34.266719],[135.530956,34.267246],[135.531306,34.268527],[135.531354,34.268871],[135.531265,34.269256],[135.531157,34.269518],[135.530938,34.269688],[135.530273,34.26995],[135.529115,34.270214],[135.528998,34.270333],[135.52927,34.270535],[135.529475,34.270922],[135.529824,34.270882],[135.530244,34.271032],[135.530877,34.271464],[135.531177,34.271834],[135.531327,34.272276],[135.531344,34.272768],[135.531485,34.272972],[135.531555,34.273175],[135.531566,34.273667],[135.531849,34.274397],[135.531801,34.274915],[135.531676,34.275184],[135.531678,34.275292],[135.5318,34.275593],[135.532399,34.276528],[135.532607,34.277094],[135.532626,34.277411],[135.532526,34.277679],[135.532535,34.277763],[135.533259,34.278784],[135.533666,34.279272],[135.533753,34.279567],[135.533796,34.28067],[135.534296,34.281016],[135.534564,34.281503],[135.534738,34.281998],[135.535081,34.282519],[135.535221,34.282993],[135.535298,34.283105],[135.535435,34.283164],[135.53597,34.283151],[135.536318,34.283204],[135.536487,34.283278],[135.536675,34.283504],[135.536692,34.28385],[135.536537,34.284206],[135.536508,34.284493],[135.536787,34.285013],[135.537016,34.285805],[135.537233,34.286269],[135.537875,34.28667],[135.538475,34.286925],[135.539144,34.287096],[135.539734,34.287187],[135.540222,34.287397],[135.54104,34.287485],[135.541812,34.287892],[135.542404,34.28828],[135.542832,34.288627],[135.543132,34.288039],[135.54317,34.287634],[135.543139,34.287517],[135.542978,34.287338],[135.542889,34.28708],[135.542914,34.286934],[135.54306,34.286704],[135.542844,34.286445],[135.542787,34.286323],[135.542795,34.286207],[135.542921,34.285979],[135.543331,34.285678],[135.543711,34.285496],[135.544066,34.285412],[135.544493,34.285407],[135.544763,34.285496],[135.545153,34.285477],[135.545397,34.285567],[135.545744,34.285848],[135.545934,34.286338],[135.546739,34.286574]]]]}}]}
