{"type":"FeatureCollection","features":[{"type":"Feature","properties":{"potaRef":"JP-1877","nameJa":"Iwaki kaigan","nameEn":"Usuiso Bosai Ryokuchi Prefectural Park","authority":"環境省 生物多様性「見える化」マップ","boundaryStatus":"全国GIS候補・公開前検証待ち","boundarySource":"環境省 生物多様性「見える化」マップの自然公園区域を、POTA代表座標で一意に空間照合して加工","boundaryScaleNote":"区域は概要データであり、正確性は保証されない。POTA運用可否は公式情報で最終確認すること。","candidateMethod":"POTA representative point inside one public natural-park area","sourceParkKind":"都道府県立自然公園","sourceName":"Iwaki kaigan","sourceFeatureCount":1,"cautionMeters":75},"geometry":{"type":"MultiPolygon","coordinates":[[[[141.00039,37.183542],[140.999843,37.183557],[140.99907,37.183815],[140.998979,37.183792],[140.998812,37.183182],[140.998503,37.182499],[140.997554,37.181149],[140.995945,37.179144],[140.99535,37.17793],[140.995083,37.176939],[140.994925,37.175997],[140.994974,37.174655],[140.995132,37.173743],[140.995581,37.172568],[140.999621,37.164284],[141.000067,37.163173],[141.000276,37.162344],[141.000274,37.16029],[141.000163,37.159872],[140.999792,37.158879],[140.997951,37.155471],[140.997262,37.154358],[140.996041,37.152642],[140.995551,37.151092],[140.995511,37.150405],[140.995818,37.14755],[140.99683,37.147535],[140.997804,37.146792],[141.001299,37.144829],[141.000675,37.144307],[141.001255,37.143973],[141.001293,37.1439],[141.001274,37.1438],[140.999366,37.140039],[140.998968,37.139352],[140.998565,37.137917],[140.99858,37.137464],[140.998465,37.137007],[140.998211,37.135058],[140.998153,37.133503],[140.997868,37.13275],[140.997851,37.132452],[140.998159,37.131599],[140.998143,37.131426],[140.998235,37.130999],[140.997987,37.130193],[140.997971,37.129742],[140.997717,37.129428],[140.997692,37.129282],[140.997794,37.12857],[140.997794,37.12789],[140.997593,37.126847],[140.997592,37.120407],[140.997799,37.11979],[140.997508,37.119496],[140.997087,37.119237],[140.996986,37.119219],[140.996689,37.119306],[140.996045,37.11967],[140.995804,37.119487],[140.995483,37.119386],[140.995135,37.118911],[140.995119,37.118762],[140.995838,37.118748],[140.996039,37.118609],[140.996039,37.118499],[140.995876,37.118321],[140.995873,37.117573],[140.996096,37.116886],[140.995992,37.116533],[140.995762,37.116201],[140.995738,37.115968],[140.995908,37.114957],[140.996284,37.114501],[140.996328,37.114353],[140.99632,37.114229],[140.996165,37.114034],[140.995216,37.113218],[140.995034,37.111042],[140.994877,37.110518],[140.995059,37.11043],[140.994816,37.110081],[140.99478,37.109906],[140.994877,37.109828],[140.995629,37.109615],[140.996344,37.109566],[140.996999,37.109644],[140.997606,37.109789],[140.997861,37.109993],[140.998331,37.109986],[140.998369,37.109882],[140.998164,37.109615],[140.997545,37.109197],[140.995362,37.108254],[140.994465,37.108041],[140.992221,37.107671],[140.992342,37.107487],[140.990996,37.106923],[140.991032,37.106729],[140.990547,37.10636],[140.990268,37.105932],[140.987697,37.100847],[140.986113,37.097473],[140.984998,37.094714],[140.984893,37.094584],[140.984529,37.09463],[140.98469,37.095018],[140.984819,37.096093],[140.985134,37.097563],[140.984779,37.097732],[140.984383,37.097252],[140.984035,37.096605],[140.983744,37.095802],[140.98307,37.094733],[140.982931,37.094444],[140.98284,37.094096],[140.982513,37.093557],[140.981902,37.092332],[140.981457,37.091619],[140.980879,37.090456],[140.980243,37.089799],[140.980251,37.089716],[140.980613,37.089354],[140.980369,37.089065],[140.979298,37.088257],[140.979014,37.08777],[140.978913,37.087482],[140.978883,37.087197],[140.978986,37.085771],[140.979465,37.084533],[140.979545,37.084237],[140.979562,37.083789],[140.979385,37.083386],[140.979265,37.083247],[140.978838,37.082923],[140.977689,37.082219],[140.9773,37.081902],[140.976818,37.081325],[140.976666,37.079971],[140.97539,37.076297],[140.974557,37.072424],[140.973596,37.070563],[140.973116,37.070138],[140.972984,37.069791],[140.972667,37.068559],[140.972624,37.067676],[140.972743,37.065829],[140.972922,37.064678],[140.97307,37.064124],[140.97294,37.059471],[140.967373,37.059602],[140.966904,37.059499],[140.966651,37.059382],[140.96612,37.059032],[140.96593,37.05882],[140.965841,37.056819],[140.966197,37.056704],[140.966343,37.056735],[140.966574,37.057001],[140.96697,37.057774],[140.96709,37.057877],[140.96781,37.058085],[140.968272,37.058162],[140.968728,37.058162],[140.96966,37.057912],[140.969947,37.05777],[140.970222,37.057537],[140.970312,37.0574],[140.970342,37.057283],[140.970291,37.057142],[140.970026,37.056979],[140.969661,37.056912],[140.968819,37.056955],[140.96881,37.056467],[140.969659,37.056336],[140.970712,37.05528],[140.970698,37.05511],[140.97052,37.054649],[140.970519,37.054106],[140.971197,37.053876],[140.971261,37.05379],[140.971308,37.053534],[140.971304,37.053047],[140.971094,37.05193],[140.971159,37.051243],[140.970692,37.05093],[140.970674,37.050647],[140.970795,37.050123],[140.971065,37.049618],[140.970983,37.04901],[140.971192,37.04808],[140.972398,37.048024],[140.972459,37.047927],[140.972558,37.046721],[140.972542,37.046006],[140.972312,37.044057],[140.972389,37.042541],[140.97238,37.041482],[140.972235,37.040682],[140.971916,37.039622],[140.971449,37.035188],[140.971584,37.034842],[140.971554,37.034768],[140.971455,37.03473],[140.970019,37.034886],[140.969247,37.03483],[140.969209,37.034782],[140.969212,37.033077],[140.969316,37.032494],[140.969292,37.030263],[140.969603,37.030094],[140.969676,37.029976],[140.969925,37.027942],[140.969926,37.027342],[140.970162,37.02665],[140.970211,37.026311],[140.970284,37.025195],[140.970272,37.024406],[140.970433,37.023712],[140.970467,37.023274],[140.970391,37.023164],[140.969619,37.023241],[140.969402,37.02236],[140.970129,37.022249],[140.969999,37.02113],[140.970281,37.020813],[140.970423,37.020527],[140.970606,37.019355],[140.970644,37.018036],[140.970603,37.017206],[140.971253,37.015806],[140.971996,37.014539],[140.972137,37.014522],[140.972573,37.014874],[140.972751,37.014615],[140.973189,37.014794],[140.974355,37.013429],[140.975133,37.011738],[140.975194,37.011512],[140.97507,37.011427],[140.974752,37.011417],[140.974071,37.011251],[140.973922,37.011301],[140.973288,37.011713],[140.972359,37.011945],[140.972114,37.01198],[140.972021,37.011945],[140.971829,37.01168],[140.971761,37.010698],[140.971436,37.010643],[140.971388,37.01057],[140.971398,37.010253],[140.971567,37.009964],[140.971841,37.009726],[140.971255,37.009451],[140.970651,37.009466],[140.970218,37.009047],[140.969392,37.008648],[140.969337,37.008587],[140.969285,37.008305],[140.969291,37.008076],[140.9694,37.007818],[140.969568,37.007695],[140.970966,37.007617],[140.971186,37.007635],[140.97175,37.007791],[140.974542,37.007949],[140.974895,37.00804],[140.975468,37.008296],[140.975679,37.008488],[140.975099,37.008547],[140.974997,37.008652],[140.975782,37.008824],[140.975973,37.009015],[140.976116,37.009343],[140.976138,37.009578],[140.976115,37.00974],[140.975893,37.009963],[140.975601,37.010032],[140.975471,37.01001],[140.975066,37.009576],[140.974821,37.009594],[140.974779,37.009676],[140.974941,37.010018],[140.975175,37.010254],[140.975151,37.010399],[140.97497,37.010683],[140.975234,37.010913],[140.97526,37.011196],[140.975357,37.011281],[140.975465,37.011285],[140.976317,37.01076],[140.976834,37.010364],[140.97753,37.009959],[140.977672,37.00997],[140.977995,37.010162],[140.978072,37.010175],[140.978156,37.010088],[140.97818,37.009967],[140.977936,37.009678],[140.977888,37.009537],[140.977887,37.008849],[140.978016,37.008297],[140.978223,37.008166],[140.978172,37.007442],[140.978716,37.006988],[140.97825,37.006402],[140.977954,37.006795],[140.977224,37.007149],[140.976735,37.00674],[140.977411,37.006137],[140.977732,37.00567],[140.977928,37.005216],[140.978048,37.004722],[140.978095,37.003637],[140.978067,37.003057],[140.977997,37.002851],[140.977751,37.002537],[140.976258,37.001291],[140.976377,37.001196],[140.976515,37.000749],[140.976515,37.000349],[140.976396,36.999974],[140.976152,36.999397],[140.975282,36.998636],[140.975127,36.998397],[140.975077,36.997142],[140.97521,36.996853],[140.975463,36.996568],[140.976275,36.996294],[140.976304,36.996202],[140.975686,36.995456],[140.975339,36.994961],[140.974915,36.994196],[140.974912,36.994009],[140.975041,36.993952],[140.976047,36.993842],[140.976827,36.99353],[140.977302,36.993244],[140.977498,36.993048],[140.97672,36.99267],[140.975296,36.992612],[140.972734,36.992017],[140.972475,36.991841],[140.972222,36.9915],[140.971882,36.990779],[140.971217,36.990015],[140.970825,36.989241],[140.970301,36.988438],[140.969233,36.986059],[140.96894,36.98572],[140.96822,36.985388],[140.967784,36.985323],[140.967574,36.985343],[140.967381,36.985466],[140.967227,36.985822],[140.966848,36.985679],[140.966953,36.984889],[140.96646,36.984915],[140.966098,36.983088],[140.965526,36.981417],[140.965035,36.978804],[140.964976,36.978239],[140.96495,36.97785],[140.965515,36.976671],[140.965876,36.975186],[140.965968,36.974603],[140.965624,36.97418],[140.965446,36.97409],[140.964736,36.973934],[140.964526,36.973813],[140.963666,36.972936],[140.961627,36.97221],[140.960965,36.971701],[140.956296,36.968595],[140.956754,36.968245],[140.95698,36.967857],[140.95705,36.967589],[140.957045,36.967105],[140.956771,36.966639],[140.956776,36.96644],[140.956857,36.966363],[140.957384,36.966147],[140.957454,36.966048],[140.957487,36.965858],[140.957476,36.965538],[140.956773,36.964723],[140.956485,36.964532],[140.95565,36.963331],[140.954766,36.962171],[140.95358,36.961337],[140.95324,36.961368],[140.952933,36.962472],[140.95288,36.962528],[140.950932,36.962005],[140.950233,36.961659],[140.949555,36.961253],[140.94898,36.960717],[140.948593,36.960276],[140.948372,36.960112],[140.947469,36.960013],[140.946764,36.959429],[140.946275,36.959434],[140.945796,36.959325],[140.944908,36.95898],[140.942494,36.95789],[140.9423,36.95757],[140.941443,36.956454],[140.941069,36.955992],[140.940593,36.955538],[140.939566,36.954957],[140.938923,36.954216],[140.937889,36.953294],[140.936796,36.952519],[140.936575,36.952214],[140.936325,36.951724],[140.936035,36.951461],[140.935281,36.951101],[140.933326,36.949287],[140.933124,36.949061],[140.932477,36.948085],[140.932289,36.947888],[140.930608,36.946901],[140.928348,36.945065],[140.927408,36.944049],[140.926506,36.942965],[140.926233,36.942792],[140.926015,36.942799],[140.925736,36.943178],[140.925671,36.943316],[140.925578,36.944736],[140.925535,36.944784],[140.925277,36.944801],[140.925316,36.943562],[140.9248,36.943129],[140.924816,36.942862],[140.924645,36.942322],[140.924494,36.942322],[140.924168,36.942432],[140.923381,36.942494],[140.923204,36.942333],[140.922966,36.942291],[140.922706,36.942069],[140.922521,36.941837],[140.922252,36.941729],[140.92216,36.941755],[140.92195,36.942031],[140.921891,36.942048],[140.92126,36.941921],[140.920546,36.942082],[140.920275,36.942049],[140.920103,36.941966],[140.919832,36.941729],[140.919568,36.9413],[140.918853,36.941304],[140.918573,36.941532],[140.918105,36.941627],[140.917798,36.941765],[140.917712,36.941575],[140.917621,36.941113],[140.917417,36.940828],[140.91731,36.940767],[140.917272,36.940322],[140.916918,36.939934],[140.91666,36.939551],[140.916469,36.93903],[140.916239,36.938748],[140.91611,36.938661],[140.915579,36.938519],[140.915037,36.938506],[140.915032,36.938442],[140.915123,36.93836],[140.915059,36.938299],[140.914403,36.938152],[140.914306,36.938057],[140.91433,36.9313],[140.914371,36.931214],[140.915149,36.930662],[140.916014,36.930165],[140.916506,36.929979],[140.916871,36.929908],[140.918899,36.929728],[140.920323,36.929701],[140.92133,36.929748],[140.923465,36.930274],[140.924787,36.93044],[140.925458,36.930596],[140.92639,36.930901],[140.928102,36.931731],[140.929024,36.932283],[140.929985,36.933087],[140.930553,36.93366],[140.930902,36.934178],[140.931125,36.934833],[140.931277,36.936004],[140.932061,36.936806],[140.932255,36.937098],[140.932694,36.938125],[140.932939,36.938957],[140.932943,36.939272],[140.932858,36.939697],[140.932549,36.940703],[140.932353,36.941128],[140.936287,36.944312],[140.941595,36.949497],[140.944029,36.95143],[140.945373,36.951034],[140.946377,36.950815],[140.94798,36.9507],[140.948516,36.95073],[140.949297,36.950881],[140.949878,36.95112],[140.951125,36.951809],[140.951693,36.952189],[140.952132,36.952673],[140.952483,36.953162],[140.953236,36.95442],[140.953748,36.955601],[140.954793,36.957059],[140.954936,36.957138],[140.956213,36.957468],[140.95657,36.95761],[140.958469,36.958682],[140.95881,36.958923],[140.959678,36.959836],[140.960254,36.96055],[140.960806,36.961617],[140.961597,36.962215],[140.962174,36.963015],[140.963204,36.963476],[140.963523,36.963733],[140.964204,36.964419],[140.964761,36.965199],[140.964853,36.965265],[140.965166,36.965308],[140.966309,36.965333],[140.967027,36.965441],[140.967634,36.96561],[140.968695,36.966],[140.969448,36.966365],[140.970766,36.967198],[140.9711,36.96748],[140.971774,36.968426],[140.972005,36.968804],[140.972205,36.969285],[140.97276,36.969581],[140.9733,36.969974],[140.974181,36.970922],[140.974696,36.97169],[140.974987,36.972376],[140.975169,36.973061],[140.975262,36.973581],[140.975214,36.974237],[140.97481,36.975247],[140.974503,36.975841],[140.973901,36.976644],[140.973299,36.977248],[140.972264,36.977938],[140.972233,36.978013],[140.973226,36.981338],[140.973755,36.982829],[140.974813,36.985066],[140.975318,36.986009],[140.975634,36.986497],[140.976503,36.987551],[140.978539,36.987951],[140.979249,36.988187],[140.981038,36.989325],[140.98132,36.989729],[140.982397,36.990205],[140.983316,36.990963],[140.985385,36.991511],[140.986313,36.991883],[140.986713,36.992097],[140.987069,36.992332],[140.987996,36.993249],[140.988326,36.993676],[140.98846,36.993936],[140.988638,36.994623],[140.988638,36.995341],[140.988563,36.995941],[140.98833,36.997062],[140.988162,36.997541],[140.987954,36.997886],[140.987531,36.998348],[140.987531,36.99869],[140.987474,36.999009],[140.987126,37.000088],[140.986825,37.000524],[140.986111,37.001326],[140.985635,37.006188],[140.985438,37.007225],[140.985275,37.007792],[140.985495,37.009423],[140.985495,37.009968],[140.985281,37.010884],[140.984929,37.011573],[140.98459,37.011997],[140.98396,37.012574],[140.982854,37.013324],[140.982531,37.013492],[140.982099,37.013628],[140.980174,37.014089],[140.979417,37.016949],[140.97853,37.021503],[140.978276,37.023477],[140.978025,37.027026],[140.977994,37.029376],[140.977952,37.029631],[140.977952,37.033011],[140.978063,37.034154],[140.978345,37.038907],[140.978386,37.03902],[140.978414,37.039709],[140.97977,37.054823],[140.980412,37.058688],[140.98143,37.063932],[140.983072,37.070287],[140.984495,37.074485],[140.984833,37.075808],[140.985178,37.07753],[140.985429,37.078531],[140.987655,37.085627],[140.989589,37.090148],[140.990053,37.091608],[140.990584,37.093069],[140.992704,37.097789],[140.994269,37.101],[140.995376,37.100995],[140.996341,37.10111],[140.996837,37.101262],[140.997945,37.101719],[140.998417,37.101962],[140.999555,37.102888],[141.000595,37.103458],[141.001674,37.104487],[141.00237,37.105324],[141.002597,37.105664],[141.003484,37.106241],[141.00374,37.106494],[141.003999,37.106834],[141.004146,37.107176],[141.004237,37.107554],[141.004418,37.10907],[141.004594,37.10993],[141.0046,37.1103],[141.005212,37.111157],[141.005398,37.111613],[141.005457,37.112278],[141.00538,37.112993],[141.005647,37.113474],[141.005836,37.11394],[141.005921,37.114594],[141.005991,37.115997],[141.006207,37.117199],[141.006132,37.11803],[141.005787,37.119437],[141.00548,37.120231],[141.005213,37.120724],[141.00466,37.121493],[141.003452,37.122215],[141.00334,37.12238],[141.003414,37.124529],[141.003489,37.125387],[141.004131,37.128765],[141.004313,37.130367],[141.004354,37.131025],[141.004307,37.131283],[141.004307,37.133775],[141.004348,37.134089],[141.004657,37.135438],[141.005279,37.136922],[141.005792,37.138321],[141.006184,37.140153],[141.007535,37.140575],[141.008241,37.140852],[141.009353,37.141559],[141.009676,37.141817],[141.010332,37.1425],[141.0106,37.142935],[141.010858,37.143648],[141.011036,37.144565],[141.011033,37.145224],[141.010952,37.14565],[141.010792,37.146057],[141.010484,37.146479],[141.010429,37.146941],[141.010291,37.14746],[141.010006,37.148004],[141.009427,37.148803],[141.009176,37.14906],[141.008517,37.149579],[141.009034,37.150576],[141.009145,37.150948],[141.009213,37.151492],[141.009249,37.15261],[141.009116,37.153215],[141.008901,37.153816],[141.00858,37.154388],[141.00689,37.155875],[141.007068,37.157447],[141.007705,37.158336],[141.00795,37.158767],[141.008102,37.159222],[141.008137,37.159623],[141.008011,37.160515],[141.007562,37.161341],[141.007748,37.162513],[141.007748,37.163202],[141.0074,37.164801],[141.007716,37.165661],[141.007963,37.166521],[141.007964,37.166837],[141.00787,37.167386],[141.007678,37.16804],[141.007344,37.168723],[141.007244,37.168841],[141.006387,37.169412],[141.006006,37.169789],[141.005709,37.170701],[141.005729,37.171049],[141.006296,37.172299],[141.006533,37.174021],[141.006641,37.175366],[141.006636,37.177944],[141.006999,37.180604],[141.006923,37.183484],[141.00039,37.183542]]]]}}]}
