{"type":"FeatureCollection","features":[{"type":"Feature","properties":{"potaRef":"JP-1045","nameJa":"Abukuma keikoku","nameEn":"Abukuma Keikoku Prefectural Nature Park","authority":"環境省 生物多様性「見える化」マップ","boundaryStatus":"全国GIS候補・公開前検証待ち","boundarySource":"環境省 生物多様性「見える化」マップの自然公園区域を、POTA代表座標で一意に空間照合して加工","boundaryScaleNote":"区域は概要データであり、正確性は保証されない。POTA運用可否は公式情報で最終確認すること。","candidateMethod":"POTA representative point inside one public natural-park area","sourceParkKind":"都道府県立自然公園","sourceName":"Abukuma keikoku","sourceFeatureCount":1,"cautionMeters":75},"geometry":{"type":"MultiPolygon","coordinates":[[[[140.698671,37.946366],[140.697359,37.946814],[140.695951,37.946046],[140.693967,37.945598],[140.693295,37.94563],[140.692047,37.944798],[140.690255,37.943422],[140.689204,37.940376],[140.689874,37.940047],[140.689944,37.939777],[140.688207,37.938833],[140.687386,37.938193],[140.68649,37.936938],[140.686139,37.936668],[140.68604,37.936232],[140.685619,37.93615],[140.684039,37.934225],[140.684049,37.933998],[140.684221,37.933846],[140.685195,37.933326],[140.685881,37.932165],[140.685642,37.930452],[140.68521,37.930264],[140.685087,37.929809],[140.685122,37.929491],[140.685515,37.928758],[140.685964,37.928531],[140.685989,37.928333],[140.685616,37.927917],[140.684972,37.927799],[140.684578,37.92742],[140.684263,37.926895],[140.683708,37.926766],[140.683373,37.926359],[140.682298,37.92591],[140.682097,37.925495],[140.682136,37.925256],[140.6824,37.925059],[140.683284,37.925051],[140.683377,37.924928],[140.683297,37.924734],[140.682816,37.924348],[140.682302,37.924167],[140.681766,37.923458],[140.681125,37.923404],[140.679391,37.922434],[140.678665,37.92144],[140.67856,37.920999],[140.678056,37.920754],[140.677456,37.919036],[140.67668,37.918939],[140.67539,37.919818],[140.675037,37.919856],[140.674621,37.92009],[140.674215,37.919688],[140.673702,37.920126],[140.673326,37.920187],[140.672565,37.919909],[140.671918,37.919907],[140.671391,37.919335],[140.670846,37.919138],[140.669868,37.919072],[140.668805,37.918755],[140.667384,37.918534],[140.666993,37.918202],[140.66648,37.918119],[140.6662,37.917775],[140.665912,37.917902],[140.665675,37.91819],[140.665326,37.918248],[140.664472,37.917291],[140.663266,37.916714],[140.662204,37.915992],[140.66079,37.916015],[140.660065,37.914568],[140.660049,37.913701],[140.659709,37.913422],[140.65929,37.913268],[140.658555,37.913506],[140.65745,37.913493],[140.657237,37.913297],[140.65702,37.911979],[140.656037,37.910675],[140.654526,37.909845],[140.653984,37.909666],[140.65345,37.909261],[140.65318,37.908862],[140.653084,37.908113],[140.652797,37.907436],[140.653118,37.907008],[140.653175,37.906471],[140.653659,37.906097],[140.654396,37.905946],[140.654519,37.905536],[140.654874,37.905097],[140.654875,37.904544],[140.654764,37.904075],[140.654175,37.903707],[140.653817,37.903318],[140.653806,37.902851],[140.65336,37.902678],[140.652991,37.902274],[140.652631,37.90139],[140.653028,37.900165],[140.65304,37.899948],[140.65417,37.900129],[140.655051,37.900214],[140.657155,37.900237],[140.657928,37.900385],[140.658429,37.900589],[140.660004,37.900884],[140.660348,37.900896],[140.660527,37.900856],[140.661142,37.900368],[140.661443,37.900186],[140.662603,37.90022],[140.662767,37.89992],[140.663241,37.900365],[140.663696,37.900591],[140.664909,37.900772],[140.66545,37.901041],[140.665984,37.900966],[140.667616,37.901287],[140.668154,37.90122],[140.668589,37.901591],[140.669792,37.901785],[140.670499,37.902315],[140.672202,37.903021],[140.672144,37.903561],[140.671921,37.9041],[140.672108,37.90443],[140.673227,37.905303],[140.674533,37.905076],[140.67495,37.90472],[140.675615,37.904605],[140.676563,37.90419],[140.677856,37.90428],[140.679179,37.904175],[140.679813,37.904698],[140.680818,37.904639],[140.680895,37.904857],[140.680674,37.905409],[140.680861,37.905715],[140.681528,37.905643],[140.682405,37.905842],[140.683142,37.905694],[140.68489,37.906157],[140.685343,37.906068],[140.686098,37.906255],[140.686845,37.906248],[140.68758,37.906005],[140.689543,37.905957],[140.690808,37.904989],[140.692112,37.905086],[140.693114,37.904898],[140.693947,37.904422],[140.694388,37.903686],[140.695153,37.903494],[140.695902,37.902983],[140.696119,37.90295],[140.697198,37.903209],[140.697954,37.903011],[140.699243,37.903535],[140.700108,37.903113],[140.700663,37.903099],[140.701278,37.903894],[140.701464,37.904551],[140.70174,37.904971],[140.702585,37.905093],[140.703891,37.906021],[140.706177,37.905407],[140.706828,37.905408],[140.707892,37.905181],[140.708071,37.90505],[140.709259,37.905158],[140.709259,37.905482],[140.709151,37.90613],[140.709151,37.907966],[140.710771,37.90991],[140.713687,37.910234],[140.715523,37.910666],[140.716603,37.910342],[140.717683,37.911098],[140.718223,37.91207],[140.720167,37.912286],[140.720167,37.91315],[140.721139,37.914122],[140.723191,37.914662],[140.725351,37.914986],[140.726899,37.914806],[140.728699,37.914302],[140.730283,37.91423],[140.731795,37.914086],[140.735467,37.912502],[140.736619,37.911278],[140.739499,37.910486],[140.740435,37.910702],[140.741587,37.91027],[140.743243,37.910702],[140.744323,37.911494],[140.744539,37.912646],[140.744683,37.914158],[140.744467,37.914446],[140.744539,37.915958],[140.745187,37.91711],[140.746555,37.917038],[140.747851,37.917182],[140.749147,37.91783],[140.750947,37.918478],[140.751811,37.918478],[140.754259,37.918046],[140.755123,37.917686],[140.755555,37.917758],[140.757643,37.917614],[140.760307,37.91855],[140.760955,37.918694],[140.761819,37.918694],[140.762827,37.91891],[140.762971,37.919414],[140.762323,37.920638],[140.761819,37.921142],[140.762827,37.922078],[140.762035,37.922798],[140.760019,37.924382],[140.759227,37.925102],[140.757715,37.92611],[140.756275,37.926686],[140.756563,37.926974],[140.755843,37.927766],[140.753971,37.92719],[140.752099,37.92863],[140.749507,37.929638],[140.746915,37.930358],[140.744683,37.931078],[140.743243,37.931222],[140.741803,37.931798],[140.740939,37.933166],[140.740939,37.935398],[140.739715,37.937126],[140.736907,37.938926],[140.734963,37.939574],[140.733595,37.939502],[140.730643,37.940006],[140.729059,37.940222],[140.727835,37.940006],[140.727043,37.940654],[140.727084,37.942252],[140.726754,37.942232],[140.726476,37.942291],[140.726366,37.942598],[140.725939,37.942734],[140.72488,37.942845],[140.723475,37.943141],[140.72308,37.943083],[140.722178,37.942759],[140.721174,37.942561],[140.720699,37.942286],[140.720041,37.9422],[140.719666,37.942265],[140.719207,37.942472],[140.718379,37.942582],[140.717802,37.942758],[140.717553,37.942699],[140.716693,37.942176],[140.716521,37.942153],[140.715757,37.942522],[140.715239,37.942696],[140.714845,37.942466],[140.714641,37.942247],[140.714397,37.942174],[140.713944,37.942306],[140.713766,37.942542],[140.713611,37.942626],[140.712819,37.942669],[140.71219,37.942551],[140.712022,37.942586],[140.711605,37.942825],[140.711534,37.942939],[140.710223,37.94275],[140.709775,37.94211],[140.708399,37.94163],[140.707663,37.941886],[140.707599,37.943006],[140.706735,37.944702],[140.705423,37.944574],[140.704847,37.943966],[140.703471,37.943902],[140.700879,37.94435],[140.699439,37.945502],[140.698671,37.946366]]],[[[140.834112,37.804931],[140.834472,37.806011],[140.833752,37.807307],[140.83368,37.808027],[140.83332,37.808819],[140.832672,37.809611],[140.832744,37.810115],[140.833104,37.810547],[140.833248,37.812131],[140.832744,37.813427],[140.83296,37.814147],[140.833392,37.815083],[140.833536,37.816523],[140.833176,37.817387],[140.83044,37.817387],[140.82936,37.817027],[140.828496,37.816307],[140.827848,37.815083],[140.826264,37.814651],[140.823312,37.814507],[140.821296,37.814291],[140.818128,37.811987],[140.815896,37.809683],[140.812944,37.807163],[140.81136,37.806587],[140.808912,37.805219],[140.80812,37.804067],[140.806536,37.804067],[140.806176,37.805219],[140.80596,37.806803],[140.804844,37.806803],[140.804268,37.806035],[140.80254,37.805795],[140.7999,37.805699],[140.797884,37.805795],[140.796252,37.806131],[140.795004,37.806755],[140.793228,37.807187],[140.792556,37.806323],[140.792556,37.805651],[140.79198,37.805219],[140.791404,37.805315],[140.790684,37.805123],[140.789792,37.805723],[140.788768,37.805499],[140.787296,37.805275],[140.785376,37.805275],[140.783584,37.805051],[140.782596,37.804532],[140.783239,37.804489],[140.784151,37.803947],[140.784436,37.803824],[140.785004,37.803281],[140.785674,37.802963],[140.786173,37.802877],[140.786722,37.802577],[140.787264,37.802146],[140.787525,37.80177],[140.787839,37.801527],[140.788078,37.801506],[140.788388,37.801661],[140.788964,37.801734],[140.789538,37.801944],[140.789957,37.801907],[140.790731,37.801449],[140.791345,37.800895],[140.791787,37.800577],[140.792218,37.800132],[140.79229,37.800122],[140.793089,37.800566],[140.793299,37.800639],[140.793574,37.800657],[140.79378,37.800603],[140.79447,37.800364],[140.79634,37.7995],[140.797528,37.799127],[140.799771,37.798188],[140.800757,37.797833],[140.801875,37.798007],[140.802453,37.798036],[140.803371,37.7977],[140.804312,37.797801],[140.804738,37.7977],[140.805638,37.798004],[140.806004,37.798004],[140.806492,37.79762],[140.806836,37.797534],[140.807627,37.797451],[140.808137,37.797219],[140.809258,37.795928],[140.809522,37.795734],[140.80997,37.795567],[140.810386,37.795523],[140.810598,37.79557],[140.810939,37.795726],[140.811287,37.796],[140.811481,37.796095],[140.812436,37.796142],[140.812965,37.796069],[140.813243,37.79613],[140.813398,37.79624],[140.813737,37.796778],[140.81407,37.79719],[140.814341,37.797328],[140.814743,37.797353],[140.815014,37.797433],[140.815228,37.797646],[140.815527,37.797784],[140.815885,37.798044],[140.816389,37.798246],[140.817447,37.798202],[140.818247,37.798409],[140.818767,37.79846],[140.819161,37.798666],[140.819451,37.798713],[140.819776,37.798713],[140.820665,37.798539],[140.821041,37.79872],[140.821617,37.798887],[140.821898,37.798847],[140.822148,37.798637],[140.822465,37.798492],[140.822769,37.798528],[140.82337,37.798727],[140.823587,37.798742],[140.823796,37.798695],[140.82401,37.798514],[140.824089,37.798232],[140.824191,37.798094],[140.824365,37.797968],[140.825073,37.797899],[140.825395,37.79774],[140.825561,37.797487],[140.825705,37.797122],[140.825952,37.7968],[140.826259,37.796612],[140.826642,37.796482],[140.827025,37.796131],[140.827181,37.796073],[140.8276,37.79606],[140.82829,37.795792],[140.829032,37.795827],[140.829378,37.795745],[140.829744,37.795495],[140.830374,37.794823],[140.830685,37.794747],[140.831201,37.794768],[140.831548,37.794866],[140.831791,37.79526],[140.831965,37.795419],[140.832054,37.795445],[140.832251,37.795431],[140.832698,37.795232],[140.833122,37.795137],[140.833421,37.795203],[140.833935,37.795626],[140.834423,37.795658],[140.834691,37.79551],[140.834256,37.796435],[140.833968,37.797731],[140.833968,37.799171],[140.834184,37.800539],[140.834616,37.801691],[140.834472,37.803563],[140.834112,37.804931]]],[[[140.721624,37.853793],[140.721179,37.853844],[140.720737,37.85365],[140.720422,37.853029],[140.719148,37.853125],[140.718832,37.852805],[140.71866,37.852279],[140.718236,37.851635],[140.717733,37.851072],[140.71721,37.850011],[140.71513,37.848667],[140.713562,37.848155],[140.711962,37.848315],[140.710426,37.848251],[140.708282,37.848059],[140.707226,37.847835],[140.706795,37.847906],[140.706518,37.848113],[140.705732,37.84821],[140.704642,37.848866],[140.703262,37.849022],[140.702059,37.849342],[140.701523,37.849344],[140.700542,37.849829],[140.699132,37.849959],[140.698745,37.850163],[140.697913,37.850441],[140.696438,37.850441],[140.69558,37.850186],[140.69449,37.850276],[140.693287,37.849901],[140.69258,37.850078],[140.691935,37.850613],[140.691548,37.850029],[140.69152,37.849881],[140.691577,37.849507],[140.69152,37.849456],[140.690639,37.84932],[140.689956,37.849022],[140.688696,37.848755],[140.688195,37.848187],[140.687937,37.847382],[140.687823,37.847302],[140.687593,37.847251],[140.686881,37.847311],[140.686459,37.847277],[140.685951,37.847158],[140.685607,37.846885],[140.685715,37.845796],[140.686012,37.845022],[140.68589,37.844466],[140.686504,37.844285],[140.687153,37.84471],[140.689087,37.845322],[140.689543,37.845637],[140.690514,37.845837],[140.691701,37.845612],[140.692994,37.844829],[140.693658,37.844871],[140.694074,37.844393],[140.693954,37.843609],[140.693667,37.843075],[140.694025,37.842609],[140.69399,37.841988],[140.69522,37.84174],[140.695471,37.84113],[140.695692,37.840901],[140.696229,37.840686],[140.697177,37.840553],[140.69817,37.839547],[140.698586,37.838203],[140.698906,37.837467],[140.699482,37.836763],[140.699162,37.833979],[140.699162,37.832795],[140.699546,37.832027],[140.700474,37.831067],[140.701626,37.830427],[140.703482,37.829851],[140.704826,37.829755],[140.705722,37.830395],[140.707418,37.830459],[140.70825,37.829979],[140.709882,37.829499],[140.71129,37.829467],[140.712954,37.829051],[140.71369,37.829051],[140.714362,37.829723],[140.71542,37.832194],[140.715984,37.832461],[140.716568,37.832835],[140.717269,37.833163],[140.718228,37.83349],[140.718718,37.83356],[140.720191,37.832999],[140.720565,37.833022],[140.720846,37.833373],[140.721243,37.8337],[140.721617,37.833887],[140.722248,37.83356],[140.722762,37.833794],[140.723557,37.833957],[140.723651,37.834261],[140.723791,37.835196],[140.724058,37.835995],[140.724538,37.836827],[140.725434,37.837371],[140.729146,37.836859],[140.730234,37.836763],[140.732186,37.837275],[140.732506,37.837915],[140.732858,37.839099],[140.73385,37.839643],[140.734618,37.839963],[140.735578,37.841083],[140.735674,37.842107],[140.735226,37.843355],[140.735258,37.844059],[140.735066,37.844731],[140.734906,37.845691],[140.735066,37.845979],[140.73593,37.846459],[140.735802,37.847003],[140.734035,37.847093],[140.732405,37.846852],[140.731756,37.847286],[140.731315,37.848021],[140.730361,37.848742],[140.729696,37.84882],[140.728173,37.849261],[140.726792,37.849198],[140.726511,37.849442],[140.72636,37.850675],[140.726995,37.850841],[140.727362,37.851428],[140.727008,37.851644],[140.725931,37.851393],[140.724659,37.851424],[140.723643,37.853226],[140.723225,37.853548],[140.722127,37.853512],[140.721624,37.853793]]],[[[140.78472,37.869548],[140.78472,37.87094],[140.784528,37.873436],[140.78376,37.873916],[140.782848,37.874396],[140.782128,37.874252],[140.781024,37.873916],[140.7804,37.872524],[140.780112,37.871516],[140.77944,37.869836],[140.77872,37.868828],[140.77776,37.86854],[140.77656,37.868972],[140.77584,37.868348],[140.775504,37.867484],[140.773728,37.866764],[140.772624,37.86662],[140.772192,37.866092],[140.7708,37.865228],[140.769264,37.864556],[140.766,37.863884],[140.764368,37.864028],[140.762736,37.86518],[140.762016,37.86542],[140.760384,37.864172],[140.759328,37.863932],[140.757552,37.863404],[140.756256,37.863452],[140.754816,37.863596],[140.754192,37.862012],[140.752992,37.861148],[140.751936,37.860908],[140.752128,37.860188],[140.75256,37.859516],[140.753376,37.858652],[140.754384,37.85774],[140.755152,37.857644],[140.756496,37.856444],[140.7576,37.854236],[140.75788,37.852672],[140.758456,37.852352],[140.759032,37.852288],[140.759736,37.85168],[140.759672,37.85248],[140.760664,37.852672],[140.760952,37.852416],[140.761848,37.85232],[140.76188,37.852608],[140.764696,37.852928],[140.765752,37.852736],[140.765688,37.852384],[140.766072,37.852032],[140.766616,37.851776],[140.768024,37.851648],[140.769304,37.851008],[140.770808,37.850336],[140.772289,37.848938],[140.773011,37.848575],[140.773557,37.848052],[140.774058,37.846739],[140.773974,37.846215],[140.774706,37.844989],[140.775229,37.844634],[140.775334,37.844401],[140.775267,37.843967],[140.773646,37.842973],[140.773432,37.842665],[140.773404,37.842095],[140.773744,37.840935],[140.773592,37.840216],[140.77324,37.839751],[140.772632,37.839277],[140.772595,37.83911],[140.772705,37.838545],[140.772599,37.837499],[140.773334,37.837],[140.773605,37.836447],[140.774021,37.836543],[140.774757,37.836255],[140.775621,37.836223],[140.776069,37.836159],[140.776613,37.835455],[140.777093,37.834719],[140.777189,37.834303],[140.777605,37.833503],[140.778661,37.833855],[140.779013,37.834111],[140.779397,37.834495],[140.780005,37.834751],[140.782085,37.835231],[140.782821,37.835487],[140.782981,37.835935],[140.782405,37.836639],[140.782568,37.836924],[140.782712,37.836972],[140.783,37.837452],[140.78276,37.837932],[140.782376,37.83894],[140.782568,37.839564],[140.782472,37.8399],[140.783384,37.84038],[140.784008,37.84086],[140.784104,37.841628],[140.78468,37.842636],[140.785016,37.843068],[140.78492,37.84398],[140.785112,37.844652],[140.785496,37.84446],[140.786024,37.84518],[140.786264,37.845708],[140.786648,37.846044],[140.786984,37.84662],[140.786072,37.847676],[140.785928,37.849644],[140.785688,37.850748],[140.785784,37.851756],[140.784776,37.8531],[140.78516,37.85334],[140.785308,37.854068],[140.785015,37.85507],[140.784288,37.85654],[140.784288,37.857308],[140.784816,37.858844],[140.785344,37.861388],[140.785104,37.86182],[140.78472,37.861964],[140.784336,37.862588],[140.785008,37.863212],[140.785152,37.86398],[140.785296,37.865228],[140.78592,37.866428],[140.784576,37.868348],[140.78472,37.869548]]]]}}]}
