{"type":"FeatureCollection","features":[{"type":"Feature","properties":{"potaRef":"JP-1616","nameJa":"Mikura dake","nameEn":"Mikuradake Prefectural Nature Park","authority":"環境省 生物多様性「見える化」マップ","boundaryStatus":"全国GIS候補・公開前検証待ち","boundarySource":"環境省 生物多様性「見える化」マップの自然公園区域を、POTA代表座標で一意に空間照合して加工","boundaryScaleNote":"区域は概要データであり、正確性は保証されない。POTA運用可否は公式情報で最終確認すること。","candidateMethod":"POTA representative point inside one public natural-park area","sourceParkKind":"都道府県立自然公園","sourceName":"Mikura dake","sourceFeatureCount":1,"cautionMeters":75},"geometry":{"type":"MultiPolygon","coordinates":[[[[132.150969,34.330569],[132.150543,34.330644],[132.149706,34.330537],[132.149031,34.330586],[132.148638,34.330505],[132.14859,34.330459],[132.148371,34.329296],[132.148398,34.328992],[132.148609,34.32848],[132.148644,34.32757],[132.149124,34.326317],[132.149172,34.326069],[132.149162,34.32568],[132.149019,34.325331],[132.149029,34.324881],[132.149122,34.324671],[132.149341,34.324445],[132.149448,34.324238],[132.149335,34.323969],[132.148894,34.323501],[132.148643,34.323085],[132.147994,34.321642],[132.147969,34.321102],[132.148004,34.320721],[132.147883,34.320309],[132.147883,34.320111],[132.147952,34.319959],[132.148121,34.319791],[132.148487,34.319633],[132.148704,34.319419],[132.148739,34.319295],[132.148673,34.318842],[132.148082,34.317844],[132.148052,34.317727],[132.148089,34.317439],[132.14804,34.317173],[132.147957,34.317031],[132.147883,34.316963],[132.147171,34.316693],[132.146446,34.316113],[132.145927,34.315822],[132.145679,34.315533],[132.1456,34.314944],[132.145552,34.314877],[132.144926,34.314452],[132.144724,34.314206],[132.144621,34.313866],[132.144652,34.313093],[132.144757,34.312864],[132.145061,34.312582],[132.144459,34.311799],[132.143977,34.310807],[132.14323,34.311176],[132.141813,34.311574],[132.141528,34.311743],[132.141135,34.31243],[132.141169,34.312916],[132.140991,34.313511],[132.140593,34.314001],[132.140445,34.314089],[132.140056,34.314198],[132.139894,34.31448],[132.139812,34.31466],[132.139731,34.315189],[132.139514,34.315702],[132.139464,34.316186],[132.138591,34.316973],[132.137715,34.317396],[132.137364,34.317391],[132.136681,34.317228],[132.135527,34.316729],[132.135344,34.316591],[132.135146,34.316203],[132.134929,34.315995],[132.134115,34.315589],[132.133636,34.315139],[132.132914,34.314834],[132.132021,34.314317],[132.131616,34.314442],[132.13147,34.314592],[132.131216,34.315042],[132.130832,34.315334],[132.129843,34.315809],[132.12939,34.315898],[132.129277,34.315841],[132.129199,34.315599],[132.129203,34.314619],[132.129152,34.314507],[132.128349,34.313967],[132.128092,34.313612],[132.127909,34.313218],[132.127609,34.313051],[132.12743,34.312881],[132.127177,34.311672],[132.126865,34.311084],[132.126905,34.310357],[132.126827,34.309786],[132.126369,34.309361],[132.12622,34.308369],[132.126132,34.308071],[132.125891,34.307627],[132.125362,34.305779],[132.129006,34.304775],[132.130912,34.305496],[132.131419,34.305584],[132.132303,34.30549],[132.132719,34.305343],[132.132945,34.305203],[132.133752,34.305092],[132.134221,34.305097],[132.134402,34.305151],[132.135381,34.305231],[132.135992,34.305357],[132.136809,34.305632],[132.137384,34.304934],[132.137381,34.30485],[132.137249,34.304757],[132.136747,34.304174],[132.136213,34.30345],[132.135393,34.302576],[132.135011,34.302345],[132.134307,34.302088],[132.134004,34.301863],[132.133317,34.301512],[132.133078,34.30132],[132.134095,34.300919],[132.134597,34.300787],[132.135006,34.300507],[132.13508,34.300378],[132.135086,34.300209],[132.134745,34.29966],[132.134504,34.299007],[132.13421,34.297841],[132.133986,34.296703],[132.134027,34.296329],[132.137154,34.297193],[132.137652,34.297435],[132.137915,34.297638],[132.138732,34.298111],[132.139202,34.298281],[132.139659,34.298531],[132.140102,34.298817],[132.140569,34.299252],[132.140557,34.299862],[132.140606,34.299963],[132.140544,34.300083],[132.1406,34.300391],[132.140558,34.300627],[132.140468,34.300794],[132.140394,34.301249],[132.140494,34.301357],[132.141109,34.301196],[132.141737,34.30119],[132.142571,34.301356],[132.143146,34.301528],[132.143551,34.30187],[132.143656,34.302023],[132.143862,34.302692],[132.14415,34.303175],[132.144254,34.303213],[132.145153,34.303197],[132.146373,34.303395],[132.14668,34.3035],[132.14699,34.303835],[132.147116,34.304091],[132.147246,34.30423],[132.147672,34.304564],[132.148244,34.304801],[132.148496,34.305054],[132.148648,34.305354],[132.148796,34.305202],[132.148961,34.304759],[132.149008,34.304135],[132.149222,34.303661],[132.14937,34.303192],[132.149543,34.302898],[132.149692,34.302828],[132.14995,34.303779],[132.150251,34.304452],[132.15068,34.30504],[132.151027,34.30513],[132.152703,34.304436],[132.153221,34.304317],[132.153658,34.304143],[132.155802,34.30363],[132.1563,34.30338],[132.158104,34.302661],[132.158622,34.302486],[132.159364,34.302371],[132.159092,34.303125],[132.159148,34.303556],[132.15883,34.303895],[132.158814,34.30414],[132.159103,34.304722],[132.1591,34.305631],[132.159217,34.306042],[132.159492,34.30667],[132.159465,34.306919],[132.159184,34.30713],[132.159151,34.307342],[132.159582,34.307882],[132.159608,34.308019],[132.159617,34.308566],[132.15956,34.309134],[132.15947,34.309318],[132.159329,34.30995],[132.159343,34.310158],[132.159536,34.3105],[132.159045,34.310653],[132.158124,34.310758],[132.157232,34.310944],[132.156941,34.31113],[132.15656,34.311461],[132.156471,34.311629],[132.156495,34.312752],[132.15602,34.31405],[132.156058,34.314504],[132.156243,34.315019],[132.156698,34.315776],[132.157141,34.316347],[132.157068,34.316416],[132.157217,34.317044],[132.157166,34.317725],[132.15707,34.317893],[132.157098,34.317978],[132.157011,34.31818],[132.156614,34.319005],[132.156462,34.319661],[132.156458,34.319795],[132.156543,34.320003],[132.156742,34.320295],[132.156787,34.320639],[132.156677,34.32084],[132.156405,34.321056],[132.156164,34.321388],[132.156051,34.321726],[132.155742,34.322243],[132.155634,34.322617],[132.155236,34.322691],[132.154541,34.3227],[132.154153,34.322817],[132.154034,34.323645],[132.154039,34.324363],[132.153942,34.324907],[132.153925,34.326092],[132.153971,34.326618],[132.153877,34.327347],[132.15374,34.327871],[132.15372,34.328292],[132.153647,34.32841],[132.153583,34.328697],[132.153586,34.329311],[132.153536,34.329428],[132.15363,34.32967],[132.153833,34.329892],[132.153826,34.330049],[132.153268,34.330192],[132.152122,34.330158],[132.151541,34.330453],[132.150969,34.330569]]]]}}]}
