{"type":"FeatureCollection","features":[{"type":"Feature","properties":{"potaRef":"JP-1536","nameJa":"Harimachubu kyuryo","nameEn":"Harima Chubu Kyuryo Prefectural Nature Park","authority":"環境省 生物多様性「見える化」マップ","boundaryStatus":"全国GIS候補・公開前検証待ち","boundarySource":"環境省 生物多様性「見える化」マップの自然公園区域を、POTA代表座標で一意に空間照合して加工","boundaryScaleNote":"区域は概要データであり、正確性は保証されない。POTA運用可否は公式情報で最終確認すること。","candidateMethod":"POTA representative point inside one public natural-park area","sourceParkKind":"都道府県立自然公園","sourceName":"Harimachubu kyuryo","sourceFeatureCount":1,"cautionMeters":75},"geometry":{"type":"MultiPolygon","coordinates":[[[[134.838421,34.882037],[134.836987,34.882477],[134.835915,34.88294],[134.834568,34.883201],[134.832656,34.8837],[134.832222,34.883747],[134.831512,34.883937],[134.83099,34.884139],[134.830019,34.884686],[134.829265,34.885246],[134.828815,34.885877],[134.828247,34.887368],[134.828029,34.887797],[134.828058,34.888059],[134.827941,34.888345],[134.825899,34.889011],[134.825174,34.889463],[134.825129,34.889928],[134.824854,34.890059],[134.820927,34.891437],[134.818639,34.892006],[134.817132,34.892445],[134.816334,34.892909],[134.814552,34.89342],[134.811306,34.894715],[134.808438,34.895367],[134.807888,34.895414],[134.807483,34.895103],[134.806978,34.894303],[134.80653,34.893884],[134.806125,34.893585],[134.805938,34.893275],[134.80604,34.892893],[134.806273,34.892476],[134.806752,34.892095],[134.806781,34.891714],[134.806595,34.890926],[134.806915,34.89033],[134.807336,34.889794],[134.807482,34.889198],[134.807397,34.888541],[134.807224,34.888135],[134.807022,34.887789],[134.804535,34.886652],[134.802843,34.885575],[134.802135,34.885002],[134.801197,34.883736],[134.800244,34.882744],[134.799509,34.881621],[134.79925,34.880857],[134.799324,34.880022],[134.799297,34.879438],[134.798793,34.878518],[134.798272,34.878136],[134.798071,34.877551],[134.798002,34.876346],[134.797699,34.875713],[134.797138,34.874173],[134.796532,34.873457],[134.795928,34.872108],[134.795279,34.871188],[134.794744,34.870722],[134.79395,34.869897],[134.793373,34.869049],[134.793071,34.868452],[134.793362,34.867653],[134.793857,34.8667],[134.793843,34.866342],[134.793337,34.866282],[134.792076,34.865902],[134.791904,34.864957],[134.791315,34.864527],[134.790795,34.86391],[134.790606,34.863137],[134.790524,34.861319],[134.789935,34.860588],[134.788999,34.860171],[134.78787,34.859897],[134.787143,34.859266],[134.786293,34.858677],[134.785686,34.858562],[134.784973,34.858761],[134.784261,34.858731],[134.783602,34.858372],[134.78329,34.857985],[134.782529,34.856838],[134.781525,34.855849],[134.780987,34.855418],[134.781457,34.855233],[134.782673,34.855006],[134.783438,34.854592],[134.7837,34.854178],[134.7845,34.853664],[134.784884,34.852891],[134.785545,34.852549],[134.78598,34.852092],[134.786502,34.851821],[134.787162,34.851807],[134.787717,34.851894],[134.788568,34.851896],[134.789124,34.851797],[134.789924,34.851469],[134.790862,34.851198],[134.792289,34.850127],[134.794115,34.849085],[134.794758,34.848628],[134.795489,34.848314],[134.796462,34.848087],[134.797625,34.848089],[134.797921,34.847732],[134.798321,34.847646],[134.799327,34.848006],[134.799846,34.848637],[134.800089,34.848823],[134.800644,34.848953],[134.801355,34.849426],[134.801684,34.849914],[134.802845,34.850961],[134.803278,34.851291],[134.804128,34.851693],[134.80484,34.851966],[134.805569,34.852139],[134.806107,34.852168],[134.806611,34.851897],[134.807011,34.851812],[134.807479,34.851913],[134.80786,34.852572],[134.808136,34.853188],[134.808361,34.85346],[134.80876,34.853661],[134.809177,34.853948],[134.809751,34.853548],[134.809821,34.853162],[134.80977,34.852475],[134.810312,34.851058],[134.811462,34.849457],[134.811811,34.848455],[134.812229,34.847869],[134.813953,34.84591],[134.814422,34.845868],[134.814926,34.84564],[134.816561,34.84434],[134.81743,34.84384],[134.818439,34.84334],[134.819778,34.842312],[134.820874,34.841283],[134.821517,34.84104],[134.822299,34.840898],[134.822907,34.840699],[134.824072,34.83987],[134.82416,34.839297],[134.824543,34.839026],[134.825168,34.838869],[134.826263,34.838427],[134.82708,34.838013],[134.827966,34.837485],[134.828628,34.83657],[134.829497,34.835884],[134.830124,34.835154],[134.830472,34.834554],[134.830716,34.834425],[134.831513,34.835042],[134.832121,34.834885],[134.832954,34.835087],[134.83377,34.835088],[134.834151,34.835704],[134.834236,34.836334],[134.833854,34.836648],[134.834268,34.837909],[134.834785,34.839728],[134.834975,34.840587],[134.835007,34.841546],[134.835285,34.84189],[134.835388,34.842477],[134.835177,34.843407],[134.835298,34.843608],[134.836201,34.843752],[134.836846,34.84245],[134.837212,34.841807],[134.8377,34.841106],[134.838415,34.839518],[134.839272,34.836126],[134.839729,34.833478],[134.83966,34.832891],[134.839938,34.832677],[134.84065,34.832635],[134.841085,34.832492],[134.842233,34.831406],[134.843101,34.831121],[134.843553,34.830921],[134.843814,34.830577],[134.844214,34.830206],[134.844683,34.830106],[134.845487,34.830164],[134.845928,34.829898],[134.846646,34.829269],[134.848014,34.828488],[134.848153,34.827954],[134.848086,34.82698],[134.847971,34.826178],[134.848088,34.825606],[134.848622,34.824996],[134.849458,34.823336],[134.849367,34.822553],[134.849831,34.821981],[134.850526,34.821448],[134.851893,34.82061],[134.85224,34.820725],[134.853004,34.820859],[134.85379,34.821089],[134.855225,34.821091],[134.856174,34.821436],[134.85784,34.821762],[134.858371,34.822259],[134.858602,34.822774],[134.858786,34.823557],[134.858762,34.823901],[134.859479,34.824073],[134.860544,34.824227],[134.861793,34.824668],[134.862418,34.824688],[134.863182,34.824479],[134.863576,34.824288],[134.863206,34.823944],[134.863484,34.823524],[134.863786,34.823258],[134.863925,34.823067],[134.863428,34.822838],[134.862788,34.822457],[134.861484,34.821421],[134.861203,34.82085],[134.862868,34.820556],[134.863868,34.819776],[134.864587,34.818932],[134.86528,34.817918],[134.866075,34.817286],[134.86728,34.816759],[134.868048,34.816802],[134.869815,34.816994],[134.872248,34.817461],[134.872929,34.817827],[134.873331,34.817389],[134.87398,34.817008],[134.873957,34.816588],[134.873681,34.815232],[134.873497,34.814488],[134.873175,34.813648],[134.872837,34.811436],[134.872916,34.81062],[134.872932,34.80983],[134.872673,34.808995],[134.872689,34.807837],[134.873112,34.807971],[134.873625,34.807106],[134.873627,34.806324],[134.873346,34.8055],[134.872861,34.80476],[134.872785,34.804],[134.87317,34.803704],[134.874759,34.802692],[134.877526,34.801491],[134.878141,34.801661],[134.879113,34.802316],[134.879445,34.802718],[134.879623,34.803669],[134.880159,34.805275],[134.88054,34.80688],[134.880847,34.807113],[134.881565,34.806881],[134.882001,34.806523],[134.88244,34.806377],[134.882631,34.806631],[134.882438,34.807518],[134.882207,34.808088],[134.882437,34.808437],[134.883205,34.808849],[134.883767,34.808815],[134.8841,34.808362],[134.884724,34.807241],[134.884607,34.805804],[134.88846,34.805608],[134.888442,34.806338],[134.88851,34.807354],[134.888266,34.808041],[134.88823,34.8089],[134.888507,34.809888],[134.889461,34.810204],[134.890136,34.811407],[134.891341,34.812646],[134.892524,34.814687],[134.893275,34.815535],[134.893694,34.815953],[134.894374,34.816431],[134.895068,34.816718],[134.896065,34.817243],[134.896455,34.817769],[134.896772,34.818389],[134.896989,34.818688],[134.897351,34.81876],[134.897814,34.818665],[134.898479,34.818641],[134.90049,34.818762],[134.900311,34.818037],[134.900295,34.81682],[134.900001,34.816519],[134.896703,34.815801],[134.896096,34.815356],[134.89549,34.814468],[134.894779,34.813823],[134.894433,34.813179],[134.89433,34.812477],[134.894452,34.811991],[134.894868,34.811891],[134.895476,34.811963],[134.895893,34.811763],[134.895963,34.810632],[134.895825,34.810317],[134.895357,34.80993],[134.89534,34.809601],[134.895739,34.809415],[134.896277,34.809415],[134.896711,34.809502],[134.897614,34.809445],[134.898725,34.809289],[134.89935,34.809132],[134.899126,34.807743],[134.899041,34.806626],[134.898608,34.805881],[134.898645,34.803763],[134.898992,34.803505],[134.899513,34.803692],[134.90288,34.803766],[134.903817,34.803438],[134.904529,34.803109],[134.905536,34.802508],[134.906266,34.801936],[134.906961,34.80125],[134.907603,34.800964],[134.909096,34.800908],[134.908991,34.801523],[134.909112,34.802039],[134.91017,34.803128],[134.910794,34.803543],[134.912251,34.80406],[134.914542,34.804691],[134.916867,34.805466],[134.919018,34.806212],[134.921325,34.807144],[134.923441,34.809178],[134.927657,34.811686],[134.928593,34.812359],[134.929079,34.812903],[134.92722,34.814463],[134.926195,34.815922],[134.925309,34.816824],[134.924631,34.817639],[134.924352,34.818498],[134.923952,34.819242],[134.923605,34.820072],[134.922892,34.820787],[134.922492,34.82126],[134.922492,34.822133],[134.922768,34.823149],[134.923167,34.824209],[134.923027,34.825082],[134.924641,34.826157],[134.927139,34.827977],[134.925593,34.829307],[134.924898,34.829621],[134.923822,34.82942],[134.922676,34.829506],[134.922033,34.829476],[134.921547,34.829619],[134.920488,34.829289],[134.919829,34.829389],[134.919655,34.829861],[134.919116,34.830505],[134.918317,34.830863],[134.91764,34.830962],[134.91665,34.830862],[134.914602,34.830388],[134.914098,34.830917],[134.913924,34.831461],[134.913177,34.831732],[134.912447,34.832118],[134.911822,34.832376],[134.910173,34.832403],[134.909565,34.83236],[134.908888,34.832459],[134.907533,34.832788],[134.906926,34.832444],[134.906509,34.8323],[134.906197,34.832257],[134.905781,34.831827],[134.905744,34.833287],[134.905431,34.833702],[134.905204,34.83499],[134.905204,34.835305],[134.904474,34.835734],[134.903206,34.836292],[134.900895,34.837464],[134.899175,34.838665],[134.89709,34.839894],[134.89893,34.840139],[134.899764,34.840082],[134.900234,34.839209],[134.901189,34.83891],[134.901779,34.838781],[134.902196,34.838624],[134.903239,34.837866],[134.903881,34.837738],[134.904385,34.837738],[134.905132,34.837467],[134.905931,34.837267],[134.906834,34.837354],[134.906885,34.838027],[134.907144,34.838929],[134.907439,34.839358],[134.907942,34.839602],[134.908446,34.839746],[134.909071,34.839789],[134.909418,34.83989],[134.90959,34.840877],[134.909833,34.841722],[134.910197,34.842238],[134.910648,34.842424],[134.910438,34.844285],[134.909759,34.845745],[134.909201,34.847491],[134.908957,34.848421],[134.908799,34.849881],[134.908417,34.849724],[134.907949,34.849408],[134.907671,34.849036],[134.907307,34.848835],[134.906977,34.848892],[134.906698,34.84945],[134.906386,34.849636],[134.90609,34.850223],[134.905777,34.85048],[134.905724,34.85091],[134.905411,34.851382],[134.904508,34.851811],[134.904091,34.85181],[134.902597,34.852153],[134.902094,34.852052],[134.901573,34.851866],[134.901017,34.851922],[134.900531,34.852051],[134.900079,34.852308],[134.899592,34.85248],[134.899193,34.852479],[134.89829,34.852063],[134.897908,34.852578],[134.897335,34.852664],[134.896466,34.852649],[134.896084,34.852749],[134.895562,34.853263],[134.895111,34.853549],[134.894103,34.853906],[134.893287,34.853906],[134.892193,34.853404],[134.891204,34.852816],[134.890372,34.852071],[134.889678,34.85154],[134.887265,34.851051],[134.886431,34.850922],[134.885702,34.850907],[134.885129,34.850792],[134.884817,34.850219],[134.884592,34.849431],[134.884385,34.849059],[134.88395,34.849101],[134.883307,34.849545],[134.882769,34.849773],[134.882299,34.850188],[134.881795,34.850388],[134.880857,34.850473],[134.88025,34.850472],[134.879954,34.850615],[134.879085,34.851287],[134.878355,34.85153],[134.875559,34.85178],[134.875096,34.851875],[134.87454,34.852084],[134.87379,34.852184],[134.873136,34.85212],[134.872713,34.852468],[134.872673,34.853513],[134.872556,34.854274],[134.872095,34.854527],[134.871634,34.854494],[134.87102,34.853923],[134.870674,34.853701],[134.869789,34.85477],[134.869881,34.855209],[134.870181,34.855687],[134.870412,34.856164],[134.87044,34.856904],[134.870092,34.857309],[134.869773,34.857583],[134.869383,34.857165],[134.869094,34.856652],[134.868834,34.856652],[134.868442,34.857236],[134.868181,34.857486],[134.867747,34.857629],[134.867457,34.857605],[134.867386,34.857199],[134.867488,34.85671],[134.867503,34.856352],[134.867387,34.856006],[134.867127,34.855719],[134.866998,34.855457],[134.866824,34.855254],[134.866492,34.855206],[134.866129,34.85542],[134.865724,34.855265],[134.865348,34.855276],[134.865159,34.855634],[134.865159,34.85592],[134.864623,34.85648],[134.864492,34.856743],[134.864317,34.857327],[134.863796,34.857231],[134.863348,34.856765],[134.863059,34.857087],[134.862015,34.857992],[134.861639,34.857765],[134.86125,34.85687],[134.860396,34.856666],[134.860655,34.857633],[134.860669,34.85805],[134.860538,34.858396],[134.860321,34.858575],[134.860147,34.85867],[134.85993,34.858658],[134.859438,34.858252],[134.859148,34.858562],[134.858497,34.858871],[134.857976,34.858906],[134.857223,34.859144],[134.856759,34.859346],[134.856122,34.859799],[134.854877,34.859606],[134.854198,34.859284],[134.85359,34.858841],[134.853056,34.858316],[134.852204,34.857289],[134.851192,34.856608],[134.849977,34.856427],[134.849355,34.856069],[134.849037,34.855806],[134.848734,34.855459],[134.848489,34.855077],[134.84817,34.855017],[134.846303,34.855421],[134.845608,34.855348],[134.843872,34.854869],[134.843192,34.854808],[134.842628,34.854831],[134.842642,34.854879],[134.84228,34.855034],[134.842452,34.856143],[134.842436,34.856632],[134.842522,34.857038],[134.842854,34.857611],[134.842868,34.857969],[134.841854,34.858314],[134.841275,34.858599],[134.841014,34.858957],[134.84036,34.860018],[134.84033,34.860447],[134.840388,34.860578],[134.839982,34.860817],[134.839707,34.861234],[134.839576,34.861639],[134.839531,34.862176],[134.839356,34.862927],[134.838979,34.863308],[134.837559,34.863891],[134.835561,34.864568],[134.83459,34.864985],[134.833851,34.86521],[134.831492,34.865135],[134.831232,34.865052],[134.830625,34.864705],[134.829713,34.864644],[134.828961,34.864428],[134.828483,34.864356],[134.828006,34.864451],[134.827383,34.864676],[134.826861,34.864878],[134.82647,34.8652],[134.826252,34.865629],[134.82612,34.866309],[134.825162,34.867477],[134.824698,34.867894],[134.82422,34.868239],[134.823017,34.868893],[134.822611,34.869322],[134.822075,34.869596],[134.821003,34.870024],[134.81841,34.870974],[134.816367,34.871615],[134.815933,34.871889],[134.816077,34.872008],[134.817046,34.872404],[134.817813,34.872429],[134.81887,34.872275],[134.819695,34.872276],[134.820491,34.872349],[134.821186,34.872302],[134.822113,34.872053],[134.825661,34.871307],[134.827167,34.871023],[134.828282,34.870881],[134.830541,34.870407],[134.835348,34.869591],[134.836289,34.869544],[134.837317,34.869557],[134.838604,34.86975],[134.840167,34.870337],[134.842249,34.871365],[134.843174,34.871987],[134.843882,34.872751],[134.843679,34.873097],[134.843316,34.873454],[134.84262,34.874277],[134.842329,34.874753],[134.842525,34.878571],[134.842335,34.87912],[134.84132,34.880311],[134.840754,34.88105],[134.839826,34.881884],[134.839464,34.881943],[134.838972,34.881895],[134.838421,34.882037]]],[[[134.750167,34.870604],[134.748472,34.870995],[134.747898,34.871046],[134.747301,34.871333],[134.746864,34.871361],[134.745908,34.871717],[134.744197,34.872501],[134.743269,34.873047],[134.742907,34.873273],[134.742703,34.87354],[134.742108,34.874011],[134.741717,34.874189],[134.741536,34.874101],[134.741051,34.873728],[134.740852,34.873384],[134.740824,34.873064],[134.740924,34.872649],[134.740932,34.871976],[134.741141,34.871704],[134.74146,34.871648],[134.741624,34.871114],[134.742551,34.870729],[134.742958,34.870205],[134.743,34.869728],[134.74352,34.869203],[134.744637,34.868448],[134.745558,34.867937],[134.745848,34.867603],[134.746247,34.867461],[134.74658,34.867444],[134.747798,34.866671],[134.747184,34.866109],[134.747178,34.865411],[134.74697,34.865172],[134.745672,34.865551],[134.745336,34.865703],[134.745116,34.865712],[134.744711,34.865425],[134.744387,34.865415],[134.744051,34.865557],[134.74383,34.865776],[134.743933,34.866216],[134.743863,34.866569],[134.743538,34.866702],[134.742438,34.866756],[134.741836,34.866679],[134.741547,34.866459],[134.741155,34.865923],[134.7416,34.864283],[134.7413,34.86412],[134.740999,34.864024],[134.740908,34.863661],[134.741096,34.862535],[134.741006,34.861772],[134.739948,34.859584],[134.739961,34.859126],[134.741559,34.858938],[134.742648,34.858893],[134.747452,34.858951],[134.747916,34.85878],[134.74801,34.858456],[134.747863,34.857329],[134.747912,34.856356],[134.748075,34.85607],[134.748712,34.856071],[134.749532,34.85655],[134.750099,34.856761],[134.750701,34.856858],[134.752704,34.856824],[134.753225,34.856701],[134.754707,34.856761],[134.755875,34.857126],[134.756731,34.85729],[134.75753,34.857377],[134.758456,34.857367],[134.758324,34.857975],[134.757511,34.859024],[134.758856,34.859253],[134.759217,34.859552],[134.75936,34.860232],[134.759605,34.860483],[134.760272,34.859948],[134.761057,34.85878],[134.761667,34.857982],[134.762102,34.857732],[134.762957,34.857543],[134.763738,34.857521],[134.764447,34.85757],[134.765795,34.85706],[134.76678,34.85662],[134.767677,34.856765],[134.767284,34.857349],[134.766919,34.858517],[134.766553,34.860079],[134.765807,34.86281],[134.765328,34.863501],[134.764459,34.863738],[134.763416,34.863843],[134.761968,34.864198],[134.761403,34.864149],[134.760983,34.864244],[134.760259,34.8646],[134.759533,34.865458],[134.759285,34.865887],[134.758603,34.866422],[134.757876,34.867578],[134.757397,34.868221],[134.757163,34.869092],[134.757002,34.869461],[134.756465,34.870104],[134.756015,34.870437],[134.755768,34.870771],[134.755475,34.871844],[134.755097,34.872452],[134.755095,34.873358],[134.754589,34.872975],[134.753263,34.871231],[134.752771,34.870896],[134.752323,34.870704],[134.752063,34.870513],[134.750848,34.870486],[134.750167,34.870604]]]]}}]}
