{"type":"FeatureCollection","features":[{"type":"Feature","properties":{"potaRef":"JP-1615","nameJa":"Yamano Kyo","nameEn":"Yamanokyo Prefectural Nature Park","authority":"環境省 生物多様性「見える化」マップ","boundaryStatus":"全国GIS候補・公開前検証待ち","boundarySource":"環境省 生物多様性「見える化」マップの自然公園区域を、POTA代表座標で一意に空間照合して加工","boundaryScaleNote":"区域は概要データであり、正確性は保証されない。POTA運用可否は公式情報で最終確認すること。","candidateMethod":"POTA representative point inside one public natural-park area","sourceParkKind":"都道府県立自然公園","sourceName":"Yamano Kyo","sourceFeatureCount":1,"cautionMeters":75},"geometry":{"type":"MultiPolygon","coordinates":[[[[133.366729,34.703349],[133.366674,34.703433],[133.36671,34.703674],[133.366665,34.70371],[133.366006,34.703339],[133.365807,34.703283],[133.365028,34.703288],[133.364829,34.703211],[133.364682,34.703077],[133.363758,34.702911],[133.36237,34.702547],[133.362919,34.701339],[133.364083,34.699812],[133.364445,34.699417],[133.364817,34.698884],[133.365874,34.697675],[133.365811,34.697636],[133.364919,34.697669],[133.364496,34.697534],[133.363861,34.696974],[133.363525,34.6964],[133.363468,34.69603],[133.363082,34.694903],[133.36308,34.694217],[133.36315,34.693613],[133.363217,34.693411],[133.363527,34.693049],[133.36388,34.692841],[133.364313,34.692714],[133.364199,34.692523],[133.364204,34.692338],[133.364111,34.692132],[133.363996,34.692058],[133.363223,34.692099],[133.362916,34.692054],[133.362234,34.691802],[133.360674,34.690627],[133.359446,34.689864],[133.359205,34.689791],[133.359022,34.689639],[133.35691,34.689701],[133.356682,34.689671],[133.356544,34.689229],[133.356224,34.688559],[133.356094,34.68817],[133.355651,34.687409],[133.355384,34.687125],[133.354982,34.686846],[133.353857,34.686525],[133.3534,34.686542],[133.352876,34.686644],[133.352677,34.686508],[133.352248,34.685742],[133.352242,34.685641],[133.352364,34.685291],[133.352384,34.685048],[133.352319,34.684533],[133.352442,34.684093],[133.352404,34.684026],[133.351266,34.68391],[133.35042,34.683493],[133.350036,34.683408],[133.349411,34.683358],[133.349049,34.683246],[133.348585,34.683017],[133.347924,34.682862],[133.347235,34.682412],[133.347058,34.682192],[133.346404,34.681768],[133.346342,34.681673],[133.346044,34.680981],[133.346068,34.680766],[133.34611,34.68071],[133.346533,34.680592],[133.347085,34.680609],[133.347352,34.68057],[133.347542,34.680276],[133.347562,34.67985],[133.347509,34.679664],[133.347924,34.679337],[133.348741,34.679027],[133.349232,34.678971],[133.350836,34.678979],[133.351183,34.678938],[133.351483,34.678844],[133.352365,34.678438],[133.353275,34.677771],[133.354317,34.67714],[133.355058,34.676872],[133.356267,34.676284],[133.356675,34.676137],[133.356985,34.675943],[133.357164,34.675707],[133.357218,34.67514],[133.357103,34.675025],[133.357023,34.675018],[133.356204,34.675309],[133.355799,34.675345],[133.355471,34.675334],[133.35458,34.675106],[133.35457,34.675007],[133.354346,34.67485],[133.354177,34.67466],[133.353881,34.67407],[133.353698,34.673937],[133.353636,34.673771],[133.353372,34.673672],[133.352831,34.673342],[133.352669,34.673297],[133.352306,34.673048],[133.352172,34.672612],[133.352387,34.672009],[133.352366,34.67192],[133.352174,34.67181],[133.351484,34.671877],[133.351077,34.67183],[133.350718,34.671616],[133.350261,34.671057],[133.350047,34.670584],[133.350052,34.670366],[133.350164,34.670033],[133.350319,34.669782],[133.350312,34.669686],[133.350474,34.669482],[133.350659,34.669346],[133.351535,34.66921],[133.351819,34.669114],[133.35204,34.669158],[133.352392,34.669125],[133.353579,34.669413],[133.354125,34.66974],[133.354132,34.669933],[133.354078,34.670067],[133.353812,34.670306],[133.353443,34.670434],[133.353311,34.670557],[133.354737,34.670529],[133.355202,34.670584],[133.355505,34.670679],[133.355569,34.670775],[133.355505,34.671262],[133.355525,34.671414],[133.355653,34.671577],[133.356119,34.671803],[133.356381,34.672279],[133.356743,34.672559],[133.357093,34.672548],[133.357745,34.672347],[133.358097,34.672173],[133.358212,34.672173],[133.358431,34.672391],[133.359218,34.673397],[133.359842,34.674053],[133.360179,34.674677],[133.360461,34.675387],[133.360998,34.676516],[133.361571,34.677158],[133.363917,34.677441],[133.364403,34.677611],[133.365523,34.678176],[133.365555,34.67822],[133.365495,34.678618],[133.365548,34.679005],[133.365676,34.679233],[133.365945,34.679514],[133.366806,34.679982],[133.367919,34.68036],[133.368559,34.680759],[133.369718,34.681762],[133.370293,34.682325],[133.370516,34.682461],[133.371298,34.683207],[133.371589,34.683584],[133.371561,34.683835],[133.371653,34.684123],[133.371604,34.684654],[133.371544,34.684823],[133.371697,34.685462],[133.371668,34.685594],[133.37171,34.686017],[133.371647,34.686284],[133.371659,34.686685],[133.371599,34.686834],[133.371633,34.686954],[133.371171,34.687787],[133.370729,34.688244],[133.37076,34.688418],[133.371105,34.688789],[133.371277,34.688911],[133.371452,34.689115],[133.371517,34.689284],[133.371537,34.68937],[133.371316,34.69015],[133.370713,34.691218],[133.369918,34.69206],[133.36947,34.692661],[133.36907,34.693059],[133.36894,34.693119],[133.368718,34.693386],[133.368646,34.693584],[133.368746,34.693855],[133.368951,34.694021],[133.369131,34.694109],[133.369919,34.694287],[133.370177,34.69453],[133.370416,34.69505],[133.370489,34.695821],[133.370491,34.696428],[133.37036,34.69683],[133.369975,34.697577],[133.369694,34.697956],[133.369567,34.69829],[133.369197,34.698942],[133.36859,34.699805],[133.36845,34.700341],[133.368071,34.70134],[133.36799,34.701474],[133.367378,34.702055],[133.367021,34.702536],[133.366822,34.702916],[133.366729,34.703349]]],[[[133.353276,34.659708],[133.353255,34.660764],[133.351645,34.660742],[133.351666,34.659687],[133.353276,34.659708]]]]}}]}
