{"type":"FeatureCollection","features":[{"type":"Feature","properties":{"potaRef":"JP-1471","nameJa":"Suigo","nameEn":"Suigo Prefectural Nature Park","authority":"環境省 生物多様性「見える化」マップ","boundaryStatus":"全国GIS候補・公開前検証待ち","boundarySource":"環境省 生物多様性「見える化」マップの自然公園区域を、POTA代表座標で一意に空間照合して加工","boundaryScaleNote":"区域は概要データであり、正確性は保証されない。POTA運用可否は公式情報で最終確認すること。","candidateMethod":"POTA representative point inside one public natural-park area","sourceParkKind":"都道府県立自然公園","sourceName":"Suigo","sourceFeatureCount":1,"cautionMeters":75},"geometry":{"type":"MultiPolygon","coordinates":[[[[136.604644,35.168657],[136.602974,35.169571],[136.600612,35.171012],[136.60025,35.170969],[136.600152,35.170905],[136.600292,35.170404],[136.600198,35.170056],[136.600279,35.169616],[136.60023,35.169532],[136.599866,35.169273],[136.599789,35.169129],[136.599817,35.168861],[136.600086,35.16833],[136.600166,35.167984],[136.600109,35.167197],[136.599875,35.166293],[136.599891,35.165997],[136.599973,35.165736],[136.599989,35.165323],[136.600331,35.164656],[136.600349,35.163975],[136.600213,35.163515],[136.600214,35.163258],[136.599914,35.162379],[136.59956,35.161573],[136.599475,35.161187],[136.599049,35.159909],[136.599007,35.15962],[136.599101,35.159324],[136.599099,35.159063],[136.598759,35.158278],[136.598893,35.157489],[136.598878,35.156788],[136.598932,35.156549],[136.599049,35.15629],[136.599569,35.155641],[136.599665,35.155315],[136.599619,35.154823],[136.599784,35.154031],[136.599724,35.153797],[136.599623,35.153626],[136.599609,35.153448],[136.599706,35.153218],[136.600092,35.152689],[136.600163,35.152009],[136.600378,35.15163],[136.60063,35.150484],[136.600789,35.150167],[136.60088,35.149812],[136.600795,35.149315],[136.600568,35.148795],[136.600247,35.148388],[136.600138,35.148096],[136.599734,35.147341],[136.599717,35.147111],[136.599891,35.146469],[136.600682,35.144739],[136.600739,35.144325],[136.600578,35.144007],[136.600295,35.143628],[136.599893,35.142873],[136.59945,35.142206],[136.599407,35.142029],[136.599672,35.141008],[136.599611,35.14034],[136.599516,35.140013],[136.599258,35.139493],[136.599283,35.139114],[136.59924,35.138797],[136.599379,35.138504],[136.600243,35.137729],[136.602034,35.136451],[136.603009,35.13567],[136.603746,35.135189],[136.604882,35.134755],[136.606477,35.134444],[136.607063,35.133927],[136.607351,35.133787],[136.607882,35.133806],[136.608837,35.133925],[136.608827,35.13382],[136.608314,35.13324],[136.608222,35.133009],[136.608263,35.132909],[136.608649,35.132848],[136.609033,35.132956],[136.609393,35.132991],[136.609784,35.13296],[136.610071,35.132878],[136.611015,35.13236],[136.611086,35.132244],[136.611171,35.131859],[136.611289,35.131701],[136.611544,35.131765],[136.611825,35.132034],[136.612065,35.132142],[136.612089,35.132524],[136.611961,35.133113],[136.611992,35.133184],[136.612636,35.133273],[136.6136,35.1335],[136.614018,35.133398],[136.614074,35.133321],[136.61411,35.133077],[136.614183,35.132998],[136.614302,35.132981],[136.614687,35.133065],[136.615109,35.132795],[136.615295,35.132722],[136.615572,35.132718],[136.615754,35.132791],[136.616111,35.133118],[136.616328,35.133206],[136.616799,35.133176],[136.616976,35.133113],[136.617124,35.132989],[136.617249,35.133012],[136.617962,35.13321],[136.619193,35.133765],[136.619368,35.133684],[136.619741,35.13318],[136.620127,35.132855],[136.6204,35.132685],[136.620724,35.132674],[136.620766,35.132754],[136.62072,35.132842],[136.62028,35.133321],[136.620295,35.133428],[136.62038,35.13348],[136.620815,35.133506],[136.621135,35.133452],[136.621284,35.133339],[136.621413,35.133029],[136.621665,35.133055],[136.621879,35.133142],[136.622268,35.133413],[136.623025,35.133719],[136.623311,35.134041],[136.623457,35.134124],[136.62402,35.134244],[136.624414,35.134237],[136.625165,35.134522],[136.625571,35.134727],[136.626171,35.134911],[136.626436,35.134965],[136.627278,35.135002],[136.627778,35.135176],[136.628245,35.135403],[136.628963,35.135567],[136.629849,35.135442],[136.630159,35.135478],[136.630462,35.135691],[136.631099,35.136508],[136.631507,35.13679],[136.632112,35.136993],[136.633085,35.137168],[136.633548,35.13764],[136.633809,35.137799],[136.63448,35.137666],[136.634977,35.137709],[136.635292,35.137797],[136.636408,35.138299],[136.637023,35.138789],[136.637764,35.138964],[136.637983,35.139215],[136.638247,35.139648],[136.638701,35.140543],[136.639208,35.142432],[136.639271,35.142728],[136.639254,35.143055],[136.639132,35.143283],[136.638696,35.143791],[136.638623,35.143994],[136.638558,35.144662],[136.638422,35.144935],[136.638142,35.145135],[136.637645,35.145338],[136.636973,35.145525],[136.636528,35.146007],[136.635893,35.146368],[136.635479,35.146732],[136.635119,35.146909],[136.635074,35.14705],[136.635217,35.147487],[136.635307,35.147535],[136.638998,35.146979],[136.639284,35.146613],[136.640113,35.144913],[136.64102,35.143259],[136.641404,35.142439],[136.642093,35.141497],[136.642296,35.140561],[136.642365,35.140411],[136.64252,35.140306],[136.643359,35.140038],[136.64822,35.141535],[136.648417,35.141504],[136.648759,35.140973],[136.649799,35.139674],[136.650175,35.138916],[136.650091,35.138809],[136.649446,35.138732],[136.649323,35.138634],[136.649313,35.138229],[136.649416,35.137934],[136.650113,35.137104],[136.651229,35.135167],[136.651634,35.13469],[136.651761,35.13422],[136.652542,35.132933],[136.652783,35.132393],[136.653286,35.131864],[136.654007,35.131441],[136.653817,35.130985],[136.653755,35.130579],[136.653118,35.129],[136.652941,35.128779],[136.652651,35.128754],[136.651096,35.129123],[136.649962,35.129227],[136.64918,35.128994],[136.648595,35.128545],[136.648498,35.128358],[136.64857,35.127257],[136.648758,35.126666],[136.64966,35.124558],[136.650861,35.121152],[136.651555,35.119571],[136.651941,35.118334],[136.65418,35.11299],[136.655024,35.111465],[136.658628,35.107789],[136.659947,35.106603],[136.660365,35.106128],[136.660714,35.10588],[136.661501,35.105656],[136.662485,35.10559],[136.663065,35.1058],[136.664342,35.105787],[136.665845,35.105971],[136.666285,35.106092],[136.666474,35.106052],[136.666777,35.105011],[136.66725,35.104004],[136.667781,35.10236],[136.668173,35.101473],[136.66888,35.100361],[136.669332,35.099933],[136.670511,35.098448],[136.671912,35.097039],[136.672878,35.09619],[136.674649,35.094388],[136.675195,35.093914],[136.676511,35.093106],[136.67812,35.091969],[136.679036,35.091437],[136.680707,35.090082],[136.681687,35.088902],[136.684253,35.084264],[136.685268,35.082725],[136.686363,35.080724],[136.687189,35.079486],[136.687999,35.078416],[136.688697,35.077706],[136.689394,35.076822],[136.690734,35.075467],[136.691748,35.074217],[136.694886,35.069805],[136.694924,35.069097],[136.69506,35.068634],[136.695343,35.06852],[136.69659,35.068413],[136.696614,35.068182],[136.697119,35.068129],[136.698579,35.067463],[136.700242,35.066041],[136.701148,35.064918],[136.702087,35.063089],[136.703011,35.060293],[136.703123,35.059411],[136.703284,35.058928],[136.703828,35.055659],[136.703989,35.055181],[136.704252,35.05343],[136.704393,35.05308],[136.704379,35.052728],[136.704626,35.051619],[136.704878,35.049044],[136.705069,35.047989],[136.705038,35.047701],[136.704842,35.047412],[136.704205,35.046945],[136.70339,35.046212],[136.702397,35.045559],[136.701531,35.045113],[136.700969,35.044711],[136.70067,35.044368],[136.700207,35.043327],[136.700137,35.04292],[136.699294,35.04101],[136.698893,35.039909],[136.698936,35.039725],[136.699669,35.038598],[136.699905,35.038023],[136.700303,35.03645],[136.700594,35.033466],[136.700485,35.032287],[136.700194,35.031173],[136.699535,35.030545],[136.69873,35.02868],[136.698272,35.027814],[136.697978,35.027641],[136.697099,35.027542],[136.696902,35.027438],[136.697847,35.0263],[136.698504,35.025014],[136.698881,35.023839],[136.699161,35.023254],[136.700063,35.022307],[136.700762,35.021726],[136.701331,35.021489],[136.701905,35.021462],[136.70264,35.021579],[136.703057,35.021701],[136.708888,35.023667],[136.710241,35.024103],[136.710404,35.024117],[136.710707,35.024295],[136.71169,35.024325],[136.718424,35.02485],[136.727302,35.025452],[136.727446,35.025379],[136.727853,35.025294],[136.72844,35.02522],[136.729986,35.025612],[136.732788,35.026554],[136.733257,35.026756],[136.733962,35.027157],[136.73478,35.027819],[136.737299,35.030232],[136.739303,35.032294],[136.739402,35.032325],[136.739786,35.03272],[136.739995,35.034715],[136.740555,35.042475],[136.740626,35.04404],[136.740886,35.046254],[136.740826,35.046782],[136.741102,35.049055],[136.741035,35.049517],[136.741113,35.050293],[136.741192,35.050442],[136.741333,35.050457],[136.741817,35.050248],[136.743101,35.049905],[136.745217,35.049518],[136.745717,35.049577],[136.746644,35.049555],[136.747772,35.049677],[136.748995,35.050173],[136.749989,35.050919],[136.750916,35.05229],[136.751167,35.052887],[136.751201,35.055615],[136.751817,35.055731],[136.752881,35.055768],[136.751697,35.061823],[136.751638,35.062719],[136.751767,35.064716],[136.752047,35.071701],[136.75186,35.073364],[136.751505,35.075606],[136.750972,35.078453],[136.750791,35.079135],[136.750464,35.079846],[136.750139,35.080248],[136.749574,35.080728],[136.745401,35.083699],[136.741864,35.085955],[136.741162,35.086568],[136.739896,35.087797],[136.735983,35.091875],[136.735183,35.092744],[136.734005,35.094158],[136.732204,35.096489],[136.731275,35.097281],[136.727672,35.099311],[136.724466,35.100534],[136.724724,35.100944],[136.721774,35.102309],[136.721234,35.102309],[136.721157,35.102348],[136.720862,35.102828],[136.720656,35.103011],[136.720097,35.103369],[136.719979,35.103369],[136.718278,35.102764],[136.714072,35.105167],[136.704008,35.115631],[136.699936,35.120286],[136.695066,35.124702],[136.69378,35.124797],[136.692939,35.124788],[136.692611,35.124846],[136.688025,35.12597],[136.687462,35.126145],[136.685919,35.126806],[136.681091,35.128441],[136.680664,35.128532],[136.680273,35.128532],[136.679884,35.12839],[136.677731,35.128648],[136.676393,35.128867],[136.674954,35.131366],[136.672778,35.134777],[136.66963,35.133729],[136.669148,35.134474],[136.668676,35.135902],[136.668446,35.136835],[136.667999,35.139179],[136.667849,35.140413],[136.667664,35.141153],[136.667251,35.141954],[136.666906,35.142454],[136.664976,35.144843],[136.66255,35.147649],[136.661494,35.149205],[136.660884,35.150239],[136.659713,35.152454],[136.657963,35.155923],[136.655642,35.161053],[136.65547,35.161307],[136.655252,35.161477],[136.654173,35.16192],[136.653619,35.162204],[136.652701,35.162864],[136.651492,35.163489],[136.649701,35.164337],[136.647082,35.165455],[136.646382,35.165813],[136.646284,35.165809],[136.645949,35.165054],[136.645059,35.163658],[136.644854,35.163248],[136.64468,35.162773],[136.6446,35.162201],[136.644648,35.161854],[136.645344,35.160379],[136.645584,35.159564],[136.646189,35.15657],[136.646155,35.155637],[136.645756,35.154569],[136.645813,35.153594],[136.645744,35.152661],[136.645733,35.151331],[136.645619,35.150278],[136.645699,35.149547],[136.645996,35.148372],[136.646019,35.14766],[136.645836,35.147285],[136.645207,35.146596],[136.645218,35.144572],[136.644705,35.144404],[136.644431,35.144413],[136.644077,35.14476],[136.641826,35.146561],[136.639669,35.147698],[136.639421,35.147758],[136.639022,35.147753],[136.638605,35.147538],[136.638109,35.147458],[136.637659,35.147486],[136.636578,35.14796],[136.636207,35.14796],[136.635652,35.147845],[136.635304,35.147905],[136.635156,35.148013],[136.635059,35.148172],[136.634596,35.149495],[136.634488,35.149674],[136.63434,35.149762],[136.632272,35.150082],[136.63049,35.150221],[136.630188,35.150179],[136.629783,35.15002],[136.629012,35.149324],[136.628395,35.148627],[136.627784,35.148109],[136.627322,35.147819],[136.626694,35.14749],[136.624267,35.146528],[136.624153,35.146425],[136.623959,35.146032],[136.623765,35.14583],[136.623708,35.145844],[136.623611,35.146004],[136.623589,35.146266],[136.623514,35.146397],[136.6232,35.146698],[136.62308,35.147021],[136.622886,35.147162],[136.622424,35.147298],[136.622361,35.147373],[136.622224,35.147832],[136.621687,35.148256],[136.621352,35.14844],[136.621116,35.148488],[136.620694,35.148363],[136.620046,35.1483],[136.619622,35.148537],[136.619351,35.148803],[136.619174,35.149166],[136.619044,35.149282],[136.618424,35.149599],[136.617811,35.149778],[136.617287,35.149817],[136.616477,35.14959],[136.616088,35.14959],[136.615847,35.149687],[136.615552,35.149929],[136.615228,35.151049],[136.614851,35.151712],[136.614413,35.152155],[136.613718,35.152658],[136.613458,35.152978],[136.61334,35.15322],[136.613264,35.153473],[136.613275,35.153899],[136.613328,35.15431],[136.613546,35.154893],[136.61344,35.155034],[136.613187,35.155222],[136.612409,35.156522],[136.612108,35.157204],[136.612031,35.157657],[136.612167,35.158233],[136.612461,35.158927],[136.612508,35.15942],[136.61239,35.159638],[136.612183,35.159825],[136.611116,35.16041],[136.610969,35.160618],[136.61092,35.161372],[136.610785,35.161618],[136.610066,35.162015],[136.609447,35.162214],[136.609081,35.162647],[136.60859,35.16289],[136.608541,35.162977],[136.608521,35.163489],[136.607966,35.164122],[136.607601,35.16463],[136.60746,35.165104],[136.6074,35.165525],[136.607204,35.165818],[136.60527,35.167132],[136.60514,35.167306],[136.604781,35.168505],[136.604644,35.168657]]]]}}]}
