{"type":"FeatureCollection","features":[{"type":"Feature","properties":{"potaRef":"JP-1088","nameJa":"Ryozen","nameEn":"Ryozen Prefectural Nature Park","authority":"環境省 生物多様性「見える化」マップ","boundaryStatus":"全国GIS候補・公開前検証待ち","boundarySource":"環境省 生物多様性「見える化」マップの自然公園区域を、POTA代表座標で一意に空間照合して加工","boundaryScaleNote":"区域は概要データであり、正確性は保証されない。POTA運用可否は公式情報で最終確認すること。","candidateMethod":"POTA representative point inside one public natural-park area","sourceParkKind":"都道府県立自然公園","sourceName":"Ryozen","sourceFeatureCount":1,"cautionMeters":75},"geometry":{"type":"MultiPolygon","coordinates":[[[[140.661137,37.812407],[140.660814,37.812411],[140.659842,37.812291],[140.658612,37.812322],[140.657921,37.812243],[140.656918,37.811916],[140.655843,37.81124],[140.655657,37.81117],[140.655475,37.811183],[140.654784,37.811538],[140.652991,37.811521],[140.652696,37.81142],[140.652266,37.810985],[140.651693,37.810526],[140.650863,37.810124],[140.647299,37.808735],[140.647092,37.808612],[140.64662,37.808095],[140.645996,37.808],[140.644933,37.807748],[140.644624,37.807473],[140.644531,37.807181],[140.644508,37.806605],[140.644254,37.806204],[140.644275,37.805311],[140.643703,37.804291],[140.643589,37.803856],[140.643598,37.80354],[140.643766,37.802631],[140.643941,37.80211],[140.644282,37.801362],[140.644278,37.801173],[140.644215,37.800996],[140.643575,37.800086],[140.642861,37.79997],[140.642745,37.799911],[140.64257,37.799649],[140.642351,37.799019],[140.64302,37.79848],[140.643853,37.798171],[140.644248,37.797934],[140.644431,37.797649],[140.644717,37.796875],[140.644974,37.796647],[140.645521,37.796278],[140.645733,37.796003],[140.646037,37.795395],[140.646533,37.794878],[140.646724,37.794594],[140.646919,37.79396],[140.6474,37.793102],[140.647642,37.792768],[140.648154,37.792386],[140.648214,37.791277],[140.64833,37.790962],[140.649148,37.790525],[140.649624,37.790164],[140.650097,37.789884],[140.650922,37.789791],[140.651282,37.789652],[140.651409,37.789428],[140.651471,37.78911],[140.651436,37.7881],[140.65149,37.787768],[140.651626,37.787625],[140.651871,37.787475],[140.652952,37.786987],[140.652968,37.786482],[140.653238,37.786104],[140.653721,37.785681],[140.654549,37.785189],[140.656342,37.783792],[140.656216,37.78369],[140.655899,37.783611],[140.654736,37.783733],[140.654488,37.783707],[140.654275,37.783533],[140.653957,37.783073],[140.653744,37.782871],[140.653661,37.782703],[140.653661,37.782329],[140.653798,37.781725],[140.653892,37.781589],[140.654718,37.780931],[140.655095,37.780536],[140.655115,37.78039],[140.654969,37.780072],[140.654967,37.779926],[140.655158,37.779558],[140.655088,37.779159],[140.655312,37.778788],[140.655348,37.77864],[140.655302,37.778533],[140.654948,37.778437],[140.65491,37.778385],[140.654901,37.778043],[140.654638,37.777781],[140.654836,37.777436],[140.654831,37.777241],[140.654761,37.777126],[140.653739,37.776086],[140.653232,37.775256],[140.653228,37.774798],[140.65342,37.77357],[140.653521,37.773452],[140.654034,37.773115],[140.654168,37.772966],[140.654152,37.772854],[140.653929,37.772596],[140.653891,37.772483],[140.654064,37.772108],[140.654066,37.771853],[140.653888,37.771545],[140.653623,37.771302],[140.653553,37.770873],[140.653399,37.770533],[140.653035,37.770219],[140.65246,37.769872],[140.652368,37.769765],[140.652053,37.768846],[140.651942,37.76832],[140.651582,37.767118],[140.651375,37.765122],[140.651423,37.764912],[140.651686,37.764457],[140.651738,37.764147],[140.651944,37.7638],[140.651991,37.763628],[140.651861,37.763435],[140.651814,37.763255],[140.651602,37.762852],[140.651596,37.762088],[140.652064,37.762174],[140.652392,37.762121],[140.652714,37.761944],[140.653871,37.761058],[140.654376,37.760829],[140.658271,37.76084],[140.658702,37.760752],[140.660326,37.760213],[140.660839,37.760469],[140.661626,37.760505],[140.661948,37.760387],[140.662681,37.759861],[140.662778,37.759832],[140.662998,37.759827],[140.663435,37.759906],[140.663828,37.760313],[140.664945,37.760264],[140.66578,37.760539],[140.66678,37.760705],[140.667693,37.760683],[140.668341,37.760367],[140.668771,37.760218],[140.670199,37.760151],[140.670248,37.760074],[140.670216,37.759221],[140.67029,37.759044],[140.670401,37.758969],[140.670754,37.758924],[140.671008,37.758782],[140.671231,37.758739],[140.671623,37.75847],[140.672304,37.758291],[140.672713,37.758056],[140.672963,37.758006],[140.673324,37.75802],[140.674151,37.758168],[140.67429,37.758106],[140.674489,37.757799],[140.6747,37.757665],[140.675863,37.757656],[140.676107,37.757599],[140.67627,37.757456],[140.67638,37.757141],[140.676579,37.756926],[140.677121,37.756749],[140.677582,37.756714],[140.677846,37.75664],[140.677892,37.756579],[140.677874,37.756203],[140.679097,37.756779],[140.67946,37.756838],[140.679599,37.756831],[140.680542,37.756468],[140.681658,37.756495],[140.681988,37.756388],[140.682095,37.7563],[140.682249,37.755416],[140.682317,37.755301],[140.683541,37.755214],[140.683726,37.755074],[140.68387,37.75473],[140.684113,37.754605],[140.685274,37.754535],[140.685892,37.754412],[140.686073,37.754467],[140.686536,37.75482],[140.686782,37.754947],[140.687398,37.754999],[140.68783,37.754995],[140.688694,37.754677],[140.68906,37.754602],[140.689452,37.75461],[140.690434,37.754823],[140.690791,37.754945],[140.691525,37.755067],[140.695043,37.755248],[140.696088,37.755104],[140.697429,37.754745],[140.697601,37.754744],[140.697822,37.754825],[140.698372,37.755224],[140.698413,37.755862],[140.698805,37.756194],[140.698819,37.756625],[140.698708,37.757517],[140.698963,37.758176],[140.698705,37.758183],[140.697482,37.757774],[140.697232,37.757831],[140.697155,37.757911],[140.697116,37.758059],[140.697178,37.758182],[140.697305,37.758279],[140.697666,37.758383],[140.697751,37.758458],[140.697746,37.758546],[140.697516,37.759005],[140.697517,37.759086],[140.69758,37.759157],[140.698593,37.759638],[140.700039,37.760744],[140.701438,37.76113],[140.701834,37.761282],[140.702554,37.76225],[140.703409,37.762975],[140.704895,37.763878],[140.707193,37.765691],[140.707623,37.765925],[140.708949,37.766512],[140.710158,37.767334],[140.708986,37.767652],[140.7083,37.767764],[140.70722,37.768285],[140.706849,37.768529],[140.706601,37.768875],[140.70652,37.769247],[140.70655,37.769505],[140.706423,37.769552],[140.706233,37.769394],[140.706169,37.769412],[140.706158,37.76996],[140.705979,37.770219],[140.705476,37.770506],[140.704504,37.770881],[140.704134,37.771127],[140.704102,37.771242],[140.704136,37.771331],[140.704423,37.771647],[140.705001,37.772019],[140.706065,37.772831],[140.706046,37.772904],[140.705976,37.772943],[140.70561,37.772966],[140.705136,37.772766],[140.705049,37.772773],[140.70495,37.773332],[140.704797,37.773703],[140.70473,37.774251],[140.704489,37.774429],[140.704198,37.77445],[140.703697,37.774214],[140.702466,37.773252],[140.701926,37.772938],[140.7007,37.772071],[140.700639,37.772058],[140.700553,37.772114],[140.700527,37.772208],[140.70062,37.772443],[140.701887,37.774391],[140.701958,37.774672],[140.701733,37.775015],[140.701454,37.775275],[140.700449,37.776077],[140.699757,37.776849],[140.699686,37.777046],[140.699742,37.777133],[140.700104,37.777371],[140.700651,37.777677],[140.701189,37.777591],[140.70256,37.777596],[140.703721,37.777645],[140.703804,37.777684],[140.703423,37.778687],[140.703143,37.779264],[140.702258,37.780134],[140.7019,37.780062],[140.701544,37.779853],[140.701295,37.779653],[140.701025,37.779223],[140.700245,37.779536],[140.69937,37.779665],[140.699029,37.780281],[140.699369,37.780563],[140.69941,37.780879],[140.699084,37.781253],[140.698974,37.781263],[140.698728,37.781158],[140.698402,37.780877],[140.69782,37.781159],[140.697211,37.781374],[140.697026,37.781396],[140.696125,37.780651],[140.69544,37.78025],[140.694682,37.779905],[140.693578,37.779481],[140.692997,37.779402],[140.692638,37.779442],[140.692461,37.779606],[140.692262,37.78006],[140.691978,37.780258],[140.691906,37.780374],[140.691965,37.780809],[140.692233,37.781292],[140.692446,37.781437],[140.692736,37.781545],[140.694819,37.782166],[140.69583,37.782849],[140.695857,37.782929],[140.69569,37.783193],[140.695754,37.783391],[140.695725,37.78345],[140.695144,37.783621],[140.694494,37.783733],[140.692796,37.783696],[140.691209,37.783865],[140.690889,37.783857],[140.690606,37.783661],[140.690316,37.783224],[140.689588,37.782918],[140.689228,37.782489],[140.688871,37.782428],[140.688547,37.782518],[140.688355,37.782709],[140.688258,37.782742],[140.687058,37.782791],[140.686495,37.782952],[140.68577,37.78303],[140.685364,37.783156],[140.683995,37.782706],[140.683258,37.78263],[140.682268,37.782609],[140.681332,37.7829],[140.680928,37.783173],[140.679952,37.783691],[140.679415,37.784179],[140.679204,37.784467],[140.678987,37.784982],[140.678866,37.785494],[140.678903,37.785888],[140.678997,37.786184],[140.679212,37.786586],[140.679364,37.786724],[140.679837,37.786949],[140.680485,37.787152],[140.681315,37.78764],[140.682105,37.787507],[140.682832,37.787552],[140.6829,37.787645],[140.682905,37.787935],[140.682967,37.788025],[140.683224,37.78813],[140.683512,37.788094],[140.683649,37.787997],[140.683824,37.787737],[140.683974,37.787166],[140.684383,37.786683],[140.684806,37.78637],[140.6846,37.785563],[140.684634,37.785467],[140.685791,37.785654],[140.686556,37.785672],[140.686939,37.785812],[140.687233,37.785859],[140.68843,37.785878],[140.688714,37.785945],[140.689005,37.786084],[140.689262,37.78632],[140.689265,37.7867],[140.689039,37.786983],[140.68827,37.787723],[140.687879,37.788527],[140.687476,37.789126],[140.687357,37.789468],[140.68738,37.789616],[140.687551,37.789863],[140.688404,37.790272],[140.688706,37.790726],[140.688837,37.791389],[140.688794,37.791503],[140.688386,37.792014],[140.688242,37.792302],[140.68824,37.792449],[140.688313,37.792622],[140.688469,37.792755],[140.688684,37.792817],[140.689114,37.792819],[140.689552,37.792508],[140.689656,37.792481],[140.690509,37.792975],[140.690482,37.794199],[140.690579,37.794575],[140.690758,37.79489],[140.690798,37.795432],[140.690984,37.796091],[140.691114,37.796169],[140.692823,37.79599],[140.693355,37.795766],[140.693547,37.795738],[140.693798,37.795802],[140.69552,37.796563],[140.696028,37.796589],[140.696564,37.796883],[140.696958,37.797003],[140.69729,37.797193],[140.697573,37.797512],[140.697825,37.797658],[140.699731,37.798072],[140.70172,37.798417],[140.701069,37.798749],[140.700639,37.799094],[140.700464,37.799325],[140.70038,37.79958],[140.700417,37.79975],[140.700516,37.799897],[140.700772,37.800073],[140.701158,37.80024],[140.701123,37.80055],[140.701064,37.800607],[140.700881,37.800643],[140.700162,37.80061],[140.699985,37.80057],[140.699914,37.800494],[140.699626,37.799631],[140.699612,37.79875],[140.699449,37.798626],[140.698655,37.79837],[140.697678,37.798225],[140.696967,37.798318],[140.69656,37.798311],[140.695479,37.798164],[140.694535,37.798129],[140.693976,37.797968],[140.693868,37.798395],[140.693139,37.799967],[140.693151,37.80011],[140.693229,37.800363],[140.69389,37.801074],[140.694305,37.801985],[140.694413,37.802514],[140.69437,37.803657],[140.694581,37.803853],[140.695104,37.804118],[140.695254,37.804334],[140.695308,37.804516],[140.69528,37.804663],[140.694736,37.805069],[140.694369,37.805437],[140.694129,37.805944],[140.693811,37.806352],[140.69325,37.806667],[140.692399,37.807043],[140.692032,37.807358],[140.691894,37.807544],[140.691972,37.807897],[140.691948,37.808236],[140.691503,37.808946],[140.691365,37.809366],[140.691413,37.809786],[140.691635,37.810168],[140.6916,37.810421],[140.689945,37.810419],[140.689256,37.810093],[140.687557,37.808911],[140.687397,37.808645],[140.687281,37.808539],[140.686926,37.80841],[140.686557,37.808339],[140.685956,37.807891],[140.685257,37.807566],[140.685011,37.807178],[140.684581,37.807269],[140.68433,37.807264],[140.682857,37.806879],[140.681406,37.806742],[140.680283,37.807104],[140.679137,37.807205],[140.678554,37.807479],[140.678047,37.807481],[140.677541,37.807421],[140.677212,37.807697],[140.676856,37.807906],[140.676422,37.807934],[140.675994,37.807881],[140.675267,37.808274],[140.674763,37.8083],[140.674261,37.808568],[140.673068,37.808602],[140.672852,37.808544],[140.672411,37.808303],[140.671766,37.808231],[140.671256,37.808454],[140.670098,37.80859],[140.668947,37.808882],[140.668768,37.80897],[140.668508,37.809197],[140.667901,37.809836],[140.667605,37.809962],[140.666921,37.810139],[140.666476,37.810764],[140.666192,37.810957],[140.665655,37.811051],[140.664793,37.811086],[140.664249,37.811223],[140.66294,37.811634],[140.661137,37.812407]]]]}}]}
