{"type":"FeatureCollection","features":[{"type":"Feature","properties":{"potaRef":"JP-1761","nameJa":"Fukiagehamakinpozan","nameEn":"Fukiagehama Kinpozan Prefectural Nature Park","authority":"環境省 生物多様性「見える化」マップ","boundaryStatus":"全国GIS候補・公開前検証待ち","boundarySource":"環境省 生物多様性「見える化」マップの自然公園区域を、POTA代表座標で一意に空間照合して加工","boundaryScaleNote":"区域は概要データであり、正確性は保証されない。POTA運用可否は公式情報で最終確認すること。","candidateMethod":"POTA representative point inside one public natural-park area","sourceParkKind":"都道府県立自然公園","sourceName":"Fukiagehamakinpozan","sourceFeatureCount":1,"cautionMeters":75},"geometry":{"type":"MultiPolygon","coordinates":[[[[130.321519,31.650199],[130.320936,31.651251],[130.320547,31.651133],[130.320781,31.650632],[130.320896,31.649966],[130.3212,31.649613],[130.321152,31.649355],[130.320983,31.649224],[130.320879,31.649262],[130.320795,31.649233],[130.320786,31.649147],[130.320862,31.649068],[130.320006,31.648457],[130.319871,31.648393],[130.319779,31.648464],[130.319683,31.648431],[130.319653,31.648378],[130.319703,31.648299],[130.31941,31.648077],[130.319242,31.647861],[130.319116,31.647969],[130.319023,31.647904],[130.31925,31.647452],[130.319323,31.647443],[130.319381,31.647494],[130.319354,31.647569],[130.319457,31.647623],[130.319567,31.647834],[130.319777,31.648023],[130.320478,31.647726],[130.320823,31.647382],[130.321383,31.646379],[130.321563,31.645908],[130.321601,31.645602],[130.321549,31.645228],[130.321446,31.644911],[130.321006,31.644896],[130.320631,31.645002],[130.320521,31.644984],[130.320459,31.645052],[130.32038,31.645037],[130.320356,31.64497],[130.320439,31.64492],[130.320569,31.644555],[130.320686,31.644584],[130.320679,31.644714],[130.320958,31.644658],[130.321367,31.644667],[130.321398,31.644567],[130.321484,31.644546],[130.321546,31.644573],[130.321601,31.644699],[130.321687,31.644717],[130.322815,31.644758],[130.32287,31.644618],[130.322975,31.644618],[130.323019,31.644698],[130.323074,31.644651],[130.323228,31.644324],[130.32361,31.644208],[130.324019,31.643929],[130.324548,31.642873],[130.324576,31.64251],[130.324807,31.641502],[130.325321,31.640426],[130.325604,31.639631],[130.325835,31.639197],[130.326534,31.637167],[130.32681,31.636581],[130.327113,31.635606],[130.327581,31.63441],[130.327778,31.633255],[130.328536,31.631349],[130.328714,31.630566],[130.328918,31.629991],[130.329168,31.629026],[130.330671,31.621771],[130.330717,31.621506],[130.330703,31.620699],[130.330907,31.620463],[130.33125,31.618405],[130.33152,31.617368],[130.331731,31.616832],[130.3321,31.615299],[130.332245,31.613957],[130.332542,31.612401],[130.332601,31.611347],[130.332858,31.610089],[130.332937,31.60925],[130.333082,31.608477],[130.333365,31.607575],[130.333558,31.605424],[130.334175,31.600894],[130.334189,31.600274],[130.33432,31.599474],[130.334373,31.597698],[130.334584,31.595894],[130.334604,31.594124],[130.334828,31.590104],[130.334802,31.588649],[130.334729,31.588051],[130.334744,31.586817],[130.334636,31.585926],[130.334636,31.585114],[130.334834,31.583423],[130.334889,31.580989],[130.334835,31.580335],[130.334855,31.57958],[130.334999,31.579048],[130.334992,31.578811],[130.33488,31.578687],[130.334735,31.577746],[130.334341,31.573061],[130.334097,31.57142],[130.334091,31.570608],[130.333795,31.565579],[130.333782,31.563758],[130.333729,31.563014],[130.333696,31.562789],[130.333387,31.56183],[130.333262,31.561137],[130.332775,31.557213],[130.332591,31.556159],[130.332571,31.555414],[130.332315,31.5529],[130.332032,31.551057],[130.331604,31.549072],[130.331394,31.547381],[130.331282,31.546992],[130.331053,31.54651],[130.330967,31.546146],[130.330898,31.545495],[130.330885,31.544773],[130.330787,31.544514],[130.33046,31.543936],[130.330321,31.542482],[130.330321,31.541658],[130.330144,31.540666],[130.330006,31.540085],[130.329348,31.538129],[130.328901,31.535761],[130.328433,31.53385],[130.327861,31.532097],[130.327611,31.531505],[130.327506,31.530372],[130.327229,31.529362],[130.326473,31.525687],[130.325847,31.523635],[130.325367,31.52169],[130.324532,31.519158],[130.323433,31.51559],[130.323097,31.514716],[130.322308,31.512224],[130.321604,31.510532],[130.320821,31.508475],[130.320373,31.50715],[130.320242,31.506592],[130.319608,31.504856],[130.318708,31.503287],[130.318511,31.502647],[130.317723,31.500706],[130.31741,31.500157],[130.316826,31.498871],[130.316262,31.497839],[130.315718,31.496494],[130.315452,31.495652],[130.315081,31.494817],[130.314264,31.493122],[130.313847,31.49247],[130.313545,31.491822],[130.313137,31.491158],[130.312298,31.488802],[130.311877,31.488193],[130.311162,31.486353],[130.310915,31.486002],[130.310664,31.485369],[130.310366,31.484896],[130.30975,31.483239],[130.309091,31.481867],[130.307923,31.479909],[130.307749,31.479371],[130.307502,31.478994],[130.307251,31.478357],[130.306967,31.477965],[130.306848,31.477641],[130.306264,31.476586],[130.306057,31.476241],[130.30565,31.475728],[130.305448,31.475294],[130.304977,31.47459],[130.302593,31.470419],[130.301286,31.468331],[130.300345,31.467023],[130.298808,31.464358],[130.297921,31.463074],[130.29724,31.461792],[130.297023,31.461263],[130.296585,31.460681],[130.296079,31.460204],[130.295549,31.459376],[130.295048,31.458405],[130.294566,31.457603],[130.293809,31.456547],[130.29362,31.456009],[130.29342,31.455752],[130.293034,31.454966],[130.292064,31.453486],[130.291566,31.453145],[130.291365,31.452927],[130.284449,31.443498],[130.28418,31.443071],[130.283819,31.442282],[130.282759,31.441063],[130.281454,31.43942],[130.277157,31.434952],[130.275512,31.432922],[130.274797,31.431952],[130.273227,31.429598],[130.272402,31.428157],[130.272271,31.427785],[130.272243,31.427543],[130.272361,31.427081],[130.272686,31.426567],[130.273548,31.425641],[130.273864,31.425211],[130.274113,31.425081],[130.274711,31.425125],[130.275022,31.425897],[130.275113,31.42599],[130.275286,31.425997],[130.276246,31.424735],[130.276402,31.424611],[130.276864,31.424427],[130.277448,31.424854],[130.27781,31.425025],[130.279195,31.425323],[130.281764,31.426128],[130.28992,31.428388],[130.290732,31.428801],[130.291099,31.429096],[130.291212,31.428805],[130.291747,31.429025],[130.293083,31.429356],[130.293634,31.429412],[130.294312,31.429356],[130.294911,31.429412],[130.295033,31.428835],[130.294998,31.428035],[130.295106,31.427867],[130.295627,31.428336],[130.296179,31.428638],[130.297036,31.428828],[130.297391,31.42852],[130.297737,31.428549],[130.298795,31.428869],[130.300505,31.42966],[130.30045,31.430067],[130.300505,31.430277],[130.301435,31.4319],[130.301794,31.432918],[130.301903,31.433297],[130.301934,31.433629],[130.301934,31.434012],[130.3017,31.435081],[130.301218,31.435996],[130.300292,31.437333],[130.299962,31.438029],[130.299931,31.438508],[130.300238,31.438548],[130.300331,31.438687],[130.301064,31.440354],[130.301384,31.440582],[130.302128,31.44088],[130.302943,31.441341],[130.303589,31.441746],[130.305437,31.443067],[130.305551,31.443174],[130.306201,31.444203],[130.306749,31.44478],[130.307509,31.445385],[130.307987,31.445702],[130.309187,31.44633],[130.309905,31.44653],[130.310236,31.446572],[130.31092,31.446539],[130.311332,31.446442],[130.311881,31.446288],[130.312304,31.446111],[130.313069,31.44566],[130.313515,31.445302],[130.314879,31.446558],[130.31429,31.447055],[130.313962,31.44748],[130.313028,31.448163],[130.312899,31.448236],[130.312441,31.448324],[130.312201,31.448438],[130.310901,31.448343],[130.31037,31.448255],[130.31019,31.448298],[130.310059,31.448179],[130.309445,31.448035],[130.308887,31.447842],[130.309386,31.448257],[130.309636,31.448616],[130.310119,31.448937],[130.311498,31.449751],[130.314603,31.451347],[130.31564,31.451751],[130.319145,31.452619],[130.319215,31.452693],[130.319334,31.453021],[130.319457,31.453818],[130.319613,31.454261],[130.319609,31.454417],[130.319413,31.45489],[130.319426,31.455474],[130.319589,31.455895],[130.319815,31.456242],[130.320175,31.456733],[130.320805,31.456357],[130.321419,31.456766],[130.321701,31.456896],[130.322239,31.457013],[130.322206,31.457641],[130.322022,31.458479],[130.322032,31.458935],[130.322315,31.460155],[130.322375,31.461146],[130.322527,31.461607],[130.322893,31.462282],[130.322936,31.462663],[130.322828,31.46338],[130.322772,31.464334],[130.322643,31.464907],[130.322188,31.466122],[130.321546,31.468309],[130.321557,31.468635],[130.321622,31.468877],[130.321986,31.469338],[130.323256,31.470488],[130.323581,31.471084],[130.323684,31.471479],[130.323786,31.473555],[130.323974,31.474239],[130.324311,31.474868],[130.324501,31.475096],[130.324854,31.475389],[130.325774,31.474733],[130.326409,31.475287],[130.326598,31.475538],[130.326799,31.476329],[130.32793,31.477307],[130.328039,31.477545],[130.328161,31.478127],[130.32839,31.478316],[130.329155,31.478696],[130.330315,31.479429],[130.331289,31.480588],[130.331576,31.481012],[130.331716,31.481325],[130.331711,31.48182],[130.331407,31.48446],[130.331284,31.484818],[130.330808,31.485726],[130.330696,31.486058],[130.33065,31.486683],[130.331035,31.488348],[130.331967,31.49297],[130.3329,31.497931],[130.333319,31.49882],[130.335465,31.502786],[130.336015,31.503666],[130.336266,31.503977],[130.336266,31.504104],[130.335808,31.504371],[130.335722,31.504466],[130.335606,31.50483],[130.335799,31.504845],[130.336014,31.504933],[130.336293,31.505091],[130.336387,31.505194],[130.336198,31.505415],[130.335905,31.505999],[130.335261,31.506241],[130.335183,31.506315],[130.335175,31.506403],[130.335334,31.507318],[130.335681,31.50762],[130.336218,31.508197],[130.336754,31.508363],[130.336788,31.508444],[130.336676,31.508974],[130.336651,31.50965],[130.336702,31.509896],[130.336566,31.509994],[130.336511,31.510108],[130.336558,31.510189],[130.336549,31.510402],[130.336631,31.510535],[130.336575,31.510605],[130.336086,31.510583],[130.336073,31.510847],[130.336154,31.510921],[130.336116,31.511292],[130.335811,31.511454],[130.335623,31.511454],[130.335743,31.511728],[130.33579,31.512007],[130.335763,31.512463],[130.335812,31.512696],[130.336068,31.512966],[130.336241,31.513324],[130.33647,31.513524],[130.336785,31.51365],[130.337651,31.513859],[130.33781,31.513751],[130.338241,31.512172],[130.338718,31.512021],[130.339258,31.511985],[130.339528,31.511674],[130.339798,31.511514],[130.340152,31.511523],[130.340339,31.511389],[130.340681,31.511345],[130.341024,31.511442],[130.341273,31.511709],[130.341876,31.511434],[130.342104,31.511416],[130.342301,31.511434],[130.342779,31.511727],[130.343049,31.511683],[130.34387,31.511825],[130.344015,31.511905],[130.344212,31.511825],[130.344503,31.511843],[130.34589,31.512428],[130.346337,31.51266],[130.34641,31.512766],[130.34643,31.512918],[130.346669,31.513042],[130.34669,31.513167],[130.347438,31.513478],[130.347417,31.513941],[130.347594,31.514065],[130.347594,31.514573],[130.347521,31.514777],[130.347645,31.515276],[130.347552,31.516041],[130.347462,31.516206],[130.346929,31.516414],[130.346908,31.516486],[130.347012,31.516806],[130.3467,31.517002],[130.345299,31.517078],[130.344909,31.517007],[130.344809,31.517049],[130.344784,31.517142],[130.344726,31.517163],[130.344546,31.517074],[130.344003,31.517071],[130.343725,31.517003],[130.343642,31.516834],[130.34305,31.51662],[130.342593,31.516362],[130.342063,31.515633],[130.341617,31.515633],[130.341347,31.515562],[130.340846,31.515327],[130.340672,31.515312],[130.340821,31.515597],[130.341136,31.515761],[130.341211,31.515932],[130.341485,31.516224],[130.341535,31.51638],[130.341721,31.517724],[130.341378,31.517759],[130.341326,31.517893],[130.341451,31.51848],[130.341596,31.518863],[130.341627,31.519156],[130.34197,31.519121],[130.342614,31.519601],[130.343705,31.519387],[130.344006,31.51937],[130.344286,31.519423],[130.34465,31.519316],[130.34519,31.519325],[130.347101,31.518898],[130.347329,31.518969],[130.347984,31.51904],[130.348472,31.518818],[130.348844,31.518796],[130.348958,31.518896],[130.34901,31.519047],[130.34899,31.519225],[130.347473,31.519759],[130.34734,31.520116],[130.347205,31.520303],[130.346862,31.520516],[130.346582,31.520561],[130.346312,31.520543],[130.345408,31.520819],[130.345013,31.520988],[130.344307,31.521175],[130.34412,31.521121],[130.343808,31.521228],[130.343403,31.521246],[130.343362,31.521388],[130.342925,31.521655],[130.342822,31.522874],[130.342614,31.522901],[130.341045,31.522758],[130.340879,31.522634],[130.340765,31.522047],[130.340434,31.521702],[130.339854,31.521935],[130.339494,31.521224],[130.338903,31.521314],[130.338059,31.521597],[130.337337,31.521723],[130.337516,31.522103],[130.337572,31.522632],[130.337307,31.523469],[130.336966,31.523514],[130.336934,31.525023],[130.337071,31.525184],[130.337511,31.525076],[130.337741,31.524933],[130.337808,31.525412],[130.337227,31.526248],[130.335218,31.528735],[130.335001,31.529109],[130.334861,31.529517],[130.334774,31.530247],[130.335125,31.53266],[130.335129,31.533184],[130.334598,31.535478],[130.33408,31.538038],[130.334073,31.538515],[130.334229,31.539079],[130.335377,31.541988],[130.335672,31.542977],[130.336197,31.545793],[130.336224,31.546602],[130.336089,31.548249],[130.336157,31.548557],[130.336402,31.549185],[130.336572,31.549441],[130.33797,31.550861],[130.338159,31.551309],[130.338337,31.552125],[130.338369,31.552478],[130.337918,31.553782],[130.33744,31.555383],[130.337402,31.556597],[130.337517,31.557473],[130.337762,31.55819],[130.337908,31.558427],[130.338186,31.558715],[130.339625,31.559819],[130.340935,31.560684],[130.341353,31.561052],[130.341422,31.561159],[130.341989,31.56365],[130.342244,31.564417],[130.342364,31.564981],[130.342391,31.565292],[130.342347,31.565772],[130.341247,31.569756],[130.341095,31.57018],[130.340874,31.570287],[130.34063,31.570487],[130.340396,31.570738],[130.340255,31.57098],[130.339814,31.572861],[130.339716,31.57354],[130.339686,31.574672],[130.339599,31.574676],[130.339576,31.577976],[130.339635,31.57819],[130.339788,31.578455],[130.339797,31.578654],[130.339732,31.578788],[130.339211,31.579372],[130.338992,31.579406],[130.338884,31.579503],[130.338405,31.579977],[130.338163,31.580341],[130.337965,31.581357],[130.338018,31.581543],[130.338235,31.581882],[130.337602,31.582696],[130.337384,31.583045],[130.336996,31.584725],[130.337045,31.584986],[130.337225,31.585162],[130.337926,31.585228],[130.338219,31.585335],[130.338567,31.586401],[130.338931,31.586838],[130.338986,31.586973],[130.339265,31.588249],[130.339779,31.58823],[130.340519,31.588328],[130.340777,31.58851],[130.339149,31.590222],[130.338952,31.590517],[130.338041,31.592536],[130.3379,31.593055],[130.337409,31.594107],[130.337409,31.595468],[130.337466,31.596618],[130.337536,31.596885],[130.337578,31.598554],[130.337536,31.598778],[130.336582,31.600644],[130.336231,31.601485],[130.336231,31.602425],[130.336147,31.602594],[130.336091,31.605609],[130.336217,31.606212],[130.336385,31.606522],[130.336401,31.6068],[130.336761,31.608148],[130.336787,31.608454],[130.336704,31.608711],[130.336083,31.610018],[130.335762,31.612587],[130.335325,31.614631],[130.335194,31.614899],[130.334781,31.61545],[130.334653,31.615789],[130.334635,31.616076],[130.334685,31.616362],[130.335249,31.617677],[130.335337,31.61803],[130.335349,31.618645],[130.33528,31.618995],[130.335004,31.619598],[130.334331,31.620477],[130.333766,31.621572],[130.332819,31.623236],[130.332715,31.623512],[130.332763,31.624074],[130.333064,31.625817],[130.333059,31.626423],[130.332955,31.626558],[130.331081,31.627567],[130.330611,31.627894],[130.330172,31.628382],[130.329648,31.629164],[130.327947,31.63406],[130.327424,31.63609],[130.327097,31.636911],[130.326338,31.638377],[130.325983,31.639808],[130.32493,31.64263],[130.324393,31.643962],[130.323484,31.645935],[130.322675,31.647878],[130.322042,31.649216],[130.321519,31.650199]]],[[[130.372373,31.482251],[130.372079,31.482579],[130.371999,31.48277],[130.372016,31.483541],[130.371927,31.483816],[130.371767,31.4839],[130.3715,31.483755],[130.37076,31.48348],[130.370528,31.483335],[130.370502,31.483144],[130.371116,31.482156],[130.371036,31.481896],[130.37092,31.481873],[130.370287,31.481988],[130.369992,31.481988],[130.369432,31.481705],[130.368755,31.481644],[130.368443,31.481553],[130.368256,31.481377],[130.368211,31.481224],[130.368229,31.481033],[130.368158,31.480911],[130.368051,31.480842],[130.366999,31.481224],[130.366794,31.481224],[130.366625,31.48101],[130.366616,31.480911],[130.366794,31.480644],[130.367169,31.480232],[130.367169,31.479934],[130.367115,31.479796],[130.366928,31.479712],[130.366746,31.479734],[130.366481,31.479603],[130.366398,31.479054],[130.36591,31.479173],[130.365757,31.478875],[130.365688,31.478612],[130.364978,31.477777],[130.364685,31.477777],[130.364518,31.477658],[130.364212,31.477777],[130.363878,31.477741],[130.363822,31.477515],[130.36346,31.477491],[130.36353,31.477169],[130.363767,31.477109],[130.363599,31.476751],[130.363251,31.476799],[130.363335,31.476632],[130.363154,31.476536],[130.363126,31.476405],[130.362736,31.476333],[130.362569,31.476226],[130.362333,31.476286],[130.362235,31.475832],[130.361971,31.475582],[130.361929,31.475403],[130.362012,31.475295],[130.361887,31.475033],[130.361971,31.474818],[130.362082,31.474687],[130.362402,31.474556],[130.362625,31.474186],[130.362597,31.47409],[130.3625,31.47409],[130.362388,31.473888],[130.362263,31.473852],[130.362319,31.473756],[130.362291,31.473577],[130.362138,31.47347],[130.361762,31.473697],[130.36165,31.473661],[130.36165,31.473351],[130.361414,31.473148],[130.361316,31.472838],[130.361107,31.473148],[130.360954,31.473279],[130.360759,31.473303],[130.360676,31.473219],[130.360648,31.472754],[130.360518,31.472525],[130.360574,31.472287],[130.360546,31.472],[130.360643,31.471845],[130.360643,31.471571],[130.360936,31.471296],[130.361075,31.470986],[130.3612,31.470891],[130.361882,31.471165],[130.362105,31.471404],[130.3623,31.471487],[130.362481,31.471487],[130.362843,31.471368],[130.362954,31.471284],[130.363038,31.471296],[130.363107,31.471487],[130.363219,31.471571],[130.363261,31.471535],[130.363247,31.471189],[130.36333,31.47101],[130.363442,31.470867],[130.36372,31.470783],[130.364026,31.470926],[130.36514,31.471797],[130.365641,31.471774],[130.365822,31.471666],[130.365864,31.471499],[130.365808,31.471392],[130.365808,31.471237],[130.365571,31.470962],[130.365432,31.470533],[130.364931,31.469853],[130.364472,31.469471],[130.364458,31.469208],[130.364653,31.469256],[130.364861,31.469423],[130.365474,31.469507],[130.365655,31.469721],[130.365794,31.469757],[130.366379,31.469626],[130.366462,31.469256],[130.366629,31.469065],[130.366755,31.468743],[130.366894,31.468743],[130.367242,31.468898],[130.367437,31.468922],[130.36775,31.468568],[130.367622,31.468403],[130.367323,31.468287],[130.367262,31.468123],[130.367351,31.467792],[130.367262,31.467726],[130.366677,31.467586],[130.366528,31.467488],[130.366456,31.466926],[130.366496,31.466851],[130.366603,31.466839],[130.367034,31.466914],[130.367212,31.466889],[130.367483,31.466798],[130.36781,31.466755],[130.367953,31.466663],[130.367967,31.466541],[130.36738,31.465897],[130.367345,31.465647],[130.367416,31.465543],[130.367523,31.4655],[130.367822,31.465476],[130.368535,31.465543],[130.368827,31.465433],[130.368863,31.465311],[130.368866,31.465116],[130.368801,31.465018],[130.368281,31.464731],[130.36806,31.46442],[130.367583,31.464426],[130.366998,31.464346],[130.366827,31.464249],[130.366314,31.464285],[130.36558,31.463949],[130.365388,31.463986],[130.36481,31.464358],[130.364668,31.464297],[130.364661,31.463833],[130.364454,31.46379],[130.364411,31.463729],[130.36491,31.46321],[130.364967,31.463088],[130.364939,31.462721],[130.364853,31.462666],[130.363805,31.462715],[130.363584,31.462648],[130.363659,31.462236],[130.363739,31.462106],[130.363419,31.460586],[130.363338,31.460418],[130.363428,31.460327],[130.363294,31.459907],[130.363704,31.459937],[130.364229,31.459754],[130.364505,31.459746],[130.364915,31.459907],[130.365396,31.459907],[130.36569,31.459845],[130.365913,31.459907],[130.366421,31.460189],[130.36651,31.460288],[130.367107,31.460273],[130.367294,31.460327],[130.367392,31.460464],[130.367721,31.460617],[130.367944,31.460655],[130.368443,31.460563],[130.368692,31.460617],[130.368879,31.460449],[130.36871,31.459998],[130.368283,31.459341],[130.368247,31.459181],[130.368354,31.459128],[130.368888,31.459151],[130.369227,31.459341],[130.369521,31.459586],[130.379521,31.459661],[130.379566,31.459577],[130.37953,31.459493],[130.379316,31.459356],[130.379263,31.459241],[130.379343,31.458982],[130.37929,31.458852],[130.378907,31.458203],[130.378889,31.458012],[130.37896,31.457859],[130.378951,31.457714],[130.378342,31.457085],[130.378298,31.456955],[130.378307,31.456504],[130.378191,31.456291],[130.37779,31.456031],[130.377933,31.455863],[130.378396,31.455558],[130.379046,31.455252],[130.379456,31.45526],[130.379679,31.45516],[130.379785,31.455183],[130.379946,31.455649],[130.380168,31.45597],[130.38048,31.45626],[130.380899,31.456489],[130.381264,31.45655],[130.381772,31.456291],[130.381656,31.456153],[130.381647,31.45597],[130.381745,31.455733],[130.381683,31.45539],[130.381558,31.455054],[130.381549,31.454847],[130.38187,31.454771],[130.382048,31.454771],[130.38228,31.455008],[130.382761,31.455153],[130.382957,31.45542],[130.383161,31.455474],[130.383286,31.455573],[130.383393,31.455756],[130.383919,31.456062],[130.384097,31.456046],[130.384382,31.455886],[130.384498,31.455886],[130.384605,31.455916],[130.384907,31.456168],[130.385095,31.456237],[130.385335,31.456222],[130.385424,31.456146],[130.385478,31.456031],[130.385514,31.455611],[130.385576,31.455542],[130.38587,31.455519],[130.386084,31.455611],[130.386262,31.455626],[130.386583,31.455603],[130.386832,31.45545],[130.387117,31.45516],[130.387652,31.455191],[130.387981,31.455298],[130.388311,31.455321],[130.388605,31.455183],[130.389496,31.455015],[130.389905,31.455145],[130.390262,31.455374],[130.390395,31.455519],[130.390529,31.455794],[130.390654,31.455909],[130.390992,31.456077],[130.391357,31.456535],[130.391411,31.456878],[130.391357,31.4571],[130.391384,31.45726],[130.391464,31.457359],[130.392159,31.45765],[130.392658,31.457711],[130.393183,31.457986],[130.393468,31.458245],[130.393468,31.458482],[130.393343,31.458688],[130.393396,31.458948],[130.39361,31.459207],[130.393735,31.459276],[130.394073,31.459314],[130.393708,31.460009],[130.393423,31.460215],[130.393245,31.460429],[130.393245,31.460544],[130.393129,31.460658],[130.392915,31.460651],[130.392799,31.460719],[130.392897,31.461155],[130.393004,31.461345],[130.393984,31.460803],[130.394269,31.46088],[130.394385,31.460796],[130.394635,31.460803],[130.394813,31.461109],[130.395044,31.461162],[130.395044,31.461208],[130.394911,31.461261],[130.394911,31.461353],[130.395053,31.461597],[130.395009,31.461918],[130.395187,31.462025],[130.395107,31.462422],[130.394946,31.462521],[130.394599,31.462567],[130.394332,31.462659],[130.394296,31.462766],[130.394136,31.462842],[130.393987,31.463075],[130.393827,31.463189],[130.393854,31.463395],[130.393925,31.463464],[130.394255,31.463571],[130.394468,31.463915],[130.394575,31.463937],[130.39478,31.463846],[130.395341,31.463899],[130.395582,31.464037],[130.39568,31.46422],[130.395644,31.464319],[130.395831,31.464403],[130.39584,31.46451],[130.39568,31.464739],[130.395814,31.465098],[130.395787,31.46519],[130.395395,31.465236],[130.395341,31.465419],[130.395475,31.465556],[130.395422,31.465877],[130.395173,31.466161],[130.395102,31.46639],[130.394951,31.466459],[130.395129,31.466596],[130.395049,31.467039],[130.395093,31.467184],[130.395067,31.467299],[130.394755,31.46726],[130.394737,31.467383],[130.395022,31.467543],[130.394977,31.467566],[130.394559,31.467398],[130.394363,31.467528],[130.394318,31.467665],[130.394372,31.467726],[130.394648,31.46778],[130.394986,31.468016],[130.395165,31.468215],[130.395539,31.468291],[130.395423,31.468643],[130.39545,31.468917],[130.395031,31.468925],[130.394661,31.469141],[130.394527,31.46924],[130.394483,31.469363],[130.394545,31.469523],[130.394171,31.469515],[130.3941,31.469599],[130.393672,31.469645],[130.393369,31.470103],[130.39336,31.470203],[130.393458,31.470264],[130.394278,31.470371],[130.394456,31.470561],[130.395249,31.471065],[130.395383,31.471272],[130.395677,31.471562],[130.39589,31.471707],[130.396354,31.471783],[130.39638,31.471936],[130.396336,31.47202],[130.396149,31.472089],[130.395828,31.473394],[130.395712,31.473517],[130.395614,31.473547],[130.395454,31.473501],[130.395427,31.47341],[130.395347,31.473387],[130.394358,31.473326],[130.394278,31.473448],[130.394242,31.473776],[130.394002,31.473738],[130.393895,31.474036],[130.393583,31.474326],[130.393378,31.474326],[130.392763,31.474021],[130.39263,31.473692],[130.392585,31.473715],[130.392594,31.473998],[130.39222,31.473937],[130.392015,31.474013],[130.391846,31.473845],[130.391712,31.473898],[130.391676,31.473998],[130.391338,31.47399],[130.391161,31.473838],[130.391054,31.473831],[130.390769,31.473968],[130.39052,31.473815],[130.390288,31.47377],[130.389959,31.473533],[130.389664,31.473456],[130.389602,31.473563],[130.38962,31.473647],[130.390012,31.473861],[130.39027,31.47409],[130.390457,31.474419],[130.390484,31.475358],[130.390716,31.476137],[130.39044,31.476259],[130.390226,31.476427],[130.389727,31.477091],[130.388139,31.478344],[130.387987,31.478367],[130.387782,31.478314],[130.386945,31.477901],[130.386651,31.477939],[130.386357,31.47813],[130.386214,31.478344],[130.386179,31.479001],[130.386116,31.47923],[130.385983,31.479306],[130.385305,31.479131],[130.385216,31.478787],[130.385065,31.478627],[130.385216,31.478298],[130.385252,31.478023],[130.385074,31.477611],[130.384673,31.477611],[130.384379,31.477794],[130.384245,31.477771],[130.383898,31.477489],[130.383719,31.477451],[130.383425,31.477687],[130.383212,31.477703],[130.38306,31.477626],[130.382944,31.477626],[130.382891,31.477665],[130.3829,31.47784],[130.383033,31.477985],[130.383114,31.478169],[130.383194,31.478749],[130.383194,31.47897],[130.383098,31.479367],[130.382786,31.479917],[130.382572,31.480116],[130.38251,31.480238],[130.382554,31.480711],[130.382483,31.480826],[130.382376,31.480864],[130.381779,31.480841],[130.381663,31.480917],[130.381583,31.481055],[130.381645,31.481589],[130.381529,31.481857],[130.381396,31.481925],[130.380588,31.48209],[130.379546,31.481846],[130.37869,31.482319],[130.377906,31.482526],[130.376935,31.482701],[130.376739,31.482625],[130.376516,31.482617],[130.376374,31.482526],[130.37616,31.482197],[130.376062,31.482174],[130.375821,31.482304],[130.375474,31.48235],[130.375313,31.482304],[130.375019,31.482083],[130.374752,31.482006],[130.374075,31.482258],[130.373647,31.481754],[130.373558,31.481563],[130.373496,31.481502],[130.373398,31.481495],[130.373184,31.481548],[130.372373,31.482251]]],[[[130.285249,31.694335],[130.284858,31.694418],[130.284257,31.694285],[130.284262,31.69416],[130.284333,31.694024],[130.284995,31.693082],[130.284723,31.692941],[130.285057,31.692539],[130.285797,31.692145],[130.286145,31.691901],[130.286762,31.69125],[130.288347,31.689157],[130.288601,31.68866],[130.29015,31.68607],[130.290654,31.685484],[130.291163,31.685073],[130.291693,31.684365],[130.2934,31.681471],[130.294952,31.678603],[130.295954,31.676576],[130.29688,31.674528],[130.298227,31.671958],[130.299189,31.669882],[130.29942,31.66912],[130.299474,31.668793],[130.299532,31.668031],[130.299455,31.667594],[130.299367,31.667489],[130.299168,31.66748],[130.298839,31.667373],[130.298277,31.667037],[130.298243,31.666835],[130.298356,31.666583],[130.298097,31.666465],[130.297897,31.666004],[130.29787,31.665746],[130.297611,31.665358],[130.297534,31.664889],[130.297473,31.664797],[130.29757,31.664652],[130.297492,31.66445],[130.297474,31.664223],[130.297649,31.664102],[130.297647,31.663922],[130.297698,31.663797],[130.297645,31.663727],[130.297702,31.663738],[130.297624,31.66368],[130.297598,31.663512],[130.297521,31.6634],[130.297565,31.663366],[130.297547,31.663305],[130.297599,31.663336],[130.297552,31.663161],[130.297639,31.663142],[130.297598,31.663101],[130.297661,31.663096],[130.297652,31.663049],[130.297923,31.663233],[130.297967,31.663115],[130.298131,31.663123],[130.298199,31.663081],[130.298254,31.663113],[130.298346,31.663045],[130.29864,31.662635],[130.298602,31.662557],[130.298662,31.662495],[130.298628,31.662452],[130.298666,31.662397],[130.298488,31.662346],[130.298288,31.662058],[130.298373,31.662013],[130.298739,31.662234],[130.298865,31.662049],[130.298735,31.66188],[130.298667,31.661891],[130.298295,31.661643],[130.298406,31.661653],[130.298482,31.661724],[130.298385,31.661625],[130.298489,31.66165],[130.298493,31.661615],[130.298598,31.661726],[130.298546,31.661443],[130.298702,31.661559],[130.298743,31.661546],[130.298713,31.661512],[130.298779,31.661554],[130.298638,31.661275],[130.298708,31.661351],[130.2988,31.661361],[130.29878,31.661276],[130.298818,31.661262],[130.298921,31.661474],[130.299052,31.661512],[130.298883,31.66124],[130.298755,31.661222],[130.298695,31.661097],[130.298821,31.661074],[130.299018,31.661117],[130.29931,31.661354],[130.299503,31.661611],[130.299547,31.661615],[130.29955,31.661674],[130.299623,31.661705],[130.299623,31.66163],[130.299667,31.661625],[130.299742,31.66181],[130.299744,31.661768],[130.299844,31.661723],[130.299816,31.661797],[130.299861,31.661846],[130.300039,31.66187],[130.300235,31.66197],[130.300364,31.661891],[130.300345,31.661835],[130.300599,31.66205],[130.300472,31.66192],[130.300606,31.661939],[130.300494,31.661861],[130.300536,31.661791],[130.301041,31.662423],[130.301502,31.662424],[130.301622,31.662401],[130.301658,31.66231],[130.301706,31.662359],[130.301894,31.662318],[130.301999,31.662352],[130.302027,31.662309],[130.302392,31.662519],[130.302444,31.66246],[130.302945,31.662795],[130.303481,31.662726],[130.303549,31.662625],[130.303548,31.662413],[130.30364,31.662354],[130.303677,31.662407],[130.303798,31.662325],[130.303888,31.662362],[130.303922,31.662313],[130.304017,31.662397],[130.30404,31.662274],[130.304226,31.66226],[130.304303,31.662266],[130.304325,31.662332],[130.304397,31.662277],[130.304317,31.662206],[130.304736,31.66209],[130.304871,31.662002],[130.305086,31.662038],[130.304986,31.661984],[130.305021,31.661946],[130.305116,31.661942],[130.30514,31.661989],[130.305206,31.66196],[130.305307,31.662059],[130.305522,31.661936],[130.305587,31.661956],[130.305587,31.662037],[130.305655,31.662103],[130.305676,31.662059],[130.30596,31.662101],[130.3062,31.662009],[130.306402,31.662023],[130.306462,31.661858],[130.306656,31.661792],[130.306734,31.661808],[130.30669,31.661834],[130.306741,31.661848],[130.306737,31.661893],[130.306857,31.661812],[130.30693,31.661825],[130.306939,31.661902],[130.307038,31.661985],[130.307248,31.66205],[130.307241,31.662008],[130.307064,31.661921],[130.306992,31.661805],[130.307045,31.661769],[130.306944,31.661722],[130.307199,31.661744],[130.307182,31.661696],[130.307225,31.66167],[130.307281,31.661703],[130.307243,31.661768],[130.30728,31.661901],[130.307405,31.661894],[130.307511,31.662048],[130.307623,31.661991],[130.307599,31.661858],[130.307667,31.661874],[130.307707,31.661954],[130.307728,31.661804],[130.307855,31.661914],[130.30784,31.662015],[130.307872,31.661938],[130.307915,31.661975],[130.307899,31.661901],[130.307951,31.662012],[130.30803,31.661799],[130.308104,31.661854],[130.308099,31.662004],[130.3083,31.662077],[130.308455,31.661998],[130.308458,31.661884],[130.308582,31.661781],[130.308884,31.661792],[130.308896,31.661626],[130.308968,31.661578],[130.308979,31.661508],[130.309083,31.661585],[130.3091,31.661662],[130.309196,31.661517],[130.309201,31.661575],[130.309365,31.661677],[130.309254,31.661505],[130.30943,31.661565],[130.309485,31.661633],[130.309592,31.661629],[130.309826,31.661547],[130.309817,31.661502],[130.30972,31.661486],[130.309742,31.661387],[130.309812,31.661389],[130.30994,31.661495],[130.309826,31.66134],[130.309975,31.661441],[130.309949,31.661325],[130.310036,31.661318],[130.310073,31.661265],[130.310146,31.661265],[130.310202,31.661382],[130.310345,31.661432],[130.310639,31.66136],[130.310752,31.66139],[130.310995,31.661176],[130.310846,31.66092],[130.310841,31.660789],[130.310949,31.660767],[130.310915,31.660739],[130.310968,31.660711],[130.31106,31.660815],[130.311087,31.660786],[130.311011,31.660739],[130.311105,31.660744],[130.311189,31.66088],[130.311185,31.660737],[130.311232,31.660685],[130.311291,31.660764],[130.311343,31.660687],[130.311424,31.660728],[130.311445,31.660884],[130.311571,31.660872],[130.311809,31.660737],[130.311719,31.660664],[130.311815,31.660595],[130.311929,31.660599],[130.311959,31.660439],[130.312096,31.660407],[130.312142,31.660294],[130.312105,31.660116],[130.312216,31.659848],[130.312129,31.659845],[130.312128,31.659752],[130.312177,31.659714],[130.31225,31.659781],[130.312291,31.659747],[130.31217,31.659593],[130.312229,31.659463],[130.31241,31.659485],[130.312455,31.659408],[130.312452,31.659334],[130.31229,31.659276],[130.312278,31.659193],[130.312161,31.659112],[130.312324,31.659044],[130.312306,31.658978],[130.312463,31.658923],[130.312439,31.658872],[130.312508,31.658856],[130.312429,31.658823],[130.312523,31.658716],[130.312444,31.658669],[130.312438,31.658585],[130.312501,31.658529],[130.312661,31.658585],[130.312663,31.658532],[130.312547,31.65846],[130.312565,31.658428],[130.312814,31.658477],[130.312733,31.658603],[130.312758,31.658633],[130.312937,31.658456],[130.313144,31.658532],[130.313039,31.658398],[130.313254,31.65834],[130.313325,31.658441],[130.313441,31.658481],[130.313432,31.658539],[130.313606,31.658584],[130.313688,31.658547],[130.313697,31.658427],[130.313824,31.658425],[130.313905,31.658596],[130.31394,31.658484],[130.314033,31.658457],[130.314032,31.658364],[130.314317,31.658424],[130.314333,31.65837],[130.314453,31.658361],[130.314658,31.658454],[130.314885,31.658459],[130.314887,31.658554],[130.314986,31.658528],[130.315116,31.658656],[130.315269,31.658705],[130.315507,31.658658],[130.315766,31.658459],[130.316114,31.658047],[130.316136,31.657794],[130.316031,31.65772],[130.315988,31.657563],[130.316015,31.657496],[130.31611,31.657474],[130.316184,31.657347],[130.316284,31.657392],[130.316406,31.657213],[130.316636,31.65732],[130.318856,31.653914],[130.319438,31.653862],[130.320146,31.653993],[130.320935,31.654227],[130.321323,31.654261],[130.322446,31.65419],[130.321292,31.655132],[130.321072,31.655352],[130.320938,31.655579],[130.320824,31.656011],[130.320562,31.65804],[130.320238,31.658785],[130.319942,31.659112],[130.319763,31.659187],[130.31952,31.659205],[130.31881,31.658963],[130.317852,31.658956],[130.317039,31.659053],[130.316621,31.659261],[130.315916,31.659708],[130.313572,31.661261],[130.312787,31.662073],[130.312517,31.662277],[130.311908,31.662463],[130.310453,31.66259],[130.309983,31.662672],[130.308373,31.663283],[130.307986,31.663487],[130.307698,31.663733],[130.307485,31.664079],[130.307429,31.664396],[130.307224,31.664236],[130.306262,31.663685],[130.305827,31.663558],[130.303319,31.663473],[130.302627,31.663402],[130.302214,31.663275],[130.301713,31.663223],[130.301712,31.663618],[130.301416,31.663942],[130.300872,31.664709],[130.300812,31.664817],[130.300825,31.664977],[130.301095,31.66542],[130.30193,31.666243],[130.302642,31.667096],[130.303348,31.668268],[130.303415,31.668499],[130.303397,31.668764],[130.302988,31.669803],[130.302992,31.670045],[130.30318,31.670555],[130.303491,31.670905],[130.304096,31.671281],[130.30454,31.671493],[130.301174,31.676609],[130.298773,31.679636],[130.298143,31.680515],[130.297334,31.681781],[130.296395,31.683065],[130.296036,31.683687],[130.295818,31.683905],[130.295501,31.684049],[130.295288,31.684339],[130.295149,31.684756],[130.294984,31.685002],[130.294784,31.685195],[130.294561,31.685261],[130.294337,31.685423],[130.294283,31.685611],[130.29405,31.685764],[130.293807,31.686105],[130.293332,31.686042],[130.293179,31.686096],[130.292955,31.686311],[130.292757,31.68641],[130.292003,31.686495],[130.291624,31.686413],[130.291171,31.686473],[130.290706,31.686677],[130.290327,31.687001],[130.290031,31.687541],[130.289826,31.688529],[130.289662,31.689055],[130.289547,31.689844],[130.289397,31.690206],[130.288718,31.691043],[130.288627,31.691174],[130.288632,31.69124],[130.288277,31.691708],[130.288107,31.691823],[130.287841,31.692125],[130.287715,31.692192],[130.287632,31.69233],[130.287484,31.692423],[130.287441,31.692523],[130.286592,31.693305],[130.285743,31.694027],[130.285249,31.694335]]],[[[130.272111,31.706095],[130.272035,31.706124],[130.271821,31.706045],[130.27135,31.705712],[130.270759,31.705433],[130.270559,31.705349],[130.270445,31.705394],[130.270508,31.705264],[130.269623,31.704964],[130.269706,31.704943],[130.269698,31.704883],[130.269495,31.704843],[130.269296,31.704682],[130.269333,31.704599],[130.269531,31.704624],[130.269232,31.704414],[130.269333,31.704388],[130.269536,31.704526],[130.269561,31.70446],[130.269804,31.704638],[130.269868,31.704541],[130.269714,31.704462],[130.269685,31.704363],[130.269725,31.704346],[130.269991,31.704478],[130.270147,31.704655],[130.270193,31.704639],[130.270107,31.70452],[130.270088,31.704454],[130.270129,31.704454],[130.270567,31.70462],[130.270575,31.704701],[130.270701,31.704761],[130.270732,31.704834],[130.270906,31.704882],[130.2712,31.705055],[130.271324,31.705057],[130.271758,31.705228],[130.271808,31.705199],[130.27195,31.705343],[130.272103,31.705288],[130.272214,31.705348],[130.27221,31.705278],[130.27226,31.705269],[130.272374,31.705311],[130.272458,31.705473],[130.272594,31.705545],[130.272884,31.705488],[130.272987,31.70553],[130.272961,31.705635],[130.272631,31.705709],[130.272578,31.705977],[130.272521,31.705976],[130.272461,31.706071],[130.272111,31.706095]]],[[[130.274806,31.706989],[130.274733,31.707092],[130.272925,31.707509],[130.272663,31.707427],[130.272416,31.707105],[130.27228,31.707059],[130.271966,31.706817],[130.271889,31.706708],[130.271885,31.706614],[130.271947,31.706452],[130.272183,31.70625],[130.272322,31.70626],[130.272613,31.70644],[130.272943,31.706469],[130.273664,31.706298],[130.27395,31.706123],[130.274359,31.705747],[130.274786,31.705639],[130.275169,31.705466],[130.27544,31.705263],[130.275591,31.705075],[130.275812,31.704641],[130.275911,31.704319],[130.27667,31.703905],[130.277057,31.703558],[130.27731,31.703218],[130.277632,31.702603],[130.278351,31.701884],[130.278626,31.701512],[130.278718,31.701306],[130.278762,31.700913],[130.278875,31.700578],[130.279302,31.700103],[130.279537,31.699686],[130.279637,31.699367],[130.279674,31.698895],[130.279549,31.698265],[130.279579,31.698155],[130.279735,31.698072],[130.279949,31.698187],[130.280791,31.697961],[130.28119,31.697585],[130.281653,31.697242],[130.281898,31.696916],[130.28196,31.69673],[130.282128,31.696642],[130.282341,31.696368],[130.282399,31.696084],[130.282209,31.696034],[130.282186,31.69598],[130.282468,31.696004],[130.282531,31.695878],[130.282518,31.695693],[130.282449,31.695616],[130.282206,31.695587],[130.282169,31.695518],[130.28246,31.695529],[130.282627,31.695585],[130.283488,31.694998],[130.283672,31.694767],[130.283498,31.694643],[130.283513,31.694495],[130.284126,31.694768],[130.284213,31.694742],[130.28441,31.694855],[130.28465,31.694864],[130.28472,31.694798],[130.285353,31.695106],[130.285779,31.695212],[130.286389,31.69523],[130.286648,31.695149],[130.286665,31.695319],[130.286502,31.695449],[130.286552,31.695624],[130.286527,31.695735],[130.285981,31.69624],[130.285764,31.696629],[130.28544,31.696599],[130.284562,31.696049],[130.284378,31.696026],[130.284215,31.696096],[130.283916,31.696364],[130.283678,31.696759],[130.28348,31.697329],[130.282895,31.697952],[130.282827,31.698155],[130.282596,31.698504],[130.282541,31.698836],[130.282494,31.698888],[130.282106,31.699004],[130.281603,31.699516],[130.281038,31.699592],[130.281147,31.700407],[130.280998,31.700447],[130.280689,31.700291],[130.280638,31.700347],[130.28067,31.700401],[130.280592,31.700487],[130.28069,31.70063],[130.280619,31.700945],[130.280214,31.701106],[130.279808,31.701464],[130.279656,31.701812],[130.27947,31.702738],[130.279301,31.702897],[130.278947,31.703665],[130.278681,31.704031],[130.278042,31.704549],[130.277409,31.705346],[130.276935,31.705811],[130.276621,31.70605],[130.276386,31.706113],[130.275861,31.706414],[130.2754,31.706595],[130.275216,31.706837],[130.274806,31.706989]]],[[[130.264418,31.708585],[130.26427,31.70911],[130.264174,31.709181],[130.264013,31.709118],[130.263591,31.708496],[130.263312,31.708269],[130.26307,31.708256],[130.262576,31.708344],[130.261269,31.708749],[130.259808,31.708186],[130.25951,31.708133],[130.258815,31.708174],[130.258315,31.708116],[130.258057,31.707963],[130.258186,31.7079],[130.258174,31.707781],[130.258213,31.707744],[130.258297,31.707769],[130.258401,31.707609],[130.258297,31.707509],[130.258006,31.707453],[130.258125,31.707429],[130.258188,31.707375],[130.258109,31.707378],[130.258212,31.707336],[130.258443,31.707362],[130.258638,31.707313],[130.258634,31.70736],[130.258832,31.707415],[130.259121,31.707338],[130.259345,31.707362],[130.25945,31.707278],[130.259355,31.70719],[130.259342,31.707111],[130.259451,31.707051],[130.25982,31.707142],[130.259885,31.70726],[130.259936,31.707261],[130.259947,31.7072],[130.259896,31.707135],[130.260165,31.707161],[130.260173,31.70712],[130.26005,31.707103],[130.259893,31.706862],[130.260289,31.707057],[130.26027,31.707185],[130.26039,31.707191],[130.260369,31.707104],[130.260474,31.707091],[130.260484,31.70705],[130.260571,31.707098],[130.260519,31.707135],[130.260664,31.707141],[130.260738,31.707265],[130.260919,31.707332],[130.260965,31.707401],[130.261013,31.707417],[130.261008,31.707322],[130.261172,31.707442],[130.261141,31.707324],[130.261183,31.707262],[130.261439,31.707279],[130.261495,31.70725],[130.261483,31.7072],[130.26159,31.707156],[130.261626,31.707069],[130.261814,31.707098],[130.261881,31.707052],[130.261577,31.706694],[130.261528,31.706562],[130.261576,31.706522],[130.261878,31.706693],[130.262023,31.70672],[130.262205,31.706866],[130.262197,31.706977],[130.262148,31.707005],[130.262195,31.707063],[130.262279,31.707101],[130.262443,31.707069],[130.262692,31.707185],[130.262722,31.707251],[130.262689,31.707308],[130.262572,31.707348],[130.262598,31.707417],[130.262685,31.707455],[130.262721,31.70742],[130.262803,31.707456],[130.262735,31.707473],[130.262785,31.70751],[130.263011,31.707551],[130.263078,31.707517],[130.263072,31.707372],[130.262966,31.707081],[130.263019,31.706981],[130.263136,31.706906],[130.263394,31.706906],[130.263646,31.707011],[130.263933,31.706886],[130.264126,31.706936],[130.264572,31.707176],[130.265017,31.707276],[130.265289,31.707213],[130.265295,31.707068],[130.265219,31.706983],[130.265267,31.706953],[130.265228,31.706927],[130.26532,31.706972],[130.265484,31.706927],[130.265637,31.706981],[130.265916,31.706951],[130.266055,31.707061],[130.266039,31.707124],[130.266092,31.707111],[130.266202,31.70724],[130.266506,31.707301],[130.266781,31.707688],[130.26713,31.708019],[130.267722,31.708299],[130.267818,31.708403],[130.266734,31.708373],[130.265462,31.707867],[130.264575,31.707979],[130.264418,31.708585]]],[[[130.261213,31.719544],[130.261519,31.720151],[130.261552,31.720538],[130.261297,31.721231],[130.261272,31.721831],[130.261961,31.723679],[130.261968,31.723929],[130.261669,31.724249],[130.260077,31.725561],[130.259219,31.725989],[130.258558,31.726604],[130.257874,31.727371],[130.257708,31.72765],[130.257488,31.727788],[130.257027,31.728253],[130.256848,31.728328],[130.256351,31.72829],[130.256304,31.72822],[130.256325,31.728168],[130.258123,31.726116],[130.259408,31.724463],[130.260715,31.722359],[130.260878,31.72186],[130.261013,31.721015],[130.261117,31.720177],[130.261113,31.719574],[130.261126,31.719518],[130.261213,31.719544]]],[[[130.236063,31.738203],[130.234438,31.738955],[130.232909,31.739944],[130.232856,31.739668],[130.232625,31.739612],[130.232519,31.739516],[130.232572,31.739313],[130.23279,31.739099],[130.233508,31.738862],[130.23407,31.738524],[130.234034,31.738078],[130.2341,31.737929],[130.234307,31.73794],[130.234432,31.738027],[130.234555,31.738042],[130.234646,31.738165],[130.234998,31.738067],[130.235281,31.737729],[130.235611,31.737081],[130.235604,31.736911],[130.235444,31.736626],[130.235324,31.736578],[130.234974,31.736289],[130.234985,31.736139],[130.235169,31.735877],[130.235294,31.735829],[130.235346,31.73569],[130.235493,31.735675],[130.235751,31.735819],[130.235842,31.73574],[130.235753,31.73561],[130.23585,31.73542],[130.235649,31.73517],[130.235611,31.735026],[130.235624,31.734957],[130.235723,31.734897],[130.235858,31.734882],[130.23608,31.734955],[130.236151,31.735052],[130.236319,31.735061],[130.236583,31.734839],[130.236547,31.734761],[130.236578,31.734701],[130.236814,31.734666],[130.236923,31.734752],[130.23809,31.734318],[130.238664,31.734059],[130.239086,31.733754],[130.239248,31.733571],[130.239395,31.733552],[130.239474,31.733484],[130.240674,31.733365],[130.241175,31.733427],[130.241637,31.733416],[130.241901,31.733399],[130.24201,31.733329],[130.24224,31.733342],[130.242323,31.733456],[130.243225,31.733534],[130.24368,31.73354],[130.244287,31.733439],[130.247478,31.731921],[130.248231,31.731743],[130.248253,31.732018],[130.247844,31.732167],[130.247264,31.732614],[130.246772,31.732912],[130.246162,31.733176],[130.244729,31.733682],[130.24328,31.733984],[130.242478,31.733976],[130.241494,31.733854],[130.240714,31.733854],[130.240283,31.733913],[130.239734,31.73411],[130.238624,31.7349],[130.237496,31.735075],[130.236577,31.735451],[130.23622,31.735686],[130.236124,31.735928],[130.236146,31.736315],[130.236464,31.737797],[130.23642,31.737964],[130.236063,31.738203]]],[[[130.180337,31.741097],[130.18041,31.741242],[130.180369,31.741385],[130.180303,31.741436],[130.179695,31.741573],[130.179436,31.741323],[130.179075,31.741083],[130.178699,31.741094],[130.178568,31.740948],[130.178568,31.740902],[130.178677,31.740833],[130.178442,31.740626],[130.178259,31.740367],[130.178059,31.740236],[130.177975,31.740234],[130.177855,31.740111],[130.177732,31.740088],[130.17766,31.740011],[130.177521,31.739326],[130.177579,31.73916],[130.177833,31.738925],[130.177863,31.738551],[130.177988,31.738394],[130.178071,31.738373],[130.178111,31.738237],[130.178251,31.738123],[130.17837,31.738084],[130.178607,31.73814],[130.179014,31.738492],[130.179147,31.738763],[130.179435,31.739069],[130.179453,31.738992],[130.179599,31.738873],[130.179719,31.738952],[130.179788,31.739166],[130.179926,31.739273],[130.180253,31.739317],[130.180387,31.739474],[130.180696,31.740252],[130.180653,31.740336],[130.180538,31.740352],[130.180503,31.740451],[130.180383,31.740529],[130.180391,31.740661],[130.180257,31.740881],[130.180337,31.741097]]],[[[130.189506,31.753803],[130.189038,31.753931],[130.18855,31.754267],[130.188427,31.754251],[130.187484,31.753387],[130.186621,31.752486],[130.186363,31.752037],[130.186318,31.751872],[130.185958,31.751763],[130.186067,31.75172],[130.186,31.751658],[130.186114,31.751683],[130.186124,31.751545],[130.185866,31.751409],[130.18593,31.751347],[130.186214,31.751326],[130.18633,31.751067],[130.186334,31.750958],[130.186074,31.750887],[130.18609,31.750836],[130.185998,31.750794],[130.186,31.7507],[130.186112,31.750717],[130.186101,31.750678],[130.185875,31.75056],[130.186053,31.750532],[130.185955,31.750493],[130.18609,31.750451],[130.185914,31.750325],[130.186,31.750304],[130.185941,31.750264],[130.185941,31.750111],[130.186044,31.750019],[130.18605,31.749712],[130.186146,31.749518],[130.186058,31.749192],[130.18642,31.749039],[130.186583,31.749139],[130.186514,31.748932],[130.186715,31.748834],[130.186896,31.748925],[130.186891,31.749059],[130.186969,31.748967],[130.187102,31.749011],[130.187078,31.748916],[130.187782,31.7484],[130.187988,31.748159],[130.187862,31.748073],[130.187786,31.747901],[130.187857,31.747748],[130.187828,31.747688],[130.187965,31.747702],[130.187931,31.747588],[130.18809,31.747566],[130.188145,31.74777],[130.188252,31.74794],[130.188249,31.748047],[130.188899,31.747691],[130.188859,31.747412],[130.18895,31.74737],[130.188954,31.747275],[130.188915,31.74726],[130.188959,31.747211],[130.188895,31.747187],[130.188963,31.747145],[130.188896,31.747024],[130.188961,31.746965],[130.188799,31.746861],[130.188977,31.746942],[130.189087,31.74711],[130.189177,31.746919],[130.189221,31.746911],[130.18929,31.746993],[130.189465,31.74684],[130.189184,31.746655],[130.189053,31.746484],[130.189122,31.746368],[130.189253,31.746424],[130.189396,31.746409],[130.189556,31.7465],[130.189473,31.746568],[130.189335,31.746521],[130.189281,31.74657],[130.189462,31.746633],[130.189634,31.746579],[130.189799,31.746669],[130.189933,31.746585],[130.190022,31.746681],[130.190075,31.74665],[130.190012,31.746569],[130.190057,31.746543],[130.190162,31.74656],[130.190313,31.746667],[130.190455,31.746545],[130.190575,31.746663],[130.190715,31.746702],[130.190664,31.746779],[130.190754,31.746864],[130.190738,31.746947],[130.190895,31.746934],[130.190869,31.746813],[130.190936,31.746741],[130.19101,31.746802],[130.19102,31.746986],[130.191132,31.747016],[130.191113,31.746957],[130.191194,31.746971],[130.191138,31.74685],[130.191298,31.74693],[130.191317,31.746729],[130.191469,31.746738],[130.191529,31.746607],[130.191727,31.746427],[130.191786,31.746429],[130.19171,31.746539],[130.191743,31.74657],[130.191837,31.746542],[130.191713,31.746712],[130.191734,31.746743],[130.192126,31.746479],[130.192173,31.746532],[130.192169,31.746632],[130.19206,31.746912],[130.192235,31.746951],[130.19241,31.746817],[130.192496,31.746989],[130.192542,31.746882],[130.192615,31.746847],[130.192668,31.746966],[130.192566,31.747194],[130.192696,31.747356],[130.192785,31.747366],[130.192795,31.747443],[130.192911,31.747378],[130.193024,31.747478],[130.193351,31.747506],[130.193571,31.747388],[130.193526,31.747584],[130.193289,31.747681],[130.193288,31.747743],[130.193406,31.74773],[130.193646,31.747588],[130.193675,31.747622],[130.1936,31.747721],[130.193615,31.747768],[130.193717,31.747826],[130.193907,31.747831],[130.19397,31.747595],[130.194063,31.747552],[130.194089,31.747469],[130.194182,31.747512],[130.194178,31.747611],[130.194258,31.747645],[130.194157,31.747728],[130.194381,31.747726],[130.194369,31.74782],[130.194488,31.747837],[130.19451,31.747881],[130.194496,31.747998],[130.194421,31.748076],[130.194428,31.748143],[130.194511,31.748122],[130.194423,31.748213],[130.19445,31.748283],[130.194509,31.748312],[130.194646,31.74824],[130.194809,31.748146],[130.194772,31.748074],[130.194886,31.748041],[130.194771,31.748386],[130.194823,31.748453],[130.194902,31.748489],[130.195189,31.748366],[130.195205,31.748439],[130.19503,31.748486],[130.195077,31.748547],[130.195235,31.748482],[130.195277,31.748536],[130.195495,31.748508],[130.195506,31.748637],[130.19532,31.748753],[130.195607,31.748689],[130.195615,31.748724],[130.195494,31.748842],[130.195356,31.748861],[130.195371,31.7489],[130.195413,31.748959],[130.195502,31.748966],[130.195595,31.749082],[130.195675,31.749023],[130.195842,31.749015],[130.195844,31.74915],[130.195715,31.749235],[130.195746,31.7493],[130.196113,31.749567],[130.196305,31.749649],[130.196319,31.749872],[130.19645,31.749961],[130.196423,31.750124],[130.196777,31.750589],[130.197015,31.75114],[130.197485,31.751852],[130.197673,31.752233],[130.197632,31.752479],[130.197681,31.75256],[130.197559,31.75257],[130.197182,31.752502],[130.196978,31.752346],[130.196599,31.75217],[130.195804,31.752015],[130.195409,31.752038],[130.194622,31.752313],[130.194292,31.752489],[130.193923,31.752543],[130.193575,31.752678],[130.193372,31.752946],[130.192722,31.753178],[130.192314,31.753545],[130.191954,31.753775],[130.191789,31.75382],[130.191445,31.753808],[130.19121,31.753906],[130.191025,31.753923],[130.190614,31.754184],[130.190221,31.754196],[130.189995,31.753943],[130.18966,31.753815],[130.189506,31.753803]]],[[[130.20353,31.755608],[130.202821,31.755683],[130.201514,31.755483],[130.20115,31.755518],[130.201244,31.755228],[130.20149,31.754807],[130.201701,31.754572],[130.202117,31.754476],[130.202405,31.754481],[130.20285,31.754597],[130.203067,31.754436],[130.203336,31.754356],[130.203571,31.754386],[130.203794,31.754521],[130.203958,31.754521],[130.204474,31.754346],[130.204685,31.754351],[130.204896,31.754436],[130.205112,31.754847],[130.205493,31.755132],[130.205441,31.755243],[130.204761,31.755218],[130.204649,31.755678],[130.204063,31.755543],[130.20353,31.755608]]],[[[130.212255,31.756276],[130.211733,31.756393],[130.208879,31.756362],[130.208439,31.756244],[130.208009,31.756064],[130.207762,31.755869],[130.207469,31.755728],[130.207066,31.755681],[130.205802,31.755861],[130.20539,31.755775],[130.205301,31.755744],[130.205298,31.755689],[130.206937,31.755477],[130.207642,31.755532],[130.208439,31.755759],[130.208833,31.755963],[130.209089,31.756033],[130.210289,31.756088],[130.211287,31.756221],[130.211599,31.756197],[130.211754,31.756103],[130.211773,31.755884],[130.211672,31.755642],[130.211736,31.755532],[130.211901,31.75547],[130.212258,31.755485],[130.212734,31.755423],[130.213016,31.755516],[130.213272,31.75554],[130.213583,31.755485],[130.214069,31.755211],[130.214408,31.754671],[130.21449,31.754366],[130.214398,31.753928],[130.214536,31.753537],[130.214893,31.753192],[130.214939,31.753044],[130.215259,31.752887],[130.215442,31.752668],[130.215662,31.752613],[130.216025,31.752903],[130.216117,31.75291],[130.216355,31.752856],[130.216978,31.752879],[130.217482,31.752746],[130.218626,31.751713],[130.21891,31.7514],[130.219562,31.750899],[130.219928,31.750774],[130.220184,31.750617],[130.220935,31.74978],[130.221311,31.749303],[130.221384,31.749131],[130.22175,31.748739],[130.222107,31.748528],[130.223151,31.748419],[130.224096,31.748184],[130.226221,31.7464],[130.226905,31.74564],[130.227217,31.745202],[130.227382,31.74485],[130.227336,31.744662],[130.227482,31.744326],[130.227702,31.744052],[130.227949,31.743621],[130.228599,31.742815],[130.228645,31.742416],[130.228865,31.741736],[130.229075,31.741289],[130.229725,31.740757],[130.230055,31.740585],[130.230513,31.740123],[130.230586,31.740006],[130.230613,31.739466],[130.230842,31.739067],[130.231264,31.738636],[130.231511,31.738527],[130.232143,31.738676],[130.232317,31.738989],[130.232454,31.739748],[130.232573,31.739951],[130.2326,31.740162],[130.232527,31.740233],[130.232225,31.739857],[130.232014,31.739317],[130.231703,31.739122],[130.231557,31.739098],[130.231373,31.739145],[130.231083,31.739388],[130.231,31.739529],[130.230909,31.739983],[130.23078,31.740256],[130.230515,31.740562],[130.230103,31.740898],[130.229544,31.741266],[130.229182,31.741634],[130.229109,31.741767],[130.228944,31.742526],[130.228853,31.742753],[130.22855,31.743285],[130.228276,31.74359],[130.227708,31.744459],[130.227039,31.746431],[130.22659,31.746979],[130.225986,31.747534],[130.22551,31.747941],[130.224946,31.748301],[130.224195,31.748661],[130.223627,31.748888],[130.223288,31.748966],[130.222418,31.749006],[130.22207,31.749162],[130.221539,31.749687],[130.219433,31.752151],[130.218563,31.753357],[130.218142,31.753536],[130.21783,31.753497],[130.217044,31.753255],[130.215845,31.753286],[130.214984,31.753607],[130.214819,31.753803],[130.214727,31.754014],[130.214617,31.75475],[130.214398,31.755149],[130.214123,31.755438],[130.213711,31.755712],[130.212255,31.756276]]]]}}]}
