{"type":"FeatureCollection","features":[{"type":"Feature","properties":{"potaRef":"JP-1289","nameJa":"Tanzawa oyama","nameEn":"Tanzawa Oyama Prefectural Nature Park","authority":"環境省 生物多様性「見える化」マップ","boundaryStatus":"全国GIS候補・公開前検証待ち","boundarySource":"環境省 生物多様性「見える化」マップの自然公園区域を、POTA代表座標で一意に空間照合して加工","boundaryScaleNote":"区域は概要データであり、正確性は保証されない。POTA運用可否は公式情報で最終確認すること。","candidateMethod":"POTA representative point inside one public natural-park area","sourceParkKind":"都道府県立自然公園","sourceName":"Tanzawa oyama","sourceFeatureCount":1,"cautionMeters":75},"geometry":{"type":"MultiPolygon","coordinates":[[[[139.028772,35.480802],[139.028444,35.480973],[139.027607,35.481114],[139.027549,35.480968],[139.026808,35.480779],[139.02646,35.480747],[139.025845,35.48077],[139.02549,35.480836],[139.02494,35.481022],[139.023953,35.481061],[139.023685,35.480973],[139.023441,35.480567],[139.023219,35.480334],[139.022709,35.479588],[139.022484,35.479333],[139.02184,35.479189],[139.021261,35.478859],[139.02095,35.478793],[139.020456,35.479021],[139.019714,35.479142],[139.01874,35.478979],[139.018,35.479003],[139.01766,35.478968],[139.017207,35.479025],[139.016551,35.479248],[139.015765,35.479647],[139.014858,35.479911],[139.014612,35.479837],[139.013606,35.479145],[139.013476,35.478749],[139.013229,35.478505],[139.012263,35.47811],[139.011932,35.477574],[139.011812,35.477226],[139.011714,35.477117],[139.010693,35.476465],[139.010454,35.475977],[139.01012,35.475633],[139.009645,35.475341],[139.008797,35.475172],[139.008367,35.474718],[139.008141,35.474559],[139.007873,35.474498],[139.006859,35.474562],[139.005999,35.474844],[139.005862,35.47484],[139.004472,35.474416],[139.004201,35.474398],[139.002501,35.474729],[139.00223,35.474765],[139.001677,35.474741],[139.000362,35.474876],[138.999075,35.475036],[138.998801,35.475137],[138.998607,35.475148],[138.997674,35.474918],[138.99699,35.474134],[138.99672,35.474131],[138.996321,35.474005],[138.99572,35.473673],[138.993967,35.473924],[138.992648,35.47435],[138.991834,35.474115],[138.990463,35.474035],[138.988821,35.473641],[138.988037,35.472661],[138.987161,35.472079],[138.98663,35.471807],[138.986248,35.471262],[138.985992,35.470747],[138.985035,35.468547],[138.984557,35.468126],[138.983949,35.467819],[138.982391,35.467428],[138.982199,35.467332],[138.982049,35.467197],[138.981748,35.466766],[138.9812,35.465744],[138.980922,35.465326],[138.97998,35.464442],[138.978769,35.463742],[138.978622,35.463732],[138.977985,35.464053],[138.977428,35.464453],[138.977312,35.464762],[138.977276,35.465203],[138.976852,35.465871],[138.976533,35.466178],[138.974478,35.466302],[138.973969,35.466397],[138.973602,35.466545],[138.973463,35.466545],[138.973012,35.466252],[138.972046,35.465735],[138.97182,35.465658],[138.971139,35.465167],[138.970041,35.464482],[138.969467,35.463861],[138.96923,35.463515],[138.968586,35.463493],[138.967945,35.463609],[138.9672,35.463845],[138.966337,35.463827],[138.966024,35.463737],[138.965884,35.463376],[138.965675,35.463159],[138.965182,35.462897],[138.964404,35.462642],[138.963229,35.46245],[138.96236,35.462211],[138.961455,35.462105],[138.9603,35.462048],[138.959252,35.462229],[138.958727,35.462086],[138.958398,35.461831],[138.958025,35.461641],[138.957783,35.461572],[138.957483,35.461372],[138.957026,35.46075],[138.956263,35.460514],[138.95553,35.460372],[138.954913,35.460013],[138.954566,35.459906],[138.954482,35.459837],[138.953973,35.458981],[138.953809,35.458476],[138.953145,35.457851],[138.953021,35.457781],[138.952304,35.457632],[138.952047,35.45752],[138.949302,35.456095],[138.948654,35.455539],[138.948242,35.454936],[138.947431,35.454259],[138.946219,35.453659],[138.945547,35.453131],[138.945104,35.453],[138.943728,35.452174],[138.943307,35.451697],[138.942823,35.451451],[138.941798,35.450578],[138.941222,35.450295],[138.941057,35.450159],[138.940583,35.44957],[138.940441,35.449492],[138.939783,35.449397],[138.938893,35.449167],[138.93737,35.448867],[138.937233,35.448596],[138.937327,35.44832],[138.937591,35.447887],[138.937633,35.447656],[138.937578,35.447382],[138.937391,35.447001],[138.936332,35.445905],[138.935489,35.445166],[138.934803,35.444823],[138.934105,35.444695],[138.933572,35.444275],[138.932662,35.44333],[138.93211,35.442849],[138.931772,35.442371],[138.931458,35.441774],[138.930997,35.441361],[138.930899,35.441124],[138.931016,35.440311],[138.930906,35.440113],[138.929354,35.43954],[138.928575,35.439169],[138.928234,35.43889],[138.927404,35.437645],[138.927404,35.43753],[138.927801,35.436742],[138.927884,35.436169],[138.927912,35.435179],[138.927202,35.433548],[138.927043,35.43341],[138.926469,35.433147],[138.926184,35.432612],[138.926198,35.432391],[138.926591,35.430653],[138.926728,35.430487],[138.927603,35.429898],[138.929472,35.42852],[138.930645,35.426329],[138.930658,35.426099],[138.930603,35.425924],[138.930407,35.425591],[138.930252,35.425195],[138.930098,35.424191],[138.930023,35.422234],[138.93017,35.420871],[138.929961,35.420875],[138.929047,35.421111],[138.928422,35.421102],[138.927968,35.420943],[138.927464,35.420661],[138.926726,35.420026],[138.926604,35.419395],[138.926704,35.418603],[138.92666,35.418185],[138.926,35.416679],[138.925664,35.415311],[138.925482,35.415022],[138.925124,35.414686],[138.924722,35.414524],[138.923368,35.414153],[138.920715,35.412509],[138.91992,35.412299],[138.919055,35.411906],[138.918067,35.411339],[138.917486,35.410051],[138.916605,35.408287],[138.9164,35.407716],[138.915817,35.405532],[138.91577,35.404678],[138.915801,35.404005],[138.915964,35.403407],[138.916398,35.402486],[138.916591,35.401678],[138.916587,35.401431],[138.916403,35.400614],[138.917718,35.400394],[138.918382,35.400423],[138.918792,35.400478],[138.919445,35.400741],[138.920284,35.400986],[138.921424,35.400953],[138.921922,35.401009],[138.922817,35.401257],[138.923012,35.401257],[138.923229,35.401221],[138.92366,35.401036],[138.92487,35.400425],[138.925416,35.400272],[138.925798,35.400265],[138.926965,35.400551],[138.92812,35.400724],[138.928794,35.40076],[138.930006,35.401113],[138.931152,35.401134],[138.931987,35.400907],[138.934728,35.400024],[138.937734,35.399149],[138.938207,35.399124],[138.938613,35.399184],[138.939958,35.399539],[138.940279,35.399676],[138.941098,35.399695],[138.941396,35.399695],[138.942212,35.399504],[138.943256,35.399188],[138.943483,35.399306],[138.943754,35.399306],[138.944341,35.399495],[138.944527,35.399609],[138.945734,35.399719],[138.946337,35.400283],[138.946558,35.400399],[138.947127,35.400872],[138.948037,35.40127],[138.948988,35.40135],[138.94924,35.401418],[138.949552,35.401392],[138.950657,35.401445],[138.95122,35.401689],[138.951485,35.401726],[138.952441,35.401668],[138.954188,35.401363],[138.954882,35.401376],[138.955125,35.401439],[138.956081,35.401352],[138.957001,35.401388],[138.957359,35.401529],[138.957577,35.401684],[138.958652,35.402214],[138.959056,35.402308],[138.959574,35.402292],[138.962541,35.401411],[138.962727,35.4014],[138.962983,35.40143],[138.963219,35.401553],[138.964363,35.401853],[138.965402,35.401951],[138.966409,35.401901],[138.966612,35.40193],[138.966767,35.402061],[138.967394,35.402857],[138.967918,35.40321],[138.968226,35.403527],[138.968446,35.403908],[138.968564,35.404249],[138.968855,35.404603],[138.969055,35.404754],[138.96946,35.404903],[138.971604,35.405117],[138.97182,35.405176],[138.972742,35.405116],[138.973709,35.404813],[138.974124,35.404846],[138.974393,35.404776],[138.975323,35.40476],[138.97678,35.404562],[138.976957,35.404556],[138.977697,35.404688],[138.978213,35.404624],[138.97862,35.404628],[138.978839,35.404691],[138.97975,35.404693],[138.981274,35.404337],[138.982285,35.40391],[138.98265,35.403643],[138.982897,35.403324],[138.98351,35.402774],[138.983748,35.402385],[138.983815,35.402008],[138.984071,35.401772],[138.984545,35.401746],[138.98627,35.402024],[138.986934,35.402078],[138.988148,35.402405],[138.988435,35.402543],[138.98885,35.402866],[138.989268,35.403036],[138.989902,35.4032],[138.99102,35.403199],[138.991723,35.403038],[138.991975,35.403038],[138.99239,35.403123],[138.993243,35.403408],[138.993595,35.40347],[138.994213,35.403434],[138.99467,35.403304],[138.995279,35.403333],[138.996305,35.402867],[138.996845,35.40282],[138.998177,35.402571],[138.999083,35.402149],[138.99931,35.401927],[138.999909,35.401652],[139.000027,35.401546],[139.000329,35.400998],[139.001293,35.399912],[139.001454,35.399642],[139.001512,35.399823],[139.001016,35.401589],[139.000917,35.402541],[139.000821,35.405109],[139.00091,35.40632],[139.000895,35.407353],[139.000619,35.40847],[139.000187,35.409814],[139.000201,35.410509],[139.001077,35.410841],[139.001853,35.410854],[139.002825,35.410782],[139.003913,35.410411],[139.004165,35.41068],[139.004326,35.411177],[139.004395,35.411867],[139.004336,35.412502],[139.004063,35.413098],[139.003615,35.413744],[139.00356,35.41422],[139.004135,35.414547],[139.004755,35.414769],[139.004832,35.415124],[139.00413,35.415624],[139.004048,35.416294],[139.004404,35.416759],[139.005107,35.417088],[139.005231,35.417338],[139.005197,35.418715],[139.007654,35.419691],[139.010782,35.420537],[139.012159,35.420684],[139.013125,35.420894],[139.013959,35.42119],[139.014511,35.42157],[139.0155,35.422557],[139.017359,35.425078],[139.018164,35.426557],[139.021073,35.429359],[139.022238,35.430208],[139.023006,35.430574],[139.023779,35.430746],[139.025053,35.430678],[139.025322,35.43206],[139.025747,35.433197],[139.026308,35.434089],[139.026526,35.435753],[139.026813,35.436393],[139.02656,35.437007],[139.02599,35.437369],[139.025875,35.437667],[139.025145,35.438432],[139.024697,35.439078],[139.024621,35.439536],[139.024484,35.439852],[139.023741,35.440246],[139.023364,35.440646],[139.023044,35.4414],[139.022888,35.442457],[139.022996,35.443034],[139.022979,35.443618],[139.023133,35.444518],[139.023267,35.444704],[139.023358,35.445144],[139.023476,35.445423],[139.02352,35.445879],[139.023494,35.446546],[139.023261,35.447496],[139.024077,35.448551],[139.024122,35.449346],[139.024462,35.449564],[139.025604,35.449671],[139.02631,35.449912],[139.026616,35.450641],[139.027214,35.451763],[139.027289,35.452223],[139.027702,35.45299],[139.027624,35.455319],[139.027536,35.456254],[139.027206,35.457396],[139.02691,35.458045],[139.026879,35.458415],[139.027148,35.458914],[139.027587,35.459486],[139.027855,35.459985],[139.028211,35.460432],[139.028158,35.460855],[139.028172,35.462021],[139.028063,35.462973],[139.027764,35.46371],[139.028091,35.464457],[139.027984,35.465338],[139.028059,35.46578],[139.028592,35.46782],[139.028817,35.468318],[139.028734,35.469076],[139.029112,35.469506],[139.029036,35.469964],[139.029041,35.470635],[139.029202,35.471114],[139.029656,35.47197],[139.029684,35.472606],[139.029759,35.473066],[139.030219,35.473692],[139.030341,35.474011],[139.030094,35.474396],[139.029948,35.475065],[139.02989,35.475682],[139.029748,35.476174],[139.029419,35.47638],[139.029416,35.476522],[139.030014,35.476761],[139.030756,35.477356],[139.030188,35.478512],[139.029898,35.478896],[139.029738,35.479229],[139.029772,35.479635],[139.029584,35.480233],[139.029321,35.480423],[139.02893,35.480487],[139.028772,35.480802]]],[[[139.254836,35.404984],[139.254757,35.40518],[139.254508,35.405383],[139.253853,35.405764],[139.252301,35.406136],[139.252081,35.406257],[139.25195,35.406618],[139.251302,35.407332],[139.251147,35.407869],[139.251082,35.408019],[139.250984,35.408109],[139.249909,35.4083],[139.249356,35.408472],[139.248685,35.407805],[139.248124,35.407558],[139.248547,35.407471],[139.249332,35.407072],[139.250365,35.405657],[139.250835,35.404869],[139.251747,35.403121],[139.251804,35.402724],[139.25221,35.401593],[139.252249,35.40089],[139.252549,35.400428],[139.252974,35.399926],[139.253091,35.399737],[139.253209,35.399345],[139.253296,35.398531],[139.253249,35.398105],[139.253302,35.39744],[139.253204,35.39708],[139.252894,35.396622],[139.252533,35.396374],[139.252204,35.39629],[139.251977,35.396097],[139.251756,35.395457],[139.251703,35.394932],[139.251552,35.394622],[139.251185,35.394112],[139.250392,35.39319],[139.250089,35.393001],[139.249044,35.392694],[139.248565,35.392409],[139.248346,35.392088],[139.248045,35.391766],[139.247692,35.391655],[139.247502,35.39144],[139.24746,35.391135],[139.247825,35.390743],[139.247961,35.3904],[139.248192,35.390192],[139.248405,35.390102],[139.249036,35.390098],[139.249363,35.389931],[139.249404,35.389494],[139.249183,35.389266],[139.249091,35.389026],[139.249128,35.388801],[139.249481,35.38821],[139.249503,35.387933],[139.249169,35.38765],[139.248936,35.387236],[139.248711,35.386385],[139.248714,35.385524],[139.248083,35.384786],[139.248235,35.384484],[139.248499,35.384262],[139.250091,35.383928],[139.250403,35.383707],[139.250359,35.382753],[139.251128,35.38234],[139.250434,35.382264],[139.249775,35.382056],[139.248935,35.38203],[139.248331,35.381545],[139.248467,35.381255],[139.248894,35.380917],[139.249216,35.380273],[139.248541,35.379524],[139.247645,35.37759],[139.247271,35.376949],[139.246966,35.376826],[139.246596,35.376767],[139.246223,35.376788],[139.24606,35.376879],[139.245926,35.377089],[139.245695,35.377271],[139.245321,35.377398],[139.244997,35.37738],[139.24479,35.377231],[139.24457,35.376937],[139.244527,35.376684],[139.244647,35.376395],[139.244722,35.375906],[139.244403,35.375716],[139.24384,35.375562],[139.243649,35.375427],[139.243481,35.37496],[139.243197,35.374638],[139.24283,35.374408],[139.242312,35.374427],[139.241631,35.374523],[139.241224,35.37465],[139.240837,35.374617],[139.240484,35.374467],[139.239835,35.373808],[139.23939,35.37347],[139.239118,35.373347],[139.238649,35.373354],[139.23837,35.373522],[139.237917,35.373528],[139.237029,35.373463],[139.236354,35.373254],[139.236133,35.373039],[139.236024,35.372839],[139.236034,35.372375],[139.235869,35.371803],[139.235695,35.371602],[139.235716,35.371377],[139.235931,35.371168],[139.236356,35.370976],[139.236851,35.370506],[139.237436,35.369641],[139.238041,35.369318],[139.238291,35.368978],[139.238673,35.369275],[139.238961,35.369411],[139.239218,35.369481],[139.239965,35.369505],[139.24029,35.369457],[139.240735,35.369053],[139.240981,35.368898],[139.241337,35.368863],[139.241756,35.368935],[139.242404,35.36966],[139.242708,35.36981],[139.242878,35.369415],[139.242951,35.369032],[139.243215,35.368771],[139.243589,35.368671],[139.24358,35.369094],[139.245087,35.368971],[139.245607,35.368833],[139.246282,35.368299],[139.24701,35.367502],[139.247482,35.366648],[139.247785,35.365341],[139.248352,35.365283],[139.249674,35.365474],[139.250578,35.365514],[139.251558,35.365078],[139.25145,35.366348],[139.251809,35.367677],[139.251904,35.368526],[139.251897,35.369586],[139.251739,35.370935],[139.251586,35.37129],[139.251421,35.37142],[139.250837,35.371504],[139.250733,35.371834],[139.251669,35.371927],[139.252135,35.37204],[139.252848,35.372712],[139.253265,35.372877],[139.253993,35.372901],[139.254496,35.372789],[139.254776,35.372581],[139.254959,35.372319],[139.255017,35.371883],[139.25488,35.37151],[139.255062,35.371314],[139.255354,35.371239],[139.256034,35.371235],[139.256597,35.371349],[139.257189,35.371636],[139.257489,35.371998],[139.257691,35.372345],[139.257963,35.373263],[139.258416,35.373985],[139.259144,35.37475],[139.25911,35.375544],[139.259333,35.375746],[139.259719,35.375845],[139.260412,35.375934],[139.260617,35.376162],[139.260415,35.37653],[139.260072,35.376724],[139.25965,35.376797],[139.258679,35.376796],[139.257675,35.376861],[139.257072,35.377091],[139.256465,35.37748],[139.25628,35.377808],[139.256389,35.378035],[139.256709,35.378172],[139.257015,35.378216],[139.257437,35.378156],[139.258141,35.377756],[139.25879,35.377646],[139.25947,35.377616],[139.259974,35.377517],[139.259937,35.377728],[139.25972,35.37803],[139.25963,35.378439],[139.25974,35.378626],[139.259981,35.378683],[139.260466,35.378676],[139.260756,35.378747],[139.261027,35.378936],[139.261046,35.379546],[139.261171,35.379759],[139.261966,35.38038],[139.262393,35.380837],[139.262968,35.381163],[139.263516,35.38125],[139.264117,35.381153],[139.264666,35.381174],[139.265518,35.381438],[139.266296,35.38133],[139.266937,35.38163],[139.266901,35.381802],[139.266621,35.382036],[139.266631,35.382328],[139.267848,35.382875],[139.269495,35.383005],[139.270122,35.383159],[139.270263,35.3834],[139.269902,35.38366],[139.269799,35.383923],[139.269858,35.384176],[139.270066,35.384311],[139.27063,35.384385],[139.27102,35.384285],[139.271747,35.384322],[139.271895,35.384231],[139.271738,35.384017],[139.272243,35.383826],[139.272466,35.384001],[139.273034,35.384645],[139.273437,35.384704],[139.273812,35.384563],[139.274135,35.384594],[139.274401,35.385009],[139.274442,35.385367],[139.274323,35.38563],[139.273729,35.385423],[139.273454,35.385446],[139.273237,35.385774],[139.273296,35.386026],[139.273569,35.386096],[139.273644,35.386375],[139.273654,35.386693],[139.273597,35.38709],[139.273248,35.387509],[139.272805,35.387807],[139.272334,35.38792],[139.271543,35.387855],[139.268999,35.387276],[139.268416,35.387334],[139.268311,35.387703],[139.267904,35.387843],[139.267242,35.387794],[139.26661,35.387851],[139.265949,35.387709],[139.263359,35.386321],[139.262748,35.386166],[139.262242,35.386358],[139.261016,35.386221],[139.260122,35.385652],[139.259696,35.385169],[139.25942,35.385218],[139.259036,35.38504],[139.258501,35.384343],[139.258047,35.383635],[139.257729,35.383392],[139.25731,35.38332],[139.25712,35.383145],[139.256687,35.382953],[139.25617,35.382946],[139.255497,35.382618],[139.254708,35.382474],[139.254709,35.381666],[139.253416,35.381634],[139.252851,35.382368],[139.252335,35.382608],[139.252506,35.382943],[139.253009,35.383613],[139.25342,35.384042],[139.253935,35.384911],[139.254608,35.386682],[139.25494,35.387058],[139.255804,35.387604],[139.256223,35.387813],[139.25677,35.388248],[139.256902,35.388442],[139.256866,35.388822],[139.256715,35.389276],[139.256797,35.389448],[139.256811,35.390264],[139.256648,35.390406],[139.256015,35.390434],[139.255913,35.390521],[139.255947,35.391311],[139.256059,35.391529],[139.256137,35.391564],[139.256576,35.391543],[139.25691,35.391464],[139.257251,35.391491],[139.257576,35.391397],[139.257954,35.391451],[139.258437,35.391436],[139.258945,35.391619],[139.259745,35.392053],[139.260543,35.392758],[139.261446,35.393833],[139.261682,35.394339],[139.261909,35.394577],[139.262204,35.39508],[139.263165,35.39638],[139.263212,35.396613],[139.263083,35.396993],[139.262956,35.397194],[139.262907,35.397697],[139.263234,35.398551],[139.263436,35.398838],[139.263629,35.398999],[139.264294,35.399192],[139.264579,35.399353],[139.264699,35.399504],[139.264711,35.399706],[139.26466,35.399849],[139.264699,35.400049],[139.26436,35.40075],[139.264378,35.400874],[139.264724,35.401219],[139.26538,35.401472],[139.265811,35.401483],[139.266098,35.401402],[139.266239,35.401474],[139.266265,35.401633],[139.266198,35.401796],[139.265903,35.402218],[139.265886,35.402559],[139.265975,35.402796],[139.265963,35.40307],[139.26608,35.403308],[139.266121,35.403568],[139.266516,35.404048],[139.267071,35.404419],[139.26788,35.404771],[139.267955,35.404848],[139.268003,35.405167],[139.267784,35.406242],[139.267503,35.407215],[139.26711,35.407862],[139.266515,35.407734],[139.265657,35.407722],[139.264543,35.407945],[139.264097,35.407918],[139.263259,35.40774],[139.26179,35.407654],[139.261401,35.407487],[139.260372,35.406773],[139.260046,35.406681],[139.259572,35.406673],[139.259139,35.406603],[139.258719,35.406461],[139.258532,35.406229],[139.258416,35.405643],[139.258124,35.405163],[139.256952,35.404953],[139.255572,35.404944],[139.254846,35.404892],[139.254836,35.404984]]],[[[139.056769,35.406071],[139.05521,35.406362],[139.054349,35.406749],[139.050993,35.408851],[139.050596,35.408958],[139.050094,35.408964],[139.048839,35.408715],[139.048181,35.408233],[139.047417,35.407063],[139.046817,35.406522],[139.046317,35.40622],[139.045689,35.406019],[139.04501,35.40601],[139.044102,35.406158],[139.043235,35.406188],[139.042424,35.406102],[139.040919,35.405812],[139.040178,35.405448],[139.038418,35.404301],[139.036984,35.403527],[139.035882,35.40303],[139.03523,35.402791],[139.034404,35.40266],[139.033419,35.402663],[139.032364,35.402935],[139.029673,35.403929],[139.028277,35.404242],[139.027166,35.404248],[139.026287,35.403997],[139.025414,35.403456],[139.024583,35.402737],[139.023911,35.402068],[139.022308,35.400848],[139.021321,35.400405],[139.020577,35.400399],[139.019746,35.400564],[139.018306,35.400555],[139.017921,35.400467],[139.017662,35.400304],[139.017521,35.399766],[139.017465,35.399036],[139.017077,35.398439],[139.016557,35.398226],[139.015792,35.3981],[139.014499,35.398136],[139.014087,35.398029],[139.013676,35.39771],[139.013611,35.397452],[139.013444,35.397169],[139.01333,35.396731],[139.013292,35.395475],[139.01432,35.393743],[139.014282,35.393248],[139.013387,35.391439],[139.013425,35.391097],[139.013634,35.39083],[139.014757,35.390278],[139.01628,35.389383],[139.01767,35.38847],[139.018755,35.387328],[139.020259,35.385253],[139.020849,35.384187],[139.021744,35.383711],[139.022334,35.383102],[139.023019,35.382645],[139.023609,35.382416],[139.024428,35.382397],[139.025341,35.382093],[139.025989,35.382188],[139.026845,35.382626],[139.027188,35.38293],[139.027492,35.382816],[139.028044,35.382302],[139.029053,35.381826],[139.02991,35.381636],[139.031166,35.38156],[139.032232,35.381769],[139.032822,35.382074],[139.033222,35.382512],[139.033431,35.383045],[139.03385,35.383064],[139.034459,35.382949],[139.035202,35.382397],[139.035982,35.381484],[139.037334,35.380703],[139.039656,35.379847],[139.041617,35.379409],[139.042131,35.37958],[139.042302,35.379999],[139.042968,35.380018],[139.043406,35.380113],[139.043654,35.379942],[139.04373,35.379675],[139.044015,35.37939],[139.044663,35.379085],[139.045481,35.378476],[139.046052,35.378457],[139.046642,35.378324],[139.047118,35.378057],[139.04767,35.378095],[139.047937,35.37821],[139.048394,35.378133],[139.048869,35.37821],[139.049136,35.378552],[139.049745,35.379999],[139.049364,35.38116],[139.049022,35.381788],[139.049345,35.381826],[139.049821,35.381579],[139.050297,35.381598],[139.050564,35.382626],[139.050925,35.383178],[139.05123,35.384644],[139.05281,35.386376],[139.053343,35.387099],[139.053571,35.387556],[139.054066,35.387784],[139.054542,35.387899],[139.054904,35.388108],[139.054847,35.38826],[139.054694,35.388279],[139.054428,35.388108],[139.053533,35.388089],[139.05321,35.388336],[139.052658,35.388394],[139.052429,35.38826],[139.052144,35.388279],[139.051953,35.388394],[139.051896,35.388584],[139.051953,35.38885],[139.052543,35.389726],[139.052619,35.390107],[139.052448,35.390373],[139.052239,35.390583],[139.052163,35.390773],[139.052258,35.390982],[139.053171,35.391782],[139.053781,35.392125],[139.054675,35.39241],[139.055608,35.394161],[139.055589,35.394637],[139.055741,35.39479],[139.056046,35.394675],[139.05696,35.394504],[139.05755,35.394104],[139.058254,35.394142],[139.058825,35.394447],[139.059777,35.395094],[139.060443,35.395741],[139.0609,35.395932],[139.061262,35.39576],[139.061909,35.395741],[139.062252,35.395989],[139.062328,35.396389],[139.062156,35.396807],[139.062271,35.397226],[139.061909,35.398311],[139.06267,35.399796],[139.063337,35.40012],[139.064003,35.400215],[139.064307,35.40031],[139.064384,35.400615],[139.06425,35.40109],[139.063679,35.401871],[139.063946,35.402118],[139.064821,35.40267],[139.065868,35.403927],[139.066537,35.404448],[139.066794,35.40484],[139.066885,35.405357],[139.066254,35.405676],[139.065504,35.405981],[139.064446,35.406158],[139.063103,35.406235],[139.057821,35.406029],[139.056769,35.406071]]],[[[139.247857,35.542152],[139.247887,35.542598],[139.248244,35.543014],[139.248898,35.54349],[139.249107,35.544115],[139.249054,35.54449],[139.249149,35.544788],[139.249351,35.545323],[139.249625,35.545692],[139.249708,35.546953],[139.249898,35.547096],[139.250339,35.547619],[139.249101,35.548345],[139.246056,35.549558],[139.245663,35.54982],[139.24533,35.549856],[139.244568,35.55007],[139.243676,35.550248],[139.242451,35.550201],[139.241166,35.550022],[139.23787,35.548892],[139.236764,35.548321],[139.235788,35.547571],[139.234932,35.547108],[139.234289,35.546525],[139.233956,35.545644],[139.233706,35.544573],[139.233409,35.543657],[139.233016,35.54292],[139.232564,35.542479],[139.232171,35.542253],[139.231565,35.542051],[139.230649,35.541468],[139.230101,35.541421],[139.229209,35.541563],[139.228329,35.541421],[139.225045,35.541242],[139.222737,35.540838],[139.220417,35.5401],[139.217633,35.53872],[139.216348,35.537958],[139.213053,35.535746],[139.212577,35.535103],[139.211518,35.534187],[139.210637,35.533556],[139.210019,35.532866],[139.208829,35.53176],[139.208032,35.531129],[139.206354,35.530094],[139.206557,35.529547],[139.20687,35.529037],[139.208133,35.52922],[139.209103,35.529679],[139.211827,35.526924],[139.212812,35.527761],[139.213078,35.528077],[139.213305,35.528665],[139.213692,35.528678],[139.213985,35.528236],[139.214285,35.527991],[139.214733,35.527874],[139.215435,35.527838],[139.215414,35.527605],[139.215172,35.526918],[139.214909,35.525807],[139.214846,35.525205],[139.214962,35.52401],[139.214951,35.523164],[139.215792,35.521705],[139.216696,35.518892],[139.217158,35.518099],[139.217873,35.517158],[139.218399,35.516714],[139.219597,35.516196],[139.219923,35.514885],[139.220133,35.513754],[139.220595,35.51221],[139.221783,35.51055],[139.221898,35.508868],[139.223885,35.508604],[139.225304,35.508213],[139.226323,35.507748],[139.227301,35.506912],[139.22758,35.506471],[139.228314,35.505779],[139.22896,35.505372],[139.229744,35.505046],[139.229982,35.50513],[139.230614,35.504863],[139.23204,35.504755],[139.232188,35.504681],[139.232198,35.504184],[139.232303,35.504026],[139.23285,35.503698],[139.233512,35.503423],[139.233911,35.503106],[139.234111,35.502789],[139.233995,35.501562],[139.234142,35.50116],[139.234668,35.500388],[139.23574,35.499172],[139.235856,35.498929],[139.235898,35.498432],[139.235835,35.497956],[139.235404,35.496804],[139.235414,35.495937],[139.235561,35.495313],[139.236623,35.49379],[139.237716,35.49267],[139.237937,35.492173],[139.238042,35.491316],[139.238031,35.490777],[139.237926,35.490037],[139.237726,35.489392],[139.237253,35.488482],[139.236539,35.487457],[139.236308,35.486949],[139.236234,35.486347],[139.236287,35.485966],[139.236497,35.48568],[139.236959,35.485406],[139.237642,35.485236],[139.23884,35.485109],[139.240501,35.485363],[139.241436,35.48531],[139.242677,35.485088],[139.247519,35.483963],[139.247398,35.483796],[139.247272,35.483214],[139.247303,35.482715],[139.247235,35.482215],[139.24738,35.481911],[139.247781,35.481578],[139.248005,35.481227],[139.247953,35.480904],[139.248597,35.480285],[139.249127,35.479439],[139.249117,35.477184],[139.24922,35.474221],[139.248902,35.473476],[139.247696,35.471847],[139.246995,35.470597],[139.245957,35.469422],[139.245201,35.468863],[139.244589,35.468065],[139.244046,35.467654],[139.243411,35.466968],[139.243207,35.466386],[139.243139,35.465901],[139.243508,35.465246],[139.244684,35.464603],[139.244753,35.464137],[139.244934,35.46393],[139.245494,35.463535],[139.245889,35.462858],[139.246351,35.462862],[139.246505,35.462788],[139.246594,35.462534],[139.246937,35.462185],[139.247167,35.461642],[139.247494,35.461451],[139.248517,35.460312],[139.248856,35.460146],[139.249094,35.460098],[139.250131,35.46014],[139.250838,35.460296],[139.251116,35.460235],[139.251339,35.459839],[139.251505,35.459784],[139.253157,35.459703],[139.253908,35.459852],[139.254712,35.459763],[139.254896,35.459781],[139.255531,35.46026],[139.257248,35.460871],[139.258475,35.460836],[139.259196,35.460741],[139.260701,35.460699],[139.261737,35.460836],[139.262333,35.461025],[139.262705,35.461088],[139.263498,35.461124],[139.264371,35.461321],[139.265378,35.461919],[139.266107,35.462816],[139.266841,35.462645],[139.266996,35.462693],[139.267258,35.462675],[139.268408,35.462371],[139.268593,35.462282],[139.268944,35.462002],[139.269355,35.461794],[139.269677,35.461705],[139.270558,35.461576],[139.270695,35.461504],[139.271343,35.460891],[139.271337,35.460567],[139.272522,35.459166],[139.273188,35.458714],[139.274101,35.458362],[139.275013,35.458085],[139.27592,35.457604],[139.276211,35.457505],[139.276912,35.457107],[139.277345,35.456443],[139.277638,35.456253],[139.27896,35.456412],[139.279367,35.456396],[139.280838,35.455741],[139.283515,35.4558],[139.28564,35.455229],[139.286093,35.454913],[139.286268,35.45469],[139.286317,35.454272],[139.286299,35.453864],[139.286873,35.453421],[139.287866,35.452995],[139.288081,35.452761],[139.288204,35.452516],[139.288211,35.452216],[139.288021,35.451869],[139.287484,35.451228],[139.287242,35.45087],[139.287143,35.450579],[139.287214,35.450311],[139.287941,35.449473],[139.287968,35.448818],[139.287596,35.448405],[139.287215,35.44782],[139.287146,35.447357],[139.287261,35.446875],[139.287588,35.446311],[139.287608,35.445967],[139.287562,35.445687],[139.287346,35.445319],[139.287023,35.445111],[139.286501,35.444964],[139.285494,35.444788],[139.284635,35.444465],[139.283539,35.443515],[139.282417,35.442006],[139.281644,35.441318],[139.281188,35.440811],[139.281841,35.440652],[139.282121,35.440656],[139.282521,35.440784],[139.282792,35.44076],[139.283049,35.440695],[139.283578,35.440396],[139.283807,35.440351],[139.285336,35.440372],[139.286769,35.440211],[139.288362,35.440135],[139.288528,35.439954],[139.288455,35.439412],[139.288574,35.439209],[139.288938,35.439071],[139.288975,35.438938],[139.289068,35.438868],[139.289512,35.438773],[139.289734,35.438985],[139.290341,35.439412],[139.291677,35.44015],[139.293602,35.441005],[139.294001,35.441365],[139.294086,35.441667],[139.293714,35.441898],[139.293684,35.442069],[139.293912,35.44248],[139.294689,35.443565],[139.295141,35.443904],[139.29573,35.443999],[139.29633,35.444168],[139.297149,35.444545],[139.296625,35.445128],[139.296792,35.445893],[139.296775,35.446709],[139.29653,35.447124],[139.296302,35.447991],[139.296007,35.448277],[139.295307,35.448514],[139.294558,35.451027],[139.294577,35.451371],[139.294676,35.451673],[139.294708,35.451985],[139.294447,35.452572],[139.294375,35.453484],[139.29416,35.453728],[139.292639,35.454877],[139.292025,35.455985],[139.291098,35.457025],[139.291291,35.458413],[139.290731,35.459468],[139.289914,35.463275],[139.29092,35.463292],[139.291205,35.463212],[139.292003,35.462836],[139.293104,35.46249],[139.293378,35.462359],[139.293712,35.462074],[139.293813,35.462038],[139.294069,35.462086],[139.294651,35.462467],[139.295046,35.462824],[139.295372,35.463205],[139.295443,35.463348],[139.295538,35.46383],[139.295705,35.464086],[139.296124,35.464556],[139.296208,35.464717],[139.29622,35.464848],[139.296041,35.465628],[139.296029,35.46589],[139.296053,35.466032],[139.29641,35.466753],[139.296284,35.467709],[139.296243,35.468483],[139.296237,35.468915],[139.296314,35.469689],[139.296505,35.470094],[139.296952,35.470719],[139.297211,35.470998],[139.298419,35.471694],[139.298473,35.47179],[139.298473,35.472099],[139.298295,35.473206],[139.298295,35.473533],[139.299266,35.474533],[139.299397,35.474819],[139.299325,35.475307],[139.29904,35.475872],[139.298998,35.47608],[139.299129,35.476437],[139.299129,35.476556],[139.298903,35.477205],[139.29873,35.477922],[139.298324,35.478452],[139.297567,35.479032],[139.297388,35.479679],[139.297263,35.479859],[139.296892,35.480148],[139.29607,35.480493],[139.295492,35.48088],[139.292883,35.481411],[139.292188,35.481303],[139.292003,35.481369],[139.291567,35.481732],[139.291281,35.481643],[139.290941,35.481637],[139.290739,35.481709],[139.290609,35.481818],[139.290603,35.482366],[139.290208,35.482731],[139.290033,35.483164],[139.289674,35.48369],[139.289513,35.484077],[139.289382,35.485302],[139.289251,35.485463],[139.289,35.485625],[139.288809,35.485862],[139.2885,35.487165],[139.288421,35.487331],[139.288129,35.487647],[139.287974,35.488117],[139.28767,35.488403],[139.287491,35.488665],[139.287205,35.489355],[139.287098,35.48948],[139.286919,35.489582],[139.28601,35.489847],[139.285855,35.489978],[139.285706,35.49027],[139.285468,35.490514],[139.284128,35.491473],[139.283321,35.491988],[139.283291,35.492065],[139.283383,35.492441],[139.283246,35.492886],[139.28268,35.49372],[139.282193,35.494131],[139.281943,35.49447],[139.281799,35.494767],[139.281746,35.495238],[139.281817,35.495565],[139.282139,35.495994],[139.282753,35.49663],[139.283291,35.497398],[139.282446,35.497595],[139.281611,35.497905],[139.280303,35.498662],[139.280116,35.498943],[139.279933,35.499478],[139.279808,35.499663],[139.279546,35.499871],[139.279217,35.50003],[139.278907,35.500304],[139.278522,35.50122],[139.278454,35.502343],[139.278081,35.503493],[139.277864,35.503854],[139.277419,35.504412],[139.277328,35.504603],[139.277288,35.504751],[139.277397,35.505335],[139.277368,35.505515],[139.276955,35.506338],[139.27635,35.507029],[139.275981,35.507354],[139.275863,35.507242],[139.275289,35.507091],[139.27504,35.507097],[139.274368,35.507316],[139.273518,35.507151],[139.272668,35.507214],[139.272089,35.507089],[139.27116,35.507008],[139.270458,35.507031],[139.2702,35.507331],[139.26996,35.507955],[139.269384,35.508215],[139.269124,35.508438],[139.268739,35.508901],[139.268419,35.509131],[139.267811,35.509252],[139.267154,35.509305],[139.266823,35.509289],[139.266503,35.509169],[139.266213,35.509154],[139.265644,35.509457],[139.2651,35.509624],[139.264067,35.510044],[139.263536,35.510193],[139.26377,35.510773],[139.263592,35.511338],[139.263562,35.511873],[139.263621,35.512676],[139.263948,35.512974],[139.264008,35.513301],[139.263651,35.513687],[139.263056,35.514758],[139.262759,35.516067],[139.262223,35.516394],[139.261926,35.517108],[139.261391,35.517643],[139.261212,35.518268],[139.260736,35.518387],[139.260141,35.518893],[139.257732,35.520201],[139.257137,35.519428],[139.256632,35.519487],[139.25562,35.519785],[139.255025,35.520201],[139.254639,35.520766],[139.254431,35.52154],[139.253806,35.521926],[139.253062,35.521986],[139.252676,35.522254],[139.252587,35.522997],[139.251783,35.523265],[139.251397,35.523681],[139.250356,35.524633],[139.250029,35.525704],[139.249523,35.526447],[139.248988,35.526953],[139.248393,35.527221],[139.248303,35.527667],[139.247976,35.528053],[139.247352,35.52847],[139.246965,35.528976],[139.246965,35.529927],[139.24643,35.531712],[139.246102,35.532366],[139.245537,35.532574],[139.245448,35.53311],[139.245002,35.533913],[139.24518,35.534716],[139.245359,35.535222],[139.245686,35.53546],[139.24634,35.535727],[139.246549,35.536114],[139.246668,35.536739],[139.247143,35.537898],[139.24759,35.538761],[139.247798,35.539475],[139.247857,35.542152]]]]}}]}
