{"type":"FeatureCollection","features":[{"type":"Feature","properties":{"potaRef":"JP-1128","nameJa":"Maenikko","nameEn":"Mae Nikko Prefectural Nature Park","authority":"環境省 生物多様性「見える化」マップ","boundaryStatus":"全国GIS候補・公開前検証待ち","boundarySource":"環境省 生物多様性「見える化」マップの自然公園区域を、POTA代表座標で一意に空間照合して加工","boundaryScaleNote":"区域は概要データであり、正確性は保証されない。POTA運用可否は公式情報で最終確認すること。","candidateMethod":"POTA representative point inside one public natural-park area","sourceParkKind":"都道府県立自然公園","sourceName":"Maenikko","sourceFeatureCount":1,"cautionMeters":75},"geometry":{"type":"MultiPolygon","coordinates":[[[[139.554827,36.712807],[139.552968,36.713679],[139.552076,36.713689],[139.551197,36.713979],[139.550166,36.714861],[139.548885,36.715382],[139.548395,36.715272],[139.547402,36.71442],[139.547029,36.713725],[139.546078,36.713706],[139.544073,36.713067],[139.543322,36.712703],[139.542654,36.712015],[139.542573,36.711607],[139.541632,36.710929],[139.541284,36.710432],[139.540853,36.709945],[139.540117,36.709583],[139.539343,36.709728],[139.537453,36.710514],[139.536353,36.710566],[139.535237,36.71033],[139.533692,36.70993],[139.533051,36.71014],[139.531003,36.70986],[139.529797,36.709258],[139.52888,36.709619],[139.528126,36.709479],[139.526933,36.709008],[139.525802,36.708627],[139.524709,36.708347],[139.524131,36.708256],[139.522435,36.708176],[139.521129,36.708256],[139.5204,36.708437],[139.518176,36.709329],[139.51648,36.71021],[139.515651,36.71028],[139.51501,36.710501],[139.514013,36.709769],[139.513553,36.7088],[139.513783,36.708305],[139.513728,36.708084],[139.513367,36.708095],[139.512962,36.708481],[139.512808,36.708921],[139.512239,36.708195],[139.51266,36.708283],[139.512852,36.708371],[139.513071,36.708172],[139.513006,36.707247],[139.512568,36.706917],[139.512495,36.70681],[139.5126,36.706697],[139.512743,36.706697],[139.513267,36.707089],[139.514647,36.707247],[139.514801,36.707115],[139.514647,36.706785],[139.513564,36.706532],[139.513344,36.706365],[139.513221,36.706167],[139.513264,36.706015],[139.513523,36.706153],[139.513695,36.706455],[139.514034,36.706521],[139.514571,36.706223],[139.514626,36.705849],[139.515282,36.705893],[139.515238,36.705585],[139.514582,36.70499],[139.514308,36.704351],[139.512491,36.703371],[139.512163,36.702457],[139.511878,36.702237],[139.512206,36.702127],[139.511801,36.701818],[139.510827,36.701664],[139.510905,36.701522],[139.511101,36.701521],[139.511134,36.701301],[139.511002,36.701179],[139.509634,36.701257],[139.509656,36.700959],[139.509306,36.700838],[139.509139,36.70118],[139.509021,36.701168],[139.50896,36.701049],[139.50912,36.700673],[139.508715,36.700596],[139.508594,36.699318],[139.50773,36.698052],[139.507171,36.69781],[139.506438,36.6976],[139.506285,36.696697],[139.506088,36.696334],[139.506131,36.695563],[139.505551,36.695012],[139.505179,36.69477],[139.503931,36.694385],[139.501414,36.692953],[139.500451,36.692116],[139.500757,36.69183],[139.502191,36.691378],[139.503165,36.690695],[139.503548,36.690222],[139.505803,36.689495],[139.506909,36.689253],[139.508375,36.687821],[139.511714,36.685431],[139.512699,36.685101],[139.513684,36.684209],[139.514023,36.683449],[139.515775,36.68313],[139.516322,36.682381],[139.516957,36.681797],[139.517428,36.681731],[139.51745,36.681004],[139.517077,36.680674],[139.515709,36.680652],[139.514833,36.68009],[139.514275,36.678637],[139.513367,36.677998],[139.511561,36.674991],[139.510576,36.674099],[139.508748,36.670509],[139.509021,36.670025],[139.509065,36.669573],[139.508058,36.669562],[139.506547,36.667756],[139.506022,36.667448],[139.504533,36.666985],[139.503898,36.666479],[139.502322,36.666346],[139.501709,36.665983],[139.500812,36.665807],[139.500451,36.665377],[139.499049,36.664573],[139.49801,36.663384],[139.497386,36.662371],[139.497046,36.661215],[139.496915,36.660256],[139.496302,36.659111],[139.496214,36.658428],[139.495919,36.657988],[139.495831,36.657162],[139.496324,36.656534],[139.496269,36.654739],[139.494649,36.653869],[139.494386,36.653329],[139.494759,36.651964],[139.494802,36.65149],[139.494474,36.650092],[139.494069,36.64931],[139.494069,36.648429],[139.492865,36.64692],[139.492296,36.646733],[139.491508,36.646634],[139.490807,36.646094],[139.489702,36.645753],[139.487983,36.645764],[139.486954,36.645543],[139.485805,36.645455],[139.481054,36.645444],[139.48054,36.645158],[139.478734,36.645092],[139.478055,36.645191],[139.477497,36.645169],[139.4773,36.644861],[139.476763,36.644883],[139.476315,36.644662],[139.474541,36.644817],[139.474016,36.645125],[139.472746,36.645147],[139.472144,36.645389],[139.469342,36.645731],[139.467788,36.646028],[139.467273,36.646292],[139.465369,36.64583],[139.465062,36.64561],[139.464712,36.645521],[139.464022,36.645477],[139.463858,36.64529],[139.463836,36.643077],[139.464438,36.642284],[139.464351,36.641414],[139.464077,36.640808],[139.462676,36.639222],[139.462599,36.637967],[139.461516,36.636051],[139.461713,36.635324],[139.461658,36.634134],[139.461341,36.633793],[139.460585,36.633573],[139.460585,36.634123],[139.459546,36.634751],[139.459403,36.635808],[139.458757,36.636227],[139.457926,36.636392],[139.457882,36.635907],[139.458177,36.635148],[139.458287,36.634101],[139.458276,36.633529],[139.457411,36.631932],[139.457116,36.631084],[139.455802,36.630137],[139.455364,36.630115],[139.454532,36.630632],[139.453591,36.629597],[139.451106,36.626139],[139.450241,36.625544],[139.45022,36.624663],[139.45069,36.624179],[139.450077,36.624025],[139.449213,36.623309],[139.448424,36.623287],[139.447538,36.621998],[139.447921,36.62125],[139.446586,36.618794],[139.445797,36.618419],[139.444615,36.616966],[139.443356,36.616481],[139.444933,36.615655],[139.445535,36.614664],[139.445721,36.612109],[139.44629,36.611415],[139.44641,36.610391],[139.446345,36.608992],[139.446014,36.607519],[139.446809,36.607237],[139.447359,36.607125],[139.447516,36.606995],[139.447694,36.606751],[139.448182,36.606672],[139.448887,36.606451],[139.449441,36.606349],[139.449848,36.606351],[139.450569,36.606492],[139.450977,36.606481],[139.451223,36.606284],[139.451555,36.605855],[139.45179,36.605163],[139.451803,36.60475],[139.451849,36.604638],[139.452667,36.603576],[139.453545,36.60383],[139.454106,36.603872],[139.454597,36.604064],[139.456057,36.604938],[139.456447,36.605312],[139.45714,36.605829],[139.457431,36.606211],[139.457707,36.606331],[139.458003,36.606277],[139.458201,36.606061],[139.458294,36.606021],[139.459132,36.605914],[139.459928,36.605666],[139.460743,36.605679],[139.461264,36.605529],[139.462465,36.605545],[139.462874,36.605663],[139.463133,36.605807],[139.464059,36.605776],[139.464924,36.606291],[139.465142,36.606562],[139.465235,36.606582],[139.465814,36.605918],[139.466397,36.605425],[139.466914,36.605141],[139.467433,36.604958],[139.468396,36.604765],[139.470007,36.604153],[139.470337,36.603839],[139.470426,36.603528],[139.470534,36.603356],[139.471034,36.603143],[139.471439,36.602891],[139.471379,36.602585],[139.471201,36.602185],[139.473184,36.603426],[139.473983,36.603437],[139.474552,36.603624],[139.47603,36.603635],[139.477125,36.6038],[139.479708,36.603271],[139.481131,36.602864],[139.482543,36.602721],[139.483517,36.601763],[139.485969,36.600452],[139.487917,36.6001],[139.488377,36.599824],[139.489067,36.599109],[139.489647,36.598657],[139.491125,36.598481],[139.492241,36.598062],[139.492788,36.597666],[139.493117,36.597049],[139.494332,36.596256],[139.494605,36.595518],[139.495032,36.595144],[139.496291,36.595078],[139.497167,36.594285],[139.498294,36.594032],[139.499115,36.59347],[139.500582,36.592919],[139.501074,36.592589],[139.501523,36.592049],[139.501545,36.591433],[139.501852,36.590992],[139.502344,36.590662],[139.503581,36.590629],[139.504424,36.590111],[139.504621,36.589814],[139.504621,36.589263],[139.507149,36.588195],[139.508047,36.58814],[139.508397,36.587688],[139.508594,36.587127],[139.509656,36.588217],[139.50993,36.588647],[139.509842,36.589329],[139.509667,36.58966],[139.509733,36.589946],[139.510893,36.591477],[139.510948,36.592325],[139.511856,36.593008],[139.512568,36.593272],[139.51329,36.593734],[139.514363,36.595089],[139.514998,36.595552],[139.516059,36.595761],[139.517187,36.596168],[139.520503,36.598084],[139.521138,36.598525],[139.521379,36.598789],[139.521883,36.59891],[139.522463,36.599494],[139.523087,36.599626],[139.523481,36.600034],[139.524017,36.600056],[139.523678,36.600243],[139.523623,36.600474],[139.524313,36.600915],[139.524411,36.601245],[139.524849,36.601432],[139.525287,36.601388],[139.525823,36.601752],[139.526743,36.602071],[139.527367,36.602379],[139.527969,36.602181],[139.528253,36.602181],[139.528396,36.602269],[139.528209,36.602677],[139.528319,36.602963],[139.528811,36.603205],[139.529742,36.603051],[139.529873,36.60315],[139.529808,36.603426],[139.529184,36.604031],[139.529216,36.604395],[139.529392,36.604637],[139.529621,36.604714],[139.52972,36.604978],[139.529884,36.605119],[139.530267,36.60513],[139.530645,36.604849],[139.53088,36.604794],[139.531066,36.604926],[139.531137,36.605212],[139.531827,36.606],[139.532445,36.60595],[139.53272,36.606005],[139.533152,36.606402],[139.534523,36.60661],[139.534918,36.607479],[139.534861,36.607971],[139.535124,36.608462],[139.534467,36.609086],[139.534542,36.609312],[139.535322,36.609841],[139.535744,36.609719],[139.536514,36.610125],[139.536373,36.61038],[139.536542,36.611183],[139.537313,36.611287],[139.537303,36.611996],[139.536937,36.612922],[139.53704,36.613422],[139.538439,36.614887],[139.538486,36.615293],[139.5389,36.615548],[139.539679,36.615624],[139.539895,36.615775],[139.540224,36.617362],[139.540412,36.617636],[139.540928,36.617816],[139.543248,36.616673],[139.543342,36.616021],[139.54368,36.615435],[139.544412,36.614849],[139.545164,36.614603],[139.545671,36.614547],[139.545877,36.614301],[139.545314,36.613394],[139.545276,36.612855],[139.544901,36.612071],[139.545445,36.610947],[139.546262,36.610758],[139.546863,36.610333],[139.547784,36.610049],[139.547633,36.609643],[139.547737,36.60936],[139.548187,36.609388],[139.54845,36.607734],[139.549155,36.607394],[139.549183,36.607149],[139.548901,36.606752],[139.548826,36.605164],[139.549249,36.60489],[139.550047,36.604805],[139.54969,36.60388],[139.549559,36.60131],[139.550451,36.599892],[139.551108,36.599429],[139.553587,36.599155],[139.554545,36.598456],[139.556001,36.598258],[139.556377,36.598116],[139.556001,36.596226],[139.557503,36.595102],[139.559072,36.594526],[139.560255,36.594611],[139.560875,36.593741],[139.561955,36.593108],[139.562622,36.592967],[139.562772,36.592126],[139.563551,36.59119],[139.563401,36.589395],[139.564227,36.588687],[139.564246,36.587175],[139.564594,36.587052],[139.566031,36.586976],[139.5665,36.586542],[139.567308,36.584784],[139.569721,36.584945],[139.570811,36.584076],[139.570839,36.5828],[139.570585,36.582432],[139.57051,36.581978],[139.570707,36.581666],[139.571092,36.581317],[139.571853,36.581799],[139.572595,36.582007],[139.573083,36.58212],[139.575168,36.582167],[139.57545,36.582347],[139.57776,36.584737],[139.578004,36.585436],[139.579131,36.586258],[139.580925,36.586324],[139.581704,36.587477],[139.583864,36.589773],[139.586081,36.588554],[139.586494,36.588072],[139.587574,36.587694],[139.588532,36.587506],[139.591208,36.587364],[139.592514,36.586693],[139.593002,36.58657],[139.59411,36.585899],[139.594298,36.585625],[139.594373,36.58469],[139.594833,36.584359],[139.595951,36.58418],[139.596655,36.58418],[139.598129,36.585417],[139.599031,36.585947],[139.599651,36.586608],[139.599933,36.587477],[139.599867,36.587968],[139.599444,36.588668],[139.599454,36.589943],[139.599144,36.590359],[139.599144,36.593108],[139.599679,36.594819],[139.599632,36.595187],[139.60028,36.595282],[139.600937,36.595943],[139.601266,36.596566],[139.601247,36.597218],[139.599848,36.598607],[139.59981,36.59925],[139.600073,36.599741],[139.601022,36.600762],[139.601351,36.601669],[139.601388,36.602113],[139.600768,36.602689],[139.600252,36.602689],[139.597857,36.604711],[139.595556,36.605911],[139.593039,36.607423],[139.59257,36.608235],[139.591781,36.608509],[139.590109,36.609577],[139.589396,36.609804],[139.589029,36.609775],[139.588541,36.609605],[139.587461,36.609738],[139.587179,36.610021],[139.587104,36.610286],[139.586503,36.610852],[139.586325,36.611467],[139.58594,36.611797],[139.585705,36.612629],[139.582953,36.614641],[139.582296,36.614896],[139.582071,36.615161],[139.582061,36.615728],[139.581047,36.615841],[139.58054,36.615794],[139.579826,36.616247],[139.578831,36.61621],[139.577403,36.617438],[139.576333,36.619016],[139.57452,36.62014],[139.573234,36.621227],[139.572999,36.621784],[139.572952,36.622294],[139.572736,36.622644],[139.572858,36.624798],[139.572989,36.625554],[139.572445,36.626461],[139.570238,36.627982],[139.569552,36.628209],[139.568914,36.628823],[139.56866,36.629636],[139.567195,36.629787],[139.564227,36.629825],[139.562997,36.630552],[139.562293,36.630713],[139.561476,36.630581],[139.561091,36.630325],[139.560743,36.629759],[139.559513,36.628521],[139.558884,36.628011],[139.55895,36.627737],[139.558283,36.626924],[139.556902,36.625771],[139.556151,36.625573],[139.554695,36.625308],[139.55431,36.624987],[139.553662,36.624023],[139.552629,36.623438],[139.549671,36.623608],[139.547295,36.626546],[139.546854,36.626678],[139.546197,36.626593],[139.543482,36.624817],[139.542102,36.62476],[139.541285,36.624241],[139.540618,36.624127],[139.540721,36.625478],[139.540524,36.625705],[139.540036,36.625771],[139.540045,36.625998],[139.540383,36.6263],[139.540318,36.626943],[139.539942,36.627075],[139.539886,36.629022],[139.539538,36.629296],[139.53889,36.629211],[139.538317,36.628785],[139.537378,36.628852],[139.537322,36.62905],[139.537688,36.629428],[139.537773,36.6299],[139.538336,36.630477],[139.53828,36.630722],[139.538036,36.630911],[139.537115,36.630864],[139.537106,36.631091],[139.537482,36.631516],[139.537416,36.631695],[139.536796,36.631932],[139.534908,36.631941],[139.535059,36.632395],[139.536317,36.633387],[139.536937,36.633566],[139.537303,36.633793],[139.537406,36.634284],[139.538026,36.634662],[139.538026,36.635229],[139.537181,36.636363],[139.536514,36.636476],[139.536665,36.637119],[139.536533,36.637355],[139.536017,36.637402],[139.536186,36.637998],[139.535575,36.638763],[139.53503,36.639575],[139.534458,36.639594],[139.534091,36.639434],[139.533415,36.639453],[139.532871,36.638829],[139.532824,36.638423],[139.532279,36.638385],[139.531612,36.638205],[139.531067,36.638517],[139.531556,36.638923],[139.531387,36.639245],[139.532983,36.640407],[139.53319,36.640775],[139.534561,36.641588],[139.534617,36.642183],[139.534232,36.64292],[139.533612,36.643336],[139.533068,36.643468],[139.532833,36.643997],[139.532495,36.644007],[139.532129,36.643865],[139.531067,36.643789],[139.53087,36.644139],[139.531321,36.644621],[139.531452,36.645254],[139.530861,36.645802],[139.530466,36.645811],[139.527978,36.649137],[139.528081,36.650866],[139.529415,36.651102],[139.530241,36.650989],[139.531377,36.651084],[139.532777,36.651802],[139.532993,36.652161],[139.53226,36.652983],[139.532016,36.654381],[139.53211,36.656063],[139.53489,36.65782],[139.535453,36.659143],[139.535528,36.65988],[139.535181,36.660768],[139.53658,36.659644],[139.537435,36.658227],[139.537266,36.657641],[139.536918,36.656932],[139.537097,36.656148],[139.53797,36.655411],[139.538674,36.654636],[139.538853,36.653965],[139.539529,36.65389],[139.541088,36.653219],[139.541398,36.653209],[139.54336,36.651499],[139.5483,36.651858],[139.549324,36.651263],[139.549737,36.650536],[139.552329,36.650044],[139.552658,36.648901],[139.55277,36.64823],[139.553184,36.647673],[139.554489,36.646907],[139.557381,36.647087],[139.557935,36.64721],[139.559072,36.64704],[139.560527,36.646955],[139.562593,36.648155],[139.563016,36.64823],[139.564904,36.648325],[139.566153,36.64755],[139.566754,36.647304],[139.567496,36.647266],[139.568266,36.646709],[139.568763,36.646596],[139.570285,36.647115],[139.572276,36.650734],[139.572614,36.651839],[139.572661,36.653483],[139.573065,36.65508],[139.573036,36.655666],[139.571609,36.658888],[139.571731,36.659691],[139.572266,36.66091],[139.572679,36.662233],[139.573018,36.66365],[139.571646,36.665181],[139.570088,36.665974],[139.569487,36.667051],[139.56943,36.668053],[139.569599,36.669451],[139.570576,36.669791],[139.571778,36.670793],[139.57221,36.670887],[139.573356,36.67255],[139.573487,36.673023],[139.573788,36.673533],[139.57422,36.674667],[139.574032,36.676311],[139.573412,36.676726],[139.573243,36.677218],[139.573318,36.678673],[139.573487,36.679504],[139.573168,36.680884],[139.573562,36.68198],[139.5736,36.682925],[139.57329,36.683246],[139.573741,36.68437],[139.573985,36.685768],[139.573863,36.686307],[139.573384,36.687394],[139.573177,36.689019],[139.573487,36.689595],[139.573008,36.691211],[139.573036,36.692023],[139.572604,36.692609],[139.572417,36.693337],[139.572473,36.694121],[139.572426,36.694773],[139.572623,36.695236],[139.57252,36.696086],[139.57206,36.697069],[139.572135,36.697985],[139.572614,36.698288],[139.573018,36.69911],[139.573609,36.699705],[139.5739,36.700357],[139.574051,36.701557],[139.574426,36.702417],[139.574389,36.704221],[139.574623,36.704769],[139.574586,36.705081],[139.574407,36.705242],[139.573506,36.705572],[139.572792,36.705676],[139.57206,36.705997],[139.57175,36.706271],[139.571684,36.706602],[139.57067,36.707925],[139.570116,36.708208],[139.569749,36.709229],[139.569825,36.710041],[139.569759,36.710268],[139.567364,36.710117],[139.565411,36.711846],[139.564359,36.713178],[139.561184,36.714771],[139.560682,36.71451],[139.5594,36.713719],[139.558873,36.713248],[139.558546,36.712526],[139.557981,36.712116],[139.557453,36.711905],[139.556423,36.711835],[139.554827,36.712807]]]]}}]}
