{"type":"FeatureCollection","features":[{"type":"Feature","properties":{"potaRef":"JP-1352","nameJa":"Nagaoka higashiyama yamamoto yama","nameEn":"Nagaoka Higashiyama Yamamotoyama Prefectural Nature Park","authority":"環境省 生物多様性「見える化」マップ","boundaryStatus":"全国GIS候補・公開前検証待ち","boundarySource":"環境省 生物多様性「見える化」マップの自然公園区域を、POTA代表座標で一意に空間照合して加工","boundaryScaleNote":"区域は概要データであり、正確性は保証されない。POTA運用可否は公式情報で最終確認すること。","candidateMethod":"POTA representative point inside one public natural-park area","sourceParkKind":"都道府県立自然公園","sourceName":"Nagaoka higashiyama yamamoto yama","sourceFeatureCount":1,"cautionMeters":75},"geometry":{"type":"MultiPolygon","coordinates":[[[[138.938678,37.456082],[138.93779,37.456405],[138.93832,37.454772],[138.938525,37.454418],[138.938483,37.453785],[138.938307,37.452959],[138.938633,37.451905],[138.938412,37.451284],[138.937698,37.450575],[138.93666,37.450051],[138.935865,37.449388],[138.935252,37.448587],[138.93491,37.447315],[138.934151,37.446764],[138.933807,37.446267],[138.933485,37.445012],[138.933275,37.443964],[138.932673,37.442798],[138.931578,37.442194],[138.930239,37.441094],[138.929747,37.440231],[138.929418,37.439925],[138.928939,37.440043],[138.927149,37.440914],[138.926634,37.440889],[138.926303,37.44063],[138.925884,37.440021],[138.925391,37.439886],[138.924715,37.439937],[138.922851,37.440617],[138.922317,37.44056],[138.92068,37.438759],[138.919445,37.437503],[138.919402,37.436189],[138.918888,37.436117],[138.918073,37.436182],[138.916653,37.436584],[138.915376,37.436846],[138.913813,37.436676],[138.913452,37.436828],[138.912975,37.436851],[138.910414,37.436205],[138.911205,37.434146],[138.913625,37.432749],[138.913798,37.432214],[138.914246,37.431827],[138.914535,37.431405],[138.914673,37.430727],[138.914987,37.430859],[138.91552,37.430931],[138.915844,37.430716],[138.915812,37.430446],[138.915582,37.430126],[138.915536,37.429666],[138.915718,37.429543],[138.916173,37.429567],[138.916452,37.429524],[138.916618,37.429258],[138.916895,37.429294],[138.917084,37.42963],[138.917338,37.429761],[138.917537,37.429765],[138.917606,37.429418],[138.917376,37.429129],[138.916923,37.428994],[138.916928,37.428805],[138.917429,37.428624],[138.91999,37.42859],[138.920109,37.427864],[138.917654,37.427694],[138.917527,37.426537],[138.916219,37.426498],[138.917117,37.424853],[138.91711,37.423698],[138.917195,37.42275],[138.917524,37.422344],[138.917639,37.421777],[138.917385,37.420934],[138.917176,37.420582],[138.916877,37.420656],[138.916304,37.421263],[138.915633,37.422564],[138.915102,37.423124],[138.914365,37.423222],[138.912678,37.423271],[138.911685,37.424013],[138.910495,37.424736],[138.909675,37.424974],[138.908557,37.425208],[138.908104,37.425105],[138.907498,37.424778],[138.907328,37.424474],[138.90746,37.423986],[138.908725,37.423454],[138.909716,37.423472],[138.910329,37.423386],[138.910907,37.422898],[138.911757,37.422319],[138.912505,37.422166],[138.914027,37.422003],[138.914422,37.421702],[138.915096,37.421002],[138.916052,37.419808],[138.917079,37.419233],[138.917948,37.419035],[138.918287,37.41859],[138.918618,37.417409],[138.918587,37.415273],[138.918266,37.415053],[138.915859,37.41494],[138.914709,37.414564],[138.913526,37.414329],[138.912347,37.413905],[138.911381,37.413366],[138.91104,37.412766],[138.910907,37.412218],[138.910612,37.412118],[138.908679,37.413152],[138.908032,37.413947],[138.907548,37.414247],[138.906954,37.414213],[138.905474,37.413926],[138.903308,37.412629],[138.902557,37.411833],[138.901793,37.410419],[138.901061,37.408935],[138.900362,37.406264],[138.89962,37.404068],[138.89915,37.401814],[138.898704,37.401144],[138.892122,37.400483],[138.891297,37.400208],[138.891257,37.399519],[138.892226,37.398895],[138.893374,37.398275],[138.892774,37.39525],[138.892631,37.392922],[138.892995,37.391623],[138.893648,37.390591],[138.89428,37.389167],[138.894137,37.387899],[138.893316,37.386065],[138.892712,37.384947],[138.891055,37.38324],[138.887348,37.379677],[138.885794,37.37783],[138.883098,37.379253],[138.882399,37.379415],[138.882003,37.379392],[138.881652,37.379212],[138.881625,37.378736],[138.882064,37.377922],[138.883037,37.377195],[138.884077,37.37685],[138.885042,37.376393],[138.885708,37.375977],[138.8863,37.376067],[138.886665,37.376469],[138.888457,37.379033],[138.890469,37.380793],[138.891635,37.381637],[138.892536,37.38276],[138.893146,37.383641],[138.893884,37.384177],[138.894532,37.385106],[138.895003,37.386],[138.895018,37.386886],[138.895339,37.387446],[138.897825,37.387189],[138.90047,37.386176],[138.903503,37.385503],[138.906411,37.385032],[138.908573,37.385007],[138.909955,37.38307],[138.911379,37.38175],[138.912124,37.380624],[138.912774,37.380097],[138.913272,37.380011],[138.915155,37.380013],[138.915829,37.379297],[138.916638,37.378014],[138.916923,37.374855],[138.916294,37.372728],[138.915479,37.371029],[138.914778,37.370566],[138.912715,37.367729],[138.91162,37.367567],[138.907244,37.367727],[138.906778,37.367387],[138.904987,37.365504],[138.904827,37.364837],[138.904531,37.364784],[138.903936,37.364821],[138.903273,37.365117],[138.903066,37.36509],[138.903014,37.364804],[138.903179,37.364238],[138.906722,37.364039],[138.906779,37.363067],[138.906642,37.362662],[138.905685,37.362858],[138.905093,37.362753],[138.904805,37.362415],[138.904269,37.362453],[138.903155,37.361888],[138.902738,37.361928],[138.902549,37.362304],[138.902778,37.362593],[138.903387,37.363173],[138.90275,37.363613],[138.90134,37.364063],[138.900797,37.363294],[138.900643,37.362413],[138.899733,37.361993],[138.898775,37.361146],[138.89818,37.360114],[138.898048,37.359495],[138.898256,37.358455],[138.89821,37.357955],[138.897757,37.358208],[138.897498,37.357919],[138.897598,37.357517],[138.898118,37.357004],[138.898096,37.356719],[138.898438,37.35618],[138.899388,37.356244],[138.900162,37.356186],[138.901003,37.355893],[138.902443,37.356488],[138.902978,37.356497],[138.903081,37.356001],[138.903448,37.355628],[138.903782,37.355396],[138.90373,37.355111],[138.903134,37.35408],[138.902599,37.354094],[138.902364,37.353971],[138.902027,37.353277],[138.901489,37.353386],[138.901315,37.35324],[138.900906,37.350836],[138.901045,37.350127],[138.901589,37.349804],[138.90299,37.349663],[138.90183,37.348598],[138.901671,37.347907],[138.901974,37.347699],[138.903439,37.347416],[138.904253,37.34698],[138.907248,37.348338],[138.908561,37.350284],[138.908636,37.350807],[138.908801,37.351285],[138.908987,37.352071],[138.908987,37.353139],[138.909776,37.353628],[138.910572,37.354947],[138.91086,37.355284],[138.911988,37.355352],[138.912118,37.356042],[138.912728,37.357619],[138.913365,37.358224],[138.911579,37.358311],[138.912387,37.35918],[138.912574,37.359966],[138.912831,37.360327],[138.914571,37.360856],[138.915537,37.361395],[138.915897,37.36235],[138.916517,37.363595],[138.916773,37.364003],[138.917609,37.363876],[138.917119,37.364413],[138.917071,37.365053],[138.917171,37.365743],[138.917333,37.366339],[138.918849,37.366366],[138.918898,37.366723],[138.918633,37.367715],[138.918525,37.368377],[138.91954,37.368253],[138.92001,37.368451],[138.920398,37.369478],[138.920299,37.369832],[138.920026,37.370041],[138.920018,37.370326],[138.920345,37.370332],[138.922027,37.36972],[138.922652,37.369684],[138.922797,37.369829],[138.922374,37.370059],[138.921685,37.37026],[138.921053,37.370534],[138.920536,37.370952],[138.920379,37.371258],[138.920965,37.371577],[138.921905,37.371973],[138.922424,37.372575],[138.922447,37.372813],[138.922835,37.372772],[138.923279,37.372828],[138.923394,37.372996],[138.922966,37.373415],[138.922958,37.373676],[138.923365,37.374016],[138.923687,37.374211],[138.923992,37.373932],[138.924125,37.373436],[138.924872,37.372215],[138.925765,37.372183],[138.926077,37.371666],[138.926588,37.371462],[138.927394,37.371357],[138.927837,37.371436],[138.928061,37.371962],[138.928011,37.372697],[138.927489,37.373305],[138.926851,37.373768],[138.926219,37.374066],[138.925969,37.374512],[138.925961,37.374797],[138.926191,37.375062],[138.926958,37.375289],[138.927429,37.375487],[138.927837,37.375779],[138.929112,37.375896],[138.929768,37.375837],[138.929668,37.37733],[138.929243,37.377631],[138.929141,37.378104],[138.929337,37.378535],[138.929899,37.378663],[138.93051,37.379149],[138.930675,37.37965],[138.93192,37.37979],[138.932262,37.380318],[138.932844,37.380779],[138.935636,37.380917],[138.936049,37.381043],[138.935986,37.381161],[138.935146,37.381407],[138.934551,37.38142],[138.93408,37.381246],[138.933278,37.381208],[138.933068,37.382367],[138.93321,37.383699],[138.933239,37.384791],[138.935605,37.383124],[138.936358,37.382781],[138.937313,37.382655],[138.938558,37.382796],[138.939621,37.383099],[138.939555,37.383311],[138.938595,37.383627],[138.938053,37.383855],[138.938597,37.384624],[138.938499,37.384954],[138.938076,37.385208],[138.938015,37.386346],[138.938368,37.386471],[138.939142,37.386461],[138.939254,37.386724],[138.938948,37.387027],[138.938962,37.387597],[138.939202,37.388621],[138.939072,37.389022],[138.938526,37.389416],[138.938277,37.389815],[138.93856,37.390342],[138.938545,37.390864],[138.938622,37.39134],[138.939204,37.391801],[138.940356,37.392106],[138.941362,37.39229],[138.941929,37.392229],[138.94258,37.392359],[138.94272,37.39267],[138.94331,37.392846],[138.944682,37.392704],[138.945269,37.392975],[138.946205,37.393584],[138.946194,37.393964],[138.9457,37.39462],[138.94481,37.395625],[138.944424,37.396686],[138.942207,37.397265],[138.942228,37.397597],[138.942493,37.398788],[138.942774,37.399387],[138.943327,37.399847],[138.94355,37.400397],[138.944438,37.400555],[138.944929,37.401085],[138.945591,37.400812],[138.946113,37.400204],[138.946965,37.398415],[138.947476,37.397119],[138.94824,37.397488],[138.948809,37.398447],[138.949762,37.398393],[138.949832,37.398014],[138.950075,37.397805],[138.950759,37.397817],[138.950976,37.397512],[138.950744,37.397294],[138.950778,37.396037],[138.951135,37.396043],[138.952124,37.396867],[138.953699,37.39801],[138.954729,37.399499],[138.954778,37.400995],[138.954051,37.401457],[138.952773,37.402503],[138.952376,37.4029],[138.952572,37.403354],[138.952492,37.40518],[138.951836,37.406332],[138.95154,37.407394],[138.951063,37.408525],[138.950919,37.410516],[138.950408,37.410697],[138.949093,37.410935],[138.947815,37.410866],[138.946958,37.410456],[138.946636,37.411368],[138.946767,37.411655],[138.946621,37.411906],[138.946219,37.412147],[138.945783,37.413891],[138.945998,37.414709],[138.945922,37.415393],[138.945822,37.415771],[138.945491,37.415908],[138.945075,37.415901],[138.943594,37.415637],[138.942171,37.415447],[138.941511,37.415672],[138.940889,37.416861],[138.940833,37.417227],[138.940262,37.417904],[138.938816,37.418737],[138.938674,37.419022],[138.938666,37.419694],[138.939502,37.42055],[138.939874,37.421126],[138.940528,37.421137],[138.940925,37.421833],[138.941867,37.422229],[138.94171,37.422511],[138.941517,37.42303],[138.941153,37.423284],[138.941296,37.423524],[138.941655,37.423435],[138.941962,37.423108],[138.942319,37.423115],[138.942668,37.423382],[138.942718,37.423739],[138.942828,37.424073],[138.943202,37.424371],[138.943241,37.424545],[138.942952,37.425112],[138.942938,37.425555],[138.942697,37.425872],[138.942215,37.425769],[138.940776,37.426156],[138.939303,37.427177],[138.938701,37.426871],[138.938105,37.426845],[138.93741,37.427201],[138.937406,37.427962],[138.937838,37.428167],[138.938904,37.428228],[138.939108,37.428334],[138.939411,37.428702],[138.939834,37.428974],[138.940068,37.429855],[138.940944,37.430352],[138.94071,37.430996],[138.941375,37.431878],[138.941202,37.432001],[138.940607,37.431939],[138.939678,37.432609],[138.939669,37.432941],[138.939931,37.433135],[138.940216,37.433591],[138.940124,37.433685],[138.939366,37.433126],[138.938716,37.432948],[138.938309,37.432609],[138.93787,37.43234],[138.937892,37.432625],[138.937502,37.432713],[138.936937,37.432727],[138.936516,37.433517],[138.936945,37.434957],[138.936768,37.435608],[138.936166,37.435987],[138.935909,37.436558],[138.936228,37.437734],[138.936474,37.437805],[138.937097,37.437721],[138.937549,37.438024],[138.937802,37.438787],[138.938231,37.439285],[138.938322,37.439678],[138.938787,37.44036],[138.938662,37.4412],[138.93875,37.441502],[138.939002,37.441888],[138.939537,37.44225],[138.939475,37.442832],[138.939701,37.443421],[138.939601,37.443626],[138.938648,37.444297],[138.938731,37.444649],[138.938548,37.444971],[138.937969,37.44475],[138.937783,37.44483],[138.937764,37.445082],[138.937993,37.445499],[138.938671,37.44598],[138.93903,37.446842],[138.939653,37.447444],[138.939358,37.448104],[138.939409,37.449251],[138.93975,37.449455],[138.940106,37.449477],[138.940456,37.449024],[138.941109,37.448381],[138.941588,37.448243],[138.942194,37.450232],[138.941979,37.451195],[138.941332,37.45194],[138.942071,37.45254],[138.942613,37.453242],[138.942647,37.453492],[138.942379,37.453813],[138.942461,37.454243],[138.941062,37.45473],[138.94026,37.455693],[138.939801,37.456005],[138.939256,37.455996],[138.938678,37.456082]]],[[[138.818265,37.288384],[138.816679,37.289378],[138.816197,37.289612],[138.815837,37.290175],[138.814955,37.290559],[138.813006,37.291768],[138.812181,37.291985],[138.811219,37.29009],[138.811609,37.289793],[138.811897,37.289434],[138.812315,37.288667],[138.812832,37.285876],[138.813498,37.285445],[138.813826,37.28504],[138.813211,37.284396],[138.812956,37.284328],[138.812383,37.284286],[138.811552,37.283574],[138.811057,37.283565],[138.810384,37.282872],[138.80797,37.284188],[138.807966,37.284995],[138.807799,37.285293],[138.807436,37.285523],[138.80696,37.285546],[138.80665,37.285319],[138.806363,37.284965],[138.806149,37.284851],[138.80589,37.284893],[138.805529,37.285076],[138.805581,37.285331],[138.805891,37.285542],[138.80618,37.285816],[138.806094,37.286068],[138.805853,37.28619],[138.805866,37.286396],[138.806786,37.286777],[138.807231,37.287149],[138.807551,37.287693],[138.806679,37.287724],[138.806261,37.287811],[138.80589,37.288326],[138.803309,37.28608],[138.802102,37.284939],[138.800581,37.283688],[138.799676,37.283017],[138.799043,37.283005],[138.798417,37.283173],[138.797584,37.283231],[138.796791,37.282805],[138.792893,37.281583],[138.791974,37.281418],[138.7921,37.279817],[138.79175,37.279599],[138.790878,37.279625],[138.789768,37.280111],[138.789346,37.280124],[138.789349,37.280019],[138.790885,37.27895],[138.791416,37.278401],[138.791856,37.278241],[138.792104,37.277866],[138.792656,37.277517],[138.792988,37.27745],[138.7933,37.277614],[138.79376,37.278129],[138.794016,37.27884],[138.794228,37.279266],[138.794464,37.279313],[138.794705,37.279201],[138.794803,37.279023],[138.794744,37.27878],[138.794401,37.27833],[138.794389,37.277813],[138.793916,37.277298],[138.793527,37.277048],[138.793493,37.276868],[138.794103,37.276774],[138.794367,37.276315],[138.794749,37.275911],[138.795895,37.275531],[138.796545,37.275428],[138.797322,37.275474],[138.798517,37.275665],[138.799088,37.275559],[138.799679,37.275212],[138.800154,37.275199],[138.800475,37.275079],[138.80062,37.274638],[138.800521,37.274405],[138.800019,37.274395],[138.799604,37.274156],[138.799338,37.273792],[138.798861,37.273825],[138.798855,37.274057],[138.798716,37.274287],[138.798179,37.274583],[138.797622,37.274699],[138.796484,37.274804],[138.794808,37.275237],[138.793194,37.275808],[138.792841,37.274789],[138.794926,37.273892],[138.795075,37.273778],[138.795028,37.273556],[138.794782,37.273425],[138.794386,37.273418],[138.792301,37.273864],[138.792001,37.273711],[138.791745,37.272567],[138.791654,37.270255],[138.79175,37.26877],[138.791984,37.267983],[138.792356,37.267884],[138.793719,37.267773],[138.794172,37.268066],[138.794552,37.268168],[138.795533,37.268028],[138.796246,37.26801],[138.79685,37.268105],[138.79721,37.268439],[138.798314,37.269061],[138.798865,37.269155],[138.799673,37.269054],[138.799791,37.269563],[138.800461,37.270103],[138.80087,37.2701],[138.801236,37.26978],[138.802043,37.270638],[138.803137,37.271112],[138.803823,37.271589],[138.804096,37.271721],[138.804727,37.271827],[138.805241,37.272312],[138.805828,37.272554],[138.806706,37.272771],[138.807076,37.272746],[138.80723,37.272422],[138.807437,37.272131],[138.807505,37.271151],[138.807914,37.271159],[138.808543,37.271307],[138.808899,37.271778],[138.809264,37.272376],[138.80954,37.274248],[138.809522,37.274859],[138.809865,37.27534],[138.810232,37.275431],[138.810575,37.275438],[138.810749,37.275346],[138.810668,37.274954],[138.810073,37.273625],[138.810188,37.2733],[138.810634,37.272949],[138.81247,37.271981],[138.812988,37.271843],[138.813225,37.27189],[138.813921,37.272472],[138.814622,37.27239],[138.815753,37.272084],[138.8179,37.271797],[138.818011,37.272041],[138.817902,37.273073],[138.81866,37.273351],[138.81897,37.273588],[138.819763,37.273993],[138.820319,37.274383],[138.82083,37.274994],[138.821294,37.275361],[138.822061,37.275766],[138.822202,37.275926],[138.820333,37.277115],[138.820115,37.277365],[138.820159,37.277661],[138.820479,37.277994],[138.821714,37.277278],[138.822122,37.277328],[138.822264,37.277436],[138.822309,37.277721],[138.822115,37.278498],[138.821999,37.279308],[138.822141,37.280324],[138.822435,37.281131],[138.822791,37.281612],[138.823437,37.282067],[138.823163,37.282874],[138.82262,37.283876],[138.821734,37.283016],[138.821469,37.282136],[138.821547,37.281241],[138.821099,37.281233],[138.820948,37.28142],[138.820926,37.2822],[138.820971,37.282907],[138.821404,37.283464],[138.821614,37.283974],[138.821834,37.284569],[138.821795,37.28499],[138.82151,37.28529],[138.82115,37.2854],[138.820784,37.285267],[138.820261,37.284656],[138.819961,37.284502],[138.819736,37.284541],[138.819729,37.284783],[138.819977,37.285325],[138.819986,37.285927],[138.819778,37.286303],[138.819355,37.286748],[138.818727,37.287032],[138.818296,37.28732],[138.818211,37.287529],[138.818301,37.287615],[138.81866,37.287527],[138.819088,37.287334],[138.819338,37.287349],[138.819318,37.287571],[138.818265,37.288384]]],[[[138.846187,37.330554],[138.846176,37.33097],[138.846032,37.331244],[138.845427,37.331412],[138.845234,37.331625],[138.844897,37.332748],[138.844368,37.333482],[138.843309,37.334341],[138.841245,37.335356],[138.840588,37.33546],[138.840318,37.335453],[138.840193,37.335208],[138.840301,37.334674],[138.840441,37.334379],[138.840816,37.334146],[138.842508,37.333852],[138.84302,37.333407],[138.843197,37.331086],[138.843097,37.329737],[138.842961,37.32956],[138.842482,37.329823],[138.842045,37.330386],[138.841352,37.332219],[138.840618,37.333451],[138.839847,37.334091],[138.83936,37.334284],[138.83877,37.334291],[138.838058,37.33416],[138.836997,37.333498],[138.836846,37.333069],[138.836368,37.332713],[138.836044,37.332949],[138.836423,37.333557],[138.836037,37.333626],[138.835424,37.333377],[138.833866,37.333212],[138.833624,37.333119],[138.834267,37.332457],[138.834349,37.332065],[138.834216,37.331841],[138.833913,37.331736],[138.832965,37.332346],[138.832642,37.332226],[138.832586,37.33206],[138.832724,37.331571],[138.833198,37.330902],[138.833341,37.330237],[138.833882,37.329691],[138.834118,37.329637],[138.834483,37.329766],[138.835039,37.330476],[138.83563,37.330783],[138.836009,37.330789],[138.836616,37.330414],[138.836748,37.330212],[138.836817,37.329151],[138.83717,37.327731],[138.837158,37.327525],[138.836928,37.327328],[138.83671,37.32742],[138.836509,37.327709],[138.836111,37.329424],[138.83528,37.329673],[138.834704,37.329435],[138.834635,37.329236],[138.834895,37.327035],[138.834705,37.326432],[138.83421,37.326259],[138.833501,37.326259],[138.833115,37.326358],[138.832826,37.326603],[138.832906,37.327266],[138.832312,37.327817],[138.831892,37.328895],[138.831589,37.331571],[138.831302,37.332032],[138.830775,37.332675],[138.830131,37.333043],[138.828877,37.333145],[138.828154,37.333002],[138.827821,37.332819],[138.82761,37.332402],[138.826962,37.329632],[138.826346,37.328091],[138.825401,37.326935],[138.825407,37.326745],[138.826026,37.326335],[138.826723,37.325535],[138.827159,37.324605],[138.827273,37.323879],[138.827172,37.323708],[138.826853,37.323755],[138.826149,37.324386],[138.825965,37.324804],[138.825802,37.325423],[138.825239,37.326173],[138.824645,37.326594],[138.823993,37.326308],[138.822642,37.325977],[138.821687,37.325675],[138.818982,37.322851],[138.819285,37.322392],[138.819236,37.321832],[138.818898,37.321183],[138.818777,37.32078],[138.818375,37.32053],[138.81775,37.320244],[138.817547,37.319955],[138.817556,37.319639],[138.81775,37.319316],[138.818819,37.318882],[138.818862,37.318324],[138.818436,37.318421],[138.817952,37.318718],[138.817501,37.318794],[138.816936,37.318689],[138.816797,37.316651],[138.816129,37.316449],[138.815176,37.316072],[138.814701,37.3156],[138.814456,37.314952],[138.814377,37.314476],[138.815558,37.313822],[138.815616,37.313655],[138.815383,37.313503],[138.814364,37.313094],[138.814305,37.31285],[138.814633,37.312497],[138.81578,37.312086],[138.8164,37.312119],[138.816943,37.312076],[138.817596,37.311856],[138.818181,37.311719],[138.818706,37.311824],[138.819124,37.312454],[138.819508,37.312872],[138.820087,37.312925],[138.820042,37.31265],[138.819307,37.311592],[138.819354,37.31134],[138.819635,37.311218],[138.820031,37.311215],[138.820877,37.311653],[138.821395,37.311557],[138.821642,37.311667],[138.822673,37.31254],[138.82348,37.312049],[138.824267,37.311768],[138.824564,37.312016],[138.82499,37.312815],[138.825157,37.311605],[138.825109,37.31095],[138.824663,37.310404],[138.824527,37.309621],[138.824271,37.308899],[138.824512,37.307395],[138.824681,37.307018],[138.825064,37.307025],[138.825199,37.307376],[138.825047,37.308069],[138.825142,37.308461],[138.825376,37.308561],[138.825672,37.308397],[138.826214,37.307901],[138.826332,37.307471],[138.826545,37.306968],[138.826965,37.306575],[138.827733,37.306526],[138.828167,37.306566],[138.828612,37.306711],[138.829257,37.306765],[138.829919,37.306714],[138.830483,37.306851],[138.830794,37.307057],[138.830675,37.307993],[138.83039,37.308716],[138.830009,37.309099],[138.829057,37.309588],[138.829123,37.310517],[138.82903,37.311929],[138.830983,37.312408],[138.831453,37.313524],[138.83188,37.314766],[138.832009,37.31577],[138.831893,37.316159],[138.831537,37.316574],[138.831205,37.316652],[138.830759,37.316528],[138.830359,37.316225],[138.829917,37.315511],[138.829434,37.314858],[138.829198,37.314812],[138.828777,37.315205],[138.828128,37.317102],[138.828113,37.31764],[138.828565,37.317964],[138.828514,37.318375],[138.829961,37.319509],[138.830332,37.319916],[138.830361,37.320265],[138.830162,37.320778],[138.830127,37.321052],[138.830777,37.321412],[138.831515,37.321499],[138.832547,37.321866],[138.833299,37.321901],[138.833883,37.321817],[138.834153,37.32159],[138.834203,37.321253],[138.833943,37.321101],[138.833535,37.32103],[138.833304,37.320825],[138.833308,37.320678],[138.833887,37.320277],[138.83457,37.319962],[138.834682,37.319733],[138.834588,37.31933],[138.833814,37.318672],[138.833381,37.318148],[138.833503,37.317106],[138.833671,37.316761],[138.834322,37.316635],[138.836372,37.316536],[138.837121,37.316644],[138.837922,37.317292],[138.838468,37.317597],[138.838576,37.317504],[138.838392,37.317005],[138.838347,37.315813],[138.838471,37.315646],[138.839778,37.315649],[138.840845,37.31666],[138.841211,37.316804],[138.841509,37.316535],[138.841833,37.315706],[138.842057,37.315607],[138.842549,37.315645],[138.842794,37.315799],[138.843229,37.316648],[138.844046,37.317223],[138.844626,37.31812],[138.845198,37.318802],[138.845536,37.319572],[138.845625,37.320995],[138.845743,37.321182],[138.847646,37.321525],[138.847795,37.321373],[138.847829,37.320746],[138.848024,37.320614],[138.84819,37.320675],[138.848303,37.321133],[138.848865,37.322116],[138.848878,37.322555],[138.849054,37.323341],[138.849088,37.324506],[138.848371,37.32507],[138.848184,37.325524],[138.848097,37.32602],[138.847479,37.326178],[138.847089,37.326474],[138.847097,37.327145],[138.846839,37.328095],[138.846453,37.328364],[138.845849,37.328355],[138.845584,37.328545],[138.84556,37.329147],[138.845013,37.330183],[138.845333,37.330389],[138.846051,37.330345],[138.846187,37.330554]]],[[[138.867159,37.362112],[138.866173,37.363164],[138.865946,37.363317],[138.865662,37.363275],[138.865287,37.362082],[138.865827,37.360952],[138.865266,37.359963],[138.863803,37.358915],[138.863333,37.358799],[138.862251,37.358787],[138.861633,37.358625],[138.860471,37.357727],[138.859272,37.357192],[138.859035,37.35612],[138.860432,37.354009],[138.861022,37.352752],[138.861464,37.352269],[138.862162,37.349221],[138.86216,37.34808],[138.861399,37.346814],[138.861489,37.346418],[138.861774,37.34626],[138.862855,37.346523],[138.863807,37.346921],[138.864346,37.347355],[138.864675,37.347845],[138.864494,37.348894],[138.862837,37.350777],[138.862754,37.351007],[138.862871,37.351263],[138.863166,37.351241],[138.864895,37.349826],[138.865769,37.349655],[138.866032,37.349779],[138.866005,37.350329],[138.866658,37.350928],[138.866738,37.351534],[138.866917,37.351668],[138.867229,37.351621],[138.867471,37.351233],[138.867291,37.350745],[138.867371,37.350279],[138.867149,37.349778],[138.867731,37.349141],[138.868011,37.348935],[138.867619,37.34877],[138.866858,37.348711],[138.866078,37.348217],[138.865973,37.34746],[138.864848,37.345238],[138.864725,37.344669],[138.864142,37.343813],[138.863891,37.343696],[138.863529,37.343713],[138.862787,37.344196],[138.86235,37.344232],[138.861834,37.343486],[138.861616,37.342807],[138.861361,37.342448],[138.859275,37.341324],[138.85865,37.340879],[138.858287,37.340088],[138.858305,37.339675],[138.858508,37.339218],[138.859024,37.338664],[138.859248,37.338567],[138.859739,37.33862],[138.860207,37.338947],[138.860026,37.339619],[138.860012,37.340571],[138.860366,37.340776],[138.860859,37.340703],[138.861371,37.339266],[138.861295,37.338867],[138.860575,37.338295],[138.860231,37.337713],[138.859741,37.337522],[138.858464,37.337456],[138.858557,37.337123],[138.858958,37.336778],[138.860366,37.337123],[138.861682,37.337983],[138.862384,37.338169],[138.863172,37.338652],[138.864144,37.339017],[138.864566,37.339338],[138.865075,37.340086],[138.865879,37.340507],[138.867545,37.340995],[138.868406,37.340434],[138.868716,37.340455],[138.869185,37.341518],[138.869326,37.342183],[138.868901,37.343327],[138.86915,37.343677],[138.869645,37.343731],[138.869971,37.343625],[138.869999,37.342867],[138.870766,37.342025],[138.87113,37.341345],[138.871088,37.34109],[138.870427,37.340489],[138.869787,37.339573],[138.869863,37.339298],[138.870209,37.339263],[138.870704,37.339456],[138.871513,37.340486],[138.872808,37.34056],[138.872945,37.340718],[138.872893,37.341502],[138.873047,37.341787],[138.873358,37.341674],[138.873721,37.341079],[138.873929,37.340964],[138.874261,37.341089],[138.874209,37.342075],[138.87407,37.342452],[138.873912,37.342725],[138.873239,37.343301],[138.872973,37.343772],[138.873312,37.343736],[138.874319,37.343209],[138.874732,37.343245],[138.874042,37.344567],[138.87388,37.345323],[138.874513,37.34535],[138.874833,37.345628],[138.874932,37.34611],[138.874821,37.346628],[138.874164,37.346727],[138.873746,37.347045],[138.873184,37.348185],[138.873445,37.349041],[138.872833,37.34981],[138.872565,37.350654],[138.873003,37.351043],[138.873615,37.351091],[138.874094,37.350878],[138.874692,37.350374],[138.875075,37.35038],[138.87563,37.350628],[138.876153,37.351472],[138.875359,37.352228],[138.875077,37.352703],[138.875067,37.352987],[138.875216,37.353239],[138.875572,37.353293],[138.876009,37.353238],[138.877217,37.353291],[138.877762,37.353617],[138.877772,37.353966],[138.877188,37.354319],[138.875094,37.354076],[138.874557,37.354145],[138.873596,37.354966],[138.872677,37.356602],[138.872456,37.357336],[138.872394,37.357745],[138.873009,37.357725],[138.873519,37.357545],[138.874513,37.356527],[138.874799,37.35594],[138.87494,37.355819],[138.875088,37.35586],[138.875245,37.356157],[138.875227,37.356517],[138.874725,37.357494],[138.874877,37.357756],[138.875364,37.35809],[138.875344,37.358527],[138.875677,37.359303],[138.875616,37.35947],[138.874928,37.359592],[138.87337,37.359424],[138.873051,37.359488],[138.873021,37.360021],[138.873471,37.360957],[138.871115,37.362671],[138.870764,37.362679],[138.870443,37.362155],[138.870183,37.361849],[138.869106,37.362244],[138.867599,37.361425],[138.867159,37.362112]]],[[[138.951451,37.36764],[138.949387,37.368078],[138.949246,37.367815],[138.9497,37.367491],[138.950839,37.367178],[138.952797,37.367331],[138.953547,37.367083],[138.954696,37.366391],[138.955064,37.36597],[138.955726,37.365673],[138.956248,37.365065],[138.956388,37.363216],[138.956189,37.361765],[138.955922,37.360645],[138.956024,37.360172],[138.958339,37.35809],[138.958302,37.357421],[138.958435,37.357277],[138.959074,37.357114],[138.959041,37.356845],[138.957676,37.356758],[138.956201,37.356353],[138.954675,37.35629],[138.953465,37.355905],[138.952522,37.355321],[138.951811,37.355238],[138.950708,37.355567],[138.949755,37.355469],[138.945859,37.354219],[138.944778,37.354027],[138.943589,37.354072],[138.942903,37.353695],[138.9422,37.352358],[138.942247,37.349975],[138.941605,37.347286],[138.940196,37.344286],[138.940006,37.343618],[138.939713,37.343447],[138.938212,37.344155],[138.935085,37.345079],[138.932664,37.346292],[138.931315,37.346506],[138.929908,37.346539],[138.928317,37.347116],[138.927078,37.347854],[138.926772,37.346362],[138.926834,37.344253],[138.92712,37.343406],[138.928365,37.3419],[138.928955,37.34075],[138.929438,37.340181],[138.930761,37.339126],[138.931083,37.3386],[138.932284,37.337507],[138.933086,37.337188],[138.933108,37.337558],[138.932901,37.338598],[138.93397,37.338763],[138.934408,37.338912],[138.93508,37.339371],[138.936109,37.34036],[138.936745,37.340744],[138.936899,37.340751],[138.937587,37.340596],[138.939305,37.34057],[138.939661,37.340318],[138.940459,37.339881],[138.94118,37.339752],[138.941998,37.339733],[138.942995,37.339849],[138.943529,37.340017],[138.943792,37.340557],[138.944043,37.340796],[138.944465,37.340984],[138.94521,37.341158],[138.945356,37.34134],[138.945315,37.341495],[138.945096,37.341843],[138.94521,37.342108],[138.945586,37.342603],[138.945595,37.342752],[138.945408,37.343282],[138.945441,37.343411],[138.945603,37.343541],[138.946137,37.343896],[138.94736,37.344491],[138.948418,37.344507],[138.948733,37.344753],[138.948928,37.34483],[138.949843,37.345011],[138.951123,37.344998],[138.951431,37.345083],[138.952043,37.345726],[138.952423,37.345984],[138.952812,37.34634],[138.953217,37.346805],[138.953411,37.347193],[138.953464,37.347455],[138.953464,37.348172],[138.953594,37.348884],[138.954246,37.349844],[138.954521,37.350529],[138.954942,37.351292],[138.956425,37.351673],[138.956826,37.351696],[138.95762,37.351553],[138.958786,37.351418],[138.959159,37.351437],[138.961463,37.352041],[138.961698,37.352061],[138.962783,37.35177],[138.963448,37.351783],[138.964655,37.351906],[138.964643,37.352206],[138.964566,37.352436],[138.964186,37.353156],[138.964253,37.353422],[138.964137,37.353923],[138.96383,37.354296],[138.963206,37.354851],[138.962206,37.355424],[138.962113,37.355563],[138.962001,37.355973],[138.961849,37.356834],[138.961695,37.357059],[138.960931,37.357219],[138.960169,37.357139],[138.959902,37.357163],[138.959718,37.357364],[138.959433,37.358033],[138.959029,37.358459],[138.958884,37.35877],[138.958471,37.359296],[138.957963,37.359669],[138.956909,37.360158],[138.957084,37.361046],[138.95736,37.361574],[138.957286,37.362288],[138.957301,37.36287],[138.957745,37.363797],[138.957299,37.364047],[138.957053,37.364321],[138.956701,37.364863],[138.956016,37.36622],[138.954437,37.367169],[138.953236,37.367599],[138.952047,37.367579],[138.951451,37.36764]]]]}}]}
