{"type":"FeatureCollection","features":[{"type":"Feature","properties":{"potaRef":"JP-1533","nameJa":"Tajima sangaku","nameEn":"Tajima Sangaku Prefectural Nature Park","authority":"環境省 生物多様性「見える化」マップ","boundaryStatus":"全国GIS候補・公開前検証待ち","boundarySource":"環境省 生物多様性「見える化」マップの自然公園区域を、POTA代表座標で一意に空間照合して加工","boundaryScaleNote":"区域は概要データであり、正確性は保証されない。POTA運用可否は公式情報で最終確認すること。","candidateMethod":"POTA representative point inside one public natural-park area","sourceParkKind":"都道府県立自然公園","sourceName":"Tajima sangaku","sourceFeatureCount":1,"cautionMeters":75},"geometry":{"type":"MultiPolygon","coordinates":[[[[134.607356,35.567464],[134.60621,35.568224],[134.60496,35.568942],[134.603354,35.568003],[134.602058,35.567404],[134.60128,35.567275],[134.598784,35.567776],[134.598006,35.567561],[134.596557,35.56641],[134.595523,35.565515],[134.594336,35.563898],[134.592417,35.56334],[134.590759,35.562613],[134.588689,35.561163],[134.585214,35.560133],[134.583192,35.559447],[134.581071,35.557742],[134.578014,35.55633],[134.574694,35.555725],[134.573138,35.55521],[134.571529,35.555162],[134.570133,35.553968],[134.566568,35.550518],[134.565951,35.549412],[134.565397,35.546057],[134.566031,35.541815],[134.564403,35.542825],[134.561252,35.542924],[134.55941,35.5422],[134.557338,35.541136],[134.556765,35.54053],[134.555546,35.539753],[134.554714,35.540051],[134.553558,35.540387],[134.552262,35.54091],[134.551131,35.540943],[134.549449,35.540522],[134.548803,35.540463],[134.548409,35.540726],[134.547851,35.541497],[134.547591,35.542534],[134.547196,35.543173],[134.546294,35.543434],[134.545812,35.54298],[134.54561,35.541979],[134.544873,35.541637],[134.544457,35.541862],[134.544315,35.542389],[134.542739,35.543807],[134.541833,35.544879],[134.540944,35.546408],[134.540569,35.548359],[134.539733,35.549332],[134.536921,35.550721],[134.536449,35.551526],[134.534571,35.552919],[134.531088,35.553585],[134.529576,35.554513],[134.527862,35.554591],[134.526514,35.554161],[134.525735,35.554158],[134.525576,35.554752],[134.525412,35.556067],[134.525097,35.55666],[134.524266,35.556572],[134.522151,35.554186],[134.520699,35.553841],[134.519404,35.553369],[134.518469,35.553365],[134.517535,35.553192],[134.516137,35.55255],[134.51479,35.551865],[134.513542,35.552157],[134.512607,35.552196],[134.51157,35.551895],[134.510484,35.551126],[134.508823,35.55112],[134.50695,35.551621],[134.505909,35.551999],[134.505229,35.552845],[134.505275,35.553694],[134.505583,35.554417],[134.506511,35.555439],[134.506508,35.555948],[134.505257,35.556622],[134.504424,35.557001],[134.503122,35.557072],[134.501808,35.556812],[134.501331,35.555678],[134.49999,35.554144],[134.497471,35.552691],[134.497025,35.552152],[134.496823,35.551217],[134.496971,35.549633],[134.498255,35.549129],[134.49989,35.547863],[134.501111,35.546425],[134.50115,35.545689],[134.500462,35.545036],[134.500468,35.544045],[134.500892,35.542661],[134.501249,35.540823],[134.501703,35.540287],[134.502228,35.539356],[134.502028,35.538082],[134.502209,35.536781],[134.50354,35.534212],[134.504072,35.53212],[134.504705,35.530595],[134.505613,35.529184],[134.505652,35.528477],[134.505559,35.526779],[134.504671,35.524823],[134.504365,35.52386],[134.504369,35.523322],[134.504856,35.522956],[134.506244,35.522255],[134.507531,35.521213],[134.508159,35.520338],[134.509481,35.519269],[134.510911,35.517435],[134.511367,35.516532],[134.513516,35.515861],[134.514624,35.515753],[134.514938,35.515443],[134.514974,35.515103],[134.513253,35.513625],[134.512806,35.51317],[134.512775,35.512491],[134.51376,35.509949],[134.515127,35.507012],[134.516434,35.508318],[134.517897,35.50674],[134.520013,35.505758],[134.521156,35.505678],[134.522365,35.506022],[134.523606,35.506762],[134.52538,35.505213],[134.5266,35.50369],[134.52761,35.502591],[134.527614,35.501912],[134.527065,35.501089],[134.527347,35.500241],[134.527283,35.499392],[134.526834,35.499136],[134.526493,35.498399],[134.527259,35.497581],[134.526289,35.497719],[134.525076,35.49811],[134.524101,35.499125],[134.523266,35.499857],[134.522856,35.499007],[134.521859,35.498013],[134.520202,35.497242],[134.519201,35.496842],[134.519965,35.496392],[134.520627,35.495574],[134.520392,35.494385],[134.519243,35.49192],[134.518283,35.490539],[134.519213,35.489147],[134.520033,35.488309],[134.521613,35.487778],[134.524899,35.487433],[134.52792,35.48748],[134.528289,35.487147],[134.528424,35.483925],[134.52902,35.481898],[134.529899,35.481256],[134.530868,35.480258],[134.531459,35.479114],[134.531092,35.478074],[134.53067,35.47707],[134.52984,35.475857],[134.529671,35.474949],[134.529793,35.473915],[134.529704,35.472594],[134.529498,35.47124],[134.52654,35.471324],[134.524655,35.470951],[134.522829,35.470387],[134.521975,35.470033],[134.521124,35.469266],[134.520213,35.468673],[134.519301,35.468335],[134.517958,35.468346],[134.51675,35.46866],[134.514878,35.469384],[134.512989,35.469663],[134.511608,35.469737],[134.509822,35.468966],[134.50829,35.468227],[134.506894,35.46749],[134.506046,35.466102],[134.505531,35.464476],[134.505076,35.462532],[134.504555,35.461878],[134.503527,35.461253],[134.503451,35.460998],[134.503554,35.460075],[134.504121,35.45968],[134.504978,35.459476],[134.505234,35.45892],[134.505539,35.456757],[134.505113,35.456437],[134.504123,35.456178],[134.503096,35.455537],[134.502402,35.454516],[134.502347,35.453911],[134.502682,35.45326],[134.504709,35.452568],[134.505062,35.452108],[134.505495,35.451202],[134.506921,35.450189],[134.50807,35.449939],[134.508516,35.45026],[134.509057,35.450835],[134.509563,35.450741],[134.509918,35.449931],[134.51035,35.449312],[134.51154,35.448792],[134.51345,35.448051],[134.514072,35.448165],[134.51456,35.447865],[134.515494,35.447869],[134.516153,35.44819],[134.516597,35.448748],[134.517219,35.448783],[134.517905,35.447862],[134.517402,35.447415],[134.516705,35.446903],[134.515406,35.446165],[134.513135,35.445424],[134.512262,35.445039],[134.511878,35.444369],[134.511681,35.441423],[134.512874,35.44033],[134.513444,35.439377],[134.513353,35.438422],[134.513587,35.438184],[134.514033,35.438504],[134.514437,35.439206],[134.514548,35.440209],[134.514406,35.441196],[134.513635,35.44315],[134.513552,35.444057],[134.513899,35.444647],[134.514286,35.444856],[134.515277,35.44513],[134.516921,35.446585],[134.518241,35.447004],[134.519485,35.447137],[134.520263,35.447092],[134.521663,35.447273],[134.522012,35.447481],[134.522367,35.446623],[134.522626,35.445589],[134.522399,35.44449],[134.521571,35.442975],[134.520819,35.441906],[134.517991,35.439953],[134.515676,35.436967],[134.514843,35.436391],[134.512513,35.435681],[134.511195,35.43496],[134.510908,35.434179],[134.510606,35.432697],[134.510011,35.431422],[134.508945,35.430796],[134.505202,35.429285],[134.504136,35.428596],[134.503205,35.428274],[134.502388,35.428319],[134.500323,35.428931],[134.499235,35.428815],[134.498399,35.42878],[134.497716,35.429047],[134.496704,35.42933],[134.496018,35.430154],[134.495334,35.430709],[134.494615,35.430578],[134.492691,35.430347],[134.491913,35.430471],[134.490802,35.430912],[134.48973,35.431178],[134.486881,35.432758],[134.486494,35.432454],[134.485587,35.431479],[134.484501,35.430981],[134.484172,35.43063],[134.484098,35.43012],[134.484569,35.429374],[134.485174,35.429026],[134.487904,35.42786],[134.488975,35.427594],[134.489892,35.427121],[134.490638,35.425978],[134.491518,35.425265],[134.492748,35.424475],[134.495399,35.423419],[134.496528,35.423169],[134.497577,35.423269],[134.498528,35.423671],[134.499707,35.423104],[134.498582,35.422718],[134.49721,35.421359],[134.496319,35.420735],[134.493699,35.419992],[134.492453,35.420321],[134.49144,35.420507],[134.488719,35.420321],[134.485864,35.419911],[134.48345,35.420346],[134.480882,35.420574],[134.480261,35.420476],[134.479779,35.419837],[134.47884,35.417732],[134.478558,35.416155],[134.478545,35.415089],[134.478821,35.414597],[134.479759,35.4139],[134.480598,35.413379],[134.482004,35.412398],[134.482435,35.411906],[134.482674,35.411048],[134.482627,35.409233],[134.482383,35.407816],[134.481788,35.406683],[134.481112,35.405885],[134.481196,35.404978],[134.4834,35.400754],[134.484166,35.399595],[134.485415,35.398789],[134.486935,35.39819],[134.489198,35.396831],[134.490215,35.395881],[134.490766,35.39488],[134.494441,35.39149],[134.494834,35.390743],[134.495946,35.390064],[134.496728,35.389366],[134.497435,35.38816],[134.498609,35.386876],[134.499315,35.385876],[134.500252,35.385275],[134.501348,35.384022],[134.503243,35.382422],[134.504178,35.382012],[134.505986,35.381988],[134.506821,35.382103],[134.506994,35.382342],[134.506988,35.383393],[134.507139,35.384109],[134.507581,35.384875],[134.509067,35.3866],[134.509471,35.387318],[134.509506,35.388034],[134.509308,35.388511],[134.508191,35.39005],[134.508012,35.39075],[134.507949,35.391561],[134.507317,35.393134],[134.50753,35.393247],[134.5086,35.393203],[134.510079,35.392907],[134.511287,35.392434],[134.512732,35.391199],[134.512868,35.391327],[134.512864,35.391852],[134.512549,35.392535],[134.511765,35.393614],[134.511452,35.393963],[134.511102,35.393962],[134.510771,35.394072],[134.510807,35.394565],[134.511038,35.394964],[134.510881,35.395202],[134.510277,35.395502],[134.51006,35.396058],[134.510133,35.396695],[134.510131,35.397125],[134.509993,35.397458],[134.509466,35.397854],[134.509133,35.398219],[134.509326,35.39849],[134.510644,35.399005],[134.511361,35.399358],[134.511573,35.399709],[134.511801,35.400569],[134.511974,35.400873],[134.512285,35.400858],[134.512968,35.400574],[134.513047,35.400288],[134.512817,35.39973],[134.513072,35.399301],[134.513251,35.398761],[134.513447,35.398475],[134.514305,35.397922],[134.514506,35.396792],[134.515348,35.395904],[134.5164,35.395399],[134.516887,35.395258],[134.517375,35.394942],[134.517841,35.394912],[134.518212,35.394643],[134.518737,35.394724],[134.5192,35.395267],[134.519739,35.396177],[134.520126,35.396449],[134.521097,35.396612],[134.522261,35.396887],[134.522959,35.397208],[134.52354,35.397624],[134.524122,35.39777],[134.524733,35.399618],[134.525428,35.400433],[134.526088,35.400754],[134.526651,35.400724],[134.52696,35.401107],[134.527054,35.401681],[134.526876,35.402205],[134.527068,35.402572],[134.52852,35.40358],[134.530209,35.403969],[134.530988,35.403829],[134.531516,35.403305],[134.532023,35.403021],[134.532098,35.403483],[134.532291,35.403754],[134.532892,35.404011],[134.533825,35.403967],[134.534507,35.403747],[134.534797,35.403891],[134.534249,35.404653],[134.534245,35.405226],[134.532939,35.405873],[134.53171,35.406585],[134.531514,35.406934],[134.534452,35.406516],[134.535366,35.406503],[134.536044,35.406777],[134.536817,35.407719],[134.537257,35.408834],[134.537347,35.410188],[134.537189,35.410664],[134.537461,35.41065],[134.53873,35.409699],[134.540261,35.410597],[134.540006,35.412307],[134.541582,35.41217],[134.541842,35.412553],[134.541867,35.413246],[134.541335,35.414533],[134.540158,35.416414],[134.54097,35.417277],[134.541615,35.416682],[134.542872,35.416019],[134.54369,35.415879],[134.544243,35.416],[134.5431,35.416951],[134.543035,35.41812],[134.544637,35.418556],[134.544693,35.41901],[134.543581,35.419626],[134.545477,35.419657],[134.546641,35.419996],[134.547048,35.42026],[134.545878,35.420805],[134.54538,35.421256],[134.545671,35.421449],[134.546312,35.42157],[134.548378,35.42227],[134.548201,35.422699],[134.547263,35.423532],[134.546356,35.42403],[134.546995,35.424533],[134.547372,35.424941],[134.54757,35.426063],[134.547566,35.426732],[134.548849,35.42688],[134.549547,35.427145],[134.549545,35.427599],[134.549244,35.429245],[134.549404,35.430201],[134.549533,35.430371],[134.550611,35.429993],[134.550361,35.430544],[134.549813,35.431189],[134.549462,35.431336],[134.549615,35.431931],[134.549806,35.432409],[134.550136,35.43264],[134.551532,35.433385],[134.550946,35.433956],[134.550181,35.435051],[134.549796,35.436148],[134.550025,35.436984],[134.550546,35.437679],[134.550253,35.437845],[134.550554,35.43822],[134.551922,35.438726],[134.551629,35.439059],[134.550749,35.439868],[134.550838,35.440327],[134.551245,35.440663],[134.552585,35.440971],[134.553322,35.441323],[134.555023,35.443208],[134.555412,35.443321],[134.555667,35.442844],[134.555806,35.442351],[134.555732,35.441698],[134.556084,35.441302],[134.556612,35.440874],[134.556633,35.440572],[134.556578,35.439951],[134.556249,35.439536],[134.556136,35.438962],[134.556139,35.438421],[134.555236,35.436428],[134.555182,35.435521],[134.55535,35.433357],[134.555568,35.432514],[134.556116,35.431959],[134.556487,35.431738],[134.557032,35.431549],[134.557984,35.431727],[134.559128,35.432384],[134.559843,35.433119],[134.560228,35.4339],[134.560086,35.434886],[134.560218,35.435778],[134.560661,35.43656],[134.562206,35.438539],[134.562673,35.438397],[134.564449,35.43721],[134.565678,35.43653],[134.566593,35.43647],[134.567543,35.43703],[134.567969,35.437366],[134.569785,35.435988],[134.570818,35.435514],[134.571734,35.435167],[134.571789,35.435804],[134.572245,35.437684],[134.572763,35.43915],[134.573595,35.439964],[134.575067,35.44102],[134.576792,35.442156],[134.578576,35.443197],[134.579991,35.444173],[134.582092,35.446388],[134.582785,35.447918],[134.583129,35.449089],[134.583356,35.450307],[134.583644,35.451072],[134.584223,35.451838],[134.584659,35.452269],[134.585241,35.452606],[134.586202,35.452943],[134.586698,35.452802],[134.587489,35.452303],[134.588105,35.451517],[134.58808,35.450777],[134.587763,35.450036],[134.586864,35.448887],[134.585991,35.448478],[134.585,35.448236],[134.585848,35.447881],[134.586085,35.447213],[134.586467,35.446618],[134.587257,35.446238],[134.58761,35.445762],[134.587817,35.44507],[134.587791,35.444426],[134.587532,35.4439],[134.588297,35.442541],[134.588596,35.441134],[134.589007,35.440682],[134.589681,35.440063],[134.590294,35.439874],[134.590792,35.439566],[134.590823,35.439256],[134.590416,35.43892],[134.590651,35.438539],[134.590711,35.438157],[134.590363,35.437774],[134.589811,35.437438],[134.589053,35.437292],[134.588676,35.436885],[134.588297,35.43674],[134.58786,35.436786],[134.587277,35.436665],[134.586171,35.436041],[134.585707,35.435633],[134.585357,35.435536],[134.58489,35.435678],[134.583632,35.436318],[134.581529,35.436908],[134.581415,35.436335],[134.581507,35.435452],[134.582856,35.434072],[134.583181,35.433261],[134.583708,35.433],[134.58432,35.432955],[134.584642,35.432741],[134.586364,35.433441],[134.587675,35.433756],[134.59173,35.433817],[134.593274,35.434157],[134.594089,35.434517],[134.595367,35.435524],[134.596586,35.436746],[134.597402,35.437083],[134.598568,35.437063],[134.5988,35.437517],[134.599314,35.439668],[134.599128,35.44184],[134.599558,35.443464],[134.600482,35.445401],[134.600416,35.446977],[134.599913,35.44836],[134.599411,35.449504],[134.599167,35.451723],[134.598018,35.453844],[134.597101,35.456467],[134.597974,35.456828],[134.598784,35.458383],[134.599758,35.461943],[134.599667,35.462731],[134.599629,35.46433],[134.599797,35.465811],[134.599446,35.466025],[134.598512,35.465974],[134.597322,35.464681],[134.596537,35.464201],[134.595689,35.464556],[134.594662,35.465603],[134.59387,35.466555],[134.593604,35.467151],[134.595757,35.468447],[134.595843,35.468782],[134.594817,35.469614],[134.593122,35.470086],[134.591399,35.470438],[134.58976,35.471268],[134.588732,35.472506],[134.587086,35.47484],[134.585443,35.476506],[134.586256,35.477487],[134.586954,35.477848],[134.588004,35.477923],[134.588942,35.477234],[134.59036,35.473825],[134.590621,35.474136],[134.591057,35.474424],[134.591699,35.474474],[134.59205,35.474427],[134.593102,35.474096],[134.594765,35.474245],[134.596192,35.474728],[134.59663,35.474681],[134.597332,35.474421],[134.59803,35.474853],[134.598784,35.475834],[134.599889,35.47665],[134.601405,35.477084],[134.602601,35.477184],[134.603273,35.477115],[134.603449,35.476852],[134.602312,35.476538],[134.600914,35.476009],[134.600128,35.475552],[134.599402,35.47481],[134.599171,35.474332],[134.60046,35.473405],[134.601811,35.471762],[134.601026,35.471067],[134.601437,35.470615],[134.602316,35.469949],[134.602027,35.469375],[134.60133,35.468514],[134.601158,35.467892],[134.601424,35.467296],[134.602305,35.466201],[134.602915,35.465123],[134.603196,35.463482],[134.603668,35.462552],[134.603849,35.461359],[134.604113,35.461026],[134.603275,35.459209],[134.602928,35.458659],[134.602993,35.457322],[134.602937,35.456773],[134.60256,35.456366],[134.602593,35.455602],[134.602829,35.455101],[134.603355,35.454816],[134.604085,35.454867],[134.606209,35.455996],[134.608305,35.457029],[134.609093,35.456864],[134.610553,35.456774],[134.6107,35.456535],[134.610527,35.456105],[134.610062,35.455602],[134.610473,35.455269],[134.6117,35.454772],[134.613103,35.454323],[134.613657,35.454348],[134.61482,35.455259],[134.614852,35.454782],[134.614651,35.454113],[134.614332,35.453587],[134.613517,35.45325],[134.612992,35.453224],[134.612203,35.453484],[134.610071,35.453907],[134.609197,35.453642],[134.608584,35.453568],[134.607795,35.45378],[134.607388,35.453612],[134.606835,35.453204],[134.607482,35.45218],[134.607223,35.451487],[134.607341,35.451153],[134.607955,35.451059],[134.607927,35.450797],[134.607665,35.450509],[134.607726,35.450128],[134.608368,35.449986],[134.608515,35.449724],[134.608195,35.449604],[134.608051,35.449269],[134.608987,35.448771],[134.609046,35.44858],[134.608668,35.44834],[134.608728,35.447911],[134.609139,35.447411],[134.608908,35.447052],[134.608561,35.446358],[134.607747,35.445759],[134.606815,35.445445],[134.606347,35.445707],[134.604508,35.445868],[134.603691,35.445841],[134.603783,35.445054],[134.603849,35.443478],[134.604122,35.441211],[134.604709,35.440544],[134.606055,35.439737],[134.606935,35.438785],[134.607579,35.43819],[134.607465,35.43776],[134.607497,35.43714],[134.607966,35.436568],[134.608639,35.436165],[134.608202,35.436139],[134.607149,35.436613],[134.606068,35.436968],[134.605339,35.437085],[134.604727,35.436796],[134.60429,35.436747],[134.603646,35.437127],[134.602946,35.437244],[134.602598,35.436765],[134.601789,35.435235],[134.602026,35.434543],[134.601854,35.433803],[134.601536,35.433157],[134.601659,35.432012],[134.601314,35.430936],[134.600591,35.429645],[134.600363,35.428689],[134.600485,35.427424],[134.600315,35.426564],[134.600641,35.425395],[134.601114,35.424275],[134.601177,35.42332],[134.60159,35.422247],[134.601595,35.421197],[134.601016,35.420383],[134.600728,35.419666],[134.600818,35.419236],[134.601463,35.418379],[134.601525,35.417735],[134.601297,35.41654],[134.600896,35.415059],[134.600055,35.414101],[134.599972,35.413289],[134.601093,35.410762],[134.601945,35.409404],[134.603117,35.408214],[134.606687,35.405671],[134.609789,35.403342],[134.613301,35.400823],[134.61605,35.399089],[134.617951,35.397781],[134.619392,35.395112],[134.620271,35.394327],[134.621876,35.393926],[134.622664,35.393857],[134.623628,35.393335],[134.626351,35.390813],[134.629655,35.388818],[134.631205,35.387629],[134.631706,35.38646],[134.632468,35.385746],[134.632733,35.384959],[134.6337,35.383912],[134.634231,35.382553],[134.634994,35.381361],[134.635579,35.380909],[134.635671,35.380026],[134.636287,35.379216],[134.639412,35.377889],[134.641425,35.377346],[134.642381,35.378757],[134.643051,35.378831],[134.644131,35.378476],[134.645092,35.378861],[134.646286,35.379127],[134.647245,35.379631],[134.648408,35.380327],[134.649979,35.381119],[134.651378,35.381266],[134.652106,35.381412],[134.652332,35.38306],[134.652679,35.383705],[134.653464,35.384304],[134.654716,35.384523],[134.656204,35.38436],[134.657575,35.384101],[134.659558,35.383987],[134.661425,35.383658],[134.662944,35.382923],[134.663909,35.382066],[134.665252,35.381616],[134.666826,35.381764],[134.668311,35.382269],[134.669765,35.383037],[134.671912,35.38555],[134.67258,35.386268],[134.673453,35.386604],[134.67561,35.386562],[134.677767,35.386687],[134.679457,35.387074],[134.685805,35.388833],[134.689456,35.388696],[134.691773,35.388306],[134.694542,35.387068],[134.696064,35.386535],[134.699107,35.385806],[134.701043,35.3855],[134.705051,35.385651],[134.707606,35.386223],[134.709782,35.38637],[134.71196,35.385951],[134.713827,35.385672],[134.716382,35.386046],[134.719801,35.386677],[134.720074,35.387555],[134.719898,35.388544],[134.7218,35.38804],[134.723355,35.388071],[134.724977,35.388669],[134.726531,35.388786],[134.728603,35.389243],[134.729084,35.389867],[134.731293,35.390608],[134.731603,35.391174],[134.731081,35.392022],[134.729624,35.393914],[134.727579,35.395664],[134.723284,35.398767],[134.722036,35.399754],[134.720927,35.400827],[134.719539,35.402493],[134.718844,35.403425],[134.719325,35.404162],[134.720012,35.405465],[134.720251,35.40623],[134.718557,35.406452],[134.717833,35.406139],[134.717106,35.40642],[134.716173,35.406447],[134.714549,35.406358],[134.713684,35.40661],[134.713058,35.407543],[134.712332,35.407739],[134.711223,35.408585],[134.710288,35.409149],[134.709492,35.40926],[134.708938,35.40974],[134.707694,35.409709],[134.706967,35.409905],[134.705892,35.410921],[134.705512,35.41075],[134.704858,35.410041],[134.703409,35.409302],[134.701965,35.407459],[134.700376,35.407003],[134.699926,35.4072],[134.69958,35.407538],[134.69999,35.408586],[134.700677,35.40972],[134.700731,35.410866],[134.70011,35.41044],[134.699747,35.410567],[134.69995,35.411628],[134.700466,35.412351],[134.70119,35.412947],[134.701395,35.413584],[134.701184,35.414602],[134.700505,35.415874],[134.702215,35.416217],[134.70382,35.416603],[134.704704,35.415969],[134.705793,35.415929],[134.706569,35.416398],[134.707396,35.417206],[134.708384,35.416445],[134.709942,35.415727],[134.710925,35.416111],[134.712272,35.416454],[134.713982,35.416628],[134.715228,35.416334],[134.716629,35.41587],[134.717563,35.415703],[134.718081,35.415789],[134.71865,35.416342],[134.719375,35.416471],[134.720308,35.416515],[134.720721,35.417026],[134.720822,35.417747],[134.721231,35.419446],[134.721382,35.420762],[134.721586,35.421824],[134.721375,35.422757],[134.720387,35.423603],[134.719556,35.424026],[134.718001,35.423937],[134.71722,35.424742],[134.716077,35.425631],[134.714986,35.426137],[134.714413,35.42673],[134.71384,35.42745],[134.713114,35.427661],[134.711398,35.428803],[134.709581,35.429605],[134.708018,35.431468],[134.706089,35.434477],[134.705929,35.435495],[134.706437,35.438595],[134.707102,35.440973],[134.707618,35.441654],[134.711606,35.443361],[134.713314,35.444256],[134.716165,35.444772],[134.717252,35.445411],[134.717977,35.447032],[134.71937,35.449137],[134.720764,35.450688],[134.722212,35.451922],[134.722105,35.452855],[134.721635,35.453958],[134.72049,35.454846],[134.718569,35.455521],[134.716805,35.455559],[134.713438,35.454193],[134.709918,35.452105],[134.707329,35.450911],[134.706655,35.450994],[134.703538,35.452175],[134.703898,35.453067],[134.705247,35.453028],[134.708556,35.455794],[134.709177,35.456475],[134.709536,35.457452],[134.709274,35.458173],[134.709687,35.458853],[134.709995,35.459787],[134.709784,35.460508],[134.709262,35.461483],[134.709259,35.462502],[134.709567,35.463267],[134.710396,35.463608],[134.710503,35.462802],[134.711025,35.461827],[134.712271,35.461448],[134.713101,35.461493],[134.71398,35.462174],[134.714911,35.462982],[134.716311,35.46341],[134.716982,35.464133],[134.717861,35.465196],[134.719208,35.465624],[134.720868,35.46567],[134.720555,35.466264],[134.718525,35.468084],[134.717995,35.471308],[134.715966,35.472916],[134.712638,35.47503],[134.709831,35.476424],[134.707909,35.477141],[134.707599,35.476801],[134.707809,35.47608],[134.708381,35.475742],[134.70937,35.474853],[134.709631,35.474259],[134.708647,35.47379],[134.706729,35.473403],[134.706001,35.473784],[134.705981,35.474641],[134.705702,35.475206],[134.705286,35.475516],[134.703452,35.475766],[134.703346,35.476304],[134.704555,35.476816],[134.705315,35.477072],[134.705208,35.477836],[134.705206,35.478317],[134.704825,35.478571],[134.703926,35.478512],[134.704166,35.478994],[134.705029,35.479618],[134.704957,35.480184],[134.703055,35.480179],[134.702569,35.480518],[134.703189,35.481453],[134.704154,35.482219],[134.704808,35.483098],[134.704771,35.483918],[134.704214,35.484709],[134.702203,35.486034],[134.699502,35.486735],[134.696007,35.487094],[134.693791,35.487456],[134.692164,35.48782],[134.690222,35.489116],[134.690184,35.489965],[134.690282,35.491352],[134.690176,35.492031],[134.689791,35.493048],[134.689578,35.494661],[134.689574,35.495623],[134.688111,35.498194],[134.686449,35.498557],[134.684239,35.497363],[134.684173,35.496627],[134.683933,35.495947],[134.681313,35.493422],[134.683374,35.490717],[134.680946,35.490012],[134.678911,35.489899],[134.675757,35.490159],[134.674573,35.490693],[134.673197,35.489884],[134.670908,35.48746],[134.670325,35.485525],[134.669609,35.483804],[134.669352,35.482514],[134.668698,35.481814],[134.667058,35.48138],[134.665814,35.48041],[134.664634,35.479977],[134.662796,35.479757],[134.661152,35.480397],[134.659177,35.481412],[134.658322,35.481678],[134.657471,35.481138],[134.656753,35.480223],[134.655376,35.479682],[134.653801,35.479301],[134.651444,35.477844],[134.650263,35.477411],[134.650793,35.476392],[134.651523,35.474729],[134.651202,35.472848],[134.649959,35.471985],[134.648849,35.470317],[134.648857,35.468598],[134.648141,35.467253],[134.647226,35.466283],[134.648217,35.464675],[134.648027,35.463224],[134.648949,35.462421],[134.649805,35.46194],[134.650531,35.461029],[134.651651,35.460119],[134.6548,35.460719],[134.656181,35.460293],[134.657036,35.459758],[134.657955,35.459814],[134.657953,35.460352],[134.659396,35.460678],[134.66051,35.461218],[134.661558,35.461812],[134.662805,35.461816],[134.665264,35.461003],[134.665792,35.460288],[134.665795,35.459787],[134.66558,35.458712],[134.665846,35.457925],[134.667119,35.457069],[134.667866,35.456211],[134.668664,35.453707],[134.668754,35.45317],[134.668713,35.452525],[134.668191,35.451843],[134.666574,35.451302],[134.664908,35.451978],[134.663768,35.452512],[134.662367,35.452615],[134.661143,35.452325],[134.66027,35.451678],[134.659045,35.451496],[134.658079,35.452245],[134.655978,35.452454],[134.655321,35.452416],[134.654842,35.451878],[134.653233,35.449653],[134.651661,35.448825],[134.651095,35.448071],[134.650488,35.446816],[134.64861,35.445951],[134.646687,35.445408],[134.645333,35.444652],[134.644723,35.444077],[134.644465,35.443146],[134.644166,35.441354],[134.643864,35.440351],[134.644001,35.439062],[134.644578,35.437309],[134.644627,35.436056],[134.64424,35.434586],[134.644333,35.433261],[134.644559,35.431579],[134.644522,35.430182],[134.645093,35.429683],[134.646014,35.429041],[134.647896,35.428903],[134.650262,35.428265],[134.651885,35.427303],[134.654208,35.426307],[134.656048,35.425596],[134.65417,35.424767],[134.653647,35.4243],[134.655222,35.424448],[134.656537,35.423771],[134.657376,35.422055],[134.657381,35.420694],[134.656817,35.419797],[134.655906,35.417789],[134.655252,35.41725],[134.655212,35.41639],[134.655739,35.415891],[134.656262,35.416358],[134.657313,35.416253],[134.657881,35.41647],[134.658626,35.41597],[134.659461,35.415149],[134.659332,35.414504],[134.658986,35.413572],[134.659339,35.412928],[134.659079,35.412426],[134.659082,35.411674],[134.658866,35.411029],[134.659698,35.410888],[134.660137,35.410317],[134.659834,35.409671],[134.659266,35.409455],[134.659049,35.409132],[134.658351,35.408593],[134.657435,35.408089],[134.657611,35.407731],[134.659188,35.407306],[134.659803,35.406699],[134.660723,35.406236],[134.662614,35.403913],[134.662617,35.403161],[134.66183,35.40298],[134.658242,35.4034],[134.657005,35.403865],[134.654639,35.404646],[134.652505,35.405977],[134.650255,35.406973],[134.648035,35.408041],[134.646309,35.409134],[134.644614,35.410132],[134.643936,35.411729],[134.643669,35.412827],[134.643254,35.414138],[134.643514,35.414712],[134.644239,35.415765],[134.645575,35.417058],[134.647257,35.41914],[134.647805,35.420526],[134.647655,35.421457],[134.647389,35.422339],[134.646568,35.423387],[134.645686,35.424889],[134.644876,35.426112],[134.643779,35.426861],[134.642816,35.426823],[134.640799,35.427998],[134.638603,35.429782],[134.637025,35.43053],[134.635751,35.431493],[134.635185,35.43099],[134.633744,35.430448],[134.630815,35.429866],[134.628932,35.430147],[134.627487,35.430465],[134.626306,35.430282],[134.624909,35.429669],[134.621682,35.427367],[134.6202,35.426216],[134.618015,35.425708],[134.617572,35.426709],[134.616429,35.428067],[134.616073,35.429176],[134.615587,35.430177],[134.61484,35.430998],[134.614749,35.431642],[134.613476,35.432498],[134.612683,35.433534],[134.61246,35.434428],[134.61285,35.435361],[134.613284,35.436078],[134.614681,35.43662],[134.616211,35.437019],[134.618442,35.437097],[134.620368,35.437103],[134.621724,35.437],[134.62273,35.43729],[134.625135,35.437548],[134.62951,35.43774],[134.632048,35.437784],[134.632035,35.440434],[134.631373,35.441829],[134.630405,35.4429],[134.629522,35.444688],[134.629253,35.446012],[134.629466,35.447266],[134.63003,35.448306],[134.631162,35.449635],[134.630284,35.450169],[134.630018,35.451028],[134.62997,35.451923],[134.63014,35.452998],[134.63018,35.453929],[134.629867,35.455396],[134.630345,35.456042],[134.631567,35.456762],[134.631565,35.457335],[134.631869,35.457766],[134.632481,35.457911],[134.633529,35.458451],[134.634486,35.459707],[134.634877,35.460461],[134.634865,35.463111],[134.635079,35.464257],[134.634504,35.465509],[134.633538,35.466079],[134.630516,35.466428],[134.63025,35.467322],[134.628752,35.469251],[134.627084,35.470428],[134.623966,35.472424],[134.622957,35.472958],[134.622293,35.474424],[134.622288,35.475605],[134.622197,35.476393],[134.625343,35.477728],[134.626041,35.478088],[134.626514,35.480095],[134.627387,35.480599],[134.628565,35.481569],[134.630136,35.482505],[134.631097,35.483153],[134.632453,35.483336],[134.633987,35.482983],[134.635607,35.483059],[134.636525,35.483277],[134.638141,35.484248],[134.63875,35.484931],[134.638485,35.485646],[134.637519,35.486252],[134.636024,35.487644],[134.635802,35.488324],[134.636017,35.489041],[134.636365,35.489579],[134.63588,35.490401],[134.635219,35.491223],[134.635215,35.492225],[134.635651,35.492656],[134.635428,35.493444],[134.634027,35.493547],[134.632797,35.494223],[134.631966,35.494113],[134.630299,35.494717],[134.629726,35.495503],[134.628193,35.495749],[134.626875,35.496676],[134.624897,35.49821],[134.623709,35.499531],[134.623094,35.499923],[134.622613,35.499814],[134.621783,35.499382],[134.620643,35.499522],[134.6188,35.500339],[134.617836,35.500623],[134.617127,35.502268],[134.616681,35.504057],[134.616895,35.50445],[134.617236,35.505696],[134.616988,35.506742],[134.615839,35.508294],[134.61542,35.509029],[134.61552,35.509849],[134.615132,35.511348],[134.615268,35.511914],[134.616752,35.512768],[134.617959,35.513649],[134.618058,35.514752],[134.617915,35.515657],[134.617117,35.516193],[134.616732,35.516955],[134.617073,35.518116],[134.616655,35.518653],[134.615856,35.519273],[134.615851,35.520319],[134.616157,35.521565],[134.616325,35.5225],[134.615735,35.52295],[134.614656,35.52405],[134.613995,35.524897],[134.614096,35.525548],[134.614855,35.52589],[134.615476,35.52643],[134.615542,35.527024],[134.616372,35.52714],[134.618,35.527032],[134.618694,35.526468],[134.619253,35.525508],[134.620258,35.5252],[134.621848,35.525545],[134.624138,35.52442],[134.624726,35.524535],[134.62538,35.525244],[134.626725,35.526267],[134.627451,35.526609],[134.628489,35.526612],[134.631388,35.526032],[134.63253,35.526078],[134.633566,35.526591],[134.635118,35.527826],[134.637132,35.530167],[134.637903,35.531994],[134.637841,35.534243],[134.636325,35.536573],[134.635433,35.53865],[134.635428,35.539753],[134.636049,35.540222],[134.636981,35.540819],[134.637187,35.541159],[134.636716,35.541837],[134.636554,35.543194],[134.636397,35.543576],[134.634159,35.54463],[134.632595,35.545941],[134.631601,35.547636],[134.628837,35.550046],[134.627948,35.551529],[134.627475,35.552716],[134.628355,35.553271],[134.628768,35.553908],[134.628971,35.5548],[134.631093,35.556504],[134.631553,35.558119],[134.631548,35.559222],[134.63227,35.560413],[134.631692,35.561684],[134.630329,35.564439],[134.62965,35.565328],[134.62502,35.566757],[134.620502,35.56653],[134.61863,35.566991],[134.617483,35.567921],[134.61608,35.568002],[134.614263,35.567741],[134.613536,35.567866],[134.612182,35.568498],[134.611041,35.568198],[134.61011,35.567346],[134.609592,35.567005],[134.608344,35.567213],[134.607356,35.567464]],[[134.570024,35.498294],[134.571245,35.499301],[134.570279,35.499799],[134.5701,35.500539],[134.57091,35.501926],[134.572073,35.502742],[134.572656,35.502887],[134.572709,35.503938],[134.572619,35.504641],[134.57321,35.503128],[134.573448,35.50215],[134.573343,35.500073],[134.57277,35.49797],[134.571554,35.496032],[134.570919,35.494788],[134.570305,35.49481],[134.569961,35.493782],[134.568975,35.492513],[134.568652,35.492751],[134.56876,35.494494],[134.568554,35.494708],[134.56745,35.493869],[134.566314,35.493387],[134.565117,35.493383],[134.563837,35.492543],[134.561712,35.491485],[134.559263,35.490807],[134.557519,35.489583],[134.556299,35.488457],[134.556127,35.487883],[134.556305,35.487311],[134.55698,35.486693],[134.557363,35.486097],[134.556432,35.485568],[134.554571,35.484272],[134.553791,35.482813],[134.55298,35.481664],[134.552868,35.480733],[134.553286,35.479039],[134.553186,35.475959],[134.55363,35.474958],[134.554196,35.472883],[134.553391,35.470684],[134.552756,35.469369],[134.551654,35.468028],[134.549885,35.466183],[134.549015,35.465058],[134.547623,35.463572],[134.545731,35.462777],[134.543578,35.461599],[134.541923,35.460232],[134.54088,35.458891],[134.540014,35.457289],[134.539468,35.455806],[134.538522,35.452795],[134.538359,35.450717],[134.537713,35.446274],[134.537315,35.444458],[134.537492,35.444053],[134.539187,35.443678],[134.540183,35.442917],[134.54048,35.441987],[134.540192,35.441294],[134.539437,35.440647],[134.539498,35.440241],[134.54003,35.43893],[134.540238,35.438262],[134.540095,35.437784],[134.539135,35.437303],[134.53797,35.437036],[134.537973,35.436535],[134.538444,35.435796],[134.539264,35.435227],[134.53877,35.434914],[134.537834,35.435269],[134.537014,35.43591],[134.536313,35.436123],[134.534768,35.435926],[134.53413,35.435255],[134.533759,35.433797],[134.533857,35.431935],[134.534212,35.431149],[134.53547,35.430437],[134.536201,35.430106],[134.536175,35.429509],[134.533238,35.428089],[134.533329,35.427469],[134.533073,35.426274],[134.532813,35.425891],[134.532422,35.427943],[134.532506,35.42854],[134.532241,35.428897],[134.531396,35.428774],[134.53061,35.428533],[134.529776,35.426428],[134.529524,35.424661],[134.529416,35.423156],[134.529656,35.422011],[134.529779,35.420985],[134.529519,35.420531],[134.52879,35.420456],[134.528239,35.420048],[134.527805,35.419426],[134.5267,35.418753],[134.526528,35.418275],[134.527412,35.416774],[134.527973,35.415511],[134.528506,35.414248],[134.52842,35.413866],[134.527605,35.413743],[134.526789,35.413501],[134.5265,35.413046],[134.526415,35.41264],[134.525862,35.412471],[134.525164,35.412134],[134.524992,35.411656],[134.525111,35.411203],[134.524938,35.410963],[134.524237,35.411104],[134.522271,35.413197],[134.521303,35.414124],[134.52089,35.41491],[134.521322,35.415891],[134.52254,35.417042],[134.52309,35.417688],[134.523,35.418118],[134.522646,35.418904],[134.522875,35.419574],[134.522757,35.41986],[134.522083,35.42031],[134.521354,35.420331],[134.520711,35.420472],[134.520242,35.421019],[134.52053,35.421522],[134.522026,35.425037],[134.522599,35.42683],[134.523518,35.429221],[134.523339,35.429889],[134.523307,35.430414],[134.524152,35.430608],[134.525256,35.431281],[134.526654,35.43174],[134.528194,35.432749],[134.529183,35.433135],[134.529911,35.433305],[134.530696,35.433785],[134.531362,35.434719],[134.531708,35.435389],[134.5315,35.436008],[134.530623,35.436363],[134.529774,35.436885],[134.529915,35.437721],[134.531248,35.439302],[134.532411,35.439975],[134.532434,35.441049],[134.532953,35.442006],[134.533358,35.442605],[134.533236,35.443464],[134.532616,35.44475],[134.53252,35.446254],[134.532567,35.44826],[134.532791,35.449836],[134.533223,35.450864],[134.533246,35.451891],[134.529431,35.45073],[134.526056,35.44907],[134.524629,35.448706],[134.524479,35.449422],[134.525586,35.449641],[134.526517,35.450098],[134.528614,35.450751],[134.530039,35.451568],[134.53079,35.452813],[134.531573,35.453627],[134.531714,35.454416],[134.532147,35.455325],[134.533247,35.456785],[134.53307,35.457047],[134.53263,35.457451],[134.532889,35.458216],[134.533324,35.458576],[134.535461,35.457343],[134.536396,35.457179],[134.536744,35.457634],[134.538652,35.460602],[134.540336,35.462088],[134.539954,35.462612],[134.539921,35.463304],[134.540935,35.464621],[134.542241,35.465772],[134.542826,35.465536],[134.543465,35.466159],[134.544217,35.467284],[134.543975,35.468906],[134.54365,35.469454],[134.544172,35.470172],[134.544551,35.47015],[134.54599,35.468627],[134.546632,35.468558],[134.547738,35.469159],[134.549452,35.470479],[134.550322,35.471532],[134.550723,35.472847],[134.551071,35.473158],[134.55227,35.472733],[134.552355,35.47333],[134.552086,35.474332],[134.551553,35.475786],[134.551836,35.477435],[134.551565,35.478938],[134.551318,35.481348],[134.550586,35.481679],[134.550435,35.482586],[134.551245,35.483974],[134.552221,35.486866],[134.553667,35.489306],[134.555411,35.490674],[134.557273,35.491803],[134.558352,35.492069],[134.5594,35.492479],[134.560739,35.493295],[134.562456,35.494233],[134.563507,35.494189],[134.565021,35.494887],[134.568018,35.496831],[134.570024,35.498294]]],[[[134.576669,35.370123],[134.575702,35.37098],[134.575147,35.371336],[134.574739,35.371263],[134.572237,35.370299],[134.569996,35.369718],[134.567197,35.369971],[134.564309,35.370462],[134.563169,35.371007],[134.561973,35.371217],[134.560515,35.371212],[134.556881,35.370667],[134.557867,35.370017],[134.558919,35.369483],[134.55901,35.368803],[134.558536,35.367584],[134.55794,35.364538],[134.557859,35.363356],[134.557647,35.362209],[134.557084,35.361276],[134.55617,35.360377],[134.555734,35.360233],[134.555693,35.359803],[134.556266,35.358838],[134.556406,35.357191],[134.558478,35.354083],[134.5584,35.352917],[134.557756,35.353416],[134.557347,35.353605],[134.557233,35.353127],[134.557066,35.351623],[134.556521,35.35014],[134.556204,35.349471],[134.556566,35.34718],[134.556481,35.346702],[134.555842,35.346414],[134.554882,35.346147],[134.554388,35.345835],[134.553835,35.345714],[134.552323,35.345159],[134.551452,35.344655],[134.549939,35.344291],[134.549214,35.343596],[134.548956,35.342759],[134.548116,35.34192],[134.546926,35.341057],[134.546406,35.340386],[134.546262,35.340075],[134.547951,35.340177],[134.550281,35.340401],[134.552057,35.340479],[134.5534,35.340126],[134.55533,35.338844],[134.561102,35.338244],[134.562819,35.338537],[134.564334,35.338685],[134.566198,35.338692],[134.567102,35.338576],[134.568821,35.338558],[134.570163,35.338253],[134.570864,35.337921],[134.571853,35.338306],[134.573509,35.3391],[134.574411,35.339366],[134.574906,35.33932],[134.57587,35.338941],[134.576807,35.337942],[134.577333,35.337657],[134.578147,35.338066],[134.579308,35.338858],[134.581401,35.339772],[134.583556,35.340162],[134.584574,35.340476],[134.584863,35.340906],[134.584948,35.341432],[134.584858,35.341814],[134.584244,35.342217],[134.583687,35.342932],[134.583624,35.343791],[134.583967,35.345201],[134.584573,35.346205],[134.585588,35.347259],[134.587945,35.347936],[134.588677,35.347246],[134.589323,35.346222],[134.590228,35.345962],[134.593345,35.346092],[134.594481,35.346048],[134.595182,35.345764],[134.596469,35.344742],[134.597783,35.344268],[134.601189,35.344877],[134.6032,35.344788],[134.609084,35.345237],[134.61092,35.345004],[134.615114,35.345471],[134.615434,35.345615],[134.615112,35.345877],[134.614993,35.346449],[134.614174,35.347187],[134.613708,35.347042],[134.613532,35.347232],[134.613501,35.347758],[134.613382,35.348235],[134.613001,35.348735],[134.612242,35.348971],[134.611456,35.348873],[134.610788,35.348417],[134.609681,35.348247],[134.60901,35.348483],[134.607665,35.349458],[134.60635,35.35017],[134.604452,35.350856],[134.60305,35.351591],[134.602201,35.352472],[134.600705,35.354377],[134.599241,35.355852],[134.598276,35.356446],[134.596494,35.357276],[134.595381,35.358394],[134.594647,35.359537],[134.594732,35.360111],[134.594525,35.360564],[134.593795,35.360871],[134.592424,35.361106],[134.59021,35.361074],[134.588488,35.36157],[134.587084,35.362424],[134.585825,35.36359],[134.58544,35.364782],[134.584765,35.365759],[134.583416,35.36733],[134.581251,35.368826],[134.57985,35.369323],[134.578566,35.369533],[134.576669,35.370123]]],[[[134.575945,35.422472],[134.574487,35.422392],[134.573882,35.421125],[134.573678,35.421052],[134.57324,35.421194],[134.572802,35.421216],[134.572453,35.421096],[134.571694,35.42126],[134.571433,35.420877],[134.571145,35.420255],[134.571179,35.419324],[134.57127,35.418561],[134.57113,35.417605],[134.57122,35.416961],[134.570988,35.416793],[134.570699,35.416386],[134.570467,35.416147],[134.569738,35.416096],[134.569184,35.415999],[134.569012,35.415545],[134.568545,35.415543],[134.56761,35.415802],[134.567143,35.415848],[134.56697,35.415609],[134.567381,35.415157],[134.567733,35.414633],[134.567618,35.414442],[134.566976,35.414368],[134.566657,35.41408],[134.566456,35.413482],[134.565961,35.413337],[134.565612,35.413169],[134.564823,35.413524],[134.564033,35.413951],[134.562515,35.414328],[134.561844,35.414373],[134.561465,35.4143],[134.560561,35.414321],[134.559949,35.414223],[134.558843,35.413837],[134.556879,35.4134],[134.555597,35.413061],[134.553945,35.413103],[134.552098,35.413032],[134.551088,35.412806],[134.550605,35.412327],[134.550007,35.411481],[134.549971,35.411019],[134.550167,35.410638],[134.5505,35.410289],[134.550443,35.410066],[134.550192,35.409731],[134.550058,35.409285],[134.550002,35.408887],[134.549713,35.408472],[134.549092,35.408231],[134.548326,35.406079],[134.547788,35.405043],[134.547189,35.404388],[134.547249,35.40407],[134.547796,35.403515],[134.548869,35.402962],[134.549279,35.402502],[134.549825,35.402185],[134.551012,35.402015],[134.551091,35.401824],[134.550476,35.400548],[134.550119,35.398414],[134.551132,35.397893],[134.551849,35.398325],[134.552641,35.39914],[134.553417,35.399541],[134.55396,35.399718],[134.554233,35.399592],[134.554506,35.399386],[134.554646,35.398781],[134.555348,35.398211],[134.556477,35.398008],[134.557954,35.398077],[134.558596,35.398016],[134.5591,35.398241],[134.560072,35.398117],[134.561157,35.397647],[134.561398,35.396191],[134.561895,35.395954],[134.562188,35.395621],[134.562802,35.395361],[134.563037,35.395028],[134.562691,35.394262],[134.562607,35.393737],[134.563192,35.393309],[134.563718,35.393096],[134.566018,35.393773],[134.566224,35.39332],[134.566313,35.392962],[134.566782,35.392558],[134.566756,35.392306],[134.566583,35.391923],[134.565865,35.391698],[134.564699,35.391725],[134.563843,35.391866],[134.563124,35.391815],[134.562644,35.390715],[134.561676,35.390027],[134.561041,35.388879],[134.560402,35.388415],[134.556444,35.387112],[134.552912,35.386255],[134.552059,35.385822],[134.550585,35.385291],[134.550295,35.385036],[134.550122,35.384717],[134.549991,35.383777],[134.549361,35.381706],[134.548955,35.381306],[134.549191,35.380878],[134.549644,35.37967],[134.550156,35.378589],[134.5501,35.374626],[134.5488,35.374287],[134.547362,35.374298],[134.546819,35.374136],[134.54618,35.373641],[134.545659,35.373066],[134.545739,35.372572],[134.546779,35.372634],[134.547654,35.372566],[134.547831,35.372101],[134.548183,35.371672],[134.548839,35.371675],[134.550541,35.372326],[134.552595,35.372441],[134.554825,35.372449],[134.55675,35.37217],[134.557886,35.372281],[134.559458,35.372645],[134.56055,35.372828],[134.562169,35.372548],[134.563743,35.372553],[134.565143,35.372487],[134.566238,35.372133],[134.569168,35.372036],[134.571134,35.372186],[134.572444,35.372656],[134.574366,35.372985],[134.575371,35.372953],[134.576336,35.372419],[134.578135,35.371279],[134.579185,35.370961],[134.581199,35.370466],[134.582904,35.370472],[134.583998,35.370333],[134.585224,35.370051],[134.585748,35.37016],[134.585657,35.370876],[134.585216,35.371519],[134.583855,35.37266],[134.583672,35.374199],[134.583492,35.37513],[134.583183,35.375845],[134.583399,35.376204],[134.583834,35.376742],[134.5837,35.377207],[134.582997,35.377885],[134.582207,35.378527],[134.581506,35.378704],[134.581593,35.378919],[134.582029,35.379171],[134.582728,35.379245],[134.583516,35.379105],[134.584348,35.378893],[134.584784,35.379002],[134.585132,35.379397],[134.585435,35.380042],[134.585561,35.380938],[134.585951,35.381692],[134.586692,35.38216],[134.588001,35.382737],[134.589047,35.383421],[134.590662,35.384035],[134.591491,35.384432],[134.591705,35.385256],[134.591483,35.386043],[134.590998,35.386758],[134.589681,35.387792],[134.589636,35.388356],[134.589847,35.39004],[134.590321,35.391295],[134.590053,35.392404],[134.58882,35.39419],[134.587761,35.396049],[134.587406,35.397015],[134.587882,35.398019],[134.588663,35.399275],[134.589488,35.400424],[134.590397,35.402325],[134.59087,35.40383],[134.590863,35.405263],[134.590989,35.406194],[134.591812,35.407809],[134.594856,35.411507],[134.596686,35.412982],[134.59677,35.413591],[134.596766,35.414486],[134.597766,35.415707],[134.597414,35.4161],[134.596671,35.415918],[134.595929,35.415629],[134.594746,35.416019],[134.592463,35.417623],[134.590533,35.418547],[134.589,35.418972],[134.586323,35.420574],[134.584132,35.421355],[134.58251,35.422029],[134.58054,35.422166],[134.578441,35.422087],[134.575945,35.422472]]],[[[134.4975,35.565633],[134.497734,35.565938],[134.498295,35.566185],[134.498106,35.56655],[134.498016,35.566877],[134.497947,35.567679],[134.497574,35.56787],[134.496502,35.568654],[134.495848,35.568941],[134.495196,35.569781],[134.495173,35.570125],[134.495221,35.570544],[134.495925,35.571993],[134.49609,35.572795],[134.496395,35.573824],[134.496244,35.574244],[134.495825,35.574665],[134.495524,35.576172],[134.495443,35.576478],[134.495292,35.576735],[134.495434,35.57767],[134.495084,35.578081],[134.493895,35.578693],[134.493336,35.579552],[134.493114,35.579743],[134.493348,35.580029],[134.493233,35.580583],[134.492941,35.580879],[134.492838,35.581575],[134.492827,35.582272],[134.492701,35.58356],[134.491522,35.583657],[134.489665,35.583726],[134.489527,35.57867],[134.489022,35.577068],[134.488531,35.576544],[134.488285,35.576172],[134.488038,35.575619],[134.487956,35.575133],[134.48806,35.574637],[134.488105,35.573912],[134.487821,35.571928],[134.487481,35.571318],[134.486228,35.569526],[134.486133,35.568524],[134.485887,35.568152],[134.485431,35.56781],[134.483784,35.567182],[134.483538,35.566906],[134.482543,35.565266],[134.482431,35.564936],[134.48221,35.565018],[134.481463,35.564924],[134.480796,35.564467],[134.477479,35.563517],[134.476486,35.563318],[134.475435,35.563271],[134.474816,35.563138],[134.473765,35.562539],[134.473203,35.561795],[134.472956,35.560889],[134.472955,35.560269],[134.473001,35.56005],[134.472907,35.559639],[134.472662,35.559354],[134.472089,35.558887],[134.47057,35.558431],[134.470429,35.557553],[134.470428,35.557047],[134.47031,35.556676],[134.470485,35.556532],[134.470485,35.556408],[134.469474,35.555897],[134.469264,35.55585],[134.46882,35.555555],[134.468212,35.555031],[134.468048,35.554792],[134.468024,35.554211],[134.467556,35.553457],[134.466983,35.553191],[134.466866,35.552552],[134.467087,35.552151],[134.467093,35.551867],[134.46648,35.551542],[134.465965,35.551152],[134.465767,35.550885],[134.465789,35.550551],[134.466069,35.55015],[134.466302,35.549921],[134.466582,35.549758],[134.46685,35.549529],[134.467111,35.549166],[134.467108,35.548966],[134.466977,35.54868],[134.466568,35.548365],[134.466019,35.548404],[134.465424,35.548328],[134.465249,35.548262],[134.465108,35.547861],[134.465131,35.547604],[134.465305,35.547165],[134.465351,35.546869],[134.465293,35.546621],[134.465012,35.546259],[134.464241,35.545773],[134.464194,35.54564],[134.463808,35.545134],[134.463457,35.544505],[134.462812,35.543123],[134.462683,35.542751],[134.462577,35.542159],[134.462225,35.541005],[134.461722,35.540052],[134.461628,35.539623],[134.461686,35.539251],[134.461814,35.539003],[134.46207,35.538716],[134.462688,35.538353],[134.4636,35.538529],[134.463775,35.538257],[134.464001,35.537627],[134.464229,35.537441],[134.464666,35.537369],[134.465051,35.537168],[134.465488,35.536839],[134.466712,35.535721],[134.467359,35.535234],[134.46783,35.534303],[134.468091,35.533674],[134.468633,35.533272],[134.46963,35.53237],[134.469734,35.532012],[134.470031,35.531611],[134.470729,35.530451],[134.471184,35.530221],[134.471709,35.529834],[134.471743,35.529391],[134.471882,35.528918],[134.472808,35.527873],[134.472912,35.527586],[134.472912,35.527357],[134.473156,35.526892],[134.473391,35.526133],[134.473539,35.525461],[134.473792,35.525096],[134.474684,35.524472],[134.474857,35.523306],[134.474682,35.523191],[134.474139,35.523292],[134.473981,35.522877],[134.474051,35.522713],[134.474549,35.522512],[134.474575,35.52234],[134.474241,35.521596],[134.473794,35.52086],[134.473092,35.520288],[134.472882,35.52021],[134.472646,35.520189],[134.472436,35.520396],[134.472104,35.520783],[134.471677,35.521699],[134.471718,35.520991],[134.471437,35.520781],[134.470784,35.52082],[134.470294,35.520649],[134.469734,35.520803],[134.468988,35.521128],[134.468778,35.52149],[134.468452,35.521815],[134.467893,35.522255],[134.46801,35.522846],[134.467871,35.523151],[134.467895,35.5238],[134.467989,35.524353],[134.46799,35.524792],[134.467618,35.52546],[134.467385,35.526052],[134.467433,35.526548],[134.46783,35.527006],[134.468531,35.527386],[134.469092,35.527825],[134.469724,35.528587],[134.469654,35.528816],[134.469538,35.529045],[134.469095,35.529294],[134.468862,35.529523],[134.468512,35.529733],[134.468116,35.530382],[134.468163,35.530745],[134.468047,35.531031],[134.467814,35.531203],[134.46743,35.531719],[134.466894,35.532292],[134.466591,35.532492],[134.466416,35.53274],[134.466183,35.532932],[134.465764,35.533657],[134.465753,35.53381],[134.464273,35.535252],[134.46404,35.535634],[134.463457,35.53593],[134.462967,35.536016],[134.462629,35.536217],[134.462279,35.53658],[134.461861,35.537458],[134.461638,35.537824],[134.461595,35.538311],[134.461788,35.538611],[134.461438,35.538991],[134.461316,35.539291],[134.461247,35.5398],[134.461239,35.539993],[134.461563,35.5405],[134.461967,35.541287],[134.462205,35.542367],[134.462452,35.543118],[134.462707,35.543769],[134.46319,35.544677],[134.463585,35.545306],[134.464803,35.546392],[134.464891,35.546779],[134.464859,35.548303],[134.465131,35.548603],[134.466076,35.548745],[134.466322,35.548845],[134.46648,35.549059],[134.466497,35.549238],[134.466402,35.549453],[134.465982,35.550069],[134.465729,35.550284],[134.465484,35.550778],[134.465599,35.551164],[134.465801,35.551371],[134.466326,35.551721],[134.466371,35.551907],[134.466371,35.552043],[134.466004,35.55238],[134.465951,35.552501],[134.465978,35.552895],[134.466742,35.553917],[134.467084,35.554253],[134.467207,35.55489],[134.467743,35.555733],[134.468681,35.556655],[134.46876,35.556841],[134.468769,35.557013],[134.468682,35.55712],[134.468489,35.557199],[134.468332,35.557106],[134.468086,35.556663],[134.468015,35.556313],[134.467892,35.556241],[134.467061,35.556256],[134.466264,35.55645],[134.465792,35.556523],[134.465503,35.556509],[134.46517,35.55638],[134.464486,35.556009],[134.463688,35.555423],[134.463049,35.555066],[134.461954,35.554638],[134.461384,35.554216],[134.460085,35.552579],[134.459481,35.552136],[134.459113,35.551986],[134.458736,35.551751],[134.456896,35.551023],[134.456335,35.550658],[134.455695,35.550058],[134.454355,35.549323],[134.453838,35.548951],[134.453364,35.548529],[134.452225,35.547915],[134.451551,35.547773],[134.449913,35.54756],[134.448022,35.547132],[134.447882,35.547097],[134.447207,35.546668],[134.446593,35.546053],[134.446514,35.545767],[134.444838,35.542814],[134.44496,35.542456],[134.444748,35.541004],[134.444265,35.54011],[134.443309,35.538937],[134.442337,35.538122],[134.441864,35.537858],[134.44139,35.537479],[134.441101,35.537193],[134.440943,35.536936],[134.440811,35.536464],[134.440802,35.53612],[134.441047,35.535591],[134.441335,35.53524],[134.441344,35.535097],[134.441089,35.534768],[134.441036,35.534503],[134.44149,35.533208],[134.441164,35.531834],[134.441155,35.531455],[134.441574,35.530618],[134.441748,35.529966],[134.441571,35.528657],[134.441579,35.528192],[134.441868,35.527763],[134.442471,35.527655],[134.442646,35.527533],[134.44303,35.526252],[134.44337,35.525902],[134.443975,35.526009],[134.444211,35.526438],[134.444474,35.526524],[134.444999,35.526159],[134.445155,35.5253],[134.445548,35.524591],[134.447095,35.522958],[134.447934,35.522271],[134.448379,35.521176],[134.449585,35.520101],[134.448315,35.519157],[134.44862,35.51857],[134.448986,35.517546],[134.449196,35.517174],[134.449598,35.51668],[134.449562,35.516301],[134.449842,35.516121],[134.451337,35.515591],[134.451696,35.51539],[134.452342,35.51433],[134.452797,35.514029],[134.453199,35.513678],[134.45374,35.513105],[134.453897,35.512841],[134.454079,35.511066],[134.454436,35.51],[134.454724,35.50962],[134.455082,35.509333],[134.455265,35.509004],[134.456043,35.508317],[134.457206,35.507793],[134.457206,35.507528],[134.45738,35.506949],[134.457519,35.506648],[134.45772,35.506455],[134.458385,35.506246],[134.458787,35.505996],[134.458707,35.505359],[134.458479,35.505037],[134.458356,35.504708],[134.458381,35.50438],[134.459091,35.50438],[134.459695,35.504551],[134.460746,35.505151],[134.461324,35.505386],[134.462347,35.505342],[134.462793,35.504848],[134.463605,35.504117],[134.464023,35.503571],[134.464757,35.502824],[134.464989,35.502299],[134.4645,35.501638],[134.46422,35.501467],[134.464122,35.500716],[134.463981,35.500215],[134.463963,35.4997],[134.464216,35.499263],[134.464705,35.498883],[134.464766,35.49839],[134.462558,35.496732],[134.462103,35.496718],[134.461631,35.496847],[134.461518,35.497141],[134.461615,35.497899],[134.461607,35.498235],[134.460987,35.499016],[134.460734,35.499467],[134.460656,35.500104],[134.460692,35.500605],[134.460811,35.500956],[134.460278,35.50074],[134.45889,35.500474],[134.458587,35.500723],[134.458601,35.502545],[134.458508,35.502993],[134.458007,35.503194],[134.45761,35.502737],[134.457248,35.502565],[134.45691,35.502976],[134.456852,35.50331],[134.456036,35.503234],[134.455627,35.503283],[134.456037,35.504103],[134.45542,35.504866],[134.454289,35.505306],[134.453088,35.505661],[134.451711,35.505929],[134.450744,35.506436],[134.450348,35.507018],[134.449755,35.50822],[134.449056,35.508994],[134.448695,35.509719],[134.448638,35.51074],[134.448651,35.51157],[134.448862,35.512247],[134.448921,35.512781],[134.448292,35.513278],[134.448001,35.513803],[134.448212,35.514442],[134.448574,35.514661],[134.449519,35.514689],[134.450056,35.514793],[134.450183,35.514957],[134.449804,35.515279],[134.448858,35.516842],[134.448203,35.517523],[134.44746,35.518179],[134.446717,35.518967],[134.446396,35.519027],[134.445988,35.519242],[134.445391,35.519731],[134.445289,35.519934],[134.444997,35.519994],[134.444589,35.520281],[134.444356,35.520579],[134.444138,35.521104],[134.44322,35.521784],[134.442841,35.521916],[134.442317,35.522465],[134.441982,35.522584],[134.441487,35.523277],[134.441283,35.523694],[134.441181,35.5241],[134.441315,35.52559],[134.44114,35.52602],[134.440878,35.526485],[134.440631,35.527165],[134.440632,35.527594],[134.440851,35.528178],[134.440866,35.528643],[134.440547,35.529586],[134.440008,35.530528],[134.439351,35.530016],[134.437468,35.528873],[134.436796,35.528551],[134.435147,35.527492],[134.434913,35.52717],[134.434563,35.52692],[134.43354,35.52599],[134.433015,35.52574],[134.431526,35.525169],[134.430943,35.525086],[134.42992,35.524073],[134.429102,35.522917],[134.428927,35.522798],[134.428431,35.522715],[134.427365,35.522012],[134.425556,35.521119],[134.425322,35.521096],[134.425089,35.521203],[134.424622,35.521251],[134.424374,35.521228],[134.424082,35.520966],[134.423922,35.521037],[134.423907,35.521168],[134.424024,35.521335],[134.424199,35.521466],[134.424141,35.521526],[134.423674,35.521324],[134.423382,35.520585],[134.423119,35.52043],[134.422958,35.520191],[134.422899,35.519893],[134.42271,35.519583],[134.422461,35.519405],[134.421922,35.519345],[134.421382,35.51937],[134.420886,35.51943],[134.420419,35.519549],[134.42004,35.519752],[134.41937,35.520265],[134.419093,35.520576],[134.418758,35.5206],[134.417926,35.520445],[134.416613,35.520065],[134.415577,35.519386],[134.414745,35.518671],[134.414321,35.518444],[134.41384,35.518495],[134.413157,35.51778],[134.413069,35.517494],[134.413279,35.517207],[134.413383,35.516864],[134.412805,35.51622],[134.412805,35.515948],[134.412699,35.515276],[134.412769,35.514704],[134.413066,35.514331],[134.413398,35.514045],[134.413818,35.513801],[134.415865,35.513471],[134.416443,35.513599],[134.416951,35.513871],[134.417389,35.513985],[134.417984,35.514085],[134.418474,35.514084],[134.418806,35.513984],[134.419156,35.513755],[134.420205,35.512509],[134.421534,35.511306],[134.422373,35.510604],[134.423265,35.51006],[134.423877,35.509516],[134.424296,35.508828],[134.424436,35.508742],[134.426063,35.508756],[134.427009,35.508826],[134.427621,35.508668],[134.428477,35.507165],[134.428634,35.506664],[134.428772,35.505663],[134.428982,35.504947],[134.429139,35.504675],[134.429488,35.504345],[134.4301,35.503544],[134.430362,35.5031],[134.430834,35.502556],[134.430833,35.502198],[134.43043,35.501798],[134.430028,35.50154],[134.429747,35.501068],[134.429432,35.500782],[134.428486,35.500468],[134.428136,35.499953],[134.428497,35.499544],[134.429481,35.498632],[134.429949,35.498505],[134.430481,35.498544],[134.43233,35.498997],[134.43314,35.498997],[134.433687,35.498893],[134.434822,35.498933],[134.435401,35.499203],[134.435782,35.499457],[134.436806,35.499488],[134.437203,35.499544],[134.437759,35.499782],[134.437981,35.500059],[134.438362,35.500242],[134.438814,35.500567],[134.438981,35.500995],[134.439219,35.501154],[134.439655,35.50109],[134.439711,35.50094],[134.439608,35.500694],[134.439394,35.500408],[134.43933,35.500218],[134.439449,35.499139],[134.43964,35.498989],[134.440076,35.498774],[134.440536,35.498314],[134.441441,35.497854],[134.441909,35.497799],[134.442584,35.497847],[134.443409,35.498124],[134.443798,35.498481],[134.444195,35.498957],[134.44456,35.499266],[134.445298,35.499647],[134.446481,35.499869],[134.447362,35.499845],[134.448116,35.499655],[134.448687,35.499298],[134.449155,35.498751],[134.449973,35.497164],[134.450679,35.495967],[134.450941,35.495713],[134.451608,35.495475],[134.451846,35.495166],[134.452227,35.494817],[134.452798,35.494531],[134.454044,35.492747],[134.454663,35.491597],[134.454901,35.490907],[134.455116,35.48982],[134.455449,35.488694],[134.455814,35.488678],[134.456187,35.488869],[134.456481,35.48894],[134.456687,35.488544],[134.456862,35.488401],[134.456965,35.488203],[134.456608,35.487608],[134.456655,35.487378],[134.456798,35.487314],[134.457385,35.48806],[134.45802,35.488322],[134.458624,35.488956],[134.459282,35.489487],[134.459925,35.489709],[134.460663,35.49005],[134.460878,35.490288],[134.461306,35.490621],[134.461647,35.490217],[134.462068,35.489971],[134.462909,35.489876],[134.463108,35.489717],[134.463473,35.488448],[134.463687,35.488203],[134.464243,35.487869],[134.46437,35.487489],[134.464631,35.487195],[134.465314,35.486823],[134.465441,35.48572],[134.465568,35.485347],[134.465949,35.485086],[134.466211,35.484816],[134.466965,35.483658],[134.466949,35.483246],[134.467139,35.482619],[134.467798,35.481961],[134.467981,35.481453],[134.468258,35.481263],[134.468695,35.481255],[134.469028,35.481303],[134.469925,35.482048],[134.471092,35.48258],[134.472298,35.483365],[134.472941,35.483587],[134.474012,35.483674],[134.47625,35.483666],[134.476877,35.483753],[134.477663,35.484142],[134.478084,35.484245],[134.478965,35.484229],[134.479647,35.483991],[134.480298,35.483563],[134.480909,35.483396],[134.483147,35.483222],[134.485481,35.483198],[134.486068,35.482968],[134.4866,35.48254],[134.487187,35.481929],[134.487735,35.481596],[134.48825,35.481017],[134.488441,35.481287],[134.488774,35.481937],[134.488822,35.482857],[134.488719,35.483706],[134.488822,35.484261],[134.489076,35.484721],[134.489076,35.485038],[134.488917,35.485443],[134.488766,35.48622],[134.48825,35.487013],[134.488076,35.487663],[134.488084,35.488171],[134.488282,35.48875],[134.488917,35.489662],[134.489171,35.491058],[134.489211,35.491756],[134.489028,35.492231],[134.488584,35.49266],[134.487377,35.494365],[134.486865,35.496903],[134.486389,35.498156],[134.48531,35.500503],[134.485437,35.501328],[134.485433,35.502137],[134.485195,35.503033],[134.485147,35.503906],[134.485322,35.504263],[134.485314,35.504493],[134.485179,35.50477],[134.484814,35.505087],[134.483639,35.505381],[134.48329,35.505516],[134.483504,35.505722],[134.483893,35.505984],[134.485068,35.506388],[134.485766,35.506333],[134.486544,35.506206],[134.486703,35.506269],[134.486933,35.506642],[134.487195,35.506808],[134.487703,35.506991],[134.487663,35.507316],[134.486941,35.508236],[134.486679,35.509069],[134.486036,35.51048],[134.487814,35.509513],[134.488377,35.509426],[134.489044,35.50956],[134.488766,35.509822],[134.487782,35.510338],[134.487608,35.511202],[134.486758,35.511805],[134.486481,35.512352],[134.48625,35.513367],[134.486155,35.513613],[134.485441,35.514248],[134.485235,35.514652],[134.485139,35.515247],[134.485235,35.515628],[134.485258,35.515992],[134.485171,35.516373],[134.484933,35.516793],[134.484663,35.517071],[134.484171,35.517333],[134.484028,35.517682],[134.484155,35.519427],[134.484615,35.520378],[134.484615,35.520616],[134.484489,35.52087],[134.484401,35.521203],[134.484631,35.521393],[134.485187,35.521639],[134.485576,35.521671],[134.486449,35.522163],[134.487917,35.522194],[134.488084,35.522607],[134.488163,35.523217],[134.488088,35.525684],[134.487992,35.526731],[134.487643,35.527492],[134.486677,35.528475],[134.486328,35.528963],[134.486049,35.529916],[134.485351,35.531705],[134.4847,35.532612],[134.484188,35.5331],[134.483235,35.533402],[134.481537,35.534053],[134.481025,35.534425],[134.479351,35.535959],[134.478955,35.53654],[134.477909,35.536865],[134.476978,35.537655],[134.476327,35.538864],[134.475653,35.539398],[134.474746,35.540212],[134.47435,35.540886],[134.473885,35.543744],[134.47356,35.54479],[134.473786,35.545499],[134.474077,35.546022],[134.474507,35.546533],[134.475228,35.547881],[134.475542,35.548207],[134.476635,35.548637],[134.476891,35.548962],[134.476868,35.549531],[134.476914,35.549973],[134.477182,35.550298],[134.477275,35.550693],[134.477159,35.550926],[134.476775,35.551332],[134.476519,35.552053],[134.476368,35.552227],[134.475565,35.552111],[134.475007,35.55239],[134.474868,35.552657],[134.474972,35.553738],[134.475829,35.555641],[134.476252,35.556992],[134.476461,35.55791],[134.476961,35.558537],[134.477298,35.559409],[134.477507,35.560292],[134.478077,35.56114],[134.478531,35.561651],[134.478891,35.561803],[134.479752,35.561895],[134.480438,35.562163],[134.481101,35.562651],[134.482705,35.564254],[134.484264,35.563302],[134.485392,35.563069],[134.487543,35.562802],[134.488741,35.562744],[134.489241,35.562477],[134.489694,35.562116],[134.490822,35.560606],[134.49116,35.56035],[134.492253,35.560141],[134.493997,35.560594],[134.494753,35.56085],[134.496509,35.560908],[134.496799,35.560989],[134.497485,35.561431],[134.498123,35.562293],[134.498124,35.562484],[134.497635,35.563286],[134.497472,35.563706],[134.49731,35.564527],[134.4975,35.565633]]]]}}]}
