{"type":"FeatureCollection","features":[{"type":"Feature","properties":{"potaRef":"JP-1208","nameJa":"Hamura kusabana kyuryo","nameEn":"Hamura Kusabana Kyuryo Prefectural Nature Park","authority":"環境省 生物多様性「見える化」マップ","boundaryStatus":"全国GIS候補・公開前検証待ち","boundarySource":"環境省 生物多様性「見える化」マップの自然公園区域を、POTA代表座標で一意に空間照合して加工","boundaryScaleNote":"区域は概要データであり、正確性は保証されない。POTA運用可否は公式情報で最終確認すること。","candidateMethod":"POTA representative point inside one public natural-park area","sourceParkKind":"都道府県立自然公園","sourceName":"Hamura kusabana kyuryo","sourceFeatureCount":1,"cautionMeters":75},"geometry":{"type":"MultiPolygon","coordinates":[[[[139.298096,35.742967],[139.299005,35.74298],[139.299895,35.74243],[139.300743,35.742366],[139.30179,35.741818],[139.305254,35.741151],[139.309476,35.740264],[139.312618,35.740027],[139.313613,35.74045],[139.314179,35.740381],[139.314881,35.739803],[139.315941,35.738616],[139.316821,35.738526],[139.319224,35.739122],[139.319828,35.741739],[139.320121,35.742714],[139.319497,35.745544],[139.318602,35.747808],[139.317003,35.749243],[139.314731,35.751385],[139.31224,35.753472],[139.309371,35.755631],[139.305997,35.757936],[139.305163,35.758794],[139.304427,35.759449],[139.303953,35.759595],[139.303661,35.760077],[139.303184,35.760377],[139.302522,35.760521],[139.302263,35.760901],[139.301662,35.761148],[139.301122,35.761448],[139.300777,35.761417],[139.30041,35.760977],[139.300191,35.760974],[139.299144,35.761522],[139.298888,35.761723],[139.298936,35.762414],[139.298617,35.762691],[139.298578,35.763023],[139.299011,35.76331],[139.299,35.763847],[139.298774,35.764125],[139.298198,35.76468],[139.297376,35.764949],[139.295775,35.765003],[139.295545,35.765511],[139.295318,35.765841],[139.295128,35.76594],[139.294846,35.765885],[139.294571,35.765574],[139.293328,35.764994],[139.292872,35.764297],[139.292406,35.764112],[139.291352,35.763508],[139.290929,35.76271],[139.289942,35.761928],[139.288793,35.761401],[139.288465,35.760578],[139.288463,35.759197],[139.288783,35.757462],[139.289485,35.756884],[139.289658,35.756145],[139.289331,35.755297],[139.289131,35.754373],[139.289442,35.753073],[139.290238,35.751039],[139.290777,35.749282],[139.290144,35.748122],[139.290131,35.747253],[139.290508,35.745749],[139.290933,35.743454],[139.290668,35.742683],[139.290634,35.741302],[139.291214,35.740619],[139.292612,35.739744],[139.293001,35.739187],[139.293566,35.739144],[139.294055,35.738282],[139.294871,35.738242],[139.296392,35.737522],[139.296942,35.738246],[139.298188,35.738647],[139.29865,35.739037],[139.298944,35.739962],[139.298247,35.740259],[139.297857,35.740918],[139.297716,35.741658],[139.297798,35.742196],[139.298096,35.742967]]]]}}]}
