{"type":"FeatureCollection","features":[{"type":"Feature","properties":{"potaRef":"JP-1531","nameJa":"Asago Gunsan","nameEn":"Asago Gunzan Prefectural Nature Park","authority":"環境省 生物多様性「見える化」マップ","boundaryStatus":"全国GIS候補・公開前検証待ち","boundarySource":"環境省 生物多様性「見える化」マップの自然公園区域を、POTA代表座標で一意に空間照合して加工","boundaryScaleNote":"区域は概要データであり、正確性は保証されない。POTA運用可否は公式情報で最終確認すること。","candidateMethod":"POTA representative point inside one public natural-park area","sourceParkKind":"都道府県立自然公園","sourceName":"Asago Gunsan","sourceFeatureCount":1,"cautionMeters":75},"geometry":{"type":"MultiPolygon","coordinates":[[[[134.856005,35.308348],[134.854999,35.308711],[134.854322,35.30917],[134.853374,35.309723],[134.852193,35.310498],[134.851438,35.311226],[134.849297,35.309243],[134.846862,35.308828],[134.846824,35.308543],[134.8464,35.308178],[134.845801,35.307908],[134.843346,35.307889],[134.842458,35.30765],[134.841879,35.307079],[134.841567,35.306434],[134.841312,35.305336],[134.840669,35.304617],[134.840206,35.304194],[134.84002,35.300708],[134.840062,35.299039],[134.840217,35.298796],[134.840193,35.297899],[134.840054,35.296599],[134.840183,35.296515],[134.83981,35.295744],[134.840533,35.295417],[134.840712,35.295745],[134.841834,35.295081],[134.841797,35.294352],[134.842738,35.294089],[134.843146,35.29292],[134.843533,35.292588],[134.84372,35.291451],[134.843567,35.290754],[134.843142,35.290564],[134.84233,35.290547],[134.840803,35.290909],[134.839063,35.291731],[134.838602,35.290336],[134.838274,35.289686],[134.837966,35.289527],[134.837753,35.289685],[134.837227,35.291617],[134.836895,35.293359],[134.835833,35.293358],[134.835409,35.293025],[134.834947,35.29209],[134.834757,35.290616],[134.834507,35.289871],[134.834025,35.289585],[134.833793,35.289347],[134.833737,35.288476],[134.833294,35.288032],[134.832001,35.287063],[134.829028,35.28595],[134.82704,35.284585],[134.825207,35.2836],[134.824842,35.282839],[134.82419,35.280319],[134.823888,35.277134],[134.824007,35.275455],[134.823471,35.273236],[134.822666,35.270605],[134.822788,35.26827],[134.822867,35.267684],[134.822714,35.267114],[134.82401,35.266229],[134.824494,35.265485],[134.825597,35.26452],[134.826912,35.26384],[134.827975,35.263715],[134.830795,35.26364],[134.831143,35.263545],[134.831859,35.262913],[134.832886,35.26152],[134.833466,35.261283],[134.835088,35.261317],[134.835803,35.261556],[134.836362,35.261952],[134.836787,35.262032],[134.837714,35.261875],[134.838004,35.261733],[134.838005,35.261448],[134.837659,35.26075],[134.837563,35.260275],[134.83768,35.259863],[134.838298,35.259626],[134.839863,35.259311],[134.840289,35.259185],[134.841313,35.2586],[134.841971,35.258142],[134.846048,35.257244],[134.847381,35.257198],[134.848945,35.257612],[134.849967,35.258326],[134.851415,35.258787],[134.85211,35.259121],[134.852495,35.259486],[134.853576,35.259867],[134.854522,35.26028],[134.855428,35.261375],[134.855796,35.260932],[134.85657,35.26033],[134.854871,35.259679],[134.854988,35.259014],[134.855316,35.258998],[134.855471,35.258792],[134.855433,35.258555],[134.855021,35.258336],[134.854025,35.258227],[134.854054,35.258082],[134.852558,35.258052],[134.851497,35.257449],[134.849838,35.256211],[134.848816,35.255529],[134.848141,35.25491],[134.846113,35.254939],[134.845823,35.254717],[134.845766,35.254305],[134.846115,35.253799],[134.846038,35.253577],[134.845575,35.253497],[134.84484,35.253702],[134.84403,35.2534],[134.843528,35.252987],[134.843142,35.253177],[134.843179,35.25362],[134.84341,35.254128],[134.843506,35.254603],[134.843351,35.254967],[134.843041,35.25522],[134.842094,35.255647],[134.839639,35.256357],[134.838151,35.256925],[134.836992,35.257098],[134.83589,35.257334],[134.834092,35.258282],[134.831522,35.25896],[134.830342,35.259703],[134.829414,35.260224],[134.828351,35.260587],[134.827365,35.260807],[134.825626,35.261058],[134.824815,35.261057],[134.824719,35.26082],[134.824874,35.260376],[134.824875,35.260091],[134.824431,35.259869],[134.823987,35.260042],[134.821625,35.262431],[134.821219,35.262605],[134.820852,35.262509],[134.820661,35.261653],[134.820085,35.25991],[134.819487,35.259402],[134.819236,35.259592],[134.819274,35.260051],[134.819561,35.260923],[134.819656,35.26181],[134.819654,35.262555],[134.81948,35.262935],[134.819307,35.262586],[134.81869,35.26192],[134.818227,35.261507],[134.817592,35.260682],[134.816551,35.259508],[134.814797,35.258001],[134.814257,35.257414],[134.814182,35.256732],[134.81399,35.256336],[134.811424,35.25489],[134.811251,35.25443],[134.810885,35.253907],[134.810538,35.25378],[134.809804,35.253985],[134.809128,35.254063],[134.808606,35.253983],[134.807662,35.253173],[134.806988,35.252269],[134.806333,35.251539],[134.8056,35.251015],[134.804347,35.250221],[134.804059,35.249571],[134.803926,35.248589],[134.804026,35.247147],[134.80368,35.246434],[134.802564,35.244911],[134.801045,35.242009],[134.800546,35.240725],[134.800357,35.239172],[134.800417,35.238285],[134.800978,35.237747],[134.801327,35.237067],[134.801679,35.235467],[134.801661,35.23477],[134.799796,35.231709],[134.799449,35.231518],[134.799257,35.23109],[134.799374,35.230473],[134.799606,35.230188],[134.799666,35.229507],[134.799494,35.228825],[134.798262,35.227334],[134.797899,35.225907],[134.797823,35.225068],[134.796456,35.223782],[134.796457,35.223433],[134.797215,35.221454],[134.796621,35.219457],[134.796642,35.218808],[134.796877,35.217461],[134.796881,35.21575],[134.79675,35.214007],[134.797235,35.213248],[134.797624,35.212187],[134.7978,35.211205],[134.798091,35.210524],[134.798208,35.209907],[134.797998,35.20932],[134.797402,35.208305],[134.797384,35.207655],[134.796927,35.205262],[134.796912,35.203393],[134.795763,35.199874],[134.795496,35.198447],[134.799276,35.199579],[134.799581,35.201053],[134.800178,35.201925],[134.800891,35.202433],[134.80174,35.202545],[134.803747,35.202454],[134.803633,35.20201],[134.803228,35.201629],[134.802341,35.201247],[134.801995,35.200819],[134.801688,35.199979],[134.801399,35.199582],[134.800378,35.198947],[134.799877,35.198518],[134.800459,35.197236],[134.798568,35.197344],[134.798047,35.197184],[134.797527,35.196898],[134.797121,35.196913],[134.796832,35.196596],[134.796504,35.196611],[134.796175,35.196896],[134.795461,35.197196],[134.795113,35.197132],[134.794921,35.196751],[134.794866,35.195785],[134.79431,35.194104],[134.794524,35.193566],[134.794988,35.193377],[134.795624,35.193536],[134.796492,35.19368],[134.797245,35.193682],[134.797709,35.193476],[134.798289,35.192939],[134.798696,35.192179],[134.799663,35.191404],[134.799992,35.191246],[134.800667,35.191263],[134.801592,35.191661],[134.802326,35.191678],[134.803195,35.191458],[134.804411,35.19146],[134.804777,35.191539],[134.805587,35.191937],[134.805953,35.192048],[134.806146,35.192049],[134.807461,35.1911],[134.808465,35.190611],[134.809025,35.190643],[134.809526,35.190961],[134.809949,35.191706],[134.810641,35.192737],[134.811854,35.193927],[134.812335,35.194641],[134.813785,35.193914],[134.814538,35.193709],[134.815695,35.193838],[134.816024,35.193823],[134.816295,35.193379],[134.816684,35.192065],[134.817012,35.190354],[134.817553,35.190101],[134.817799,35.189711],[134.818097,35.188687],[134.818625,35.188191],[134.819643,35.187812],[134.820531,35.187296],[134.821151,35.186621],[134.821668,35.185323],[134.822171,35.184521],[134.822945,35.183772],[134.824736,35.182718],[134.825702,35.181822],[134.826386,35.181094],[134.826645,35.180207],[134.827831,35.179174],[134.828192,35.178667],[134.828412,35.178119],[134.828812,35.17758],[134.829288,35.177254],[134.82988,35.177043],[134.83024,35.177107],[134.830459,35.177234],[134.830678,35.177235],[134.831476,35.176929],[134.831913,35.176941],[134.832916,35.177048],[134.834678,35.177346],[134.835026,35.177293],[134.835631,35.176988],[134.836081,35.176915],[134.83657,35.177021],[134.837367,35.177423],[134.837803,35.177783],[134.838228,35.177857],[134.838639,35.178133],[134.839011,35.178682],[134.83955,35.179063],[134.841016,35.179572],[134.841427,35.179995],[134.842043,35.180503],[134.842493,35.180482],[134.843393,35.1808],[134.844654,35.18076],[134.845709,35.180846],[134.846403,35.181026],[134.847432,35.181049],[134.848693,35.180849],[134.849298,35.180639],[134.84993,35.180196],[134.85056,35.179954],[134.851255,35.17986],[134.85186,35.179565],[134.85226,35.179037],[134.85248,35.178657],[134.853122,35.179334],[134.853647,35.18018],[134.853927,35.182144],[134.854183,35.182683],[134.854092,35.183254],[134.853653,35.18451],[134.852942,35.186104],[134.852115,35.188406],[134.852307,35.188807],[134.853244,35.189875],[134.854516,35.190753],[134.855095,35.190765],[134.855932,35.190702],[134.857,35.190323],[134.857464,35.190102],[134.857914,35.190092],[134.858634,35.190272],[134.860384,35.190369],[134.861709,35.190519],[134.86275,35.190522],[134.863385,35.190361],[134.864012,35.190375],[134.865346,35.190567],[134.866592,35.191054],[134.867306,35.191167],[134.867862,35.191085],[134.868141,35.190844],[134.868595,35.190622],[134.869019,35.190528],[134.869345,35.190645],[134.869865,35.191124],[134.870797,35.191324],[134.871346,35.191571],[134.871778,35.191852],[134.871879,35.191976],[134.872157,35.19275],[134.872154,35.193162],[134.872413,35.193857],[134.872374,35.194545],[134.872263,35.194881],[134.87189,35.195418],[134.871445,35.195774],[134.87124,35.19603],[134.871047,35.196563],[134.870823,35.196834],[134.870644,35.197181],[134.870027,35.197672],[134.869562,35.198441],[134.869434,35.198823],[134.869509,35.199211],[134.869654,35.199438],[134.869764,35.199818],[134.86993,35.200859],[134.870042,35.201231],[134.87063,35.202787],[134.870707,35.20323],[134.87095,35.20378],[134.871065,35.204234],[134.871348,35.204661],[134.872989,35.20509],[134.874088,35.20544],[134.874686,35.205995],[134.875477,35.206313],[134.87702,35.206631],[134.87789,35.206046],[134.878682,35.20573],[134.880169,35.205383],[134.880922,35.204766],[134.88127,35.204671],[134.88181,35.204751],[134.882311,35.205591],[134.882792,35.206716],[134.883272,35.208523],[134.883945,35.210155],[134.884427,35.21071],[134.884754,35.21136],[134.884811,35.21193],[134.884753,35.212406],[134.884424,35.212786],[134.885408,35.213088],[134.886103,35.2135],[134.887586,35.215355],[134.887932,35.216449],[134.887951,35.217177],[134.888568,35.217241],[134.88909,35.2174],[134.88934,35.217765],[134.889513,35.218462],[134.89013,35.218827],[134.892697,35.219368],[134.893083,35.219178],[134.89293,35.218719],[134.892159,35.217799],[134.892159,35.217387],[134.891967,35.216959],[134.891813,35.21623],[134.892201,35.214979],[134.892646,35.21433],[134.894191,35.213935],[134.894809,35.213365],[134.895466,35.213033],[134.896664,35.212321],[134.897997,35.211673],[134.898808,35.211103],[134.899157,35.210248],[134.899505,35.20963],[134.900027,35.209124],[134.900472,35.208316],[134.901264,35.207731],[134.901399,35.20724],[134.901536,35.206432],[134.901189,35.205956],[134.900862,35.204356],[134.900535,35.203643],[134.900729,35.202866],[134.902295,35.200602],[134.903068,35.200349],[134.904805,35.200145],[134.906696,35.200305],[134.907526,35.200305],[134.909322,35.199673],[134.910114,35.199277],[134.91081,35.198391],[134.913919,35.196745],[134.914981,35.196302],[134.915734,35.19624],[134.916468,35.195781],[134.916912,35.195116],[134.917125,35.194434],[134.917164,35.193832],[134.917435,35.193437],[134.918111,35.193104],[134.918999,35.193121],[134.919809,35.193486],[134.920716,35.19355],[134.922588,35.193155],[134.92338,35.192537],[134.923883,35.191999],[134.924346,35.191619],[134.925446,35.191287],[134.928226,35.190734],[134.930137,35.189785],[134.930561,35.190593],[134.93168,35.19194],[134.933454,35.193034],[134.933898,35.193684],[134.93542,35.196806],[134.935631,35.197931],[134.93592,35.198708],[134.936441,35.199405],[134.937328,35.200356],[134.937694,35.201085],[134.937809,35.202764],[134.937576,35.204222],[134.937357,35.206891],[134.937723,35.207588],[134.938302,35.20827],[134.940675,35.20976],[134.942084,35.210854],[134.94301,35.211441],[134.943859,35.211853],[134.944901,35.212836],[134.945769,35.213502],[134.947557,35.213836],[134.948234,35.213653],[134.948947,35.213297],[134.949116,35.213132],[134.94954,35.212332],[134.949551,35.212132],[134.949339,35.211437],[134.949476,35.211176],[134.950631,35.210472],[134.950652,35.209203],[134.950737,35.208916],[134.952123,35.209148],[134.953068,35.209227],[134.953783,35.209433],[134.954516,35.210305],[134.955075,35.210464],[134.955828,35.210401],[134.956794,35.210052],[134.957836,35.210116],[134.959438,35.210893],[134.961252,35.211448],[134.964167,35.211512],[134.965557,35.211354],[134.966908,35.210959],[134.967912,35.210832],[134.96853,35.211149],[134.969282,35.212433],[134.969456,35.212908],[134.969108,35.213542],[134.968471,35.214239],[134.968394,35.21446],[134.96849,35.215379],[134.968856,35.217534],[134.969261,35.219008],[134.967735,35.219197],[134.966944,35.219561],[134.965804,35.220417],[134.964626,35.221731],[134.963988,35.222761],[134.963814,35.224218],[134.963813,35.225407],[134.966014,35.226786],[134.966883,35.227229],[134.967133,35.227832],[134.968059,35.229717],[134.968349,35.230921],[134.968357,35.231349],[134.971794,35.231968],[134.973609,35.232665],[134.975211,35.234076],[134.976041,35.234488],[134.976794,35.235328],[134.977392,35.236247],[134.978531,35.237419],[134.980056,35.240319],[134.980886,35.242283],[134.981021,35.243266],[134.98077,35.24401],[134.979843,35.244469],[134.979012,35.244976],[134.977622,35.245436],[134.97486,35.246053],[134.972639,35.24686],[134.972233,35.247098],[134.972426,35.246654],[134.972465,35.2461],[134.972369,35.245783],[134.971809,35.245593],[134.97092,35.245006],[134.970245,35.244468],[134.968796,35.244309],[134.968043,35.244404],[134.967811,35.244625],[134.967946,35.24499],[134.968545,35.245719],[134.968873,35.246527],[134.968776,35.247351],[134.969046,35.248301],[134.969084,35.24865],[134.968795,35.248745],[134.965203,35.247524],[134.962635,35.246256],[134.961573,35.245843],[134.959873,35.245827],[134.958889,35.245589],[134.957035,35.245287],[134.955915,35.244622],[134.954583,35.24367],[134.954062,35.243528],[134.953482,35.243527],[134.952865,35.243099],[134.951958,35.241705],[134.951862,35.240849],[134.951051,35.240009],[134.950337,35.239708],[134.949893,35.239217],[134.948522,35.238725],[134.947982,35.238154],[134.947731,35.237822],[134.945955,35.237647],[134.944719,35.237218],[134.943696,35.236426],[134.943368,35.235824],[134.943543,35.235095],[134.944277,35.234192],[134.94422,35.23302],[134.943834,35.232608],[134.943409,35.232655],[134.942965,35.232972],[134.94281,35.233605],[134.941979,35.233811],[134.941284,35.234143],[134.941033,35.234634],[134.940859,35.234729],[134.939566,35.234031],[134.938929,35.23354],[134.938755,35.233017],[134.938119,35.232415],[134.937868,35.231939],[134.936943,35.229768],[134.936268,35.228976],[134.936035,35.22972],[134.936054,35.230655],[134.936246,35.231828],[134.936631,35.233317],[134.937055,35.234458],[134.936591,35.235107],[134.935973,35.235345],[134.935451,35.235867],[134.934794,35.236168],[134.934196,35.236152],[134.933115,35.235755],[134.931744,35.23512],[134.927922,35.233962],[134.927381,35.233961],[134.927265,35.234136],[134.927265,35.234262],[134.927786,35.234722],[134.929272,35.235563],[134.929909,35.236022],[134.930701,35.236371],[134.931801,35.23653],[134.932052,35.23699],[134.932978,35.237719],[134.933595,35.238385],[134.93404,35.238433],[134.934658,35.238132],[134.936667,35.237373],[134.937092,35.236708],[134.937517,35.23628],[134.938328,35.2359],[134.939641,35.236519],[134.940471,35.237137],[134.940799,35.238088],[134.940952,35.239593],[134.941415,35.240433],[134.942418,35.241146],[134.943036,35.241511],[134.944136,35.242652],[134.944966,35.243191],[134.945352,35.243683],[134.94541,35.244316],[134.945255,35.244601],[134.944115,35.244997],[134.942087,35.245851],[134.940908,35.246564],[134.939711,35.246896],[134.938493,35.247513],[134.937837,35.247671],[134.936909,35.248178],[134.934978,35.248668],[134.933432,35.248778],[134.931153,35.249062],[134.929975,35.249441],[134.928951,35.249979],[134.928719,35.250613],[134.928611,35.252147],[134.92948,35.252671],[134.930078,35.252829],[134.930774,35.252624],[134.931875,35.251927],[134.934136,35.250883],[134.935449,35.250519],[134.93657,35.250282],[134.937497,35.24995],[134.938694,35.24984],[134.939545,35.249381],[134.940375,35.249286],[134.941843,35.249033],[134.943157,35.248511],[134.94364,35.248464],[134.94389,35.248797],[134.943794,35.249145],[134.943156,35.250333],[134.942304,35.25217],[134.940913,35.253643],[134.940815,35.25491],[134.941124,35.255243],[134.941742,35.255354],[134.942727,35.255197],[134.943539,35.254642],[134.944409,35.253597],[134.945801,35.251079],[134.946169,35.249986],[134.946768,35.249717],[134.947154,35.24883],[134.947773,35.248275],[134.948237,35.247785],[134.948893,35.247642],[134.949376,35.247611],[134.950148,35.247896],[134.951326,35.248103],[134.952987,35.248816],[134.954261,35.249498],[134.954415,35.249799],[134.953894,35.25048],[134.953102,35.250892],[134.952058,35.251683],[134.951536,35.252095],[134.950937,35.252744],[134.950937,35.253061],[134.951188,35.253759],[134.951497,35.254313],[134.951863,35.254583],[134.952752,35.254013],[134.953853,35.253585],[134.954549,35.253427],[134.954954,35.253237],[134.955225,35.25254],[134.955573,35.252208],[134.956326,35.25197],[134.957543,35.251464],[134.958065,35.251131],[134.959764,35.251369],[134.960286,35.251718],[134.960479,35.252162],[134.960536,35.252764],[134.960749,35.252922],[134.961096,35.25297],[134.961483,35.25278],[134.961792,35.252463],[134.962371,35.252321],[134.963337,35.252384],[134.965693,35.253161],[134.966562,35.254255],[134.96689,35.254382],[134.967218,35.254303],[134.967489,35.254002],[134.968281,35.253606],[134.968764,35.253242],[134.969517,35.254081],[134.970115,35.255602],[134.970771,35.258137],[134.97106,35.259595],[134.971697,35.262146],[134.9716,35.262954],[134.971232,35.263873],[134.970711,35.264348],[134.969919,35.264665],[134.968779,35.264997],[134.967793,35.265567],[134.967021,35.265947],[134.966035,35.265931],[134.965359,35.26544],[134.965089,35.264996],[134.964857,35.265012],[134.96451,35.265297],[134.963891,35.265645],[134.963273,35.265883],[134.963273,35.266136],[134.964007,35.266928],[134.964315,35.268038],[134.963928,35.269305],[134.963812,35.269844],[134.963329,35.270493],[134.962884,35.270921],[134.961686,35.27176],[134.961203,35.272251],[134.960604,35.272488],[134.957919,35.272598],[134.957339,35.272424],[134.956277,35.271758],[134.955311,35.271314],[134.954964,35.271377],[134.95506,35.271631],[134.955601,35.272186],[134.955755,35.272502],[134.955658,35.272946],[134.955793,35.27358],[134.95616,35.273612],[134.95672,35.273533],[134.957223,35.27358],[134.957879,35.273945],[134.958265,35.274658],[134.958555,35.274737],[134.959173,35.274642],[134.959985,35.274215],[134.961704,35.274152],[134.96211,35.274041],[134.962497,35.273772],[134.96439,35.273123],[134.965279,35.272696],[134.965472,35.272442],[134.965569,35.271872],[134.965859,35.270969],[134.966265,35.270351],[134.966768,35.269242],[134.967947,35.268134],[134.970401,35.266566],[134.971309,35.266233],[134.972159,35.266123],[134.97268,35.266186],[134.972931,35.266487],[134.973221,35.266741],[134.973801,35.266551],[134.974226,35.266535],[134.97411,35.26625],[134.973704,35.265648],[134.973647,35.265172],[134.973782,35.264665],[134.97384,35.26381],[134.97413,35.262717],[134.974053,35.262242],[134.974015,35.261418],[134.974305,35.259802],[134.974363,35.258978],[134.974248,35.258249],[134.973997,35.257774],[134.973939,35.256871],[134.973514,35.255477],[134.973032,35.254637],[134.972588,35.252466],[134.972608,35.251943],[134.973033,35.251484],[134.973535,35.251246],[134.973805,35.252245],[134.974133,35.252736],[134.974616,35.253275],[134.975021,35.253861],[134.975407,35.254859],[134.976585,35.255636],[134.977203,35.256285],[134.977609,35.257553],[134.977975,35.258408],[134.979018,35.259264],[134.980061,35.259961],[134.981452,35.260579],[134.982185,35.261277],[134.982784,35.26199],[134.982861,35.262576],[134.982668,35.263146],[134.98203,35.263685],[134.981122,35.264318],[134.980659,35.264698],[134.980446,35.265126],[134.980272,35.26576],[134.979944,35.266251],[134.979422,35.26671],[134.978398,35.267471],[134.977838,35.267946],[134.977451,35.268611],[134.977026,35.270005],[134.976427,35.270369],[134.975132,35.271415],[134.974301,35.272397],[134.972794,35.273506],[134.972523,35.274028],[134.972523,35.274805],[134.97231,35.275723],[134.971923,35.276405],[134.97059,35.278353],[134.970203,35.278448],[134.969508,35.278448],[134.968348,35.278638],[134.966957,35.279033],[134.965991,35.279429],[134.964503,35.279809],[134.964387,35.280126],[134.964522,35.280443],[134.964541,35.281029],[134.964212,35.282201],[134.963246,35.282454],[134.961623,35.282755],[134.960251,35.282818],[134.958996,35.2825],[134.957991,35.282437],[134.956747,35.282501],[134.955529,35.282477],[134.954718,35.282096],[134.952806,35.281477],[134.948169,35.281],[134.945155,35.280809],[134.94359,35.280974],[134.942923,35.281354],[134.942459,35.281758],[134.941648,35.281568],[134.940982,35.281282],[134.940141,35.281234],[134.938837,35.281471],[134.936866,35.282017],[134.933851,35.283227],[134.932354,35.283552],[134.931414,35.284069],[134.930396,35.284386],[134.928013,35.284553],[134.926725,35.284457],[134.92536,35.284235],[134.924827,35.284296],[134.924685,35.284664],[134.924277,35.285148],[134.924176,35.285423],[134.924094,35.286267],[134.924112,35.286971],[134.923068,35.287667],[134.922346,35.288258],[134.921044,35.289113],[134.919717,35.2902],[134.918801,35.290759],[134.916728,35.291268],[134.915633,35.291658],[134.915039,35.292619],[134.914407,35.293484],[134.913479,35.293969],[134.913053,35.294782],[134.912717,35.295574],[134.911002,35.297062],[134.910229,35.297484],[134.909352,35.298223],[134.908682,35.298581],[134.90805,35.299035],[134.906917,35.298823],[134.907226,35.298443],[134.907278,35.298042],[134.90715,35.297513],[134.9067,35.296901],[134.906625,35.295094],[134.906496,35.294429],[134.906098,35.293985],[134.906047,35.29351],[134.905787,35.29292],[134.904899,35.292222],[134.904513,35.291858],[134.904128,35.290748],[134.903549,35.289702],[134.902931,35.289416],[134.902159,35.28921],[134.901715,35.288703],[134.901251,35.288449],[134.900614,35.288337],[134.899319,35.288558],[134.897947,35.28889],[134.89727,35.288889],[134.89449,35.287096],[134.893505,35.28681],[134.892171,35.287253],[134.890781,35.28695],[134.890491,35.286697],[134.890202,35.286221],[134.888677,35.285459],[134.888561,35.285079],[134.888621,35.283907],[134.888853,35.283384],[134.888815,35.283194],[134.888428,35.283257],[134.888196,35.283669],[134.887925,35.283906],[134.887597,35.283937],[134.88721,35.283858],[134.886785,35.284285],[134.886456,35.284317],[134.886378,35.284934],[134.886165,35.285299],[134.886241,35.285853],[134.886164,35.286138],[134.885932,35.286217],[134.885739,35.286169],[134.885431,35.285124],[134.884853,35.283761],[134.884467,35.283332],[134.884139,35.283126],[134.883927,35.283237],[134.883984,35.283886],[134.883887,35.284124],[134.883558,35.284345],[134.884156,35.285011],[134.884175,35.285344],[134.884078,35.285598],[134.884077,35.285914],[134.884192,35.286675],[134.884153,35.287325],[134.884056,35.287578],[134.883901,35.287594],[134.883496,35.287134],[134.882648,35.285707],[134.882069,35.285041],[134.881297,35.28447],[134.881219,35.284692],[134.881489,35.285342],[134.881392,35.285595],[134.881392,35.285848],[134.881218,35.285943],[134.880851,35.285848],[134.880387,35.285642],[134.880155,35.285657],[134.880174,35.285879],[134.880733,35.287004],[134.88162,35.287956],[134.882586,35.288717],[134.883126,35.289336],[134.883279,35.290096],[134.883201,35.290445],[134.883008,35.290603],[134.882622,35.290492],[134.881656,35.289968],[134.880806,35.289682],[134.880401,35.289412],[134.879687,35.288588],[134.878704,35.287398],[134.878241,35.286368],[134.878011,35.285132],[134.877492,35.283896],[134.876894,35.283119],[134.876373,35.282659],[134.87618,35.282199],[134.875736,35.281898],[134.875273,35.281438],[134.875119,35.281153],[134.874907,35.281247],[134.8745,35.281849],[134.874094,35.282118],[134.873012,35.281768],[134.872529,35.281784],[134.872413,35.281863],[134.872413,35.282259],[134.87251,35.283009],[134.871723,35.283431],[134.871182,35.283388],[134.870384,35.282954],[134.869727,35.282943],[134.869182,35.283069],[134.868989,35.283196],[134.868795,35.283433],[134.868862,35.283792],[134.869188,35.284309],[134.869484,35.284648],[134.871042,35.285389],[134.871839,35.286034],[134.87207,35.286531],[134.872687,35.287334],[134.873008,35.288105],[134.872956,35.288412],[134.872505,35.288633],[134.871424,35.288262],[134.870741,35.288208],[134.870471,35.288071],[134.869957,35.287299],[134.869043,35.28676],[134.868579,35.286759],[134.868386,35.28696],[134.868411,35.28715],[134.868707,35.287499],[134.868848,35.287858],[134.86877,35.288132],[134.868564,35.288365],[134.868126,35.288417],[134.867739,35.288332],[134.867199,35.287972],[134.866671,35.287803],[134.86604,35.287876],[134.86555,35.288097],[134.865176,35.288456],[134.864763,35.288688],[134.863255,35.28894],[134.862765,35.289224],[134.862352,35.289773],[134.862017,35.290111],[134.861527,35.290173],[134.860329,35.290045],[134.859646,35.290213],[134.858602,35.290614],[134.857778,35.290718],[134.856568,35.290157],[134.856168,35.290241],[134.856191,35.2917],[134.856577,35.292287],[134.856885,35.292652],[134.857019,35.293206],[134.856922,35.29346],[134.856613,35.293649],[134.855859,35.29395],[134.85551,35.294298],[134.854891,35.29455],[134.852939,35.294976],[134.852803,35.295166],[134.852861,35.295372],[134.853363,35.295515],[134.853537,35.29569],[134.853401,35.296165],[134.852859,35.296671],[134.853303,35.296877],[134.853998,35.297306],[134.853688,35.297417],[134.853475,35.297559],[134.853842,35.298082],[134.854015,35.298621],[134.853878,35.299413],[134.853529,35.299761],[134.85349,35.299935],[134.853857,35.300062],[134.85405,35.300348],[134.854127,35.300665],[134.854068,35.301029],[134.853836,35.301393],[134.854008,35.302075],[134.853987,35.302946],[134.853871,35.303469],[134.85358,35.303864],[134.853714,35.304324],[134.854348,35.305209],[134.855467,35.306462],[134.855794,35.307413],[134.856005,35.308348]]],[[[134.83904,35.298311],[134.838903,35.299214],[134.838824,35.300355],[134.838898,35.301606],[134.838907,35.302962],[134.838763,35.304155],[134.838228,35.30728],[134.835883,35.307415],[134.829763,35.30747],[134.827044,35.307635],[134.826827,35.30661],[134.826211,35.305574],[134.825517,35.304538],[134.825419,35.303998],[134.825416,35.303756],[134.825662,35.303228],[134.825792,35.302521],[134.825716,35.302003],[134.826196,35.300198],[134.826785,35.299942],[134.826959,35.299736],[134.827037,35.29953],[134.826846,35.298595],[134.827021,35.297835],[134.826828,35.297772],[134.826325,35.298008],[134.826151,35.29804],[134.826075,35.297723],[134.82623,35.297359],[134.827372,35.296394],[134.827875,35.296173],[134.828088,35.295888],[134.828746,35.29535],[134.829385,35.294733],[134.827684,35.295301],[134.829019,35.294242],[134.82958,35.294242],[134.830603,35.294434],[134.830932,35.29445],[134.831164,35.294356],[134.832093,35.293533],[134.833676,35.294169],[134.83665,35.295234],[134.837905,35.295854],[134.838657,35.29652],[134.838965,35.297297],[134.83904,35.298311]]]]}}]}
