{"type":"FeatureCollection","features":[{"type":"Feature","properties":{"potaRef":"JP-1456","nameJa":"Hongu san","nameEn":"Hongusan Prefectural Nature Park","authority":"環境省 生物多様性「見える化」マップ","boundaryStatus":"全国GIS候補・公開前検証待ち","boundarySource":"環境省 生物多様性「見える化」マップの自然公園区域を、POTA代表座標で一意に空間照合して加工","boundaryScaleNote":"区域は概要データであり、正確性は保証されない。POTA運用可否は公式情報で最終確認すること。","candidateMethod":"POTA representative point inside one public natural-park area","sourceParkKind":"都道府県立自然公園","sourceName":"Hongu san","sourceFeatureCount":1,"cautionMeters":75},"geometry":{"type":"MultiPolygon","coordinates":[[[[137.358909,34.880035],[137.359012,34.879847],[137.358909,34.880035],[137.358852,34.880377],[137.358759,34.880497],[137.358798,34.880681],[137.359565,34.880906],[137.359784,34.881098],[137.359979,34.881161],[137.360596,34.881229],[137.360711,34.881291],[137.360813,34.881446],[137.3609,34.881832],[137.361138,34.8823],[137.361153,34.88259],[137.361331,34.882898],[137.361388,34.88319],[137.36125,34.883355],[137.360925,34.883591],[137.360851,34.883747],[137.360645,34.883966],[137.360564,34.884147],[137.360639,34.884435],[137.360653,34.88502],[137.360854,34.88531],[137.360946,34.885767],[137.361232,34.886206],[137.361524,34.886537],[137.362447,34.887128],[137.363532,34.887152],[137.363781,34.887361],[137.363953,34.887881],[137.364041,34.888014],[137.365238,34.888598],[137.365603,34.888921],[137.366231,34.889067],[137.366811,34.889578],[137.367006,34.889616],[137.367406,34.889586],[137.367655,34.889669],[137.368111,34.889952],[137.368345,34.889989],[137.368933,34.889796],[137.369987,34.889727],[137.370133,34.889767],[137.370605,34.890252],[137.371697,34.891182],[137.372921,34.891496],[137.373678,34.891457],[137.373792,34.892121],[137.373983,34.892531],[137.37435,34.893079],[137.374433,34.89318],[137.375048,34.893591],[137.37546,34.893733],[137.376318,34.893491],[137.377045,34.89347],[137.377403,34.893398],[137.377769,34.893214],[137.378379,34.892786],[137.378734,34.892669],[137.379515,34.892645],[137.38008,34.892347],[137.380379,34.89212],[137.380489,34.891999],[137.380543,34.891814],[137.380739,34.890639],[137.380914,34.890185],[137.380997,34.890042],[137.381445,34.889566],[137.381636,34.889235],[137.38193,34.888427],[137.382161,34.888022],[137.382286,34.887893],[137.382924,34.887474],[137.383363,34.887341],[137.385005,34.887059],[137.385811,34.887121],[137.386683,34.887062],[137.387067,34.887215],[137.387381,34.887252],[137.388511,34.886953],[137.388888,34.88661],[137.389359,34.885885],[137.389907,34.885164],[137.390811,34.884231],[137.391107,34.884088],[137.391567,34.884155],[137.391869,34.884149],[137.392994,34.88389],[137.393622,34.883641],[137.394012,34.883338],[137.394252,34.883314],[137.394928,34.883478],[137.395097,34.883657],[137.395291,34.883727],[137.396031,34.883817],[137.396432,34.883928],[137.398033,34.884956],[137.398207,34.885239],[137.39821,34.885975],[137.398071,34.88659],[137.398487,34.886543],[137.398839,34.886227],[137.398926,34.88603],[137.399426,34.885354],[137.399819,34.885091],[137.400883,34.884936],[137.401788,34.885069],[137.40195,34.885052],[137.402098,34.885107],[137.402734,34.884999],[137.403178,34.884775],[137.403465,34.884471],[137.403487,34.884175],[137.40363,34.883972],[137.403692,34.883646],[137.404022,34.882933],[137.404576,34.882838],[137.405372,34.882894],[137.405817,34.882598],[137.406488,34.882369],[137.406972,34.881864],[137.407582,34.881395],[137.407763,34.881111],[137.407917,34.880677],[137.408445,34.88033],[137.408666,34.880443],[137.408831,34.880601],[137.409116,34.880982],[137.409362,34.882326],[137.409564,34.882646],[137.410333,34.882352],[137.411169,34.88186],[137.412037,34.881587],[137.412499,34.881265],[137.413062,34.880677],[137.413334,34.880548],[137.413861,34.879859],[137.414076,34.879699],[137.414182,34.879412],[137.414212,34.879044],[137.413837,34.878158],[137.414009,34.877909],[137.414307,34.877642],[137.414878,34.87782],[137.415261,34.877816],[137.41531,34.878282],[137.415225,34.878566],[137.415282,34.878726],[137.415389,34.878826],[137.415518,34.879301],[137.415675,34.879368],[137.416065,34.879268],[137.416156,34.879551],[137.416278,34.879585],[137.416414,34.879555],[137.41645,34.879634],[137.416558,34.879917],[137.416517,34.880093],[137.415962,34.880535],[137.415913,34.880625],[137.415914,34.880728],[137.4162,34.881485],[137.415961,34.881856],[137.415961,34.881926],[137.416259,34.88294],[137.416706,34.883197],[137.416828,34.883322],[137.416909,34.883432],[137.416899,34.883802],[137.417023,34.883802],[137.417047,34.884001],[137.417291,34.884225],[137.417292,34.884515],[137.417365,34.884705],[137.41739,34.884955],[137.417263,34.885206],[137.417291,34.885317],[137.417397,34.885419],[137.417599,34.885326],[137.417963,34.884964],[137.418014,34.884554],[137.418097,34.884424],[137.41832,34.884306],[137.418411,34.884397],[137.418431,34.884859],[137.41835,34.885052],[137.418238,34.885789],[137.418123,34.88603],[137.41845,34.886324],[137.418346,34.886667],[137.418375,34.886871],[137.418552,34.88704],[137.418778,34.887095],[137.41894,34.887203],[137.418984,34.887427],[137.419141,34.887563],[137.419463,34.887306],[137.420087,34.887104],[137.420262,34.886869],[137.420713,34.886942],[137.421075,34.887199],[137.42114,34.887167],[137.421228,34.886972],[137.421311,34.886905],[137.422025,34.886977],[137.422213,34.886838],[137.422255,34.886555],[137.422314,34.886463],[137.422687,34.886388],[137.422921,34.886513],[137.423066,34.886829],[137.423655,34.887164],[137.423932,34.887864],[137.423989,34.887836],[137.424064,34.887529],[137.424275,34.887244],[137.424291,34.887032],[137.424383,34.886784],[137.424384,34.886701],[137.424209,34.886346],[137.424441,34.885824],[137.424281,34.885437],[137.424673,34.885132],[137.424724,34.884845],[137.424594,34.884752],[137.423993,34.884755],[137.423163,34.884604],[137.422892,34.884483],[137.422818,34.884362],[137.422966,34.884281],[137.423402,34.884358],[137.423721,34.884338],[137.423883,34.884297],[137.424007,34.88418],[137.424027,34.883996],[137.423867,34.883777],[137.423725,34.88346],[137.423799,34.883376],[137.424342,34.883221],[137.424457,34.883127],[137.424451,34.88303],[137.424129,34.882734],[137.424093,34.882637],[137.424127,34.882495],[137.424567,34.882184],[137.424914,34.882208],[137.425036,34.882124],[137.425012,34.881762],[137.424825,34.881163],[137.421035,34.882719],[137.421002,34.882518],[137.42103,34.882317],[137.421385,34.881429],[137.421229,34.881259],[137.42091,34.881141],[137.421086,34.88071],[137.421455,34.88014],[137.421665,34.879965],[137.421618,34.879572],[137.42165,34.879481],[137.421901,34.879349],[137.42208,34.879049],[137.422068,34.878937],[137.421886,34.878764],[137.421858,34.878666],[137.422007,34.878123],[137.422074,34.877162],[137.422356,34.876363],[137.422524,34.876134],[137.422609,34.875684],[137.423046,34.874907],[137.423041,34.874788],[137.423776,34.874354],[137.424038,34.87427],[137.424467,34.874261],[137.424941,34.874424],[137.425979,34.875212],[137.427236,34.876264],[137.428545,34.877243],[137.4291,34.87807],[137.429067,34.878145],[137.429111,34.8787],[137.429489,34.878874],[137.429695,34.879278],[137.430043,34.879651],[137.43017,34.879939],[137.430133,34.880257],[137.42979,34.880703],[137.42973,34.880845],[137.430033,34.881139],[137.430033,34.881228],[137.429859,34.881484],[137.429393,34.882517],[137.429132,34.882822],[137.42904,34.883005],[137.429026,34.883167],[137.429104,34.883617],[137.428987,34.884117],[137.428777,34.884582],[137.428423,34.884998],[137.428148,34.885923],[137.427964,34.886284],[137.427928,34.886489],[137.428045,34.886802],[137.428055,34.887065],[137.428011,34.887217],[137.427805,34.887389],[137.427675,34.887631],[137.427661,34.887739],[137.427766,34.887841],[137.42799,34.887881],[137.4281,34.887603],[137.4281,34.887409],[137.428471,34.886433],[137.428537,34.885777],[137.428616,34.885614],[137.428888,34.885431],[137.430193,34.884911],[137.431177,34.883507],[137.431442,34.883264],[137.431893,34.883005],[137.431913,34.882916],[137.431848,34.882654],[137.432223,34.882628],[137.432474,34.882548],[137.433251,34.882274],[137.433848,34.881967],[137.434335,34.881787],[137.435418,34.880755],[137.436156,34.8803],[137.436573,34.880246],[137.438405,34.879403],[137.439492,34.879471],[137.439157,34.880226],[137.438921,34.880494],[137.43894,34.880754],[137.438524,34.880966],[137.438241,34.881019],[137.438218,34.881075],[137.438376,34.881252],[137.439059,34.881607],[137.439319,34.881857],[137.439919,34.882146],[137.440137,34.882333],[137.440512,34.88246],[137.440983,34.882833],[137.441511,34.883132],[137.441649,34.88333],[137.441996,34.883444],[137.442018,34.883512],[137.442257,34.883418],[137.442524,34.883181],[137.442961,34.883102],[137.443169,34.883166],[137.44337,34.883305],[137.443677,34.883301],[137.443943,34.883504],[137.443919,34.883809],[137.443995,34.883962],[137.443708,34.884383],[137.443726,34.884663],[137.442772,34.885142],[137.442639,34.885396],[137.442097,34.885712],[137.441777,34.88637],[137.441803,34.886482],[137.441645,34.886664],[137.441618,34.887114],[137.441743,34.887377],[137.442098,34.887825],[137.442499,34.887812],[137.443039,34.887589],[137.44356,34.887579],[137.4441,34.887449],[137.444542,34.887225],[137.444786,34.887254],[137.444957,34.887387],[137.445381,34.887505],[137.445817,34.887564],[137.445916,34.887263],[137.446192,34.886984],[137.446336,34.886883],[137.446948,34.886833],[137.447573,34.886232],[137.448011,34.885927],[137.448304,34.885076],[137.44941,34.885575],[137.448649,34.886492],[137.448288,34.887422],[137.446352,34.889603],[137.446133,34.88973],[137.445535,34.889734],[137.44499,34.890101],[137.444734,34.89021],[137.444494,34.890388],[137.444429,34.890589],[137.44444,34.8908],[137.444351,34.89098],[137.444209,34.891068],[137.44391,34.891153],[137.443633,34.891443],[137.443505,34.891811],[137.443298,34.892148],[137.443352,34.892409],[137.443517,34.892812],[137.44329,34.893557],[137.443186,34.894101],[137.443175,34.894422],[137.443343,34.894946],[137.443342,34.895259],[137.443302,34.895393],[137.442987,34.895757],[137.442935,34.896311],[137.443111,34.89663],[137.443235,34.896398],[137.443265,34.896425],[137.443513,34.896732],[137.443599,34.896989],[137.44427,34.897109],[137.445405,34.897775],[137.445705,34.898055],[137.445979,34.898447],[137.446333,34.898807],[137.4465,34.898904],[137.446542,34.899073],[137.446709,34.899326],[137.447046,34.899595],[137.447138,34.899597],[137.447678,34.89937],[137.448244,34.89939],[137.448784,34.899166],[137.44921,34.899079],[137.449855,34.899306],[137.450404,34.899664],[137.450851,34.900043],[137.451071,34.90049],[137.451142,34.900804],[137.451496,34.901145],[137.451551,34.901259],[137.452543,34.902119],[137.453049,34.902482],[137.452902,34.903587],[137.45293,34.903826],[137.453454,34.904257],[137.45388,34.904458],[137.4541,34.904906],[137.454704,34.905285],[137.454856,34.905461],[137.455219,34.905721],[137.455303,34.9059],[137.455307,34.906085],[137.455205,34.906492],[137.45508,34.906719],[137.455055,34.907063],[137.455113,34.907171],[137.455538,34.907295],[137.455537,34.907681],[137.455304,34.907916],[137.455321,34.908274],[137.455256,34.908357],[137.45459,34.908527],[137.454267,34.90872],[137.453904,34.908751],[137.453847,34.908876],[137.453912,34.909058],[137.453882,34.90927],[137.453971,34.909522],[137.453902,34.909565],[137.453693,34.909549],[137.453608,34.909755],[137.453498,34.909868],[137.453591,34.910127],[137.453507,34.910372],[137.452797,34.91057],[137.452406,34.910825],[137.452352,34.910883],[137.452402,34.911039],[137.452358,34.911138],[137.452086,34.911312],[137.451846,34.911345],[137.451837,34.911592],[137.452291,34.911509],[137.452656,34.911383],[137.453849,34.910851],[137.455283,34.910006],[137.455682,34.909853],[137.456122,34.909858],[137.457295,34.910083],[137.457875,34.909944],[137.457953,34.909965],[137.45796,34.910082],[137.457741,34.910187],[137.456858,34.910187],[137.456391,34.910315],[137.456127,34.91053],[137.455884,34.910826],[137.455805,34.911007],[137.455837,34.911252],[137.456036,34.911484],[137.456206,34.911555],[137.456347,34.911919],[137.456291,34.912459],[137.456132,34.912649],[137.455873,34.912789],[137.454201,34.913043],[137.453617,34.91326],[137.453683,34.913307],[137.453808,34.913555],[137.453906,34.913616],[137.454383,34.91354],[137.45466,34.913723],[137.455228,34.913702],[137.455329,34.913745],[137.455392,34.91385],[137.455483,34.914594],[137.455644,34.914734],[137.455887,34.914716],[137.456018,34.914488],[137.456175,34.914347],[137.456281,34.91429],[137.456376,34.914306],[137.456423,34.914688],[137.456476,34.914786],[137.456969,34.914835],[137.457083,34.914948],[137.457094,34.915071],[137.456986,34.915406],[137.457013,34.915562],[137.457141,34.915656],[137.45748,34.915727],[137.4577,34.916008],[137.457759,34.916258],[137.457858,34.916343],[137.458069,34.916359],[137.458164,34.916292],[137.458252,34.916098],[137.45859,34.916084],[137.458682,34.916037],[137.458752,34.915914],[137.458978,34.916],[137.46007,34.91674],[137.461684,34.917606],[137.462674,34.918212],[137.463181,34.918575],[137.464174,34.919435],[137.464279,34.919588],[137.464591,34.919797],[137.465169,34.920056],[137.466936,34.920508],[137.470435,34.921785],[137.471061,34.922144],[137.472058,34.922924],[137.472453,34.923365],[137.472742,34.922977],[137.473035,34.922864],[137.473625,34.92306],[137.473685,34.923436],[137.473785,34.923511],[137.473898,34.92348],[137.474147,34.92324],[137.474398,34.923108],[137.474516,34.923091],[137.47491,34.923197],[137.475,34.923181],[137.475053,34.923043],[137.474918,34.922779],[137.47501,34.922631],[137.475887,34.9223],[137.476208,34.921984],[137.47695,34.922048],[137.477094,34.921986],[137.477049,34.921163],[137.477129,34.921],[137.477317,34.920805],[137.477878,34.920789],[137.478582,34.920469],[137.479264,34.920473],[137.479676,34.920281],[137.479847,34.92013],[137.479993,34.920092],[137.480803,34.920527],[137.48094,34.920664],[137.480975,34.920934],[137.481215,34.920992],[137.481667,34.920776],[137.482103,34.920656],[137.482395,34.920361],[137.482544,34.920271],[137.482795,34.920258],[137.482894,34.920366],[137.482924,34.920726],[137.482744,34.921331],[137.48276,34.921698],[137.482713,34.922094],[137.483026,34.922329],[137.483176,34.922502],[137.483981,34.922638],[137.484534,34.922607],[137.484687,34.92268],[137.484825,34.922951],[137.484811,34.923024],[137.484594,34.923247],[137.484501,34.923741],[137.484763,34.924],[137.484756,34.924331],[137.484875,34.924383],[137.485382,34.924391],[137.485808,34.924613],[137.485975,34.924576],[137.486417,34.924329],[137.48671,34.924332],[137.486796,34.924396],[137.486806,34.924468],[137.486715,34.924655],[137.486337,34.92486],[137.486278,34.924934],[137.486405,34.92527],[137.48635,34.925539],[137.486488,34.925679],[137.487092,34.925883],[137.486915,34.926255],[137.487151,34.92666],[137.487136,34.926997],[137.487259,34.927319],[137.487263,34.927447],[137.487255,34.927659],[137.487166,34.927705],[137.486637,34.927741],[137.486474,34.927679],[137.486449,34.927772],[137.486269,34.927923],[137.486099,34.927988],[137.485726,34.928019],[137.485564,34.927973],[137.485553,34.927882],[137.485746,34.927731],[137.485862,34.927798],[137.486136,34.927582],[137.486395,34.927574],[137.486669,34.927487],[137.486669,34.927214],[137.486521,34.926863],[137.486424,34.926781],[137.4863,34.926753],[137.486226,34.926792],[137.486286,34.927006],[137.486263,34.927144],[137.486171,34.927169],[137.485704,34.927145],[137.484739,34.927278],[137.483773,34.927224],[137.483574,34.927368],[137.483564,34.927447],[137.483807,34.927536],[137.484211,34.928062],[137.485076,34.928404],[137.484738,34.928619],[137.484468,34.928676],[137.484268,34.928612],[137.484103,34.928417],[137.483826,34.928218],[137.483396,34.928049],[137.48305,34.927785],[137.483019,34.927689],[137.483128,34.927332],[137.483114,34.927211],[137.482916,34.926994],[137.482691,34.926852],[137.482504,34.92654],[137.482581,34.926466],[137.482934,34.926405],[137.483778,34.926545],[137.483873,34.926516],[137.482641,34.926128],[137.482485,34.926125],[137.482121,34.926223],[137.482025,34.926392],[137.482142,34.926894],[137.482478,34.927358],[137.482522,34.927493],[137.482477,34.927667],[137.482286,34.927909],[137.482131,34.928016],[137.48212,34.928092],[137.482241,34.928377],[137.482697,34.928529],[137.482755,34.928599],[137.482756,34.928698],[137.483208,34.928788],[137.484962,34.929614],[137.488011,34.93094],[137.488395,34.931067],[137.48937,34.931262],[137.491058,34.931242],[137.491414,34.931295],[137.491655,34.931386],[137.492512,34.931505],[137.492983,34.931681],[137.494169,34.93241],[137.494992,34.932133],[137.496292,34.931939],[137.496843,34.932123],[137.4978,34.932291],[137.498583,34.932501],[137.501276,34.93289],[137.502758,34.933246],[137.50311,34.933181],[137.503597,34.932765],[137.503763,34.932706],[137.504623,34.93283],[137.50496,34.9332],[137.505453,34.933562],[137.5057,34.933848],[137.506663,34.935354],[137.50677,34.93568],[137.506874,34.935775],[137.507359,34.936531],[137.507614,34.936673],[137.507764,34.936544],[137.507805,34.936338],[137.508029,34.936245],[137.508079,34.936158],[137.508113,34.9364],[137.508529,34.936741],[137.508868,34.936886],[137.50951,34.937013],[137.509698,34.937113],[137.510209,34.937567],[137.510582,34.938048],[137.511876,34.938388],[137.512191,34.938537],[137.51234,34.938809],[137.512421,34.939081],[137.512249,34.939671],[137.512255,34.94004],[137.512362,34.940252],[137.512668,34.940622],[137.512854,34.941067],[137.512932,34.941118],[137.51317,34.941106],[137.513406,34.941027],[137.514085,34.940752],[137.514318,34.940612],[137.515088,34.940353],[137.515677,34.940077],[137.515841,34.940052],[137.516867,34.93965],[137.517243,34.9396],[137.517929,34.939398],[137.519232,34.939248],[137.520268,34.939195],[137.520674,34.939281],[137.521433,34.939326],[137.522583,34.939649],[137.523427,34.940141],[137.523883,34.940466],[137.52396,34.94058],[137.524333,34.940882],[137.524774,34.941361],[137.524844,34.941557],[137.525191,34.941979],[137.525367,34.942307],[137.525476,34.943341],[137.525404,34.943768],[137.525248,34.944241],[137.525207,34.944927],[137.525645,34.946634],[137.525673,34.947554],[137.525625,34.947654],[137.525639,34.948003],[137.525492,34.948437],[137.525058,34.94936],[137.52492,34.949875],[137.524531,34.950718],[137.52433,34.951383],[137.524002,34.95219],[137.523998,34.952333],[137.524348,34.952566],[137.524569,34.95314],[137.524802,34.953248],[137.524939,34.953378],[137.524857,34.953698],[137.525,34.953941],[137.525293,34.954231],[137.525441,34.954209],[137.525815,34.954376],[137.525823,34.954738],[137.525669,34.955148],[137.525749,34.955248],[137.526001,34.955225],[137.526757,34.954793],[137.527047,34.954889],[137.527212,34.954867],[137.527281,34.954814],[137.527333,34.954665],[137.527297,34.954322],[137.527352,34.954122],[137.527472,34.954],[137.527647,34.953914],[137.527952,34.953837],[137.528285,34.954066],[137.528529,34.954024],[137.528578,34.953834],[137.528497,34.953654],[137.528622,34.953286],[137.528866,34.95324],[137.52928,34.953516],[137.529464,34.953558],[137.529637,34.953523],[137.529905,34.953346],[137.530048,34.953327],[137.530313,34.953417],[137.530551,34.953639],[137.530929,34.953893],[137.531013,34.954263],[137.5315,34.954522],[137.531644,34.954817],[137.531674,34.955055],[137.531937,34.955292],[137.532651,34.955473],[137.533155,34.955488],[137.533537,34.955941],[137.533751,34.956006],[137.533992,34.955974],[137.534325,34.955739],[137.53442,34.95562],[137.534419,34.955431],[137.534323,34.955046],[137.534392,34.954545],[137.534499,34.954457],[137.534872,34.954324],[137.535125,34.954177],[137.535623,34.953645],[137.536165,34.953371],[137.536833,34.952691],[137.537274,34.952588],[137.538142,34.952622],[137.538865,34.952232],[137.539561,34.952362],[137.54017,34.95222],[137.540842,34.952146],[137.540955,34.952034],[137.540982,34.951793],[137.540757,34.951039],[137.540739,34.950819],[137.540808,34.950695],[137.541105,34.950577],[137.541256,34.950565],[137.542293,34.950763],[137.542703,34.950606],[137.542955,34.950394],[137.543202,34.94981],[137.543158,34.94939],[137.543407,34.949239],[137.544803,34.949016],[137.545219,34.949347],[137.546392,34.950888],[137.547054,34.952458],[137.547039,34.952719],[137.547238,34.952891],[137.54752,34.95345],[137.547566,34.953662],[137.547694,34.953814],[137.548054,34.954875],[137.548292,34.955063],[137.54861,34.955837],[137.548767,34.955948],[137.548888,34.956229],[137.549006,34.956824],[137.549055,34.957819],[137.54897,34.958095],[137.548851,34.959052],[137.548691,34.959625],[137.548471,34.960122],[137.548474,34.960235],[137.548393,34.96035],[137.548384,34.96051],[137.548322,34.960627],[137.548341,34.960743],[137.548257,34.961118],[137.548281,34.96127],[137.548188,34.961584],[137.548192,34.962017],[137.548246,34.962151],[137.548248,34.962347],[137.548464,34.963024],[137.548539,34.963159],[137.548756,34.963346],[137.55025,34.964054],[137.550969,34.964314],[137.551895,34.964457],[137.552235,34.964726],[137.552525,34.964828],[137.55341,34.965607],[137.553445,34.96578],[137.553383,34.965998],[137.55339,34.966154],[137.553654,34.966299],[137.554094,34.966302],[137.554147,34.966397],[137.554086,34.966442],[137.554093,34.966566],[137.554431,34.966765],[137.554441,34.966899],[137.554353,34.967169],[137.553551,34.968842],[137.553394,34.969075],[137.553995,34.969409],[137.55412,34.969525],[137.554116,34.969582],[137.553674,34.970111],[137.55353,34.97017],[137.552136,34.971441],[137.551822,34.971859],[137.551491,34.972647],[137.551094,34.974509],[137.550916,34.974979],[137.550917,34.975117],[137.551037,34.975463],[137.551175,34.975619],[137.551892,34.975862],[137.552133,34.976029],[137.552536,34.976179],[137.552802,34.976207],[137.553206,34.976371],[137.55378,34.976517],[137.554266,34.976782],[137.553354,34.977664],[137.552569,34.978687],[137.552296,34.978972],[137.552095,34.979309],[137.55194,34.979702],[137.551814,34.980232],[137.551827,34.980643],[137.551885,34.980855],[137.551854,34.981209],[137.551774,34.981267],[137.551091,34.981285],[137.550643,34.981464],[137.550384,34.981686],[137.550004,34.982185],[137.549562,34.982562],[137.549052,34.982888],[137.548889,34.982889],[137.548565,34.98225],[137.547922,34.981188],[137.54776,34.98102],[137.547567,34.980907],[137.547281,34.980852],[137.546076,34.980954],[137.545495,34.980784],[137.544593,34.980613],[137.544422,34.980755],[137.544253,34.981133],[137.543915,34.981649],[137.543564,34.981922],[137.542628,34.982315],[137.542089,34.982464],[137.541635,34.982496],[137.541117,34.982669],[137.539865,34.983485],[137.539072,34.983841],[137.538385,34.984057],[137.537661,34.984388],[137.5372,34.984794],[137.537095,34.984996],[137.5371,34.985109],[137.537025,34.985286],[137.537123,34.985635],[137.53757,34.986353],[137.537711,34.98666],[137.537688,34.986835],[137.537886,34.987592],[137.537871,34.988002],[137.537738,34.988317],[137.53774,34.988511],[137.537371,34.989515],[137.537052,34.989953],[137.536947,34.990021],[137.536909,34.990166],[137.536759,34.99031],[137.536454,34.990801],[137.536287,34.990966],[137.536149,34.991299],[137.535962,34.99146],[137.535295,34.991458],[137.535106,34.991376],[137.534895,34.991356],[137.534678,34.991262],[137.534309,34.990988],[137.534044,34.990954],[137.534002,34.990912],[137.533501,34.991803],[137.533343,34.992021],[137.533115,34.992203],[137.532319,34.992458],[137.531583,34.992602],[137.531279,34.992615],[137.531064,34.992707],[137.530995,34.992793],[137.53122,34.993395],[137.53153,34.993835],[137.5317,34.994184],[137.531849,34.994296],[137.53189,34.994407],[137.53227,34.994855],[137.532381,34.995063],[137.532953,34.9958],[137.533163,34.996164],[137.533733,34.996834],[137.533795,34.996994],[137.534304,34.997622],[137.534507,34.997968],[137.534819,34.998277],[137.53518,34.998529],[137.535906,34.998898],[137.536396,34.999356],[137.536495,34.999548],[137.53655,34.999802],[137.536487,35.000038],[137.535961,35.000481],[137.535906,35.000592],[137.535623,35.000826],[137.53539,35.001156],[137.535085,35.001472],[137.534925,35.001574],[137.53411,35.001394],[137.533324,35.001369],[137.532947,35.00142],[137.532685,35.001365],[137.532142,35.001378],[137.530462,35.001737],[137.529674,35.002081],[137.528759,35.002615],[137.528572,35.002661],[137.527778,35.003067],[137.527058,35.003625],[137.526406,35.0039],[137.525485,35.004147],[137.525534,35.004607],[137.525691,35.005058],[137.525855,35.005233],[137.526061,35.005345],[137.526225,35.00534],[137.52641,35.005238],[137.526656,35.004957],[137.526663,35.004895],[137.526558,35.004814],[137.526243,35.004756],[137.5263,35.004613],[137.526642,35.004467],[137.526779,35.004455],[137.527006,35.00457],[137.527183,35.004595],[137.527718,35.004546],[137.527888,35.004472],[137.528491,35.004439],[137.529366,35.004499],[137.529634,35.004584],[137.529721,35.00465],[137.529765,35.004881],[137.529851,35.004966],[137.530219,35.005045],[137.530218,35.005127],[137.530094,35.005302],[137.530081,35.005423],[137.530131,35.005474],[137.530912,35.005461],[137.531153,35.005547],[137.531416,35.005502],[137.531972,35.005908],[137.532066,35.005931],[137.532113,35.006658],[137.532457,35.00695],[137.532694,35.006961],[137.532954,35.007052],[137.533546,35.007074],[137.533828,35.006973],[137.533928,35.006863],[137.534068,35.007485],[137.5343,35.007643],[137.53477,35.00775],[137.534756,35.007977],[137.534869,35.008109],[137.535148,35.008166],[137.535833,35.008051],[137.536053,35.008165],[137.536184,35.00883],[137.536495,35.009269],[137.536954,35.009632],[137.536979,35.009906],[137.537185,35.010256],[137.537081,35.010405],[137.536815,35.010409],[137.536379,35.010081],[137.536266,35.010128],[137.536382,35.010594],[137.536175,35.011015],[137.535621,35.011184],[137.535473,35.01133],[137.535452,35.011832],[137.53551,35.011964],[137.535723,35.012093],[137.535725,35.012134],[137.535364,35.012357],[137.535314,35.012432],[137.535328,35.01286],[137.535272,35.012963],[137.535081,35.013038],[137.534865,35.012996],[137.53476,35.01305],[137.534768,35.013205],[137.534729,35.013246],[137.534358,35.013326],[137.534109,35.013289],[137.53367,35.012998],[137.533124,35.013186],[137.5328,35.01322],[137.532655,35.013313],[137.531887,35.013231],[137.530519,35.013333],[137.529609,35.013203],[137.528783,35.013235],[137.528514,35.013151],[137.528326,35.01315],[137.527991,35.013244],[137.52737,35.013618],[137.527301,35.013704],[137.527082,35.013555],[137.526923,35.013196],[137.526587,35.012846],[137.52634,35.012214],[137.525878,35.011874],[137.525574,35.011521],[137.525449,35.011492],[137.525371,35.011589],[137.525347,35.011826],[137.525607,35.012641],[137.525614,35.012895],[137.525547,35.013228],[137.525587,35.013618],[137.525675,35.013797],[137.526209,35.014424],[137.52642,35.015063],[137.526905,35.015641],[137.526971,35.015833],[137.526946,35.015992],[137.52637,35.01708],[137.526318,35.017448],[137.526363,35.017604],[137.526335,35.0177],[137.526473,35.018382],[137.527013,35.020031],[137.5274,35.020921],[137.527432,35.021134],[137.527398,35.021333],[137.527226,35.021412],[137.52687,35.021382],[137.526504,35.021082],[137.525499,35.020725],[137.524174,35.020171],[137.523175,35.020052],[137.521452,35.019736],[137.521414,35.019662],[137.521484,35.01884],[137.521546,35.01868],[137.521522,35.018582],[137.521277,35.01847],[137.520445,35.018287],[137.520248,35.018294],[137.519965,35.018802],[137.519413,35.019215],[137.519297,35.019359],[137.519197,35.019571],[137.519101,35.020083],[137.518863,35.020645],[137.518771,35.020981],[137.518785,35.021755],[137.519004,35.022541],[137.518906,35.022657],[137.519028,35.022621],[137.519339,35.022709],[137.519969,35.023198],[137.520907,35.024077],[137.52192,35.024381],[137.523596,35.024691],[137.524192,35.024843],[137.524726,35.025181],[137.525097,35.025667],[137.525457,35.025603],[137.526418,35.025264],[137.526572,35.025327],[137.526667,35.025623],[137.526658,35.02625],[137.526258,35.027216],[137.525324,35.02813],[137.523962,35.029098],[137.523721,35.029332],[137.523607,35.029529],[137.523706,35.029708],[137.524211,35.029917],[137.524725,35.030262],[137.525036,35.030675],[137.525439,35.031074],[137.525796,35.031185],[137.526436,35.031213],[137.526986,35.031381],[137.527409,35.03171],[137.527604,35.031965],[137.527758,35.032492],[137.527741,35.033678],[137.527675,35.034076],[137.527591,35.034233],[137.527498,35.034955],[137.527748,35.035222],[137.528759,35.035847],[137.529582,35.036922],[137.530187,35.038278],[137.530203,35.038529],[137.530539,35.039538],[137.530565,35.040415],[137.530225,35.042001],[137.530223,35.042498],[137.528971,35.042553],[137.528283,35.042873],[137.527872,35.043009],[137.527619,35.043011],[137.527226,35.042889],[137.527181,35.042441],[137.52708,35.042108],[137.52711,35.041445],[137.527282,35.040855],[137.527317,35.040425],[137.527403,35.04015],[137.527396,35.039659],[137.527329,35.03945],[137.527258,35.03875],[137.526946,35.038114],[137.526422,35.037632],[137.525479,35.037145],[137.525356,35.037018],[137.524931,35.03678],[137.524437,35.036367],[137.524195,35.035808],[137.523897,35.034505],[137.523755,35.034212],[137.523561,35.034078],[137.522364,35.033728],[137.521131,35.033014],[137.520814,35.032771],[137.520761,35.032656],[137.520278,35.032215],[137.519997,35.031833],[137.519997,35.031696],[137.519837,35.031211],[137.519845,35.030837],[137.519906,35.030523],[137.520178,35.029836],[137.520163,35.029426],[137.520265,35.028916],[137.520479,35.028544],[137.520814,35.028164],[137.521673,35.027503],[137.522074,35.027324],[137.522422,35.027097],[137.522458,35.0269],[137.522139,35.026699],[137.522001,35.026705],[137.521425,35.026559],[137.520799,35.026238],[137.520001,35.025665],[137.519088,35.02523],[137.518164,35.024568],[137.517604,35.024071],[137.517061,35.023439],[137.516626,35.02282],[137.516296,35.022321],[137.516119,35.021855],[137.516056,35.021547],[137.51604,35.021175],[137.516351,35.020313],[137.516459,35.01988],[137.516788,35.019208],[137.516807,35.019091],[137.517051,35.018751],[137.517612,35.017674],[137.517723,35.017371],[137.517823,35.016841],[137.517943,35.016549],[137.518054,35.015551],[137.518135,35.015158],[137.518206,35.015021],[137.518517,35.013474],[137.519059,35.012294],[137.519507,35.011546],[137.521043,35.010006],[137.521226,35.009923],[137.521288,35.00982],[137.521922,35.009569],[137.522263,35.009249],[137.52249,35.008954],[137.522907,35.008226],[137.523081,35.008103],[137.523353,35.007628],[137.523297,35.006673],[137.523179,35.006328],[137.522944,35.005946],[137.522879,35.005689],[137.522882,35.005373],[137.523069,35.004935],[137.523008,35.004331],[137.52285,35.004049],[137.522905,35.003544],[137.52322,35.004185],[137.522741,35.003173],[137.52267,35.002921],[137.522677,35.002763],[137.52261,35.002626],[137.522606,35.002298],[137.522684,35.001808],[137.522863,35.001414],[137.524016,34.999845],[137.52411,34.999607],[137.524015,34.9996],[137.523859,34.999685],[137.523234,35.000258],[137.523044,35.000357],[137.522191,35.001025],[137.521905,35.001138],[137.520988,35.001314],[137.520866,35.001389],[137.520473,35.001491],[137.519835,35.001801],[137.519273,35.001917],[137.518024,35.002828],[137.517716,35.002985],[137.517387,35.003072],[137.51682,35.003098],[137.516413,35.003054],[137.516381,35.002682],[137.51642,35.002562],[137.516368,35.002429],[137.516439,35.001528],[137.516352,35.0012],[137.515604,35.000312],[137.515257,34.999812],[137.514996,34.999233],[137.514975,34.999024],[137.514761,34.998575],[137.514524,34.998213],[137.514273,34.997474],[137.514153,34.996838],[137.514244,34.996537],[137.514264,34.995619],[137.514208,34.995327],[137.514125,34.995153],[137.513489,34.995158],[137.512823,34.995065],[137.512579,34.994959],[137.512317,34.994761],[137.511928,34.994397],[137.511666,34.993998],[137.511645,34.993839],[137.511203,34.993124],[137.511038,34.992577],[137.510795,34.992135],[137.510707,34.991614],[137.510778,34.991377],[137.510753,34.991083],[137.510822,34.99083],[137.51079,34.990516],[137.510871,34.990107],[137.510856,34.989618],[137.510776,34.989365],[137.510789,34.988955],[137.510723,34.988768],[137.510559,34.988591],[137.510037,34.988281],[137.509901,34.988125],[137.509132,34.98775],[137.508563,34.98769],[137.508494,34.98775],[137.508494,34.988341],[137.508442,34.98854],[137.508201,34.988873],[137.50795,34.989132],[137.507894,34.989262],[137.507301,34.989827],[137.50667,34.990117],[137.506431,34.990178],[137.506103,34.990186],[137.50506,34.990027],[137.504958,34.989962],[137.504557,34.989897],[137.504241,34.989754],[137.503068,34.989389],[137.502296,34.988975],[137.501989,34.988594],[137.501953,34.988381],[137.50178,34.988224],[137.501749,34.988087],[137.501468,34.987568],[137.501193,34.986927],[137.50108,34.986385],[137.501051,34.98494],[137.501513,34.984244],[137.502099,34.983762],[137.502953,34.983455],[137.503494,34.983444],[137.503671,34.983488],[137.503316,34.983877],[137.503751,34.985183],[137.504352,34.987522],[137.504453,34.987736],[137.504636,34.98786],[137.50553,34.987971],[137.505774,34.987896],[137.505908,34.987805],[137.50628,34.987268],[137.5069,34.987166],[137.5069,34.98701],[137.506641,34.986293],[137.506556,34.985509],[137.50662,34.985464],[137.506643,34.985292],[137.506975,34.985078],[137.506276,34.98458],[137.506605,34.984163],[137.507058,34.984041],[137.507407,34.984034],[137.508995,34.984432],[137.509175,34.984528],[137.509394,34.984535],[137.509722,34.984669],[137.51055,34.985176],[137.511667,34.985951],[137.512817,34.987021],[137.512846,34.987118],[137.513212,34.987558],[137.513414,34.987885],[137.513857,34.988928],[137.514047,34.989221],[137.51404,34.989412],[137.514335,34.990232],[137.514427,34.990241],[137.514786,34.990052],[137.515229,34.989938],[137.515867,34.989909],[137.516655,34.989967],[137.516982,34.99005],[137.51733,34.99024],[137.517569,34.990415],[137.517962,34.990896],[137.518371,34.991073],[137.519152,34.989985],[137.519823,34.988788],[137.519977,34.988459],[137.520232,34.987498],[137.52043,34.986979],[137.520916,34.9864],[137.521372,34.986059],[137.521604,34.985767],[137.522041,34.984975],[137.521991,34.984736],[137.52182,34.984345],[137.52182,34.984101],[137.522007,34.983816],[137.521825,34.982753],[137.52187,34.982668],[137.522199,34.982318],[137.522519,34.982138],[137.522812,34.982041],[137.522621,34.981906],[137.522607,34.981821],[137.522872,34.981435],[137.523356,34.981195],[137.52417,34.980649],[137.524419,34.980508],[137.52629,34.980011],[137.526429,34.979871],[137.527076,34.979462],[137.527267,34.979405],[137.5276,34.979402],[137.527781,34.97929],[137.527868,34.979093],[137.527897,34.978475],[137.528004,34.978094],[137.528064,34.977516],[137.528514,34.977596],[137.52927,34.978019],[137.529789,34.978237],[137.530846,34.978537],[137.531448,34.978922],[137.532005,34.979353],[137.532759,34.979764],[137.533545,34.980052],[137.534718,34.980377],[137.535074,34.980369],[137.535567,34.980221],[137.536676,34.980059],[137.537651,34.980039],[137.53841,34.980104],[137.539888,34.980347],[137.540857,34.980268],[137.541467,34.98013],[137.541635,34.979978],[137.541731,34.979803],[137.541988,34.979011],[137.542032,34.978743],[137.542131,34.978541],[137.542566,34.978024],[137.543471,34.977399],[137.543984,34.977149],[137.544319,34.977075],[137.545121,34.976976],[137.545554,34.977077],[137.546012,34.977346],[137.546474,34.977809],[137.546594,34.977844],[137.547302,34.977814],[137.548578,34.97753],[137.548814,34.977524],[137.549074,34.977424],[137.549184,34.977265],[137.548775,34.97665],[137.548629,34.976337],[137.548422,34.97552],[137.54841,34.97515],[137.548346,34.97496],[137.54843,34.974814],[137.548334,34.973648],[137.548403,34.973316],[137.548385,34.972847],[137.548523,34.972159],[137.54861,34.972058],[137.54866,34.971845],[137.549186,34.971113],[137.549407,34.970716],[137.551405,34.967921],[137.551726,34.967252],[137.551703,34.967113],[137.551548,34.967046],[137.551078,34.967189],[137.54992,34.967272],[137.549041,34.967191],[137.547885,34.967545],[137.547063,34.967468],[137.546614,34.967676],[137.546211,34.967795],[137.545883,34.967777],[137.54559,34.967687],[137.544488,34.968012],[137.543942,34.968043],[137.543518,34.967962],[137.541885,34.967459],[137.541669,34.967345],[137.541574,34.967271],[137.541574,34.967213],[137.541709,34.96686],[137.541742,34.966543],[137.541663,34.96635],[137.541496,34.966157],[137.541291,34.965693],[137.541268,34.965187],[137.541323,34.964719],[137.541247,34.964525],[137.540674,34.964125],[137.540508,34.963859],[137.540491,34.96368],[137.540239,34.963236],[137.539812,34.962662],[137.539473,34.962356],[137.539013,34.961836],[137.538645,34.961236],[137.538522,34.960775],[137.538354,34.960561],[137.538084,34.960394],[137.5379,34.960187],[137.537633,34.95982],[137.537578,34.959646],[137.537119,34.958928],[137.537046,34.958851],[137.53683,34.95877],[137.536309,34.958927],[137.535888,34.959525],[137.535832,34.959677],[137.535895,34.959911],[137.53583,34.960342],[137.53585,34.960889],[137.535788,34.961126],[137.53546,34.961276],[137.53487,34.961379],[137.534658,34.9615],[137.534627,34.961581],[137.534725,34.961986],[137.534563,34.96217],[137.534026,34.962603],[137.533763,34.962899],[137.533664,34.963101],[137.533615,34.963457],[137.53354,34.96363],[137.532614,34.963566],[137.531397,34.96334],[137.531107,34.963254],[137.530485,34.962925],[137.530243,34.962896],[137.529793,34.962949],[137.529434,34.962786],[137.528588,34.963109],[137.528272,34.963417],[137.527964,34.963554],[137.527394,34.963674],[137.526534,34.964092],[137.525121,34.964506],[137.52425,34.964628],[137.523593,34.964823],[137.523138,34.964875],[137.52249,34.965095],[137.52199,34.965156],[137.520662,34.965022],[137.520462,34.964958],[137.52018,34.964964],[137.519348,34.964821],[137.518827,34.964649],[137.516841,34.963568],[137.516661,34.963407],[137.515119,34.962375],[137.514565,34.961779],[137.514306,34.961043],[137.514222,34.960326],[137.513859,34.959435],[137.513842,34.959296],[137.513272,34.958409],[137.513218,34.958196],[137.513038,34.95777],[137.512927,34.95764],[137.512481,34.956492],[137.512182,34.956128],[137.512118,34.955977],[137.511868,34.955711],[137.511693,34.955394],[137.511677,34.955222],[137.511595,34.955089],[137.511557,34.954701],[137.511447,34.95458],[137.511298,34.954511],[137.510513,34.954348],[137.50923,34.954214],[137.508728,34.95411],[137.507448,34.954176],[137.506762,34.954303],[137.506555,34.954291],[137.506371,34.953944],[137.506385,34.953852],[137.506242,34.953697],[137.505598,34.953258],[137.50513,34.95274],[137.50448,34.952399],[137.503874,34.951966],[137.503503,34.951565],[137.503223,34.951106],[137.502143,34.950664],[137.501784,34.950687],[137.499818,34.950368],[137.498855,34.950149],[137.498673,34.950055],[137.498121,34.949934],[137.497444,34.949686],[137.496126,34.949037],[137.494963,34.948329],[137.493536,34.947379],[137.492837,34.946982],[137.491673,34.946167],[137.491305,34.945808],[137.490626,34.94527],[137.490538,34.945132],[137.489708,34.944467],[137.489549,34.944259],[137.488701,34.943474],[137.487989,34.942609],[137.487895,34.942414],[137.487282,34.941712],[137.487124,34.941436],[137.486816,34.941056],[137.486234,34.940461],[137.485605,34.940143],[137.484985,34.939928],[137.484079,34.939711],[137.482193,34.939073],[137.48073,34.938517],[137.479097,34.937766],[137.477714,34.937605],[137.476318,34.937717],[137.4738,34.937507],[137.472747,34.937219],[137.47212,34.936985],[137.470813,34.936287],[137.470668,34.936141],[137.46874,34.934863],[137.4684,34.934574],[137.467602,34.934065],[137.467347,34.933843],[137.466027,34.932926],[137.465351,34.93251],[137.46457,34.931704],[137.463307,34.930815],[137.462007,34.92944],[137.461237,34.928986],[137.460109,34.928499],[137.459366,34.928079],[137.459177,34.927908],[137.459056,34.927681],[137.458949,34.927113],[137.45798,34.926955],[137.457491,34.92682],[137.457259,34.926675],[137.45679,34.926204],[137.456519,34.925819],[137.456231,34.925588],[137.455775,34.925361],[137.455482,34.925157],[137.454906,34.925017],[137.454479,34.924844],[137.454114,34.924582],[137.453965,34.924426],[137.453626,34.923693],[137.453443,34.923491],[137.453035,34.923331],[137.452375,34.92346],[137.452042,34.923447],[137.451268,34.922801],[137.45088,34.922635],[137.450205,34.922253],[137.450126,34.922168],[137.449798,34.922065],[137.448736,34.922115],[137.448135,34.922006],[137.447731,34.921849],[137.446904,34.921856],[137.446555,34.92171],[137.446725,34.922019],[137.446841,34.922505],[137.446933,34.922674],[137.447216,34.923053],[137.447651,34.923451],[137.447763,34.923729],[137.447763,34.923784],[137.44672,34.924278],[137.446655,34.924355],[137.447169,34.92514],[137.447566,34.925607],[137.447547,34.925808],[137.447253,34.926246],[137.447222,34.926372],[137.447319,34.926934],[137.447326,34.927224],[137.447281,34.927375],[137.447913,34.92803],[137.447776,34.928336],[137.447784,34.928428],[137.448167,34.929585],[137.448208,34.930075],[137.448152,34.930451],[137.44791,34.930709],[137.447826,34.930978],[137.447733,34.931059],[137.447556,34.931004],[137.447235,34.930685],[137.446542,34.93062],[137.446009,34.930458],[137.4458,34.930292],[137.44541,34.929549],[137.445355,34.929493],[137.445216,34.929493],[137.445042,34.929767],[137.444925,34.930572],[137.445333,34.931319],[137.444955,34.931425],[137.444818,34.931415],[137.44342,34.930636],[137.443181,34.930591],[137.443088,34.93067],[137.443208,34.930874],[137.444368,34.931581],[137.444712,34.931695],[137.445043,34.931713],[137.445125,34.932138],[137.444858,34.932066],[137.444288,34.932163],[137.443941,34.932158],[137.443172,34.931794],[137.442427,34.93133],[137.442,34.931476],[137.441869,34.931679],[137.441762,34.932084],[137.441628,34.932194],[137.441384,34.932236],[137.440857,34.932214],[137.440508,34.932334],[137.439858,34.932698],[137.439477,34.932709],[137.439122,34.932794],[137.438621,34.932782],[137.438119,34.932968],[137.437388,34.932861],[137.4366,34.932653],[137.435654,34.932675],[137.435318,34.932726],[137.435007,34.932564],[137.434559,34.932444],[137.434202,34.932602],[137.434093,34.932602],[137.433785,34.932382],[137.433132,34.932221],[137.43304,34.93223],[137.43276,34.932421],[137.432568,34.932421],[137.432267,34.932174],[137.431775,34.93201],[137.431173,34.932089],[137.430838,34.932241],[137.430359,34.932574],[137.430127,34.932585],[137.429409,34.93245],[137.428882,34.932619],[137.428725,34.932716],[137.428204,34.932689],[137.428133,34.932737],[137.42805,34.932967],[137.427361,34.933534],[137.427243,34.933728],[137.427146,34.933741],[137.426952,34.933669],[137.426488,34.933858],[137.426115,34.934118],[137.425755,34.934558],[137.425609,34.93485],[137.425573,34.935029],[137.425548,34.935732],[137.425438,34.936143],[137.425265,34.936385],[137.424939,34.936702],[137.424869,34.936936],[137.424879,34.937073],[137.424946,34.937153],[137.425301,34.93717],[137.425638,34.937292],[137.425788,34.937525],[137.425803,34.937837],[137.425745,34.938055],[137.425506,34.938327],[137.424705,34.938884],[137.424058,34.939651],[137.423395,34.940204],[137.423589,34.940831],[137.423607,34.941316],[137.422898,34.941186],[137.422679,34.941207],[137.422483,34.942094],[137.422334,34.942472],[137.421613,34.942573],[137.42144,34.942618],[137.421253,34.942746],[137.421099,34.943087],[137.421099,34.943317],[137.421167,34.943542],[137.421439,34.944005],[137.421455,34.944331],[137.421414,34.944618],[137.421346,34.944763],[137.421064,34.944887],[137.419805,34.945185],[137.418587,34.945539],[137.417859,34.945561],[137.41682,34.945693],[137.416182,34.945636],[137.415732,34.945694],[137.415936,34.946856],[137.415927,34.947344],[137.415826,34.947912],[137.414773,34.949713],[137.413661,34.950858],[137.412592,34.951364],[137.411951,34.951425],[137.4115,34.951548],[137.411312,34.951556],[137.410876,34.951698],[137.410918,34.951838],[137.411257,34.952099],[137.412123,34.953048],[137.412538,34.953857],[137.412753,34.954148],[137.412941,34.954591],[137.413038,34.954688],[137.413351,34.955266],[137.413626,34.95602],[137.413769,34.956758],[137.413754,34.956879],[137.414014,34.957886],[137.414004,34.958474],[137.414073,34.959116],[137.413912,34.959681],[137.413712,34.960225],[137.413506,34.960386],[137.413484,34.960467],[137.413351,34.960592],[137.413212,34.961203],[137.412829,34.961915],[137.41271,34.962024],[137.414097,34.96268],[137.415078,34.96331],[137.414275,34.964093],[137.413887,34.964858],[137.413345,34.965593],[137.413272,34.966029],[137.413065,34.966157],[137.413357,34.966277],[137.413739,34.966347],[137.414021,34.966295],[137.414131,34.96612],[137.414109,34.966009],[137.414155,34.965928],[137.414433,34.96571],[137.414841,34.965749],[137.415108,34.965526],[137.415961,34.965287],[137.416373,34.965451],[137.416601,34.965929],[137.416864,34.965985],[137.416934,34.966148],[137.417098,34.966188],[137.417517,34.965898],[137.417706,34.965489],[137.417903,34.965251],[137.418045,34.96526],[137.418233,34.9652],[137.419002,34.965356],[137.419603,34.965762],[137.419625,34.965835],[137.419554,34.965961],[137.41959,34.966053],[137.419824,34.966194],[137.420056,34.966492],[137.420245,34.966528],[137.420401,34.966756],[137.420635,34.966929],[137.420849,34.966837],[137.420968,34.966882],[137.421087,34.967078],[137.4211,34.967231],[137.421241,34.967566],[137.421204,34.967667],[137.421111,34.967698],[137.420513,34.967635],[137.419494,34.967658],[137.41902,34.967742],[137.418625,34.968063],[137.418428,34.968325],[137.418304,34.968416],[137.41786,34.968532],[137.417258,34.968755],[137.417137,34.968843],[137.416717,34.968941],[137.41645,34.96908],[137.415797,34.969264],[137.415499,34.969274],[137.415487,34.969335],[137.41582,34.969589],[137.415952,34.969776],[137.4159,34.970133],[137.415757,34.970387],[137.41546,34.970706],[137.414738,34.972027],[137.414504,34.972189],[137.414195,34.972185],[137.413789,34.972107],[137.413666,34.97226],[137.413623,34.972479],[137.413696,34.972907],[137.41363,34.973201],[137.413991,34.973657],[137.414035,34.973874],[137.414252,34.974225],[137.414152,34.974734],[137.414227,34.974887],[137.414507,34.975189],[137.414586,34.975702],[137.414508,34.975952],[137.414497,34.976186],[137.414541,34.976361],[137.414761,34.976573],[137.414588,34.976659],[137.414258,34.976935],[137.414223,34.976997],[137.414315,34.97719],[137.414955,34.977119],[137.415488,34.977119],[137.416857,34.977214],[137.417013,34.97756],[137.417157,34.977698],[137.418365,34.978494],[137.418726,34.97882],[137.418905,34.979207],[137.418796,34.979541],[137.41896,34.979905],[137.419129,34.980138],[137.419271,34.980232],[137.419587,34.980278],[137.41992,34.980645],[137.419955,34.980773],[137.419651,34.980949],[137.419325,34.980853],[137.418623,34.980854],[137.41825,34.980987],[137.418064,34.981103],[137.417818,34.981129],[137.41764,34.981061],[137.417185,34.981255],[137.417159,34.981105],[137.417035,34.981021],[137.416559,34.981152],[137.416464,34.980954],[137.416194,34.981045],[137.415862,34.981053],[137.416251,34.980507],[137.416235,34.980392],[137.41615,34.980328],[137.416062,34.980336],[137.415961,34.980485],[137.415679,34.980735],[137.415165,34.980827],[137.414921,34.980942],[137.414484,34.981314],[137.414391,34.981245],[137.414403,34.981138],[137.414547,34.980907],[137.414547,34.980788],[137.414418,34.980543],[137.414478,34.980153],[137.414326,34.980002],[137.413838,34.979998],[137.413669,34.980126],[137.413551,34.980387],[137.413406,34.980529],[137.412828,34.980556],[137.412854,34.980696],[137.412906,34.980739],[137.41343,34.980787],[137.413409,34.98093],[137.413089,34.981042],[137.412746,34.981349],[137.412308,34.981392],[137.411944,34.981849],[137.411537,34.981915],[137.411853,34.982159],[137.411998,34.982541],[137.412254,34.982792],[137.412586,34.982847],[137.4132,34.982846],[137.413817,34.98272],[137.414057,34.982795],[137.41462,34.983311],[137.415174,34.983732],[137.416279,34.98419],[137.416754,34.98425],[137.417158,34.984365],[137.41745,34.984565],[137.417579,34.984934],[137.417705,34.985066],[137.418489,34.985289],[137.419044,34.98635],[137.419299,34.986654],[137.419631,34.986963],[137.420241,34.987357],[137.421064,34.988068],[137.421938,34.988575],[137.422183,34.989001],[137.422433,34.989287],[137.422787,34.989828],[137.42309,34.990096],[137.423277,34.990382],[137.423655,34.990573],[137.424425,34.991293],[137.424516,34.991491],[137.424473,34.99167],[137.424486,34.992311],[137.424355,34.992723],[137.424176,34.993059],[137.424282,34.993253],[137.424538,34.99339],[137.424665,34.993539],[137.424765,34.994085],[137.425023,34.994644],[137.425044,34.995147],[137.425235,34.995879],[137.425235,34.996115],[137.424921,34.996635],[137.424852,34.996999],[137.424653,34.997151],[137.424346,34.997551],[137.424406,34.9977],[137.424375,34.99788],[137.42428,34.998018],[137.424297,34.998735],[137.423901,34.999076],[137.42376,34.999278],[137.423817,34.999348],[137.424811,34.999778],[137.424708,34.999956],[137.424571,35.000089],[137.423972,35.000371],[137.421459,34.998718],[137.419818,34.998205],[137.419348,34.998183],[137.416019,34.998623],[137.415642,34.998623],[137.414912,34.998429],[137.413443,34.997683],[137.413278,34.997676],[137.410869,34.998072],[137.409878,34.998169],[137.407073,34.997679],[137.406518,34.997499],[137.406091,34.997257],[137.402788,34.994917],[137.402448,34.994744],[137.40041,34.99444],[137.400098,34.994365],[137.399597,34.994143],[137.399972,34.993511],[137.400015,34.993297],[137.39957,34.992061],[137.399536,34.991539],[137.39881,34.989524],[137.398227,34.988665],[137.397874,34.987982],[137.397871,34.987802],[137.39798,34.987748],[137.397822,34.987226],[137.397428,34.986696],[137.396299,34.985602],[137.39599,34.98546],[137.395701,34.98546],[137.394573,34.985663],[137.394244,34.985663],[137.393641,34.98551],[137.392796,34.98552],[137.392341,34.985232],[137.392017,34.985099],[137.391781,34.985099],[137.391057,34.985302],[137.390856,34.985291],[137.390563,34.985181],[137.390235,34.984877],[137.389952,34.984704],[137.389229,34.984526],[137.389302,34.984731],[137.389361,34.985169],[137.389226,34.985441],[137.389003,34.985716],[137.388401,34.986028],[137.388322,34.986514],[137.388194,34.986753],[137.388067,34.986834],[137.387695,34.98689],[137.387391,34.986995],[137.387151,34.987128],[137.38713,34.987244],[137.387194,34.987348],[137.387514,34.987487],[137.387644,34.987623],[137.387704,34.987759],[137.387747,34.988189],[137.387853,34.988333],[137.388051,34.988438],[137.388623,34.988613],[137.388883,34.988817],[137.388885,34.988933],[137.388508,34.989129],[137.388663,34.989483],[137.388539,34.989669],[137.387919,34.989843],[137.386515,34.990117],[137.385901,34.990152],[137.385596,34.990238],[137.385029,34.9905],[137.385147,34.990747],[137.384736,34.991051],[137.383637,34.992262],[137.383097,34.992275],[137.381875,34.991319],[137.3816,34.99104],[137.381393,34.990614],[137.381371,34.990169],[137.381571,34.989156],[137.381669,34.988868],[137.381856,34.988535],[137.382534,34.98766],[137.382624,34.987414],[137.382756,34.986687],[137.382932,34.986325],[137.383726,34.985396],[137.385008,34.984349],[137.38528,34.983945],[137.385884,34.982806],[137.386102,34.982226],[137.386532,34.981578],[137.386648,34.981124],[137.386594,34.980751],[137.386276,34.980238],[137.385926,34.979961],[137.385885,34.979845],[137.386017,34.97957],[137.38631,34.979246],[137.386325,34.979066],[137.386177,34.978848],[137.386178,34.978637],[137.386122,34.978546],[137.385953,34.978442],[137.38548,34.978436],[137.38547,34.978099],[137.38532,34.977856],[137.385634,34.977963],[137.385855,34.977966],[137.386637,34.978425],[137.386863,34.978511],[137.387161,34.978588],[137.38759,34.978601],[137.388251,34.978894],[137.388663,34.979137],[137.388868,34.979494],[137.388816,34.979103],[137.388702,34.978984],[137.388708,34.978792],[137.389206,34.977335],[137.389591,34.976612],[137.390132,34.976501],[137.390743,34.976445],[137.391054,34.9766],[137.391322,34.976817],[137.392128,34.976275],[137.391952,34.975877],[137.391873,34.975428],[137.391715,34.974923],[137.391703,34.974435],[137.391726,34.974183],[137.391786,34.974061],[137.392093,34.973961],[137.392019,34.973845],[137.39168,34.973596],[137.391229,34.973042],[137.390875,34.972496],[137.390865,34.972381],[137.3908,34.972298],[137.39,34.971921],[137.389779,34.971798],[137.389652,34.971669],[137.389411,34.971555],[137.388832,34.971036],[137.388534,34.970514],[137.388287,34.970266],[137.387953,34.969997],[137.387722,34.969731],[137.386877,34.969223],[137.386272,34.968705],[137.385893,34.968333],[137.385338,34.96765],[137.385186,34.96744],[137.385123,34.967201],[137.384767,34.966566],[137.384704,34.966238],[137.384724,34.965962],[137.384639,34.965594],[137.384616,34.964812],[137.384663,34.964438],[137.384245,34.964137],[137.3838,34.963678],[137.383759,34.963231],[137.383335,34.962141],[137.3829,34.962018],[137.382451,34.962004],[137.382257,34.961906],[137.381785,34.961376],[137.381369,34.960995],[137.381294,34.960429],[137.381377,34.960113],[137.381465,34.960012],[137.381597,34.959581],[137.382081,34.958728],[137.382228,34.958319],[137.382317,34.958261],[137.382461,34.958255],[137.382912,34.958323],[137.383388,34.958221],[137.383453,34.958161],[137.383517,34.957884],[137.383606,34.957745],[137.384097,34.957538],[137.384246,34.957635],[137.384364,34.95785],[137.384431,34.958355],[137.384568,34.958741],[137.385253,34.959508],[137.385235,34.959899],[137.387361,34.961042],[137.387444,34.961029],[137.387486,34.960967],[137.387669,34.960051],[137.387826,34.959838],[137.389346,34.959499],[137.390099,34.959031],[137.390583,34.958665],[137.390681,34.958715],[137.390792,34.959047],[137.39086,34.959114],[137.391265,34.958693],[137.391623,34.958729],[137.391791,34.958856],[137.392019,34.959142],[137.392139,34.959376],[137.392153,34.959509],[137.39243,34.960148],[137.392876,34.960418],[137.39296,34.960886],[137.393064,34.960921],[137.393346,34.960884],[137.393652,34.96063],[137.394178,34.960827],[137.394457,34.960846],[137.395224,34.960542],[137.395784,34.960663],[137.395912,34.960564],[137.396043,34.960007],[137.396195,34.959727],[137.396211,34.959245],[137.396292,34.959038],[137.396662,34.958929],[137.396795,34.959093],[137.396916,34.959163],[137.397247,34.959123],[137.397404,34.95907],[137.397611,34.958787],[137.397597,34.958674],[137.397286,34.958278],[137.39732,34.958186],[137.397554,34.958001],[137.397508,34.95776],[137.397547,34.957675],[137.397944,34.957567],[137.398183,34.957689],[137.398492,34.957763],[137.398765,34.957616],[137.399023,34.957599],[137.399082,34.957557],[137.399215,34.956985],[137.399605,34.956873],[137.40066,34.956341],[137.400703,34.95627],[137.400665,34.956118],[137.400299,34.955958],[137.400076,34.955921],[137.398837,34.956033],[137.397709,34.955578],[137.397406,34.955277],[137.397041,34.955264],[137.396878,34.955206],[137.396763,34.955066],[137.39675,34.954802],[137.39683,34.954423],[137.396763,34.954297],[137.396208,34.954108],[137.395773,34.954073],[137.395345,34.953834],[137.39496,34.953513],[137.394941,34.953107],[137.394975,34.952994],[137.395138,34.952855],[137.395865,34.952632],[137.3969,34.952692],[137.397365,34.952583],[137.397486,34.952489],[137.39748,34.952366],[137.397252,34.95216],[137.397139,34.95187],[137.396841,34.951658],[137.396895,34.951404],[137.396787,34.951218],[137.396642,34.95118],[137.396239,34.951233],[137.3956,34.950903],[137.394932,34.950947],[137.394749,34.950873],[137.394753,34.95071],[137.394867,34.950489],[137.394957,34.950431],[137.395364,34.950353],[137.395662,34.950171],[137.395686,34.950095],[137.395641,34.949991],[137.394972,34.949679],[137.394851,34.949537],[137.394945,34.949386],[137.395316,34.949138],[137.39556,34.948832],[137.395612,34.94867],[137.395539,34.948544],[137.395412,34.948504],[137.394792,34.948562],[137.394107,34.948385],[137.393718,34.948482],[137.393444,34.948436],[137.393174,34.948237],[137.39312,34.948143],[137.393121,34.948012],[137.393374,34.947598],[137.393749,34.947236],[137.393758,34.94716],[137.393613,34.946989],[137.393373,34.946883],[137.392505,34.946749],[137.392013,34.946492],[137.391777,34.946249],[137.391731,34.945754],[137.391666,34.945672],[137.391419,34.945569],[137.391322,34.945536],[137.391153,34.945649],[137.391056,34.945659],[137.39058,34.945585],[137.389718,34.94527],[137.389093,34.944927],[137.387663,34.944618],[137.387539,34.944531],[137.387304,34.943845],[137.387961,34.943759],[137.388846,34.943995],[137.389196,34.944009],[137.390797,34.943865],[137.391788,34.943726],[137.391744,34.943332],[137.391795,34.942846],[137.391942,34.942213],[137.392062,34.941747],[137.392278,34.94133],[137.392284,34.941197],[137.392388,34.940939],[137.392394,34.940606],[137.39246,34.940407],[137.392781,34.939817],[137.392928,34.939286],[137.393016,34.939089],[137.393214,34.938857],[137.393395,34.938753],[137.394091,34.938014],[137.394609,34.937226],[137.394614,34.936774],[137.394539,34.936234],[137.394657,34.935721],[137.394647,34.935389],[137.395032,34.934641],[137.395086,34.934112],[137.395074,34.933644],[137.3952,34.933096],[137.395095,34.932724],[137.394442,34.932071],[137.394351,34.93188],[137.394518,34.931432],[137.394782,34.930994],[137.39484,34.930699],[137.394928,34.93054],[137.394972,34.929679],[137.395441,34.928539],[137.395505,34.928284],[137.395644,34.928106],[137.3959,34.927945],[137.396332,34.927484],[137.396369,34.927289],[137.396494,34.927133],[137.396985,34.92685],[137.39719,34.926557],[137.397613,34.926395],[137.398232,34.925888],[137.398428,34.925201],[137.398845,34.924667],[137.399044,34.924506],[137.399184,34.924306],[137.399343,34.924206],[137.399481,34.924008],[137.399733,34.923478],[137.399857,34.923006],[137.400125,34.922376],[137.400113,34.921966],[137.399919,34.921564],[137.400434,34.920886],[137.400474,34.920612],[137.400962,34.919942],[137.401127,34.919524],[137.40169,34.918948],[137.401813,34.918634],[137.401933,34.91853],[137.401964,34.918422],[137.402205,34.918117],[137.402345,34.918021],[137.402994,34.917747],[137.403346,34.917451],[137.403814,34.91719],[137.404548,34.917064],[137.40505,34.916726],[137.405245,34.916656],[137.406004,34.916679],[137.406498,34.916607],[137.406832,34.916699],[137.407443,34.916704],[137.407664,34.916405],[137.407781,34.916035],[137.407877,34.915895],[137.408202,34.915771],[137.408559,34.915727],[137.408785,34.91552],[137.409178,34.915351],[137.409254,34.914974],[137.409367,34.914758],[137.409418,34.914363],[137.409553,34.913933],[137.409888,34.913357],[137.410121,34.913219],[137.41109,34.912937],[137.411405,34.912796],[137.411409,34.912744],[137.410877,34.912384],[137.410829,34.912284],[137.410586,34.912094],[137.409169,34.911437],[137.408877,34.911252],[137.407514,34.910205],[137.407403,34.910066],[137.406185,34.909219],[137.405971,34.909102],[137.405449,34.908968],[137.405034,34.908795],[137.403965,34.908836],[137.40376,34.908793],[137.403739,34.908702],[137.403152,34.908373],[137.402458,34.90827],[137.401967,34.908391],[137.401348,34.9084],[137.401144,34.908293],[137.400881,34.908014],[137.400663,34.908],[137.399875,34.908089],[137.399541,34.908268],[137.399297,34.908551],[137.39897,34.908754],[137.397352,34.909087],[137.39712,34.908599],[137.397311,34.907805],[137.396998,34.907303],[137.396176,34.906681],[137.395833,34.906201],[137.396304,34.906183],[137.396624,34.906087],[137.3969,34.906207],[137.3973,34.906205],[137.39737,34.906166],[137.39735,34.906024],[137.396956,34.905947],[137.39687,34.905616],[137.396796,34.905516],[137.396637,34.905534],[137.396362,34.905685],[137.396118,34.905624],[137.396083,34.905219],[137.396005,34.905098],[137.395858,34.905051],[137.395501,34.90519],[137.395331,34.904921],[137.394993,34.904903],[137.394691,34.904546],[137.394353,34.904499],[137.393635,34.904165],[137.393239,34.904153],[137.392917,34.904216],[137.392638,34.903899],[137.392492,34.903609],[137.39227,34.90336],[137.3922,34.903045],[137.39197,34.902721],[137.391632,34.902087],[137.391108,34.901639],[137.390748,34.901614],[137.390586,34.901657],[137.390464,34.901619],[137.390279,34.901664],[137.38978,34.901612],[137.388896,34.901353],[137.388796,34.901261],[137.388575,34.900835],[137.388403,34.900662],[137.387823,34.900304],[137.387097,34.899955],[137.386176,34.89972],[137.385735,34.899508],[137.385276,34.899124],[137.384932,34.89876],[137.384887,34.898586],[137.384942,34.898254],[137.384924,34.897687],[137.384648,34.897362],[137.384622,34.897088],[137.384176,34.896176],[137.383982,34.896064],[137.383951,34.895968],[137.382937,34.896363],[137.381862,34.896977],[137.381135,34.897683],[137.380437,34.897933],[137.380189,34.898084],[137.379725,34.898928],[137.379555,34.899077],[137.377917,34.899894],[137.377794,34.899905],[137.376901,34.898367],[137.37687,34.898251],[137.376914,34.897811],[137.376846,34.897647],[137.376763,34.897596],[137.376562,34.897541],[137.376423,34.897562],[137.375742,34.89805],[137.375554,34.898109],[137.375342,34.898092],[137.374434,34.897515],[137.37107,34.895977],[137.370635,34.89572],[137.370369,34.89543],[137.370205,34.895018],[137.370242,34.894534],[137.370707,34.893692],[137.370687,34.893593],[137.370478,34.89333],[137.370381,34.893284],[137.369419,34.894741],[137.369123,34.895306],[137.368871,34.895668],[137.367548,34.89689],[137.366901,34.89762],[137.365967,34.8982],[137.365831,34.898374],[137.365712,34.898696],[137.365572,34.898755],[137.365265,34.898697],[137.364419,34.899672],[137.363995,34.899853],[137.362318,34.900302],[137.3616,34.90068],[137.361524,34.900675],[137.360449,34.90109],[137.359963,34.901417],[137.359934,34.901508],[137.359811,34.901593],[137.359599,34.901891],[137.359102,34.902149],[137.358564,34.902278],[137.358288,34.902462],[137.357843,34.902655],[137.357454,34.902548],[137.357048,34.902275],[137.356495,34.901985],[137.356314,34.901848],[137.355977,34.901414],[137.355806,34.9013],[137.355386,34.900829],[137.355033,34.900592],[137.353975,34.900243],[137.353545,34.899978],[137.35333,34.899727],[137.353242,34.899438],[137.353019,34.899012],[137.352854,34.898832],[137.352455,34.898539],[137.351222,34.898308],[137.350026,34.898282],[137.350597,34.898176],[137.350869,34.897973],[137.351003,34.89781],[137.351169,34.897255],[137.351208,34.896617],[137.351276,34.896554],[137.351617,34.896459],[137.352292,34.896155],[137.352611,34.89587],[137.352574,34.895458],[137.352413,34.894996],[137.352385,34.894522],[137.352414,34.894391],[137.352609,34.894127],[137.352793,34.893714],[137.35284,34.893356],[137.352671,34.892989],[137.352559,34.892561],[137.352318,34.892264],[137.352177,34.891949],[137.35209,34.891596],[137.352159,34.891376],[137.352532,34.891216],[137.353493,34.891313],[137.353667,34.891282],[137.354465,34.890962],[137.354749,34.890898],[137.355754,34.890965],[137.355982,34.890896],[137.35713,34.890844],[137.357745,34.891085],[137.358086,34.891162],[137.358346,34.8912],[137.358518,34.891157],[137.358213,34.890891],[137.35775,34.890627],[137.357446,34.89002],[137.35723,34.889847],[137.356982,34.889789],[137.356381,34.889762],[137.356205,34.889786],[137.355992,34.889892],[137.35587,34.889892],[137.355781,34.889813],[137.355615,34.88932],[137.355165,34.889155],[137.355015,34.889172],[137.354752,34.889408],[137.354573,34.889468],[137.354399,34.889408],[137.354204,34.889178],[137.353864,34.889242],[137.353708,34.889196],[137.353542,34.888977],[137.35311,34.888737],[137.353098,34.88867],[137.353173,34.888649],[137.35363,34.888824],[137.354285,34.888941],[137.354427,34.88888],[137.35457,34.888699],[137.353937,34.888513],[137.353357,34.888246],[137.353267,34.888156],[137.353076,34.887741],[137.352954,34.887583],[137.352384,34.887014],[137.351795,34.886671],[137.351296,34.886191],[137.350584,34.88564],[137.350473,34.885366],[137.350002,34.88485],[137.350004,34.884776],[137.350099,34.884691],[137.350292,34.884664],[137.350969,34.884347],[137.351587,34.884261],[137.352248,34.884334],[137.352957,34.884274],[137.35361,34.884038],[137.354086,34.883946],[137.354579,34.883942],[137.355095,34.883683],[137.355637,34.88352],[137.355683,34.883398],[137.355605,34.883144],[137.355086,34.882454],[137.354555,34.882215],[137.354172,34.881979],[137.353516,34.881312],[137.352866,34.880292],[137.35266,34.880175],[137.351917,34.879326],[137.351663,34.879107],[137.351328,34.878601],[137.351132,34.878451],[137.35088,34.878128],[137.350703,34.878099],[137.350452,34.878188],[137.350109,34.878118],[137.349675,34.877864],[137.349512,34.877498],[137.349202,34.877305],[137.349028,34.877264],[137.348687,34.877304],[137.348285,34.877153],[137.348052,34.876991],[137.349004,34.876646],[137.34949,34.876649],[137.349763,34.876602],[137.350028,34.876276],[137.350603,34.875923],[137.350784,34.875625],[137.353197,34.875277],[137.353457,34.875225],[137.353681,34.8751],[137.353434,34.874806],[137.353305,34.874511],[137.353266,34.874216],[137.353005,34.873861],[137.352914,34.873601],[137.352691,34.873422],[137.352828,34.87312],[137.353399,34.87228],[137.353723,34.87188],[137.354038,34.871707],[137.35428,34.87175],[137.354425,34.871866],[137.354451,34.872046],[137.354576,34.872082],[137.355016,34.871797],[137.355454,34.871362],[137.356108,34.871109],[137.356483,34.871018],[137.356673,34.87102],[137.357137,34.870775],[137.357327,34.870613],[137.357422,34.870594],[137.35796,34.871132],[137.358504,34.87218],[137.358604,34.872214],[137.358715,34.872133],[137.358722,34.871566],[137.358847,34.871478],[137.358992,34.87162],[137.359071,34.871833],[137.359085,34.872343],[137.359035,34.872497],[137.359419,34.873038],[137.359507,34.873098],[137.359592,34.872955],[137.359617,34.87278],[137.359544,34.872275],[137.359542,34.871824],[137.359506,34.871533],[137.359293,34.870966],[137.359371,34.870896],[137.359964,34.870899],[137.359958,34.870763],[137.359786,34.870591],[137.359636,34.870287],[137.359927,34.870349],[137.360331,34.870544],[137.360594,34.870731],[137.360931,34.871131],[137.360936,34.871262],[137.361151,34.871714],[137.361371,34.87228],[137.361394,34.872468],[137.361479,34.872608],[137.361675,34.872819],[137.362161,34.873179],[137.362521,34.873562],[137.362536,34.873739],[137.362184,34.874233],[137.362249,34.874583],[137.362221,34.874776],[137.362048,34.874998],[137.361916,34.875082],[137.361682,34.875532],[137.361461,34.875805],[137.361377,34.876378],[137.3611,34.876636],[137.360608,34.876883],[137.360542,34.876959],[137.36055,34.877272],[137.360336,34.877682],[137.360228,34.878095],[137.360214,34.878434],[137.359349,34.879758],[137.359159,34.879935],[137.358909,34.880035]],[[137.520564,35.012199],[137.52051,35.012301],[137.520565,35.012199],[137.520564,35.012199]],[[137.446402,34.92059],[137.446368,34.921031],[137.446408,34.92051],[137.446402,34.92059]],[[137.357209,34.877489],[137.357283,34.877537],[137.357129,34.877435],[137.357209,34.877489]],[[137.541157,34.951651],[137.541183,34.951815],[137.541144,34.951565],[137.541157,34.951651]],[[137.540928,34.950756],[137.541049,34.950677],[137.541001,34.950707],[137.540928,34.950756]],[[137.533315,34.990438],[137.533323,34.990324],[137.533309,34.990514],[137.533315,34.990438]],[[137.420909,34.939909],[137.420789,34.93994],[137.420957,34.939898],[137.420909,34.939909]],[[137.409651,34.958458],[137.409693,34.959267],[137.409726,34.959912],[137.409651,34.958458]],[[137.35455,34.876221],[137.355561,34.876732],[137.355172,34.876528],[137.35455,34.876221]]],[[[137.405144,34.993317],[137.405178,34.993159],[137.405067,34.993673],[137.405144,34.993317]],[[137.42196,34.997018],[137.422653,34.997176],[137.422316,34.997093],[137.42196,34.997018]]]]}}]}
