{"type":"FeatureCollection","features":[{"type":"Feature","properties":{"potaRef":"JP-1106","nameJa":"Hanazono hananuki","nameEn":"Hanazono Hananuki Prefectural Nature Park","authority":"環境省 生物多様性「見える化」マップ","boundaryStatus":"全国GIS候補・公開前検証待ち","boundarySource":"環境省 生物多様性「見える化」マップの自然公園区域を、POTA代表座標で一意に空間照合して加工","boundaryScaleNote":"区域は概要データであり、正確性は保証されない。POTA運用可否は公式情報で最終確認すること。","candidateMethod":"POTA representative point inside one public natural-park area","sourceParkKind":"都道府県立自然公園","sourceName":"Hanazono hananuki","sourceFeatureCount":1,"cautionMeters":75},"geometry":{"type":"MultiPolygon","coordinates":[[[[140.61465,36.744471],[140.612753,36.746471],[140.611184,36.747706],[140.610454,36.748008],[140.609966,36.748448],[140.609015,36.749058],[140.605117,36.750886],[140.60372,36.751359],[140.603756,36.752531],[140.605021,36.752616],[140.604927,36.754314],[140.605307,36.757208],[140.605681,36.761043],[140.604826,36.762071],[140.60504,36.765898],[140.606258,36.7681],[140.604451,36.771755],[140.601694,36.774801],[140.597321,36.779751],[140.589905,36.78432],[140.581919,36.79239],[140.578881,36.794526],[140.579403,36.795811],[140.580139,36.796226],[140.582788,36.796595],[140.584073,36.797989],[140.585192,36.798572],[140.592464,36.799344],[140.595096,36.800655],[140.598925,36.801019],[140.603957,36.798958],[140.605281,36.796647],[140.610237,36.792653],[140.615004,36.789878],[140.618047,36.785233],[140.623751,36.781807],[140.633577,36.776714],[140.635395,36.774629],[140.637035,36.771317],[140.641242,36.771117],[140.643974,36.772059],[140.643661,36.772671],[140.643311,36.773075],[140.643358,36.773367],[140.643505,36.773546],[140.643791,36.773611],[140.644199,36.773624],[140.644582,36.773562],[140.645125,36.773354],[140.645546,36.773334],[140.646102,36.77362],[140.646508,36.773944],[140.646677,36.774026],[140.647209,36.774195],[140.647576,36.774439],[140.648041,36.774547],[140.6484,36.774854],[140.649016,36.775222],[140.649133,36.775408],[140.649226,36.775836],[140.649111,36.777098],[140.648951,36.778127],[140.648975,36.778491],[140.649159,36.779112],[140.649063,36.779676],[140.648616,36.780121],[140.648529,36.780303],[140.648644,36.781059],[140.648549,36.781688],[140.648657,36.782043],[140.649072,36.782387],[140.649481,36.783029],[140.649641,36.783128],[140.649814,36.783135],[140.65011,36.782819],[140.650352,36.782713],[140.650687,36.782704],[140.651414,36.782828],[140.651876,36.783011],[140.652715,36.783599],[140.652867,36.783651],[140.653411,36.783693],[140.653623,36.783792],[140.654012,36.784099],[140.654328,36.784255],[140.654806,36.784358],[140.655489,36.784399],[140.656324,36.784311],[140.657231,36.7843],[140.657969,36.784108],[140.65863,36.782664],[140.65826,36.781839],[140.658597,36.781225],[140.6596,36.780724],[140.661647,36.778858],[140.662419,36.778513],[140.663417,36.774058],[140.667767,36.772545],[140.676323,36.771288],[140.678962,36.771202],[140.681172,36.772602],[140.683276,36.773287],[140.681877,36.77395],[140.681449,36.774704],[140.681214,36.775818],[140.679716,36.776572],[140.679652,36.778165],[140.680786,36.77748],[140.682326,36.777274],[140.682519,36.778045],[140.684315,36.778302],[140.683652,36.779142],[140.682519,36.779621],[140.681962,36.780547],[140.681908,36.781023],[140.681458,36.780903],[140.68118,36.78152],[140.680795,36.781126],[140.680517,36.781605],[140.680539,36.782239],[140.680154,36.782753],[140.680047,36.783901],[140.678528,36.787293],[140.676325,36.788578],[140.674164,36.789435],[140.672988,36.791062],[140.672217,36.791713],[140.67164,36.79161],[140.671298,36.791901],[140.671191,36.793426],[140.670506,36.793769],[140.670007,36.794466],[140.670074,36.794643],[140.669981,36.79516],[140.66994,36.795977],[140.670115,36.796418],[140.670487,36.796932],[140.67066,36.797041],[140.671131,36.797086],[140.671756,36.797054],[140.672686,36.797132],[140.673114,36.797082],[140.673492,36.797209],[140.673901,36.797281],[140.674759,36.797062],[140.675081,36.797153],[140.675362,36.797326],[140.675713,36.79781],[140.675851,36.797905],[140.676251,36.798031],[140.677317,36.798152],[140.677734,36.798303],[140.678112,36.798632],[140.678285,36.798952],[140.678313,36.799216],[140.678402,36.79943],[140.67872,36.799832],[140.678951,36.800035],[140.679444,36.800321],[140.679643,36.800535],[140.679903,36.801198],[140.679881,36.801479],[140.67971,36.801624],[140.679146,36.801654],[140.679005,36.801704],[140.678579,36.802033],[140.677968,36.802679],[140.677857,36.802889],[140.677829,36.803112],[140.677881,36.8037],[140.677836,36.803797],[140.677464,36.80405],[140.67736,36.804175],[140.677248,36.804357],[140.677213,36.804647],[140.676739,36.804543],[140.676004,36.804504],[140.67587,36.804618],[140.675444,36.805192],[140.675129,36.805481],[140.675643,36.80616],[140.675693,36.806316],[140.675654,36.806484],[140.675673,36.806735],[140.675974,36.807276],[140.674835,36.807375],[140.674757,36.807401],[140.67446,36.807712],[140.67426,36.80782],[140.673983,36.807847],[140.673594,36.807798],[140.672549,36.80779],[140.671868,36.807617],[140.671525,36.807597],[140.671118,36.80767],[140.670454,36.808002],[140.668945,36.807956],[140.668638,36.808094],[140.668523,36.808223],[140.668364,36.808505],[140.668271,36.808857],[140.668136,36.809043],[140.667981,36.809158],[140.667714,36.809242],[140.667182,36.809227],[140.666703,36.80909],[140.66626,36.808852],[140.665573,36.808304],[140.665264,36.808161],[140.665098,36.808166],[140.664558,36.808492],[140.664456,36.808797],[140.664516,36.809187],[140.664454,36.809308],[140.664382,36.809346],[140.66399,36.809352],[140.663127,36.809511],[140.662402,36.809976],[140.662093,36.810116],[140.661881,36.810105],[140.661548,36.809935],[140.661143,36.809855],[140.659779,36.810781],[140.659047,36.811109],[140.658333,36.811256],[140.657725,36.811181],[140.657494,36.811308],[140.65733,36.81162],[140.65728,36.812012],[140.65711,36.812319],[140.656652,36.813455],[140.656474,36.813688],[140.655972,36.813883],[140.655839,36.81407],[140.655773,36.814367],[140.655811,36.815047],[140.655523,36.81539],[140.655129,36.815725],[140.655054,36.816263],[140.654927,36.816365],[140.654694,36.81642],[140.653897,36.816494],[140.653706,36.816657],[140.653621,36.816851],[140.65334,36.81762],[140.65334,36.818395],[140.653151,36.819339],[140.653162,36.819474],[140.653528,36.820362],[140.653522,36.8205],[140.653344,36.820595],[140.652651,36.820674],[140.652248,36.820663],[140.652113,36.820582],[140.651884,36.820252],[140.651636,36.820095],[140.651436,36.820078],[140.650978,36.820307],[140.650103,36.821034],[140.65008,36.821617],[140.649872,36.822074],[140.649614,36.822314],[140.64913,36.822511],[140.648897,36.822683],[140.648294,36.823427],[140.647965,36.824058],[140.64771,36.824264],[140.64732,36.824395],[140.647094,36.824613],[140.646895,36.825082],[140.64632,36.826006],[140.646282,36.827023],[140.646204,36.827239],[140.645896,36.827669],[140.645286,36.828252],[140.645258,36.828472],[140.645326,36.828809],[140.645307,36.829006],[140.645199,36.829127],[140.644701,36.829399],[140.64451,36.82957],[140.644487,36.829956],[140.644377,36.830132],[140.644109,36.830293],[140.64376,36.830403],[140.64287,36.830458],[140.64196,36.830439],[140.641683,36.830589],[140.641469,36.831157],[140.641371,36.831825],[140.641431,36.832207],[140.641371,36.832567],[140.641484,36.832963],[140.642107,36.833637],[140.642485,36.833433],[140.64296,36.83249],[140.643733,36.832221],[140.647001,36.832149],[140.648546,36.831388],[140.650655,36.831626],[140.65116,36.831935],[140.653626,36.831816],[140.65428,36.832078],[140.65428,36.832577],[140.655825,36.833433],[140.65532,36.834028],[140.655201,36.834979],[140.655795,36.835003],[140.656389,36.834622],[140.656924,36.834718],[140.657221,36.83643],[140.658172,36.836715],[140.659152,36.837286],[140.662064,36.837999],[140.66352,36.838974],[140.665065,36.839545],[140.66863,36.843515],[140.669967,36.844799],[140.674193,36.845113],[140.675737,36.8444],[140.677182,36.843319],[140.678519,36.84213],[140.680213,36.839301],[140.682292,36.837779],[140.68357,36.836424],[140.685919,36.834621],[140.687502,36.832772],[140.688764,36.831025],[140.689748,36.829519],[140.69054,36.828594],[140.691545,36.826556],[140.693449,36.825084],[140.694989,36.825598],[140.695481,36.825529],[140.696101,36.825152],[140.696487,36.825204],[140.695802,36.826591],[140.694604,36.826419],[140.694519,36.82695],[140.694711,36.82743],[140.693984,36.82808],[140.694091,36.828354],[140.695199,36.828577],[140.696315,36.828663],[140.696263,36.827785],[140.69685,36.827687],[140.697556,36.827892],[140.697834,36.82832],[140.697577,36.829108],[140.697749,36.829193],[140.698561,36.828474],[140.699053,36.828902],[140.69884,36.830666],[140.698155,36.831471],[140.698348,36.831727],[140.698904,36.831642],[140.699759,36.832173],[140.700141,36.832089],[140.700771,36.831381],[140.701929,36.831728],[140.702197,36.831633],[140.702244,36.831347],[140.703124,36.831533],[140.702232,36.832879],[140.701638,36.833526],[140.700266,36.83421],[140.698302,36.835358],[140.698901,36.835863],[140.69869,36.836538],[140.699139,36.836864],[140.699438,36.83748],[140.69869,36.838832],[140.697898,36.839004],[140.69762,36.839346],[140.697428,36.840853],[140.698369,36.840955],[140.699011,36.841229],[140.699153,36.842191],[140.699402,36.843192],[140.700011,36.843618],[140.702087,36.843907],[140.7041,36.843946],[140.706365,36.844592],[140.707197,36.845334],[140.706865,36.846209],[140.707031,36.847084],[140.70753,36.847826],[140.709527,36.849081],[140.710929,36.850203],[140.711428,36.85142],[140.712307,36.852618],[140.713947,36.853702],[140.714328,36.853741],[140.714589,36.853569],[140.714898,36.852904],[140.714922,36.853702],[140.715207,36.85433],[140.715896,36.854767],[140.717013,36.854787],[140.717988,36.855433],[140.719176,36.855585],[140.721506,36.855623],[140.723027,36.856156],[140.723836,36.857198],[140.725736,36.857734],[140.723709,36.85877],[140.721501,36.861429],[140.720835,36.861489],[140.719656,36.861748],[140.717755,36.862463],[140.71574,36.862783],[140.713743,36.864091],[140.712773,36.864213],[140.711005,36.865064],[140.710092,36.864928],[140.709103,36.865171],[140.707887,36.865795],[140.706898,36.86584],[140.706403,36.866297],[140.706213,36.866814],[140.706594,36.867422],[140.706556,36.869172],[140.706289,36.869278],[140.704852,36.868535],[140.703437,36.868396],[140.702753,36.868761],[140.70184,36.868594],[140.700376,36.868487],[140.699007,36.868761],[140.69857,36.868776],[140.697657,36.867651],[140.69701,36.867164],[140.696402,36.867057],[140.695014,36.865962],[140.694405,36.86581],[140.693911,36.865551],[140.693207,36.864715],[140.691667,36.864562],[140.690146,36.864091],[140.689119,36.864076],[140.687845,36.864867],[140.686952,36.865354],[140.683795,36.866479],[140.683681,36.867225],[140.682921,36.86724],[140.682331,36.86759],[140.681076,36.867757],[140.679783,36.868016],[140.678072,36.868487],[140.678243,36.867833],[140.677787,36.867696],[140.677273,36.868107],[140.676475,36.868381],[140.67484,36.869689],[140.674079,36.869948],[140.673566,36.870389],[140.672653,36.870967],[140.67058,36.871043],[140.670143,36.871788],[140.669753,36.872846],[140.66759,36.874892],[140.663507,36.877811],[140.662994,36.878024],[140.659457,36.877918],[140.658069,36.878633],[140.656852,36.879758],[140.656263,36.879697],[140.655692,36.879272],[140.655597,36.878359],[140.654779,36.87731],[140.653943,36.875454],[140.652251,36.875256],[140.650178,36.874055],[140.647345,36.874009],[140.647098,36.873689],[140.647003,36.873081],[140.646052,36.874161],[140.645862,36.874845],[140.645367,36.875758],[140.644778,36.876382],[140.642952,36.877796],[140.642743,36.878207],[140.642838,36.879454],[140.642211,36.880275],[140.641127,36.881051],[140.640728,36.881066],[140.6401,36.880595],[140.638842,36.879492],[140.638579,36.878937],[140.638503,36.878283],[140.638256,36.87807],[140.637895,36.877948],[140.63759,36.877583],[140.636297,36.876503],[140.63548,36.876412],[140.634111,36.877081],[140.633198,36.877827],[140.633312,36.878891],[140.633902,36.879652],[140.633978,36.880828],[140.633407,36.880838],[140.634328,36.881832],[140.634121,36.883414],[140.63354,36.883956],[140.632617,36.885881],[140.631832,36.886071],[140.630216,36.888295],[140.628647,36.889626],[140.626912,36.890139],[140.626199,36.890462],[140.624868,36.891964],[140.624654,36.892895],[140.624393,36.893314],[140.623632,36.89358],[140.622991,36.89396],[140.622729,36.894492],[140.622824,36.894986],[140.623347,36.895404],[140.623561,36.896032],[140.623228,36.896507],[140.621588,36.897343],[140.62097,36.89818],[140.620942,36.89894],[140.620978,36.899985],[140.620716,36.900641],[140.6203,36.901031],[140.619575,36.901221],[140.618553,36.901401],[140.617816,36.901221],[140.616545,36.901449],[140.614881,36.902038],[140.615048,36.902551],[140.615119,36.90296],[140.614382,36.903787],[140.614334,36.904281],[140.61462,36.904613],[140.614679,36.904965],[140.614537,36.905735],[140.614929,36.906229],[140.615659,36.906634],[140.615637,36.906745],[140.614741,36.907248],[140.614333,36.908156],[140.614373,36.908478],[140.613859,36.908995],[140.613285,36.909228],[140.613153,36.909378],[140.613087,36.9095],[140.612936,36.910375],[140.612793,36.91055],[140.612602,36.910655],[140.612469,36.910672],[140.611429,36.910286],[140.610768,36.910478],[140.61039,36.910672],[140.609765,36.91165],[140.609482,36.911605],[140.608879,36.911741],[140.608585,36.912072],[140.608306,36.91228],[140.607347,36.912658],[140.607193,36.912766],[140.607115,36.912913],[140.607031,36.913333],[140.606917,36.913519],[140.606869,36.914396],[140.606704,36.914744],[140.606362,36.915041],[140.605506,36.916002],[140.604694,36.916477],[140.604595,36.916602],[140.604466,36.917241],[140.603955,36.918174],[140.603764,36.918363],[140.603128,36.918674],[140.602912,36.918957],[140.602919,36.919629],[140.602987,36.919774],[140.602891,36.919965],[140.602384,36.920388],[140.601706,36.920604],[140.601067,36.920652],[140.600948,36.920709],[140.600766,36.920903],[140.600578,36.921469],[140.600616,36.921706],[140.60072,36.922022],[140.601224,36.922461],[140.60129,36.922682],[140.601248,36.92281],[140.600962,36.922914],[140.60003,36.923047],[140.599233,36.923444],[140.598718,36.923955],[140.598352,36.92471],[140.598045,36.925046],[140.597047,36.925346],[140.596385,36.925379],[140.595644,36.925592],[140.594913,36.925813],[140.594076,36.926295],[140.593077,36.926432],[140.592789,36.926567],[140.59267,36.926743],[140.592673,36.926946],[140.592795,36.927224],[140.593348,36.92783],[140.593808,36.928055],[140.593689,36.928547],[140.593518,36.928695],[140.593509,36.928794],[140.593585,36.928984],[140.593559,36.92909],[140.59432,36.930135],[140.594351,36.930414],[140.594045,36.930805],[140.593939,36.931075],[140.593961,36.931637],[140.594102,36.931882],[140.594507,36.932195],[140.594528,36.932293],[140.594212,36.932711],[140.593996,36.933151],[140.593954,36.933938],[140.593857,36.934282],[140.593108,36.93513],[140.592606,36.935614],[140.592493,36.935775],[140.592469,36.936002],[140.592641,36.936282],[140.593379,36.936994],[140.593731,36.937307],[140.594283,36.937617],[140.594402,36.937799],[140.594443,36.938057],[140.594147,36.938379],[140.593843,36.938862],[140.593703,36.938993],[140.593342,36.939181],[140.592852,36.939326],[140.592639,36.939323],[140.592517,36.939245],[140.592126,36.938374],[140.591926,36.93821],[140.591661,36.938124],[140.591375,36.938148],[140.591054,36.938256],[140.590413,36.938769],[140.589879,36.939101],[140.589619,36.939197],[140.589281,36.939484],[140.588728,36.940487],[140.588456,36.941107],[140.588394,36.941483],[140.588103,36.941968],[140.587897,36.942666],[140.587532,36.94355],[140.587556,36.943986],[140.586589,36.945108],[140.586408,36.945236],[140.586113,36.945284],[140.584853,36.944489],[140.584531,36.944433],[140.584087,36.944465],[140.583859,36.944321],[140.583694,36.944178],[140.583584,36.943933],[140.583417,36.943307],[140.583205,36.943101],[140.582184,36.942718],[140.581449,36.942633],[140.580402,36.942806],[140.580157,36.942746],[140.579934,36.942612],[140.579079,36.942273],[140.578512,36.942196],[140.578345,36.942238],[140.577005,36.942248],[140.576046,36.942676],[140.575831,36.942661],[140.575434,36.942509],[140.574696,36.942078],[140.574577,36.941836],[140.574473,36.941308],[140.574447,36.940847],[140.574611,36.94035],[140.574853,36.939932],[140.574975,36.939184],[140.574925,36.939031],[140.574692,36.93896],[140.574247,36.939076],[140.573976,36.939416],[140.573749,36.939589],[140.573163,36.939772],[140.572555,36.939722],[140.571137,36.93933],[140.570268,36.939021],[140.569534,36.938672],[140.569107,36.938293],[140.568393,36.937543],[140.567889,36.937182],[140.567445,36.936675],[140.567315,36.936313],[140.567225,36.93586],[140.567176,36.935303],[140.567215,36.935101],[140.568186,36.933289],[140.56858,36.932853],[140.569893,36.932273],[140.570344,36.931969],[140.570533,36.931655],[140.570584,36.931315],[140.569923,36.929449],[140.569481,36.92849],[140.568708,36.926552],[140.567887,36.925059],[140.567818,36.924486],[140.567972,36.923331],[140.567868,36.922827],[140.567431,36.921564],[140.567402,36.921139],[140.56748,36.920724],[140.567722,36.920035],[140.567759,36.919773],[140.567761,36.919325],[140.567684,36.918945],[140.56739,36.918667],[140.567056,36.918028],[140.566578,36.917534],[140.566354,36.917231],[140.566373,36.916867],[140.566295,36.916759],[140.565656,36.916434],[140.565274,36.915673],[140.565087,36.91499],[140.56491,36.914587],[140.564958,36.912857],[140.565024,36.912701],[140.565156,36.912584],[140.56527,36.912562],[140.565741,36.912812],[140.566366,36.912973],[140.566898,36.913209],[140.567225,36.913751],[140.567379,36.91384],[140.567677,36.913954],[140.568353,36.913979],[140.568607,36.913884],[140.568735,36.913768],[140.568893,36.913376],[140.569147,36.912965],[140.569452,36.912609],[140.569867,36.911923],[140.570161,36.911724],[140.570426,36.91164],[140.570536,36.911674],[140.571352,36.912426],[140.571499,36.912504],[140.571804,36.912473],[140.573443,36.911382],[140.573825,36.911001],[140.574064,36.910679],[140.574163,36.910474],[140.574211,36.910232],[140.574174,36.909882],[140.573865,36.90906],[140.573873,36.908943],[140.573953,36.908807],[140.574233,36.908602],[140.575805,36.907963],[140.575971,36.907838],[140.576114,36.90766],[140.576235,36.90738],[140.576254,36.907241],[140.576188,36.906838],[140.576214,36.906713],[140.576291,36.906638],[140.577125,36.906591],[140.57772,36.906121],[140.578268,36.905597],[140.578587,36.905211],[140.579014,36.905008],[140.580774,36.904408],[140.58088,36.904066],[140.580877,36.903452],[140.580759,36.903155],[140.580759,36.903033],[140.580965,36.902641],[140.58095,36.902486],[140.580667,36.901902],[140.580314,36.901541],[140.580124,36.901239],[140.580094,36.90098],[140.580149,36.90083],[140.580267,36.900636],[140.580469,36.900433],[140.580542,36.900242],[140.580491,36.90013],[140.580065,36.899717],[140.579653,36.898944],[140.579682,36.898769],[140.579914,36.898295],[140.579947,36.897928],[140.579734,36.897022],[140.579377,36.896136],[140.579436,36.89575],[140.579763,36.895373],[140.579749,36.894309],[140.579855,36.893634],[140.580021,36.893267],[140.58016,36.893148],[140.580395,36.89299],[140.580902,36.892848],[140.581237,36.892917],[140.581549,36.893212],[140.581792,36.893365],[140.582185,36.893301],[140.582479,36.893109],[140.582589,36.892967],[140.582663,36.892615],[140.582879,36.892262],[140.583166,36.891865],[140.583637,36.891459],[140.583677,36.891356],[140.583651,36.891231],[140.583501,36.890998],[140.583489,36.89072],[140.583706,36.890095],[140.583839,36.889962],[140.584147,36.889856],[140.5845,36.889201],[140.584827,36.888832],[140.586165,36.887785],[140.586268,36.887643],[140.586268,36.887532],[140.585705,36.886963],[140.585646,36.886835],[140.585676,36.886585],[140.585805,36.886418],[140.585981,36.886271],[140.586205,36.886168],[140.586646,36.886174],[140.587039,36.886254],[140.587171,36.886226],[140.587826,36.885538],[140.587804,36.885304],[140.587918,36.885071],[140.588593,36.885052],[140.58899,36.884963],[140.589468,36.884813],[140.589898,36.884571],[140.590214,36.884143],[140.590398,36.883654],[140.590861,36.883069],[140.590978,36.882785],[140.591379,36.882277],[140.591522,36.881774],[140.591625,36.881624],[140.592327,36.881219],[140.592735,36.880655],[140.592834,36.880416],[140.593282,36.880033],[140.593293,36.879841],[140.592904,36.878664],[140.592992,36.878239],[140.593267,36.877439],[140.59329,36.877152],[140.593227,36.876655],[140.592728,36.87545],[140.592643,36.874844],[140.59243,36.874442],[140.592338,36.873822],[140.592154,36.87327],[140.591985,36.87302],[140.59168,36.872809],[140.591173,36.872795],[140.589876,36.873614],[140.589369,36.873817],[140.589145,36.874056],[140.588755,36.874911],[140.58773,36.874056],[140.586852,36.873767],[140.586032,36.873153],[140.585955,36.872764],[140.585374,36.872084],[140.585297,36.871636],[140.585162,36.871428],[140.584735,36.871139],[140.584742,36.870484],[140.584548,36.870039],[140.58367,36.869112],[140.582872,36.868064],[140.582729,36.867953],[140.581825,36.867926],[140.581615,36.867862],[140.581108,36.867514],[140.580473,36.86689],[140.580109,36.867031],[140.579095,36.867862],[140.578044,36.868531],[140.57779,36.86877],[140.575825,36.869095],[140.575498,36.869111],[140.575332,36.869073],[140.575218,36.868986],[140.574803,36.868098],[140.574465,36.867559],[140.57402,36.867187],[140.573561,36.867039],[140.573212,36.866823],[140.572492,36.866228],[140.572315,36.866017],[140.572286,36.865948],[140.572819,36.865081],[140.572602,36.864287],[140.572488,36.864156],[140.572275,36.864079],[140.571929,36.864031],[140.571408,36.864115],[140.57125,36.864104],[140.570996,36.864001],[140.570658,36.86399],[140.569585,36.86409],[140.568795,36.864259],[140.568663,36.86424],[140.568138,36.863868],[140.567553,36.863229],[140.567469,36.863201],[140.566429,36.8636],[140.565638,36.864017],[140.565535,36.864028],[140.565397,36.863942],[140.565286,36.863764],[140.564989,36.863042],[140.564923,36.862512],[140.565121,36.862295],[140.565106,36.862212],[140.565015,36.862203],[140.564845,36.862239],[140.564313,36.862531],[140.564144,36.862567],[140.563045,36.862567],[140.562758,36.862737],[140.562417,36.863053],[140.562027,36.863212],[140.560925,36.863531],[140.560528,36.863472],[140.56037,36.863358],[140.56023,36.863167],[140.559918,36.8625],[140.559793,36.862364],[140.559485,36.861834],[140.559316,36.861442],[140.559187,36.8613],[140.558772,36.861018],[140.557776,36.860556],[140.556913,36.860054],[140.554564,36.861432],[140.554318,36.86146],[140.553696,36.861271],[140.552984,36.860954],[140.552326,36.861074],[140.551969,36.860918],[140.551679,36.86061],[140.551587,36.859826],[140.551547,36.859765],[140.551315,36.859696],[140.550253,36.859601],[140.550172,36.859563],[140.549989,36.859199],[140.549838,36.859151],[140.54824,36.859207],[140.548163,36.859168],[140.547755,36.858679],[140.547454,36.858501],[140.546851,36.858257],[140.545326,36.858151],[140.544848,36.858349],[140.544323,36.85869],[140.54397,36.85871],[140.543408,36.858643],[140.542989,36.85871],[140.542412,36.858985],[140.540884,36.859582],[140.540307,36.859415],[140.539726,36.859173],[140.538506,36.859051],[140.538286,36.858973],[140.538036,36.858857],[140.537966,36.858773],[140.537944,36.858309],[140.537621,36.857626],[140.537499,36.856538],[140.537716,36.855785],[140.537724,36.855618],[140.53765,36.855441],[140.537165,36.85476],[140.536059,36.853904],[140.535739,36.853602],[140.535592,36.853313],[140.535578,36.852985],[140.535523,36.852824],[140.535324,36.852383],[140.535122,36.852113],[140.534619,36.851852],[140.533744,36.85156],[140.533314,36.851271],[140.532998,36.850846],[140.532848,36.850177],[140.532734,36.850108],[140.531951,36.849991],[140.531411,36.849844],[140.530246,36.849291],[140.529732,36.849119],[140.529063,36.848988],[140.528108,36.848558],[140.527924,36.848366],[140.527825,36.848119],[140.527722,36.84758],[140.527784,36.84743],[140.528475,36.847058],[140.52871,36.846747],[140.528744,36.84615],[140.528696,36.845041],[140.52892,36.844714],[140.528927,36.844641],[140.528244,36.843853],[140.528193,36.843756],[140.5282,36.843642],[140.528663,36.84295],[140.528942,36.842439],[140.529358,36.841266],[140.5312,36.841504],[140.533042,36.841266],[140.533785,36.840481],[140.53628,36.839435],[140.536726,36.838817],[140.536488,36.838009],[140.535003,36.837604],[140.533904,36.83701],[140.532876,36.837051],[140.531349,36.836653],[140.531141,36.836297],[140.532923,36.836249],[140.532834,36.835916],[140.531675,36.835773],[140.529536,36.834489],[140.526268,36.833396],[140.524604,36.831969],[140.524337,36.830138],[140.522003,36.828094],[140.520976,36.824487],[140.52206,36.821747],[140.522048,36.819584],[140.519037,36.818779],[140.517154,36.817546],[140.515044,36.817455],[140.514759,36.815719],[140.513675,36.81476],[140.51339,36.813299],[140.514216,36.810142],[140.514302,36.806312],[140.51453,36.804941],[140.513808,36.804549],[140.513732,36.802475],[140.512998,36.80134],[140.512477,36.798912],[140.511165,36.797907],[140.510937,36.7964],[140.509682,36.795395],[140.509568,36.794436],[140.511051,36.792517],[140.50894,36.788132],[140.50489,36.786441],[140.503521,36.784568],[140.501353,36.782604],[140.500783,36.778492],[140.500897,36.776299],[140.504833,36.774563],[140.504662,36.772689],[140.506259,36.768988],[140.509625,36.770907],[140.512078,36.771958],[140.514987,36.773375],[140.517383,36.774334],[140.517611,36.775065],[140.52052,36.77374],[140.519607,36.771501],[140.51898,36.769079],[140.519493,36.768805],[140.521547,36.768577],[140.518638,36.764464],[140.519721,36.764281],[140.520064,36.763733],[140.519265,36.763093],[140.516185,36.760077],[140.514873,36.759894],[140.514359,36.759437],[140.512648,36.756787],[140.513047,36.755096],[140.514873,36.754547],[140.517154,36.756467],[140.523201,36.758112],[140.52708,36.757792],[140.529761,36.757746],[140.536663,36.757335],[140.537861,36.758066],[140.542196,36.757883],[140.544136,36.756421],[140.543337,36.755964],[140.542539,36.754273],[140.542025,36.753907],[140.541284,36.754547],[140.5402,36.753999],[140.538089,36.753724],[140.537576,36.752582],[140.537804,36.751028],[140.539458,36.749063],[140.5402,36.74696],[140.541113,36.746366],[140.540086,36.74344],[140.541341,36.742343],[140.541196,36.741008],[140.541683,36.739601],[140.539801,36.738915],[140.540884,36.738138],[140.541055,36.736446],[140.541284,36.732332],[140.542596,36.731143],[140.543508,36.729406],[140.544763,36.727623],[140.544307,36.726069],[140.54454,36.723364],[140.545619,36.720216],[140.543851,36.720262],[140.541744,36.718438],[140.5402,36.717473],[140.538374,36.717244],[140.53672,36.71729],[140.53518,36.716192],[140.536321,36.714226],[140.538603,36.714135],[140.53923,36.712489],[140.540143,36.7113],[140.540143,36.710202],[140.539858,36.709516],[140.54014,36.708862],[140.540728,36.708416],[140.54036,36.707932],[140.540263,36.70773],[140.540118,36.707337],[140.540122,36.707155],[140.540291,36.706873],[140.540985,36.706308],[140.541249,36.706027],[140.541326,36.705825],[140.541358,36.705261],[140.54131,36.704954],[140.541027,36.704197],[140.541035,36.704044],[140.541091,36.703943],[140.541677,36.703483],[140.54198,36.703096],[140.54211,36.70271],[140.542142,36.702432],[140.542417,36.702109],[140.542469,36.701879],[140.542756,36.701613],[140.542817,36.701489],[140.542801,36.701231],[140.542122,36.700236],[140.542017,36.700003],[140.541932,36.699773],[140.541872,36.699349],[140.541779,36.699172],[140.540961,36.698992],[140.540771,36.698887],[140.54017,36.698419],[140.53976,36.697788],[140.539461,36.697607],[140.539138,36.697591],[140.538545,36.697768],[140.53842,36.697728],[140.537992,36.697409],[140.537499,36.697272],[140.537604,36.697111],[140.537657,36.69682],[140.537844,36.696403],[140.538172,36.69606],[140.538268,36.695874],[140.538389,36.695425],[140.538561,36.695062],[140.5388,36.694695],[140.539269,36.694368],[140.539466,36.69408],[140.539446,36.693636],[140.53939,36.693454],[140.539294,36.693283],[140.539001,36.692981],[140.538971,36.69287],[140.538971,36.692774],[140.539198,36.692436],[140.539243,36.692184],[140.539233,36.691433],[140.539492,36.690547],[140.539381,36.689714],[140.539401,36.689538],[140.539472,36.689432],[140.539815,36.689215],[140.540245,36.689005],[140.540664,36.688874],[140.540871,36.688707],[140.540886,36.688178],[140.540988,36.687731],[140.541523,36.686556],[140.54167,36.686434],[140.542064,36.686238],[140.542378,36.685907],[140.542909,36.685548],[140.543939,36.685216],[140.544464,36.684989],[140.544494,36.684923],[140.544383,36.684429],[140.544394,36.684223],[140.544496,36.683921],[140.544819,36.683421],[140.545273,36.682936],[140.548651,36.683031],[140.550006,36.68263],[140.551896,36.683116],[140.55293,36.682916],[140.553928,36.683888],[140.555104,36.684431],[140.55781,36.684521],[140.559917,36.685175],[140.560167,36.686061],[140.559566,36.687499],[140.558634,36.688377],[140.558812,36.689806],[140.560203,36.691093],[140.561557,36.692665],[140.561914,36.694037],[140.562663,36.694466],[140.563839,36.694266],[140.56473,36.694466],[140.56555,36.695495],[140.566798,36.696067],[140.567404,36.696839],[140.567404,36.698211],[140.567547,36.699211],[140.568331,36.700298],[140.568403,36.701813],[140.569365,36.702384],[140.56908,36.70307],[140.569187,36.704185],[140.570791,36.705386],[140.571629,36.705108],[140.571786,36.705018],[140.572158,36.704952],[140.573116,36.704585],[140.573237,36.704595],[140.573499,36.704862],[140.573615,36.704872],[140.573791,36.704982],[140.574255,36.705486],[140.574361,36.705531],[140.57452,36.705521],[140.575352,36.705204],[140.575755,36.705099],[140.57648,36.705451],[140.576576,36.705446],[140.576627,36.70535],[140.576655,36.704986],[140.576781,36.704684],[140.577028,36.704312],[140.577174,36.704201],[140.577275,36.70418],[140.577703,36.704332],[140.577869,36.704332],[140.57852,36.704115],[140.578937,36.704347],[140.579119,36.7048],[140.57921,36.70484],[140.579547,36.70483],[140.58045,36.704634],[140.581214,36.705023],[140.581576,36.705103],[140.582836,36.704791],[140.583033,36.704721],[140.583398,36.704492],[140.584411,36.704437],[140.584824,36.704195],[140.585227,36.704498],[140.585815,36.704502],[140.586369,36.704759],[140.586561,36.704785],[140.586621,36.704452],[140.586717,36.704357],[140.587554,36.704271],[140.587696,36.704213],[140.587852,36.704072],[140.588119,36.703528],[140.588291,36.703382],[140.588553,36.703025],[140.588714,36.702929],[140.58913,36.702919],[140.589251,36.702979],[140.589297,36.70307],[140.589261,36.703377],[140.588517,36.70634],[140.586592,36.707643],[140.585266,36.709358],[140.586549,36.711965],[140.589287,36.712719],[140.591384,36.71193],[140.594977,36.714022],[140.598528,36.715429],[140.600796,36.716389],[140.602678,36.715909],[140.604946,36.717555],[140.606657,36.717486],[140.605758,36.716252],[140.606443,36.715086],[140.60948,36.713405],[140.614144,36.712273],[140.615171,36.711725],[140.619877,36.71217],[140.622871,36.712994],[140.625396,36.712994],[140.626037,36.712068],[140.62839,36.712239],[140.62869,36.713542],[140.629331,36.713954],[140.630059,36.713851],[140.630487,36.713165],[140.633909,36.711862],[140.634465,36.711279],[140.636604,36.711176],[140.643664,36.710559],[140.650209,36.709255],[140.652134,36.708329],[140.657782,36.709633],[140.662573,36.710147],[140.664327,36.711485],[140.661803,36.714057],[140.656242,36.714297],[140.654359,36.715051],[140.653717,36.716046],[140.653247,36.717761],[140.656627,36.717418],[140.658809,36.717315],[140.659793,36.718206],[140.663515,36.717692],[140.664627,36.717829],[140.666467,36.716492],[140.667921,36.718138],[140.671258,36.716663],[140.673782,36.717966],[140.674125,36.719955],[140.673141,36.721704],[140.671857,36.722699],[140.671985,36.724173],[140.67036,36.724516],[140.67086,36.726515],[140.670789,36.728286],[140.668008,36.728401],[140.667271,36.729012],[140.667509,36.729241],[140.670076,36.729107],[140.670979,36.729393],[140.671264,36.731279],[140.671573,36.731965],[140.670741,36.732517],[140.668845,36.732282],[140.668888,36.733165],[140.669482,36.733832],[140.669173,36.734822],[140.66827,36.734689],[140.667557,36.735298],[140.667723,36.736155],[140.667937,36.736593],[140.666839,36.738694],[140.663844,36.742294],[140.66179,36.743288],[140.66132,36.745208],[140.660293,36.745962],[140.658068,36.744625],[140.656058,36.744008],[140.654988,36.744557],[140.653533,36.74418],[140.653362,36.74346],[140.653491,36.742363],[140.649597,36.740717],[140.642239,36.737323],[140.639758,36.736054],[140.638816,36.736671],[140.637148,36.735643],[140.632099,36.738214],[140.628164,36.738694],[140.627137,36.74034],[140.624998,36.742225],[140.622576,36.741772],[140.620912,36.741391],[140.620021,36.740367],[140.61803,36.741106],[140.617459,36.741728],[140.616889,36.741957],[140.615725,36.741008],[140.616889,36.741957],[140.61465,36.744471]],[[140.615811,36.846538],[140.615812,36.846538],[140.615812,36.846538],[140.615811,36.846538]],[[140.665691,36.722998],[140.664443,36.721769],[140.665692,36.723001],[140.665691,36.722998]],[[140.66138,36.723419],[140.66152,36.723427],[140.665731,36.723169],[140.66138,36.723419]],[[140.665289,36.784462],[140.664398,36.784119],[140.666109,36.784947],[140.665289,36.784462]],[[140.612574,36.736615],[140.613776,36.736453],[140.61563,36.7363],[140.615722,36.73653],[140.615933,36.736505],[140.616309,36.73622],[140.616294,36.735328],[140.61497,36.735534],[140.612574,36.736615]]],[[[140.785818,36.856443],[140.78558,36.856843],[140.785568,36.857209],[140.785268,36.857901],[140.785418,36.858367],[140.785868,36.858817],[140.78608,36.859234],[140.786152,36.85955],[140.784766,36.859618],[140.782344,36.859576],[140.78132,36.859216],[140.780473,36.858537],[140.780188,36.858093],[140.780153,36.85773],[140.780356,36.857206],[140.780714,36.856863],[140.781189,36.856769],[140.781522,36.856512],[140.78182,36.855949],[140.781999,36.855778],[140.782403,36.855569],[140.784018,36.855333],[140.784482,36.855],[140.784412,36.854704],[140.784229,36.854679],[140.783675,36.854894],[140.783034,36.855055],[140.782393,36.855092],[140.782193,36.854968],[140.782192,36.85471],[140.782513,36.854386],[140.783084,36.854177],[140.78344,36.853987],[140.783619,36.853692],[140.783431,36.853518],[140.783152,36.853528],[140.782732,36.85375],[140.782227,36.854174],[140.781714,36.85476],[140.780942,36.855199],[140.780693,36.855245],[140.780458,36.855159],[140.780378,36.85499],[140.78045,36.854668],[140.781155,36.854104],[140.781472,36.853679],[140.783057,36.852104],[140.783325,36.851697],[140.783317,36.851346],[140.783027,36.851342],[140.782577,36.851674],[140.78163,36.853089],[140.781165,36.853632],[140.780603,36.854032],[140.780056,36.8542],[140.7798,36.854104],[140.779594,36.853961],[140.779548,36.853541],[140.779847,36.852769],[140.781217,36.850882],[140.782703,36.849161],[140.783185,36.848675],[140.784988,36.84729],[140.785523,36.847012],[140.786404,36.846971],[140.7874,36.84738],[140.787865,36.846801],[140.787306,36.846381],[140.787082,36.84609],[140.787067,36.845525],[140.787318,36.844962],[140.788264,36.844176],[140.78969,36.84342],[140.790021,36.843099],[140.790074,36.842736],[140.789788,36.842108],[140.7893,36.842983],[140.788782,36.843318],[140.7884,36.843361],[140.788077,36.843135],[140.787649,36.842679],[140.787358,36.843395],[140.787001,36.843609],[140.786761,36.84358],[140.785979,36.842848],[140.784655,36.840077],[140.784654,36.839491],[140.785387,36.839112],[140.786661,36.839057],[140.787435,36.838884],[140.788144,36.839172],[140.788233,36.839072],[140.787735,36.838813],[140.787435,36.838584],[140.787435,36.838028],[140.786597,36.838282],[140.785974,36.838281],[140.785445,36.837972],[140.785347,36.837501],[140.786176,36.83602],[140.78616,36.83539],[140.785953,36.834477],[140.786137,36.833647],[140.78643,36.833412],[140.787698,36.833165],[140.78767,36.83242],[140.791883,36.831741],[140.792106,36.832121],[140.792748,36.832036],[140.792707,36.831616],[140.793802,36.83145],[140.794003,36.830571],[140.793762,36.829015],[140.793596,36.828284],[140.795038,36.826731],[140.795308,36.826625],[140.795764,36.826622],[140.79592,36.82652],[140.796415,36.826585],[140.796773,36.826533],[140.796865,36.826558],[140.796944,36.826499],[140.796976,36.82656],[140.797362,36.826701],[140.797502,36.82686],[140.797578,36.826837],[140.79772,36.827054],[140.797788,36.827337],[140.797914,36.827536],[140.79803,36.827632],[140.798339,36.827725],[140.798497,36.827687],[140.798671,36.827398],[140.798781,36.827317],[140.799096,36.827377],[140.799168,36.827331],[140.799257,36.827149],[140.799565,36.827133],[140.799563,36.826984],[140.799605,36.826936],[140.799686,36.827049],[140.799657,36.827194],[140.799738,36.82734],[140.799722,36.82754],[140.800148,36.827739],[140.800956,36.828215],[140.802329,36.829246],[140.802519,36.829267],[140.803219,36.829123],[140.803681,36.829146],[140.803763,36.829297],[140.803963,36.829386],[140.804371,36.829716],[140.804479,36.82968],[140.804535,36.829773],[140.804763,36.829894],[140.804675,36.829936],[140.804741,36.830004],[140.805297,36.830394],[140.805567,36.830779],[140.805746,36.831268],[140.805658,36.831375],[140.805415,36.831484],[140.805204,36.831458],[140.804969,36.831736],[140.804838,36.831807],[140.804717,36.832021],[140.804533,36.832109],[140.804316,36.832099],[140.804139,36.831936],[140.80403,36.831898],[140.803735,36.832027],[140.803627,36.832273],[140.80327,36.832324],[140.802951,36.832562],[140.802771,36.832633],[140.802675,36.832622],[140.802356,36.832396],[140.802251,36.832909],[140.802481,36.833242],[140.802672,36.83328],[140.803046,36.833258],[140.803165,36.833285],[140.803161,36.833353],[140.80338,36.833352],[140.803462,36.833396],[140.803448,36.833449],[140.803178,36.833508],[140.803123,36.833638],[140.803128,36.833802],[140.8029,36.834178],[140.802959,36.834354],[140.802938,36.834422],[140.803056,36.834511],[140.803329,36.834521],[140.803399,36.834645],[140.803398,36.834758],[140.803544,36.834846],[140.803758,36.835211],[140.803872,36.835258],[140.804068,36.835458],[140.804162,36.835941],[140.804116,36.836028],[140.803801,36.835977],[140.803695,36.835922],[140.803577,36.835764],[140.802818,36.835613],[140.802712,36.835628],[140.802534,36.835777],[140.802538,36.836016],[140.802869,36.836147],[140.803031,36.836266],[140.802628,36.836454],[140.802588,36.836534],[140.802628,36.836631],[140.803659,36.836932],[140.803753,36.837027],[140.803708,36.837118],[140.80344,36.837205],[140.803235,36.837146],[140.80279,36.837137],[140.802433,36.83723],[140.80247,36.837348],[140.802405,36.837552],[140.802347,36.837585],[140.802811,36.8378],[140.802899,36.837887],[140.802865,36.837941],[140.802583,36.837954],[140.802516,36.838029],[140.802574,36.838167],[140.80281,36.838329],[140.802479,36.838346],[140.802202,36.838287],[140.801917,36.83852],[140.801742,36.838755],[140.801821,36.838861],[140.802145,36.83898],[140.802228,36.839238],[140.802348,36.839247],[140.802394,36.839415],[140.802041,36.839531],[140.80194,36.839607],[140.801664,36.839634],[140.801516,36.839591],[140.80123,36.839713],[140.801142,36.839668],[140.801005,36.839771],[140.800591,36.839933],[140.800388,36.839936],[140.79996,36.84007],[140.799874,36.840049],[140.799693,36.839896],[140.799035,36.840048],[140.798768,36.840227],[140.798753,36.840297],[140.79847,36.840621],[140.798325,36.840901],[140.798091,36.841025],[140.798019,36.841138],[140.798044,36.841212],[140.797786,36.841339],[140.797733,36.841433],[140.797659,36.841329],[140.797541,36.841323],[140.797315,36.841359],[140.797277,36.841407],[140.797313,36.841454],[140.797119,36.841507],[140.797118,36.841541],[140.797342,36.841498],[140.797439,36.841461],[140.79741,36.841395],[140.797546,36.841353],[140.797645,36.841361],[140.797735,36.841472],[140.797822,36.841368],[140.797975,36.841356],[140.797961,36.841471],[140.797889,36.841423],[140.797874,36.841645],[140.797812,36.841687],[140.797836,36.841742],[140.79789,36.841704],[140.797817,36.841789],[140.797818,36.841864],[140.79774,36.841857],[140.797454,36.84212],[140.797411,36.842299],[140.797178,36.842691],[140.79712,36.843006],[140.797161,36.843057],[140.797093,36.843081],[140.797036,36.843473],[140.797137,36.843457],[140.797187,36.843502],[140.79721,36.843644],[140.797281,36.843648],[140.797084,36.843771],[140.797138,36.843834],[140.797082,36.843831],[140.797153,36.843871],[140.7971,36.843898],[140.797184,36.843883],[140.797223,36.843924],[140.796995,36.843968],[140.797025,36.844126],[140.796983,36.844177],[140.796925,36.84417],[140.796845,36.844892],[140.797181,36.846668],[140.796918,36.847107],[140.7968,36.8478],[140.796701,36.848044],[140.796565,36.84911],[140.796576,36.849575],[140.796973,36.850922],[140.796921,36.850932],[140.797071,36.851297],[140.797399,36.851638],[140.797679,36.851828],[140.798055,36.851946],[140.798371,36.851919],[140.7982,36.852445],[140.798239,36.852661],[140.798092,36.852806],[140.797937,36.852846],[140.797907,36.8529],[140.797982,36.853074],[140.798119,36.853202],[140.798161,36.85338],[140.798138,36.853489],[140.797989,36.853567],[140.797817,36.853779],[140.797575,36.853781],[140.797307,36.853673],[140.796806,36.853831],[140.796744,36.853889],[140.796781,36.854205],[140.796591,36.854837],[140.795804,36.856128],[140.795859,36.856205],[140.796541,36.856466],[140.795818,36.857604],[140.794892,36.857221],[140.794884,36.856592],[140.79429,36.856133],[140.79269,36.857472],[140.793404,36.858024],[140.793174,36.858269],[140.793529,36.85867],[140.793564,36.858842],[140.793766,36.859],[140.793914,36.859],[140.79405,36.859172],[140.794252,36.85922],[140.794283,36.859354],[140.793952,36.859338],[140.793643,36.859207],[140.793475,36.859321],[140.792992,36.858742],[140.792804,36.858617],[140.792167,36.858592],[140.791617,36.858676],[140.79103,36.858609],[140.791167,36.857768],[140.791083,36.857444],[140.790829,36.857324],[140.790712,36.857136],[140.790263,36.856927],[140.789878,36.85656],[140.78973,36.856484],[140.789192,36.856476],[140.788355,36.856659],[140.788018,36.856626],[140.78718,36.856218],[140.786868,36.856168],[140.786168,36.856226],[140.785818,36.856443]]],[[[140.763937,36.810455],[140.764363,36.811329],[140.764379,36.811631],[140.764623,36.811928],[140.765617,36.813726],[140.765775,36.813972],[140.765945,36.814134],[140.765964,36.814319],[140.766114,36.814573],[140.766391,36.814962],[140.766488,36.815001],[140.767166,36.816456],[140.767247,36.816501],[140.767763,36.817241],[140.767944,36.817664],[140.768487,36.818329],[140.770453,36.820281],[140.770638,36.820488],[140.770819,36.820918],[140.772594,36.822667],[140.776091,36.825836],[140.781333,36.829281],[140.781438,36.829825],[140.781277,36.830225],[140.779877,36.829744],[140.777914,36.828905],[140.77684,36.828217],[140.775953,36.827381],[140.768521,36.819824],[140.767856,36.818958],[140.765415,36.814835],[140.764035,36.812027],[140.762029,36.808427],[140.761713,36.8073],[140.761382,36.806746],[140.759999,36.805045],[140.760391,36.804855],[140.760345,36.804607],[140.759095,36.802105],[140.757985,36.80028],[140.757653,36.800375],[140.757572,36.799774],[140.757821,36.79965],[140.756832,36.797416],[140.75674,36.796404],[140.756944,36.795737],[140.757965,36.794822],[140.757913,36.794497],[140.757504,36.794215],[140.757125,36.794214],[140.756388,36.794526],[140.756435,36.795292],[140.75599,36.795563],[140.755028,36.795719],[140.753962,36.79533],[140.752932,36.794598],[140.750076,36.791801],[140.749473,36.791285],[140.749243,36.790784],[140.748481,36.789837],[140.749356,36.788895],[140.749658,36.789225],[140.750066,36.789469],[140.750316,36.789283],[140.750182,36.788332],[140.749934,36.787978],[140.748563,36.785602],[140.747915,36.784432],[140.746839,36.782307],[140.746486,36.781567],[140.746295,36.780922],[140.745575,36.77918],[140.745,36.778117],[140.74375,36.775002],[140.743443,36.77471],[140.740256,36.77555],[140.736674,36.759093],[140.736453,36.75858],[140.732767,36.753145],[140.73092,36.751507],[140.730561,36.751385],[140.730075,36.750367],[140.730056,36.748595],[140.729682,36.745291],[140.729521,36.744718],[140.729522,36.744468],[140.729888,36.743997],[140.72984,36.743671],[140.729172,36.742821],[140.728553,36.741854],[140.727715,36.74017],[140.72708,36.739465],[140.726399,36.739118],[140.72603,36.738795],[140.72578,36.73827],[140.725693,36.737685],[140.726508,36.737759],[140.727279,36.737522],[140.727665,36.737284],[140.727416,36.736652],[140.727418,36.735936],[140.727645,36.735337],[140.727811,36.733874],[140.727652,36.732669],[140.727225,36.731941],[140.726979,36.730401],[140.726773,36.729852],[140.727023,36.729418],[140.727196,36.728289],[140.727181,36.727545],[140.726284,36.727507],[140.725707,36.727291],[140.726052,36.726379],[140.726087,36.725367],[140.725557,36.7244],[140.725487,36.72397],[140.725533,36.723534],[140.726622,36.722227],[140.726579,36.721905],[140.72635,36.721375],[140.725755,36.721237],[140.725239,36.721215],[140.725018,36.7211],[140.724771,36.720341],[140.725013,36.719826],[140.72511,36.719295],[140.725079,36.718681],[140.724221,36.717534],[140.724018,36.717147],[140.72411,36.716446],[140.724708,36.715797],[140.725198,36.715461],[140.725741,36.71579],[140.726358,36.717237],[140.727034,36.718133],[140.72704,36.718235],[140.72712,36.718306],[140.727441,36.718322],[140.72777,36.718199],[140.727889,36.718231],[140.727965,36.718391],[140.728342,36.718536],[140.728372,36.718685],[140.72847,36.718738],[140.728492,36.718806],[140.728361,36.718945],[140.728188,36.718983],[140.728165,36.71925],[140.728434,36.719617],[140.728839,36.719788],[140.728925,36.719895],[140.728968,36.720172],[140.729209,36.72032],[140.728628,36.720564],[140.728235,36.720493],[140.728079,36.720634],[140.728009,36.720605],[140.727942,36.720711],[140.728206,36.720971],[140.728381,36.721063],[140.728491,36.721034],[140.728604,36.720875],[140.728903,36.720889],[140.729302,36.721282],[140.729295,36.721352],[140.729066,36.721595],[140.728742,36.72175],[140.728737,36.721836],[140.728672,36.721875],[140.728335,36.721648],[140.728338,36.721582],[140.72848,36.721541],[140.728442,36.721501],[140.728288,36.721459],[140.728132,36.721477],[140.728033,36.721504],[140.727996,36.72157],[140.728163,36.721924],[140.728615,36.722267],[140.728781,36.722451],[140.728836,36.722747],[140.729069,36.723109],[140.728958,36.7232],[140.728726,36.723284],[140.728638,36.723408],[140.728649,36.723579],[140.728563,36.723936],[140.72869,36.724296],[140.728449,36.724531],[140.728403,36.724698],[140.728382,36.725854],[140.728269,36.726345],[140.728291,36.726567],[140.72817,36.726846],[140.728171,36.727591],[140.728099,36.72767],[140.728187,36.727933],[140.728235,36.728766],[140.728369,36.728989],[140.728343,36.729752],[140.728439,36.730636],[140.728407,36.730798],[140.728635,36.731802],[140.728785,36.73319],[140.729015,36.734473],[140.728887,36.734564],[140.729026,36.734661],[140.729066,36.735142],[140.729308,36.73602],[140.729295,36.736561],[140.729769,36.738934],[140.730173,36.740077],[140.730419,36.741201],[140.730603,36.741783],[140.730655,36.742205],[140.73058,36.742445],[140.730604,36.742709],[140.730894,36.743007],[140.731823,36.745122],[140.731982,36.745711],[140.732168,36.746074],[140.732494,36.746976],[140.732684,36.747372],[140.733031,36.748459],[140.73323,36.748804],[140.733228,36.748919],[140.733424,36.749382],[140.733485,36.749946],[140.733566,36.750095],[140.734363,36.750987],[140.735267,36.75319],[140.736255,36.755297],[140.736864,36.756233],[140.736913,36.756779],[140.737381,36.757618],[140.73748,36.757715],[140.737704,36.758255],[140.738005,36.758768],[140.738089,36.758976],[140.738159,36.759613],[140.738299,36.76012],[140.738796,36.761506],[140.738859,36.761816],[140.739909,36.764042],[140.740287,36.764712],[140.740736,36.765315],[140.740813,36.765484],[140.740981,36.766166],[140.741219,36.766589],[140.741954,36.768251],[140.741975,36.76909],[140.742073,36.769389],[140.742675,36.770465],[140.742843,36.770865],[140.742885,36.771333],[140.743103,36.771671],[140.743383,36.772324],[140.743761,36.77291],[140.743782,36.773119],[140.743705,36.773372],[140.743705,36.773626],[140.743761,36.773778],[140.743852,36.773919],[140.744433,36.77437],[140.744475,36.775406],[140.744587,36.775632],[140.744979,36.776043],[140.745462,36.776792],[140.745511,36.777812],[140.745742,36.778381],[140.746225,36.779063],[140.746351,36.779497],[140.746484,36.780325],[140.746771,36.780656],[140.747059,36.781259],[140.747458,36.781779],[140.747584,36.782031],[140.747738,36.782814],[140.748179,36.783434],[140.74827,36.783717],[140.748319,36.7841],[140.748452,36.784364],[140.748641,36.784625],[140.749082,36.784984],[140.749173,36.785239],[140.749187,36.785612],[140.74925,36.785773],[140.749523,36.786089],[140.749943,36.786462],[140.750307,36.787408],[140.75044,36.78757],[140.750951,36.78797],[140.751078,36.788264],[140.751028,36.788625],[140.751106,36.788817],[140.751827,36.789525],[140.752184,36.790308],[140.753143,36.791847],[140.753997,36.793031],[140.754335,36.793429],[140.754901,36.793887],[140.755138,36.79414],[140.755684,36.794471],[140.756071,36.794408],[140.756963,36.793651],[140.7574,36.793533],[140.758016,36.793658],[140.758442,36.793993],[140.758524,36.794499],[140.758343,36.795214],[140.757727,36.79583],[140.757932,36.797072],[140.758153,36.797484],[140.758348,36.797991],[140.758357,36.798694],[140.758412,36.798914],[140.758501,36.799162],[140.758957,36.79993],[140.758998,36.800177],[140.758878,36.80024],[140.758749,36.800223],[140.758464,36.799945],[140.758071,36.799805],[140.757765,36.799868],[140.757788,36.799951],[140.758218,36.799892],[140.758477,36.800006],[140.758743,36.80025],[140.758891,36.80026],[140.759004,36.800211],[140.759042,36.800247],[140.759225,36.801031],[140.759931,36.80223],[140.760084,36.802805],[140.760813,36.804194],[140.760885,36.804806],[140.761101,36.80526],[140.760617,36.80532],[140.760671,36.805417],[140.760912,36.805315],[140.761133,36.805349],[140.761378,36.805111],[140.761456,36.805173],[140.7616,36.805601],[140.761809,36.805922],[140.762143,36.806877],[140.762617,36.807821],[140.762768,36.80835],[140.763466,36.80953],[140.763569,36.809925],[140.763807,36.810414],[140.763937,36.810455]]],[[[140.716261,36.662406],[140.716119,36.662625],[140.716107,36.663265],[140.716631,36.663474],[140.71668,36.663547],[140.716675,36.663944],[140.716526,36.664091],[140.715787,36.664322],[140.715718,36.664423],[140.715684,36.664632],[140.715482,36.664761],[140.715169,36.664806],[140.71512,36.664862],[140.715136,36.665189],[140.715095,36.665377],[140.715139,36.665745],[140.715095,36.666176],[140.71503,36.666397],[140.714836,36.666687],[140.714778,36.666995],[140.714757,36.667355],[140.714835,36.667687],[140.714529,36.669248],[140.714564,36.669658],[140.714464,36.670993],[140.714506,36.672205],[140.714254,36.674126],[140.714492,36.67514],[140.714422,36.676503],[140.714709,36.677816],[140.7148,36.679072],[140.715024,36.67998],[140.715017,36.681225],[140.715303,36.683011],[140.715807,36.684797],[140.715761,36.684932],[140.715836,36.685086],[140.71601,36.686047],[140.716059,36.686757],[140.71622,36.687648],[140.716255,36.688769],[140.71643,36.6898],[140.716437,36.690972],[140.716585,36.691663],[140.716569,36.692082],[140.716489,36.692471],[140.716507,36.692646],[140.716281,36.692819],[140.715887,36.693303],[140.715739,36.693713],[140.715508,36.694038],[140.715065,36.694313],[140.714988,36.69398],[140.714532,36.693203],[140.714244,36.690996],[140.713671,36.689936],[140.713125,36.688475],[140.712994,36.68788],[140.712925,36.687401],[140.712907,36.686495],[140.713538,36.68507],[140.713583,36.684762],[140.713301,36.684153],[140.712947,36.683787],[140.711927,36.683334],[140.711967,36.682817],[140.712694,36.682656],[140.71243,36.681954],[140.712432,36.681511],[140.712138,36.680856],[140.712167,36.680236],[140.712024,36.67872],[140.712171,36.677754],[140.711559,36.67663],[140.711599,36.675658],[140.712113,36.674962],[140.713206,36.673659],[140.713289,36.673217],[140.713147,36.671434],[140.713202,36.670689],[140.71339,36.669867],[140.713772,36.668764],[140.713736,36.668198],[140.713621,36.667488],[140.713823,36.666844],[140.713827,36.665837],[140.714132,36.664987],[140.713037,36.664933],[140.712824,36.664832],[140.71259,36.664583],[140.711735,36.663073],[140.710898,36.662387],[140.710626,36.661805],[140.711507,36.661152],[140.712066,36.661103],[140.7134,36.660421],[140.713598,36.660518],[140.713559,36.660957],[140.713599,36.661129],[140.713927,36.661405],[140.714163,36.661513],[140.714803,36.661556],[140.715045,36.661693],[140.715279,36.661734],[140.715774,36.661458],[140.716533,36.661614],[140.716617,36.661687],[140.716729,36.662285],[140.716687,36.662319],[140.716451,36.662302],[140.716261,36.662406]]]]}}]}
