{"type":"FeatureCollection","features":[{"type":"Feature","properties":{"potaRef":"JP-1009","nameJa":"Kariba motta","nameEn":"Kariba-Motta Prefectural Nature Park","authority":"環境省 生物多様性「見える化」マップ","boundaryStatus":"全国GIS候補・公開前検証待ち","boundarySource":"環境省 生物多様性「見える化」マップの自然公園区域を、POTA代表座標で一意に空間照合して加工","boundaryScaleNote":"区域は概要データであり、正確性は保証されない。POTA運用可否は公式情報で最終確認すること。","candidateMethod":"POTA representative point inside one public natural-park area","sourceParkKind":"都道府県立自然公園","sourceName":"Kariba motta","sourceFeatureCount":1,"cautionMeters":75},"geometry":{"type":"MultiPolygon","coordinates":[[[[139.94358,42.667756],[139.942344,42.668728],[139.938759,42.670527],[139.938927,42.670921],[139.938912,42.671451],[139.939072,42.671805],[139.939103,42.672238],[139.939232,42.6727],[139.939194,42.673189],[139.93879,42.673837],[139.937208,42.675054],[139.936506,42.675432],[139.936519,42.674735],[139.936439,42.673847],[139.936236,42.673269],[139.936115,42.672393],[139.935953,42.672134],[139.935292,42.671646],[139.93378,42.67069],[139.932363,42.669405],[139.933908,42.668733],[139.9346,42.667833],[139.9346,42.66759],[139.93292,42.664672],[139.932213,42.661022],[139.932014,42.660527],[139.931463,42.66033],[139.930593,42.660427],[139.928247,42.66103],[139.926797,42.661633],[139.924678,42.663015],[139.923992,42.664202],[139.92336,42.66568],[139.920592,42.666498],[139.918088,42.666361],[139.918061,42.665447],[139.917327,42.664725],[139.916484,42.663421],[139.916062,42.663129],[139.915034,42.662701],[139.913716,42.662468],[139.912425,42.662351],[139.913295,42.660581],[139.913268,42.660075],[139.912926,42.65992],[139.906547,42.65778],[139.906354,42.658477],[139.906179,42.658708],[139.905761,42.659046],[139.905593,42.659327],[139.905563,42.659485],[139.905623,42.659901],[139.905448,42.660138],[139.905067,42.660897],[139.905159,42.661702],[139.90506,42.661944],[139.905258,42.662316],[139.905189,42.662721],[139.905113,42.662895],[139.904808,42.663086],[139.904275,42.663047],[139.904138,42.663081],[139.903689,42.663373],[139.903262,42.663559],[139.903194,42.663638],[139.903232,42.663886],[139.903094,42.664009],[139.90282,42.664088],[139.902599,42.664077],[139.901952,42.664341],[139.901643,42.664318],[139.901511,42.664142],[139.901432,42.663714],[139.901432,42.663248],[139.901827,42.662469],[139.902196,42.662217],[139.902327,42.662017],[139.902293,42.661805],[139.901399,42.661407],[139.900758,42.660872],[139.90037,42.660374],[139.900151,42.659764],[139.899999,42.658892],[139.897907,42.661083],[139.89676,42.661855],[139.896186,42.661967],[139.893639,42.660834],[139.893015,42.660436],[139.892273,42.659813],[139.892087,42.659527],[139.891969,42.658817],[139.891885,42.658768],[139.888736,42.6601],[139.888129,42.660187],[139.88764,42.660374],[139.886779,42.660921],[139.886712,42.661283],[139.886729,42.662851],[139.886864,42.66305],[139.886898,42.66325],[139.887033,42.665292],[139.887117,42.66574],[139.887016,42.66579],[139.886543,42.66508],[139.885801,42.664408],[139.88462,42.663125],[139.883507,42.661581],[139.882208,42.659191],[139.880504,42.657459],[139.879509,42.656239],[139.879323,42.655791],[139.87934,42.655492],[139.879728,42.654845],[139.880605,42.653673],[139.881432,42.652963],[139.881432,42.652863],[139.87983,42.652976],[139.876777,42.653872],[139.875815,42.654108],[139.874145,42.65427],[139.873825,42.654333],[139.872728,42.654706],[139.87143,42.654855],[139.869304,42.654669],[139.867516,42.654258],[139.866471,42.654245],[139.86664,42.652315],[139.865662,42.652277],[139.865915,42.650708],[139.864582,42.650746],[139.864346,42.650708],[139.863115,42.649214],[139.862305,42.647247],[139.862238,42.646762],[139.862427,42.645976],[139.864148,42.643137],[139.864266,42.642739],[139.865588,42.641094],[139.865706,42.640845],[139.864239,42.640509],[139.863244,42.640396],[139.860883,42.640322],[139.85918,42.640197],[139.857645,42.639463],[139.85552,42.637496],[139.852743,42.634506],[139.852591,42.63417],[139.852473,42.633659],[139.852625,42.632676],[139.852928,42.631953],[139.853711,42.630806],[139.853829,42.630346],[139.853744,42.630097],[139.85334,42.629898],[139.851991,42.629474],[139.851249,42.629449],[139.847219,42.629599],[139.846814,42.629574],[139.846545,42.629412],[139.846494,42.629188],[139.84641,42.627818],[139.846479,42.627568],[139.847272,42.626335],[139.847272,42.626223],[139.845771,42.625414],[139.844844,42.624629],[139.844085,42.624592],[139.843562,42.624779],[139.843309,42.624692],[139.842888,42.624268],[139.842854,42.623882],[139.843208,42.62331],[139.843967,42.622476],[139.844186,42.622325],[139.84422,42.6222],[139.84164,42.621391],[139.840629,42.62113],[139.839938,42.621105],[139.840249,42.623104],[139.839808,42.623005],[139.838622,42.622499],[139.836752,42.621098],[139.835751,42.620262],[139.834934,42.619678],[139.833749,42.61818],[139.833722,42.617675],[139.833802,42.616624],[139.833928,42.616194],[139.834323,42.615844],[139.837179,42.614516],[139.837938,42.614303],[139.836036,42.6145],[139.834532,42.614578],[139.831477,42.614563],[139.82826,42.614498],[139.828165,42.61446],[139.828115,42.614336],[139.828128,42.614204],[139.828313,42.613967],[139.829304,42.61331],[139.830558,42.612661],[139.831027,42.612243],[139.831115,42.612024],[139.831101,42.611872],[139.830691,42.611119],[139.830741,42.610661],[139.830943,42.610032],[139.830887,42.608568],[139.830746,42.608222],[139.830389,42.607601],[139.830294,42.606676],[139.830465,42.606072],[139.830864,42.605098],[139.830908,42.604817],[139.830826,42.604628],[139.830031,42.603682],[139.83,42.603323],[139.830057,42.602271],[139.829844,42.601816],[139.829608,42.601592],[139.829019,42.601387],[139.828665,42.601142],[139.828599,42.60101],[139.82862,42.600947],[139.828901,42.600589],[139.828256,42.600204],[139.828242,42.600156],[139.828382,42.600082],[139.828708,42.600025],[139.828746,42.599974],[139.827892,42.599432],[139.827885,42.599233],[139.827717,42.599037],[139.827818,42.598943],[139.828357,42.598951],[139.828732,42.598881],[139.82875,42.598829],[139.828676,42.598687],[139.828694,42.598588],[139.828806,42.598474],[139.828732,42.598412],[139.828792,42.59829],[139.829247,42.598316],[139.830612,42.598625],[139.831505,42.598659],[139.83179,42.598472],[139.832077,42.598846],[139.832167,42.599105],[139.832533,42.599531],[139.832814,42.59998],[139.833605,42.600436],[139.834035,42.600563],[139.834538,42.60097],[139.834736,42.601222],[139.834672,42.601759],[139.834748,42.602108],[139.834869,42.602271],[139.835368,42.602604],[139.835593,42.60324],[139.835687,42.603715],[139.835601,42.603892],[139.835677,42.604657],[139.835859,42.605164],[139.836111,42.605332],[139.836433,42.605412],[139.836738,42.605663],[139.837271,42.605882],[139.8378,42.606239],[139.837931,42.606486],[139.838137,42.606711],[139.838636,42.607465],[139.838936,42.607561],[139.83902,42.607502],[139.838949,42.60723],[139.838447,42.606481],[139.837499,42.605625],[139.836437,42.604403],[139.836461,42.603865],[139.836393,42.60333],[139.836381,42.602199],[139.836039,42.600838],[139.836012,42.59969],[139.836434,42.597881],[139.835407,42.59755],[139.833669,42.596305],[139.832879,42.59611],[139.830088,42.594359],[139.828508,42.594107],[139.827981,42.593017],[139.82627,42.593173],[139.825312,42.592726],[139.825259,42.592788],[139.825015,42.592709],[139.824946,42.592608],[139.824345,42.592478],[139.824147,42.592523],[139.82388,42.592478],[139.823873,42.592653],[139.824169,42.592833],[139.824367,42.592844],[139.824406,42.592889],[139.824223,42.59366],[139.824169,42.593548],[139.824055,42.593469],[139.823796,42.593491],[139.823773,42.593379],[139.823705,42.593328],[139.823454,42.593306],[139.823408,42.593216],[139.823301,42.593171],[139.823179,42.593238],[139.823149,42.593362],[139.823096,42.593351],[139.822963,42.593471],[139.822783,42.593531],[139.822859,42.593632],[139.823187,42.593756],[139.823278,42.593953],[139.823278,42.594082],[139.823339,42.594161],[139.823217,42.594504],[139.823256,42.594949],[139.823491,42.595101],[139.823697,42.594971],[139.82391,42.594999],[139.82407,42.595101],[139.824276,42.595095],[139.824383,42.595016],[139.824527,42.595106],[139.824753,42.595163],[139.825197,42.595168],[139.825205,42.594921],[139.825266,42.594921],[139.82599,42.595062],[139.826328,42.59519],[139.826529,42.595328],[139.826601,42.595487],[139.826572,42.596815],[139.8265,42.596974],[139.826226,42.597138],[139.825989,42.597453],[139.8257,42.597724],[139.825531,42.598022],[139.825537,42.598136],[139.825446,42.598203],[139.825271,42.598225],[139.825242,42.598329],[139.82506,42.598455],[139.825068,42.598528],[139.824951,42.598619],[139.824854,42.598787],[139.824867,42.598889],[139.825111,42.598957],[139.825842,42.598653],[139.826045,42.598754],[139.826102,42.59894],[139.826027,42.599035],[139.82602,42.599142],[139.825753,42.599232],[139.825731,42.599311],[139.825565,42.599366],[139.825502,42.599502],[139.825392,42.599531],[139.825319,42.599665],[139.825136,42.599738],[139.825093,42.599909],[139.825007,42.599991],[139.825045,42.600143],[139.824966,42.600212],[139.824997,42.600333],[139.8249,42.600448],[139.824926,42.600536],[139.824824,42.600672],[139.824802,42.600983],[139.824692,42.601107],[139.824722,42.601203],[139.824649,42.601258],[139.824664,42.601376],[139.824611,42.601488],[139.824638,42.601657],[139.824576,42.601702],[139.824562,42.601844],[139.824477,42.601963],[139.824509,42.602075],[139.824405,42.602192],[139.824394,42.602359],[139.824291,42.602451],[139.824325,42.60263],[139.824275,42.602721],[139.824277,42.60286],[139.824207,42.602935],[139.824212,42.603054],[139.824116,42.603152],[139.824113,42.603273],[139.824001,42.603362],[139.823971,42.603492],[139.823821,42.603608],[139.823826,42.603762],[139.823739,42.603876],[139.82378,42.603998],[139.823678,42.604123],[139.823716,42.604213],[139.823613,42.604274],[139.823602,42.604427],[139.823526,42.604478],[139.823491,42.604618],[139.823351,42.604835],[139.823206,42.604894],[139.822996,42.605074],[139.823137,42.605311],[139.823008,42.605407],[139.822947,42.605624],[139.823061,42.605722],[139.823049,42.605889],[139.822859,42.606017],[139.822851,42.606126],[139.822676,42.606199],[139.82265,42.606296],[139.822167,42.606502],[139.822226,42.606652],[139.822204,42.606953],[139.822272,42.607043],[139.822226,42.607173],[139.82231,42.607257],[139.822318,42.607623],[139.822394,42.607746],[139.822325,42.607876],[139.822391,42.608293],[139.822558,42.608429],[139.822569,42.608529],[139.822647,42.608587],[139.822653,42.608709],[139.822738,42.608804],[139.822668,42.608883],[139.82268,42.608949],[139.822254,42.609191],[139.822219,42.609294],[139.822066,42.60944],[139.82217,42.609723],[139.822106,42.609808],[139.82215,42.609924],[139.82208,42.610068],[139.822182,42.610143],[139.822269,42.610078],[139.822569,42.610014],[139.822607,42.610059],[139.822645,42.610318],[139.822467,42.610421],[139.822295,42.610448],[139.822234,42.610515],[139.822234,42.610639],[139.822284,42.61068],[139.822414,42.610675],[139.822673,42.610613],[139.822668,42.61069],[139.822546,42.610786],[139.82263,42.610904],[139.822576,42.611044],[139.822482,42.611136],[139.82247,42.61123],[139.822645,42.611303],[139.822673,42.611395],[139.822764,42.61144],[139.822741,42.611524],[139.822848,42.611749],[139.822988,42.611787],[139.823008,42.611884],[139.823099,42.611963],[139.823064,42.612136],[139.823254,42.612277],[139.823388,42.612284],[139.82351,42.612431],[139.823358,42.612554],[139.823208,42.612598],[139.823122,42.612847],[139.823165,42.613055],[139.823338,42.613166],[139.823406,42.613335],[139.82349,42.613414],[139.823627,42.613425],[139.823947,42.613279],[139.824214,42.613346],[139.824229,42.613436],[139.824069,42.613538],[139.824031,42.613616],[139.824092,42.613678],[139.82445,42.613734],[139.824602,42.614044],[139.824739,42.614066],[139.824579,42.614156],[139.824343,42.614123],[139.824283,42.614179],[139.824404,42.614331],[139.824572,42.614398],[139.824579,42.61446],[139.824701,42.614556],[139.824701,42.614736],[139.824617,42.614742],[139.824549,42.614854],[139.824572,42.614905],[139.824899,42.614933],[139.824732,42.615063],[139.824579,42.615304],[139.824846,42.615434],[139.824808,42.615513],[139.824869,42.615642],[139.824846,42.615862],[139.825074,42.616267],[139.825089,42.616481],[139.825013,42.616543],[139.825021,42.616655],[139.825486,42.616784],[139.825859,42.617179],[139.825866,42.617319],[139.826034,42.61737],[139.826263,42.617589],[139.826963,42.617809],[139.826956,42.617944],[139.826819,42.617995],[139.826407,42.618394],[139.826209,42.618479],[139.826255,42.618664],[139.826765,42.618951],[139.826993,42.618951],[139.827047,42.619025],[139.827176,42.619058],[139.827329,42.619008],[139.827458,42.619075],[139.827664,42.619053],[139.827702,42.619143],[139.82793,42.619177],[139.827938,42.619244],[139.828121,42.619362],[139.828288,42.619379],[139.82841,42.61948],[139.828532,42.619497],[139.829233,42.620004],[139.82924,42.620144],[139.829431,42.620246],[139.829461,42.620353],[139.829651,42.620516],[139.829796,42.620544],[139.829903,42.620651],[139.830086,42.620657],[139.830268,42.620792],[139.83036,42.621129],[139.830489,42.621152],[139.830573,42.621084],[139.83052,42.620966],[139.830695,42.620871],[139.830817,42.620949],[139.830771,42.62109],[139.830992,42.621338],[139.831038,42.621518],[139.831396,42.621489],[139.831365,42.621551],[139.831381,42.621641],[139.831434,42.621641],[139.831449,42.621827],[139.831601,42.621923],[139.831639,42.622007],[139.831792,42.622053],[139.832005,42.622429],[139.832523,42.622789],[139.832523,42.622857],[139.832599,42.622936],[139.832942,42.623065],[139.833414,42.623088],[139.833543,42.623133],[139.833719,42.623105],[139.833856,42.623189],[139.834,42.62319],[139.834297,42.623459],[139.834564,42.623561],[139.834922,42.623549],[139.835044,42.623482],[139.835273,42.623453],[139.8354,42.623361],[139.835564,42.623334],[139.835681,42.623231],[139.836318,42.623174],[139.836656,42.623214],[139.8367,42.623282],[139.836976,42.623439],[139.837397,42.623437],[139.837437,42.623518],[139.837421,42.623641],[139.837197,42.623745],[139.837039,42.624016],[139.837161,42.624151],[139.837435,42.624213],[139.837693,42.624139],[139.837771,42.624056],[139.83774,42.623921],[139.837824,42.623814],[139.838022,42.623983],[139.838128,42.623938],[139.83809,42.623673],[139.837999,42.623606],[139.838014,42.623431],[139.838113,42.623347],[139.838136,42.623263],[139.838235,42.623218],[139.838403,42.623308],[139.838662,42.623358],[139.838837,42.623488],[139.838997,42.623476],[139.839119,42.623561],[139.839379,42.623532],[139.839629,42.623679],[139.839777,42.623851],[139.839606,42.62396],[139.839652,42.624101],[139.839622,42.624249],[139.839796,42.624315],[139.839896,42.624427],[139.840124,42.624377],[139.84017,42.624303],[139.840147,42.624258],[139.840321,42.624251],[139.840452,42.624385],[139.840352,42.624523],[139.840613,42.624737],[139.840762,42.624801],[139.840817,42.624883],[139.840893,42.624894],[139.841252,42.624764],[139.841511,42.624943],[139.841228,42.625108],[139.840771,42.625198],[139.840794,42.625311],[139.841066,42.625359],[139.841472,42.625305],[139.841434,42.625395],[139.84116,42.625452],[139.841071,42.625524],[139.841182,42.625742],[139.841386,42.625792],[139.841577,42.625944],[139.841761,42.625964],[139.842091,42.625609],[139.842348,42.625722],[139.842214,42.625923],[139.84266,42.626138],[139.842793,42.626248],[139.842665,42.626676],[139.842575,42.626717],[139.842312,42.626709],[139.842102,42.626839],[139.841627,42.626904],[139.841523,42.627019],[139.841569,42.627103],[139.841402,42.627227],[139.840914,42.627264],[139.840701,42.627432],[139.840784,42.627537],[139.84113,42.627607],[139.841146,42.627682],[139.841248,42.62776],[139.841266,42.627894],[139.841411,42.627939],[139.841524,42.62805],[139.84193,42.62809],[139.842102,42.627953],[139.842326,42.627885],[139.842523,42.627939],[139.842684,42.628087],[139.842683,42.628201],[139.842728,42.628254],[139.842881,42.628339],[139.842833,42.62846],[139.842879,42.628527],[139.842789,42.628648],[139.842833,42.628741],[139.842768,42.628837],[139.842843,42.628975],[139.842768,42.629055],[139.842507,42.629031],[139.84218,42.62907],[139.841784,42.629222],[139.841586,42.629194],[139.841312,42.629351],[139.84122,42.629504],[139.84103,42.629588],[139.841015,42.629717],[139.840939,42.629774],[139.840954,42.629875],[139.841182,42.62992],[139.841396,42.630044],[139.84151,42.630218],[139.841624,42.630269],[139.841426,42.630387],[139.841449,42.630562],[139.841784,42.630753],[139.841898,42.630764],[139.841609,42.630978],[139.841449,42.631012],[139.841396,42.631265],[139.841571,42.631406],[139.841586,42.631485],[139.841875,42.631693],[139.842134,42.631789],[139.842439,42.631777],[139.842599,42.631682],[139.842812,42.63171],[139.842877,42.631659],[139.843109,42.631856],[139.843384,42.631868],[139.843528,42.632036],[139.843475,42.632227],[139.843505,42.632413],[139.843817,42.632509],[139.843939,42.632509],[139.844008,42.632424],[139.844206,42.632379],[139.844236,42.632295],[139.844351,42.63225],[139.844404,42.632126],[139.844541,42.632098],[139.844609,42.632003],[139.845393,42.631752],[139.845501,42.631608],[139.845569,42.63162],[139.8456,42.631755],[139.845684,42.631794],[139.846019,42.631732],[139.846239,42.631845],[139.846377,42.632042],[139.846163,42.632211],[139.846163,42.632278],[139.846263,42.632436],[139.846377,42.632458],[139.846567,42.632588],[139.846559,42.632734],[139.846674,42.632796],[139.846757,42.63292],[139.846558,42.632968],[139.846217,42.632891],[139.845927,42.633021],[139.845988,42.633162],[139.846224,42.633291],[139.846156,42.633494],[139.846186,42.633595],[139.846544,42.633724],[139.846856,42.633668],[139.847069,42.633708],[139.847191,42.63364],[139.847614,42.633577],[139.847664,42.633646],[139.84742,42.633848],[139.847466,42.633966],[139.847595,42.634034],[139.847808,42.633966],[139.847988,42.633975],[139.848121,42.634125],[139.847717,42.63431],[139.847633,42.634304],[139.847283,42.634529],[139.84713,42.634535],[139.846864,42.634783],[139.847054,42.634923],[139.847245,42.634889],[139.847374,42.634996],[139.847519,42.635008],[139.847664,42.635098],[139.847907,42.635086],[139.848083,42.635148],[139.848212,42.635278],[139.847923,42.635329],[139.847778,42.635272],[139.847656,42.635306],[139.847092,42.635289],[139.846963,42.635362],[139.84678,42.635565],[139.846773,42.635739],[139.846689,42.635829],[139.847016,42.635841],[139.8471,42.635779],[139.847504,42.635739],[139.847252,42.63588],[139.847047,42.635897],[139.846917,42.636004],[139.84694,42.636083],[139.847062,42.636234],[139.847359,42.636279],[139.847458,42.636353],[139.847709,42.636313],[139.847824,42.636122],[139.847923,42.636088],[139.848044,42.636516],[139.847946,42.636797],[139.848067,42.636825],[139.848296,42.636741],[139.848372,42.63682],[139.848379,42.63691],[139.848669,42.636809],[139.848753,42.636634],[139.849034,42.636516],[139.849065,42.636414],[139.849179,42.636319],[139.849179,42.636195],[139.849233,42.636116],[139.84921,42.636015],[139.849347,42.635925],[139.849507,42.635936],[139.849628,42.636111],[139.849628,42.636246],[139.84956,42.636403],[139.849712,42.636516],[139.84975,42.63669],[139.849842,42.636673],[139.849918,42.636538],[139.850017,42.63664],[139.849918,42.636831],[139.849979,42.636916],[139.850108,42.636899],[139.850139,42.636814],[139.850215,42.636775],[139.850192,42.636679],[139.850268,42.636651],[139.850383,42.636809],[139.850603,42.636764],[139.850877,42.637062],[139.850847,42.637118],[139.850763,42.637113],[139.85036,42.637304],[139.850268,42.637439],[139.850306,42.63745],[139.850276,42.637765],[139.850329,42.637833],[139.850504,42.637979],[139.850733,42.637968],[139.850801,42.638019],[139.851037,42.637991],[139.851129,42.637889],[139.851319,42.637827],[139.85154,42.637855],[139.851548,42.638024],[139.851594,42.638081],[139.851548,42.638154],[139.851571,42.638458],[139.851723,42.638536],[139.851792,42.63866],[139.851867,42.638711],[139.851951,42.6387],[139.852104,42.63884],[139.852341,42.63884],[139.853744,42.640165],[139.853703,42.640348],[139.853798,42.640529],[139.853947,42.640585],[139.854008,42.640709],[139.854153,42.640731],[139.854176,42.640821],[139.85432,42.640872],[139.854358,42.640973],[139.854594,42.641091],[139.854762,42.641255],[139.855044,42.641891],[139.854868,42.642009],[139.85451,42.641913],[139.854213,42.641981],[139.854129,42.642071],[139.854166,42.642221],[139.854137,42.642389],[139.854053,42.642453],[139.854099,42.642549],[139.854358,42.642554],[139.854624,42.642639],[139.854419,42.642661],[139.85384,42.642594],[139.853711,42.642763],[139.853756,42.642836],[139.853871,42.64287],[139.853985,42.64283],[139.854175,42.642853],[139.854457,42.642774],[139.85451,42.642842],[139.854114,42.642932],[139.854091,42.643044],[139.854251,42.643106],[139.854305,42.643084],[139.854434,42.643236],[139.854624,42.643269],[139.854777,42.643213],[139.85483,42.643348],[139.855158,42.643416],[139.855097,42.643466],[139.855097,42.643562],[139.855173,42.643629],[139.855097,42.643691],[139.85515,42.64381],[139.854983,42.643911],[139.855135,42.644052],[139.855127,42.644102],[139.85499,42.64417],[139.85499,42.644226],[139.855097,42.644277],[139.855356,42.644226],[139.855424,42.644283],[139.855196,42.644434],[139.85499,42.644474],[139.854686,42.644682],[139.854602,42.644688],[139.854526,42.644778],[139.854487,42.644997],[139.854602,42.645087],[139.85454,42.645187],[139.854617,42.645295],[139.854508,42.645488],[139.854564,42.64552],[139.854837,42.645446],[139.85496,42.64525],[139.854922,42.645171],[139.855058,42.645069],[139.855203,42.645154],[139.855207,42.645239],[139.855272,42.645308],[139.855576,42.645284],[139.855531,42.645515],[139.855409,42.645549],[139.855234,42.645706],[139.855249,42.645763],[139.85534,42.645791],[139.855721,42.645734],[139.855752,42.645785],[139.855675,42.645898],[139.855805,42.645982],[139.855805,42.646038],[139.855531,42.646151],[139.855279,42.646168],[139.855256,42.64628],[139.85518,42.646342],[139.85518,42.646415],[139.855272,42.646505],[139.855256,42.646635],[139.855317,42.646702],[139.8555,42.64668],[139.855569,42.646612],[139.85566,42.646663],[139.856026,42.646702],[139.856131,42.646605],[139.856247,42.646607],[139.856353,42.646539],[139.856536,42.646595],[139.856536,42.646691],[139.856407,42.646798],[139.856437,42.646933],[139.856405,42.647028],[139.856445,42.647119],[139.856567,42.647175],[139.856506,42.647282],[139.85662,42.647417],[139.856559,42.647468],[139.856635,42.647558],[139.856757,42.647603],[139.856688,42.647732],[139.856772,42.647851],[139.856719,42.647941],[139.856772,42.648036],[139.856719,42.648093],[139.856726,42.648154],[139.856818,42.648228],[139.856765,42.648334],[139.856833,42.648453],[139.856749,42.648554],[139.856757,42.648661],[139.856597,42.648728],[139.856536,42.648869],[139.856353,42.648936],[139.855999,42.649236],[139.855998,42.649312],[139.856109,42.649498],[139.856489,42.649588],[139.856451,42.649718],[139.856086,42.649814],[139.856048,42.650096],[139.856201,42.650141],[139.856246,42.650231],[139.856361,42.650276],[139.856656,42.650166],[139.856696,42.65004],[139.856801,42.649976],[139.856946,42.6501],[139.856939,42.650209],[139.857008,42.650259],[139.857046,42.650411],[139.856604,42.650619],[139.856612,42.650681],[139.856726,42.65076],[139.857084,42.650743],[139.857671,42.650552],[139.857777,42.650653],[139.857983,42.650693],[139.858014,42.650771],[139.858234,42.650828],[139.85828,42.650895],[139.858547,42.651019],[139.858752,42.651075],[139.859084,42.651049],[139.859127,42.651079],[139.859499,42.651621],[139.86058,42.652398],[139.861243,42.653135],[139.861547,42.653568],[139.861776,42.65376],[139.862522,42.654098],[139.86256,42.654143],[139.862484,42.654356],[139.862503,42.654455],[139.862635,42.654584],[139.862549,42.654686],[139.862614,42.65479],[139.862576,42.654868],[139.862606,42.654942],[139.862738,42.655],[139.863114,42.655002],[139.863223,42.655099],[139.863406,42.65533],[139.863314,42.655538],[139.863391,42.655639],[139.863824,42.655644],[139.863939,42.655808],[139.863885,42.655898],[139.863908,42.655966],[139.863467,42.656157],[139.863364,42.656339],[139.863458,42.656742],[139.863609,42.65683],[139.863634,42.656911],[139.863779,42.657034],[139.863783,42.657151],[139.863931,42.657384],[139.864327,42.657615],[139.864426,42.657767],[139.864609,42.657812],[139.864769,42.65793],[139.864784,42.658065],[139.864952,42.658189],[139.864944,42.658298],[139.864433,42.658694],[139.864426,42.658768],[139.864281,42.658841],[139.86419,42.659072],[139.864361,42.659082],[139.864418,42.658988],[139.864556,42.65892],[139.864586,42.65883],[139.864744,42.658716],[139.864926,42.658485],[139.865035,42.658476],[139.865058,42.658538],[139.864779,42.658812],[139.864773,42.658957],[139.864698,42.659123],[139.864456,42.659157],[139.86439,42.659225],[139.864159,42.659303],[139.864137,42.659376],[139.864312,42.659472],[139.864391,42.659578],[139.864699,42.659639],[139.864906,42.659579],[139.865211,42.659568],[139.86531,42.659658],[139.865441,42.659686],[139.865606,42.659793],[139.865562,42.659904],[139.865599,42.660007],[139.86553,42.660069],[139.865598,42.660158],[139.865925,42.660101],[139.86598,42.660115],[139.86601,42.660192],[139.866099,42.660198],[139.866208,42.66013],[139.866414,42.660101],[139.866543,42.66017],[139.86665,42.660305],[139.866452,42.660423],[139.866383,42.660491],[139.866383,42.660564],[139.866787,42.660581],[139.866916,42.660834],[139.867038,42.660907],[139.867061,42.660997],[139.867183,42.661099],[139.867176,42.661234],[139.867267,42.661318],[139.867274,42.661408],[139.867558,42.66167],[139.867419,42.661779],[139.867016,42.661869],[139.866795,42.662078],[139.866825,42.662339],[139.866931,42.662465],[139.866924,42.662578],[139.867084,42.662657],[139.867617,42.662556],[139.867709,42.662477],[139.867955,42.662538],[139.867942,42.662611],[139.868029,42.662697],[139.86799,42.662776],[139.868044,42.662888],[139.868028,42.662973],[139.868219,42.662995],[139.868249,42.66304],[139.868249,42.663102],[139.868089,42.663203],[139.868196,42.663434],[139.868127,42.663575],[139.868028,42.663614],[139.867975,42.663682],[139.868013,42.663772],[139.867891,42.663946],[139.867815,42.663991],[139.867761,42.664104],[139.86763,42.664153],[139.867533,42.664306],[139.867533,42.664408],[139.867777,42.664413],[139.867861,42.664531],[139.867807,42.66461],[139.867693,42.664644],[139.867579,42.664874],[139.867693,42.664891],[139.867792,42.664981],[139.867914,42.664981],[139.868036,42.6651],[139.868493,42.665111],[139.868623,42.665236],[139.868605,42.665301],[139.868318,42.665404],[139.868303,42.665516],[139.868463,42.665595],[139.868661,42.665561],[139.868881,42.665657],[139.869018,42.665854],[139.86898,42.665983],[139.869087,42.666073],[139.869293,42.666034],[139.869513,42.665741],[139.869757,42.665747],[139.870138,42.665944],[139.870412,42.665927],[139.871006,42.66549],[139.87125,42.665438],[139.87165,42.665504],[139.871835,42.665433],[139.872112,42.665496],[139.872244,42.665417],[139.872407,42.66542],[139.872539,42.665323],[139.872545,42.665254],[139.8729,42.665244],[139.872863,42.665458],[139.872997,42.665616],[139.873199,42.665522],[139.873214,42.665453],[139.873331,42.665361],[139.873474,42.665409],[139.873748,42.665539],[139.874007,42.665753],[139.874731,42.665972],[139.874951,42.666085],[139.874945,42.666348],[139.874813,42.666488],[139.874967,42.666625],[139.875065,42.66663],[139.875033,42.666753],[139.875156,42.666875],[139.875263,42.666844],[139.875404,42.666911],[139.875181,42.667112],[139.87514,42.667339],[139.875209,42.66739],[139.875146,42.667512],[139.875181,42.667619],[139.875329,42.667861],[139.875442,42.667912],[139.875498,42.667897],[139.875517,42.667831],[139.875687,42.667793],[139.875813,42.66766],[139.87585,42.667504],[139.876064,42.667637],[139.876039,42.667803],[139.875951,42.66793],[139.876019,42.668093],[139.876186,42.668139],[139.876409,42.66791],[139.876472,42.667935],[139.876645,42.667889],[139.876777,42.667808],[139.876946,42.667818],[139.877183,42.667706],[139.877526,42.667892],[139.877815,42.668089],[139.877619,42.66819],[139.877449,42.668381],[139.877389,42.668708],[139.877446,42.668863],[139.877572,42.668838],[139.877747,42.668685],[139.87781,42.668384],[139.877861,42.668336],[139.87793,42.668443],[139.877906,42.668505],[139.878024,42.668626],[139.878106,42.668634],[139.878303,42.66853],[139.878454,42.668766],[139.878312,42.669321],[139.878413,42.669446],[139.878372,42.669525],[139.878457,42.669676],[139.878459,42.669808],[139.878709,42.669935],[139.878982,42.669983],[139.879167,42.670143],[139.87942,42.670181],[139.879468,42.670234],[139.879479,42.670383],[139.879809,42.670554],[139.880146,42.670851],[139.880347,42.670819],[139.880448,42.670857],[139.880485,42.670981],[139.880554,42.671015],[139.880714,42.67093],[139.881103,42.670992],[139.881356,42.670941],[139.880838,42.670634],[139.879797,42.670266],[139.879731,42.669857],[139.879928,42.669793],[139.881008,42.669985],[139.882333,42.670069],[139.883312,42.670484],[139.884017,42.670877],[139.884766,42.671344],[139.885157,42.671799],[139.884052,42.672868],[139.883228,42.673306],[139.882173,42.673647],[139.880658,42.673987],[139.878252,42.674036],[139.87677,42.673914],[139.87387,42.673306],[139.870608,42.672188],[139.867115,42.669902],[139.865015,42.668051],[139.862412,42.665206],[139.861688,42.664306],[139.860699,42.66219],[139.860139,42.66061],[139.859645,42.660318],[139.858631,42.659488],[139.85761,42.658297],[139.857149,42.657275],[139.856984,42.65657],[139.855864,42.655938],[139.854283,42.654527],[139.852438,42.652606],[139.850989,42.650564],[139.849144,42.646381],[139.847722,42.642511],[139.84242,42.63879],[139.838369,42.635483],[139.837501,42.634288],[139.835855,42.631492],[139.835196,42.629036],[139.832166,42.628136],[139.828914,42.626747],[139.826412,42.62524],[139.823317,42.623173],[139.820419,42.620595],[139.818707,42.618382],[139.817765,42.616677],[139.81681,42.614221],[139.816086,42.61174],[139.816009,42.608138],[139.816371,42.60612],[139.816997,42.603688],[139.817556,42.602448],[139.819366,42.599992],[139.819268,42.599749],[139.818412,42.598654],[139.817721,42.597098],[139.81749,42.596393],[139.817293,42.595688],[139.817154,42.594857],[139.817088,42.593641],[139.817253,42.592523],[139.817615,42.591429],[139.817977,42.590845],[139.819129,42.589508],[139.820511,42.588073],[139.820346,42.586079],[139.820356,42.584787],[139.820685,42.582306],[139.82108,42.580239],[139.821804,42.57737],[139.822345,42.576686],[139.823595,42.574886],[139.826063,42.572916],[139.826063,42.571287],[139.826391,42.569852],[139.827082,42.568029],[139.828004,42.566983],[139.829089,42.565986],[139.830438,42.565354],[139.831984,42.564892],[139.83307,42.564794],[139.835151,42.56507],[139.835067,42.565199],[139.835142,42.565362],[139.835255,42.565407],[139.835121,42.565751],[139.835235,42.565844],[139.835249,42.565982],[139.835369,42.566035],[139.835371,42.566137],[139.835475,42.56621],[139.835517,42.566405],[139.835423,42.566501],[139.835427,42.56658],[139.835226,42.566648],[139.835193,42.566783],[139.835016,42.566833],[139.834964,42.566892],[139.834776,42.566922],[139.834739,42.567026],[139.834624,42.5671],[139.834637,42.567184],[139.834733,42.567246],[139.834684,42.567383],[139.834732,42.567462],[139.834661,42.567567],[139.834681,42.567666],[139.834528,42.567905],[139.834533,42.568],[139.834412,42.568157],[139.834286,42.568213],[139.834258,42.568309],[139.834291,42.568382],[139.834197,42.568459],[139.834159,42.568624],[139.834035,42.568728],[139.834042,42.568828],[139.834107,42.56889],[139.833971,42.568975],[139.833976,42.569102],[139.833877,42.569142],[139.833814,42.569283],[139.83363,42.569348],[139.833751,42.569479],[139.833785,42.569691],[139.833633,42.569903],[139.833549,42.570139],[139.833708,42.570225],[139.834634,42.569835],[139.835203,42.569415],[139.835962,42.568154],[139.836909,42.568559],[139.838277,42.567968],[139.840214,42.567517],[139.840951,42.567532],[139.841267,42.567641],[139.840593,42.570754],[139.840552,42.571325],[139.84096,42.571498],[139.841437,42.571568],[139.841781,42.571689],[139.842375,42.572151],[139.83999,42.574152],[139.839599,42.57464],[139.838818,42.575945],[139.837906,42.578188],[139.837933,42.580399],[139.839065,42.581913],[139.839241,42.582381],[139.839479,42.583279],[139.839816,42.584066],[139.841635,42.585431],[139.841824,42.585491],[139.843226,42.585461],[139.843697,42.585331],[139.844731,42.584804],[139.844946,42.584864],[139.845661,42.585232],[139.847332,42.585551],[139.847992,42.58587],[139.84868,42.586547],[139.852832,42.587872],[139.85302,42.587842],[139.85364,42.587464],[139.853964,42.587145],[139.855214,42.585033],[139.855632,42.584157],[139.855686,42.583061],[139.855834,42.582792],[139.856912,42.581756],[139.857389,42.581397],[139.858885,42.580919],[139.859451,42.58065],[139.860139,42.58062],[139.860826,42.580799],[139.861405,42.581168],[139.861756,42.581287],[139.863805,42.581456],[139.864743,42.581466],[139.864931,42.581426],[139.865673,42.580599],[139.866198,42.580251],[139.86698,42.579922],[139.867465,42.579593],[139.868233,42.578836],[139.86844,42.578439],[139.868243,42.576664],[139.868473,42.575229],[139.869592,42.575229],[139.870875,42.574889],[139.87173,42.574451],[139.872191,42.573965],[139.873573,42.5736],[139.875251,42.57219],[139.876501,42.571874],[139.880318,42.571679],[139.881502,42.571922],[139.882391,42.571971],[139.88351,42.571922],[139.883904,42.571752],[139.884365,42.571728],[139.885155,42.572165],[139.886208,42.57219],[139.886898,42.572117],[139.887458,42.571679],[139.888215,42.570536],[139.888675,42.570147],[139.889432,42.569272],[139.890348,42.568953],[139.891894,42.568831],[139.892684,42.568515],[139.893144,42.568029],[139.893704,42.56691],[139.893868,42.566302],[139.894559,42.565913],[139.896105,42.564722],[139.896763,42.564381],[139.898276,42.564041],[139.901435,42.563773],[139.901829,42.56309],[139.903024,42.561571],[139.903395,42.56065],[139.903934,42.560289],[139.904641,42.559479],[139.905332,42.557911],[139.905837,42.557624],[139.906578,42.557338],[139.909533,42.555804],[139.910088,42.55558],[139.91024,42.554634],[139.910914,42.552467],[139.911234,42.551658],[139.912749,42.549666],[139.913824,42.548494],[139.914059,42.548158],[139.914127,42.547846],[139.914346,42.547597],[139.915171,42.546975],[139.915322,42.5468],[139.915979,42.545344],[139.91608,42.544895],[139.916114,42.544049],[139.916363,42.5432],[139.916397,42.542553],[139.916548,42.542204],[139.917104,42.541868],[139.917979,42.541544],[139.91931,42.540735],[139.920505,42.539677],[139.920774,42.539552],[139.921029,42.539617],[139.920946,42.539246],[139.92055,42.538812],[139.920193,42.538122],[139.920802,42.537935],[139.923012,42.537951],[139.923664,42.537889],[139.92499,42.537578],[139.925411,42.537655],[139.926127,42.5382],[139.926358,42.538231],[139.927785,42.537104],[139.928258,42.536618],[139.928548,42.53547],[139.929836,42.53298],[139.931125,42.530762],[139.931494,42.52979],[139.932414,42.528603],[139.932822,42.528357],[139.932994,42.528361],[139.933333,42.528687],[139.936052,42.527006],[139.936341,42.526792],[139.93763,42.525411],[139.939208,42.523621],[139.939655,42.523466],[139.94026,42.523524],[139.940813,42.523407],[139.941812,42.522668],[139.942182,42.522493],[139.94234,42.522493],[139.94284,42.522726],[139.943708,42.522999],[139.944497,42.523038],[139.945785,42.523271],[139.946312,42.524108],[139.946759,42.524458],[139.947153,42.524691],[139.948573,42.525022],[139.951151,42.525761],[139.951993,42.52617],[139.952229,42.526481],[139.952441,42.52728],[139.952362,42.527474],[139.954124,42.528233],[139.954887,42.528894],[139.955229,42.529361],[139.958543,42.53117],[139.958648,42.53119],[139.959122,42.530976],[139.960227,42.529925],[139.961095,42.529575],[139.962068,42.529497],[139.963744,42.529732],[139.965349,42.530549],[139.966138,42.531132],[139.966611,42.531327],[139.969057,42.531152],[139.96982,42.531171],[139.971961,42.532165],[139.972803,42.532962],[139.974276,42.533915],[139.974697,42.534324],[139.976144,42.536055],[139.976565,42.536308],[139.979301,42.537495],[139.979906,42.537903],[139.981221,42.539557],[139.982142,42.541036],[139.982402,42.541816],[139.982429,42.542458],[139.983124,42.542871],[139.984219,42.544303],[139.985313,42.544428],[139.986071,42.544583],[139.986218,42.544739],[139.986345,42.545159],[139.986261,42.545579],[139.986071,42.546046],[139.98668,42.546139],[139.989396,42.545719],[139.994447,42.544645],[139.996488,42.544443],[139.997562,42.544427],[139.998299,42.544599],[140.000993,42.545579],[140.002827,42.54617],[140.003311,42.546186],[140.005942,42.545875],[140.006362,42.545781],[140.006804,42.545517],[140.007183,42.545003],[140.008383,42.544832],[140.009547,42.544893],[140.009842,42.544753],[140.010663,42.544131],[140.011231,42.543773],[140.011715,42.543571],[140.015083,42.54094],[140.016303,42.540131],[140.017348,42.53982],[140.0184,42.539618],[140.019116,42.539618],[140.020088,42.539799],[140.020289,42.539991],[140.020477,42.540362],[140.020887,42.540798],[140.021274,42.541174],[140.022146,42.54189],[140.022791,42.542106],[140.023976,42.542364],[140.024272,42.542498],[140.024729,42.542864],[140.025428,42.543171],[140.026214,42.543682],[140.027764,42.544436],[140.028991,42.545179],[140.029082,42.545275],[140.029088,42.54556],[140.028614,42.546728],[140.028286,42.547374],[140.028124,42.548058],[140.028087,42.54852],[140.028409,42.549489],[140.028313,42.550027],[140.028323,42.550199],[140.028372,42.550512],[140.028679,42.55141],[140.029125,42.552319],[140.029286,42.552486],[140.029733,42.552718],[140.029867,42.552944],[140.029927,42.553434],[140.029835,42.554951],[140.029887,42.55576],[140.028944,42.555651],[140.028506,42.555791],[140.027591,42.555898],[140.027225,42.555985],[140.026881,42.556199],[140.025718,42.557265],[140.025582,42.557299],[140.02541,42.557434],[140.024801,42.558458],[140.024638,42.558901],[140.024588,42.559256],[140.024319,42.560203],[140.024006,42.560904],[140.023979,42.561139],[140.023663,42.561957],[140.023469,42.562301],[140.023006,42.562786],[140.022683,42.563044],[140.022576,42.563206],[140.0225,42.563809],[140.022634,42.564488],[140.02264,42.565143],[140.022565,42.565358],[140.022282,42.565666],[140.021948,42.566176],[140.021898,42.566524],[140.021962,42.566767],[140.021919,42.567855],[140.021614,42.569408],[140.021614,42.569904],[140.021704,42.570789],[140.021668,42.571281],[140.021794,42.571601],[140.021789,42.571794],[140.021627,42.572039],[140.020842,42.57273],[140.020404,42.572973],[140.019244,42.573284],[140.018544,42.573537],[140.017592,42.573742],[140.017366,42.573839],[140.016946,42.574302],[140.016698,42.574463],[140.014816,42.575311],[140.014135,42.575528],[140.013319,42.57597],[140.012686,42.576453],[140.012284,42.576873],[140.011629,42.577186],[140.011338,42.57738],[140.01066,42.578176],[140.010628,42.578284],[140.010682,42.578499],[140.011005,42.579231],[140.011069,42.579489],[140.010967,42.57971],[140.010865,42.579818],[140.010316,42.580146],[140.009517,42.580497],[140.009046,42.580813],[140.008712,42.580931],[140.008184,42.580985],[140.007474,42.58119],[140.005569,42.581276],[140.005171,42.581372],[140.003514,42.581598],[140.002771,42.581513],[140.001339,42.581631],[140.001135,42.581534],[140.000631,42.581548],[140.000462,42.581685],[139.999867,42.582521],[139.999176,42.583704],[139.998839,42.5846],[139.997946,42.586381],[139.997761,42.587003],[139.997946,42.587751],[139.998014,42.588884],[139.99793,42.589108],[139.997508,42.58937],[139.992925,42.590889],[139.991577,42.591001],[139.990954,42.590988],[139.989185,42.590553],[139.988476,42.59021],[139.988239,42.589956],[139.988255,42.589467],[139.987981,42.588882],[139.987786,42.588648],[139.987304,42.588363],[139.98408,42.587536],[139.982632,42.586953],[139.982368,42.586783],[139.981151,42.58508],[139.977992,42.583694],[139.977169,42.583378],[139.975961,42.582181],[139.975261,42.58168],[139.974539,42.581418],[139.974385,42.581463],[139.974119,42.581816],[139.973871,42.581928],[139.973086,42.582123],[139.972314,42.582565],[139.971122,42.583016],[139.971005,42.583102],[139.970901,42.583345],[139.97086,42.583594],[139.970531,42.58442],[139.969619,42.585588],[139.968959,42.585866],[139.967857,42.58666],[139.967221,42.586968],[139.966643,42.58738],[139.965675,42.587692],[139.965338,42.587844],[139.963616,42.588139],[139.962546,42.588669],[139.960796,42.589172],[139.962256,42.589655],[139.964593,42.589752],[139.967357,42.589655],[139.969036,42.589703],[139.969694,42.589752],[139.970319,42.590117],[139.970977,42.590579],[139.971471,42.591211],[139.972809,42.593668],[139.9735,42.594276],[139.974309,42.594531],[139.974797,42.594548],[139.975253,42.594768],[139.97619,42.594492],[139.9768,42.594402],[139.976647,42.594622],[139.975474,42.595454],[139.975322,42.595826],[139.975269,42.59631],[139.975185,42.596468],[139.97472,42.596664],[139.974248,42.597221],[139.973921,42.597373],[139.973593,42.597655],[139.975047,42.597981],[139.978417,42.598619],[139.977743,42.600876],[139.977855,42.601064],[139.978339,42.601235],[139.982616,42.602169],[139.988303,42.603274],[139.987352,42.605657],[139.987457,42.60575],[139.9887,42.605984],[139.989037,42.606186],[139.989332,42.606777],[139.989311,42.607602],[139.989394,42.608132],[139.989583,42.60863],[139.98992,42.608988],[139.990237,42.609159],[139.990508,42.609223],[139.990968,42.609236],[139.991474,42.609059],[139.991611,42.609057],[139.99176,42.609104],[139.992298,42.609533],[139.992581,42.609539],[139.992743,42.609435],[139.992757,42.609368],[139.992497,42.607136],[139.992538,42.606923],[139.992652,42.606843],[139.998219,42.606637],[139.998255,42.605041],[140.003195,42.60614],[140.004459,42.604692],[140.005282,42.604266],[140.007175,42.602807],[140.008574,42.602929],[140.009356,42.602807],[140.009973,42.602412],[140.010188,42.602201],[140.011346,42.602259],[140.012505,42.598718],[140.012768,42.597571],[140.012801,42.597139],[140.013243,42.597088],[140.013685,42.597167],[140.013875,42.597308],[140.01402,42.597611],[140.014233,42.597808],[140.01565,42.598512],[140.016229,42.598923],[140.01645,42.599204],[140.016549,42.599565],[140.016648,42.599739],[140.017158,42.600234],[140.017463,42.601304],[140.017455,42.601585],[140.017356,42.602052],[140.017356,42.602536],[140.017946,42.603382],[140.018094,42.604005],[140.018194,42.604129],[140.018475,42.604298],[140.018536,42.604405],[140.018468,42.604652],[140.018201,42.605187],[140.018125,42.605846],[140.017889,42.606431],[140.017904,42.606639],[140.018262,42.606949],[140.019663,42.607529],[140.020562,42.608159],[140.021026,42.608699],[140.021514,42.609391],[140.021933,42.609836],[140.022207,42.609966],[140.023936,42.610163],[140.024751,42.610461],[140.024934,42.610562],[140.025314,42.610906],[140.025512,42.611271],[140.025657,42.611412],[140.025924,42.61157],[140.026342,42.611592],[140.027081,42.611435],[140.027264,42.611435],[140.027858,42.61166],[140.028384,42.611992],[140.028475,42.612116],[140.028521,42.612296],[140.028544,42.612966],[140.028597,42.613123],[140.029077,42.61354],[140.029191,42.613782],[140.029161,42.614705],[140.029206,42.614817],[140.029709,42.615301],[140.03028,42.615729],[140.030341,42.615847],[140.030333,42.61605],[140.030173,42.616421],[140.030135,42.617845],[140.030166,42.617947],[140.030409,42.618138],[140.031011,42.618324],[140.031445,42.618601],[140.031643,42.618605],[140.032085,42.618161],[140.032595,42.618127],[140.032763,42.618172],[140.033471,42.618628],[140.034088,42.618937],[140.034865,42.619663],[140.035505,42.619838],[140.035683,42.619745],[140.035788,42.618251],[140.03661,42.616866],[140.036989,42.616353],[140.037052,42.615388],[140.037136,42.61503],[140.037738,42.613704],[140.038096,42.612661],[140.038201,42.612147],[140.038328,42.610264],[140.038707,42.608023],[140.038812,42.607774],[140.039339,42.607292],[140.040582,42.605673],[140.043062,42.60357],[140.043442,42.603009],[140.043779,42.60206],[140.0438,42.601686],[140.043715,42.600706],[140.043484,42.600177],[140.043041,42.599757],[140.041693,42.598963],[140.038913,42.598123],[140.038112,42.597811],[140.037459,42.597298],[140.036731,42.596051],[140.035593,42.594494],[140.035151,42.594105],[140.035088,42.593498],[140.03513,42.592736],[140.035909,42.590728],[140.036057,42.589001],[140.039688,42.591507],[140.041542,42.592286],[140.042069,42.592317],[140.04348,42.592177],[140.045102,42.591757],[140.046492,42.591772],[140.047209,42.591897],[140.049589,42.592799],[140.050031,42.592893],[140.051042,42.592768],[140.053444,42.592737],[140.05357,42.592877],[140.054328,42.595009],[140.055394,42.59649],[140.056258,42.597968],[140.058322,42.600054],[140.059376,42.60063],[140.059755,42.600739],[140.06064,42.601657],[140.061293,42.602155],[140.061988,42.602855],[140.062327,42.603557],[140.062916,42.604039],[140.063338,42.604646],[140.063485,42.605658],[140.06378,42.606093],[140.064707,42.606716],[140.065213,42.607245],[140.06532,42.607589],[140.065152,42.608772],[140.065152,42.609146],[140.065679,42.610453],[140.065847,42.610655],[140.067807,42.611667],[140.06926,42.612149],[140.068922,42.612257],[140.068384,42.612195],[140.068075,42.612245],[140.067854,42.612389],[140.067541,42.612675],[140.067379,42.612891],[140.066997,42.613642],[140.066305,42.614684],[140.066282,42.614835],[140.066139,42.615127],[140.065547,42.615422],[140.06535,42.615576],[140.064675,42.61657],[140.064443,42.616834],[140.064281,42.616959],[140.063721,42.617215],[140.061898,42.61879],[140.061068,42.619348],[140.060478,42.620207],[140.060067,42.620605],[140.059635,42.621491],[140.059406,42.622577],[140.059243,42.623752],[140.059194,42.625066],[140.059433,42.625674],[140.060143,42.62691],[140.060379,42.627657],[140.060328,42.628117],[140.059941,42.629375],[140.059941,42.62991],[140.060042,42.630271],[140.061003,42.631516],[140.061367,42.632165],[140.061755,42.634469],[140.062109,42.635203],[140.062632,42.635664],[140.063812,42.636149],[140.065548,42.63706],[140.066273,42.637384],[140.06651,42.637707],[140.067302,42.6395],[140.067606,42.639986],[140.067572,42.64016],[140.066021,42.641853],[140.065784,42.643385],[140.065778,42.644843],[140.065711,42.645005],[140.064345,42.645789],[140.063957,42.6461],[140.063687,42.646549],[140.062886,42.649489],[140.062396,42.65173],[140.062312,42.651991],[140.061654,42.653236],[140.061384,42.653572],[140.060929,42.653734],[140.059786,42.65401],[140.059415,42.654085],[140.058049,42.654122],[140.057441,42.654184],[140.05702,42.654309],[140.05675,42.654608],[140.056699,42.655218],[140.056716,42.656276],[140.056665,42.656712],[140.056581,42.656986],[140.056159,42.657446],[140.055721,42.657645],[140.054388,42.657919],[140.05368,42.657919],[140.052027,42.658168],[140.050694,42.658629],[140.050323,42.658803],[140.050036,42.659052],[140.049884,42.65904],[140.048518,42.658094],[140.048181,42.657733],[140.047086,42.655253],[140.046564,42.654854],[140.045771,42.654531],[140.045231,42.654406],[140.043055,42.654394],[140.042263,42.654244],[140.041352,42.653622],[140.037977,42.650439],[140.036725,42.649678],[140.037534,42.649671],[140.038165,42.649573],[140.038601,42.649416],[140.039071,42.649177],[140.039489,42.648886],[140.040373,42.648073],[140.040661,42.647687],[140.040775,42.64744],[140.040911,42.646748],[140.041207,42.646127],[140.042177,42.644665],[140.042379,42.644143],[140.042344,42.644016],[140.04237,42.643282],[140.042316,42.643139],[140.041517,42.642581],[140.039434,42.640868],[140.036547,42.637312],[140.036352,42.636994],[140.036363,42.636539],[140.037,42.635559],[140.03695,42.635239],[140.03614,42.633311],[140.035212,42.631821],[140.034068,42.631398],[140.033324,42.630936],[140.032806,42.630538],[140.032363,42.630498],[140.032007,42.630554],[140.029344,42.63245],[140.029236,42.632434],[140.029053,42.632171],[140.028491,42.631614],[140.027656,42.631613],[140.027321,42.631494],[140.026285,42.630793],[140.025875,42.630777],[140.025443,42.631055],[140.024386,42.632211],[140.024216,42.63229],[140.023742,42.632274],[140.023429,42.632171],[140.021702,42.630713],[140.020936,42.630434],[140.020407,42.630362],[140.02017,42.630458],[140.020181,42.630625],[140.020569,42.631246],[140.020893,42.632043],[140.020893,42.632131],[140.019305,42.63341],[140.017316,42.634854],[140.01713,42.634841],[140.01568,42.633945],[140.014854,42.633584],[140.014467,42.633509],[140.01219,42.633534],[140.010976,42.633758],[140.010201,42.633795],[140.008878,42.633708],[140.008777,42.632861],[140.008642,42.63245],[140.007361,42.630981],[140.007023,42.630769],[140.005658,42.630371],[140.004511,42.630147],[140.000948,42.630072],[139.997644,42.630171],[139.998065,42.630956],[139.998166,42.631915],[139.997951,42.633946],[139.998103,42.63427],[139.998322,42.634519],[139.99957,42.635627],[140.001223,42.637034],[140.001543,42.63742],[140.00183,42.638117],[140.002116,42.639511],[140.001729,42.639424],[140.000045,42.638504],[139.999016,42.638192],[139.998493,42.63813],[139.997954,42.638342],[139.997515,42.63874],[139.997212,42.639139],[139.99647,42.640309],[139.996065,42.641118],[139.995829,42.641766],[139.995609,42.642102],[139.995222,42.643123],[139.995137,42.643683],[139.994851,42.643646],[139.993904,42.643316],[139.993377,42.642382],[139.992418,42.641861],[139.991048,42.642056],[139.988149,42.642289],[139.987411,42.642698],[139.986105,42.643712],[139.983838,42.64591],[139.981071,42.646766],[139.981466,42.648225],[139.981651,42.649665],[139.981809,42.650365],[139.982837,42.652252],[139.982995,42.652466],[139.984888,42.653091],[139.985204,42.653285],[139.98668,42.655036],[139.988326,42.656884],[139.989617,42.659374],[139.989749,42.659724],[139.989841,42.661848],[139.989946,42.662081],[139.99021,42.663034],[139.990183,42.663365],[139.989762,42.664474],[139.989814,42.665875],[139.989893,42.666147],[139.990447,42.666808],[139.987811,42.668034],[139.987284,42.668112],[139.984312,42.667602],[139.982335,42.667633],[139.980728,42.667268],[139.977804,42.666326],[139.977269,42.666265],[139.974839,42.666326],[139.974427,42.666265],[139.972986,42.66587],[139.970514,42.66587],[139.969897,42.665718],[139.968043,42.665049],[139.96689,42.664532],[139.964748,42.663924],[139.961783,42.660885],[139.960125,42.660018],[139.959097,42.659824],[139.957594,42.659415],[139.956461,42.658968],[139.955431,42.658454],[139.954484,42.65812],[139.953948,42.65815],[139.953701,42.658545],[139.953877,42.659427],[139.954124,42.661677],[139.954742,42.665324],[139.954536,42.66654],[139.95433,42.666813],[139.952724,42.66733],[139.948234,42.668455],[139.947822,42.668364],[139.945104,42.6673],[139.94358,42.667756]]],[[[139.802348,42.363753],[139.802503,42.364205],[139.802394,42.364283],[139.802391,42.364384],[139.802434,42.364456],[139.802425,42.364627],[139.802484,42.364709],[139.802452,42.364815],[139.8025,42.364881],[139.802436,42.364983],[139.802478,42.365079],[139.802435,42.365137],[139.802454,42.365255],[139.802368,42.365314],[139.802398,42.365394],[139.802322,42.365442],[139.802316,42.3655],[139.802431,42.365642],[139.802376,42.365739],[139.802423,42.365811],[139.802408,42.366101],[139.802575,42.366352],[139.799223,42.366325],[139.797009,42.365595],[139.795288,42.364623],[139.794304,42.363863],[139.793525,42.362556],[139.792746,42.362221],[139.790492,42.361552],[139.789549,42.361036],[139.7875,42.360093],[139.78627,42.35909],[139.785781,42.358538],[139.781601,42.358021],[139.778896,42.357565],[139.776806,42.356897],[139.77615,42.356593],[139.774839,42.355377],[139.774347,42.354374],[139.774142,42.35337],[139.774101,42.352398],[139.774347,42.351212],[139.774634,42.350665],[139.775617,42.349692],[139.777052,42.348811],[139.778117,42.348507],[139.779173,42.348286],[139.779254,42.348556],[139.779344,42.348638],[139.779307,42.348741],[139.779387,42.348886],[139.779378,42.34896],[139.779467,42.349035],[139.779499,42.349205],[139.779601,42.349251],[139.779634,42.349433],[139.779688,42.349474],[139.779686,42.349742],[139.779759,42.349813],[139.779725,42.349951],[139.779835,42.350055],[139.77982,42.350146],[139.779918,42.350225],[139.779919,42.350304],[139.780001,42.350404],[139.780011,42.350972],[139.780061,42.351014],[139.780072,42.351208],[139.780139,42.351269],[139.780113,42.351355],[139.780162,42.351435],[139.780124,42.351468],[139.780155,42.351577],[139.780243,42.351625],[139.780221,42.351698],[139.780308,42.35178],[139.780336,42.351906],[139.780407,42.351927],[139.780392,42.352044],[139.78052,42.352116],[139.780602,42.352285],[139.780598,42.352406],[139.782382,42.350671],[139.782738,42.350438],[139.784291,42.350609],[139.786557,42.35078],[139.786333,42.352126],[139.787536,42.35223],[139.788342,42.352453],[139.78875,42.352636],[139.790748,42.353863],[139.791479,42.354413],[139.79193,42.354636],[139.792854,42.354915],[139.795224,42.355354],[139.796105,42.355426],[139.796428,42.355522],[139.796904,42.355745],[139.797592,42.356702],[139.798215,42.357283],[139.799665,42.358789],[139.800428,42.359029],[139.802313,42.359795],[139.802721,42.360217],[139.80299,42.360807],[139.803205,42.361429],[139.802485,42.361484],[139.801644,42.361723],[139.801575,42.361779],[139.80168,42.362139],[139.801652,42.362228],[139.801686,42.362278],[139.801931,42.36236],[139.802003,42.362447],[139.802005,42.362709],[139.802077,42.362944],[139.801941,42.362973],[139.801968,42.363052],[139.801859,42.363102],[139.801837,42.36322],[139.801905,42.363293],[139.802058,42.363318],[139.802037,42.36337],[139.802092,42.363435],[139.802194,42.363449],[139.802348,42.363753]]],[[[139.842673,42.41777],[139.842542,42.417945],[139.842542,42.418178],[139.843566,42.420435],[139.841966,42.420928],[139.842095,42.421767],[139.842268,42.42214],[139.842474,42.422848],[139.842851,42.423794],[139.842752,42.423974],[139.842317,42.42419],[139.841788,42.424673],[139.841558,42.425062],[139.841197,42.42511],[139.840278,42.425037],[139.838243,42.424381],[139.837095,42.423821],[139.836209,42.423092],[139.835257,42.421998],[139.834764,42.420709],[139.834469,42.419225],[139.834535,42.417985],[139.834436,42.417304],[139.833747,42.41621],[139.832631,42.414921],[139.831187,42.412295],[139.829874,42.408668],[139.829743,42.406261],[139.829546,42.405191],[139.826888,42.402783],[139.824714,42.399911],[139.823828,42.397747],[139.823238,42.395996],[139.823106,42.395096],[139.816895,42.393975],[139.814795,42.393123],[139.813286,42.392394],[139.811711,42.390959],[139.811087,42.38967],[139.811022,42.388916],[139.811416,42.386971],[139.810507,42.386385],[139.8089,42.384974],[139.808146,42.38388],[139.807785,42.38298],[139.807883,42.381351],[139.808408,42.380232],[139.809228,42.379478],[139.810278,42.3787],[139.811295,42.378092],[139.815974,42.37683],[139.81619,42.377368],[139.816623,42.377937],[139.816956,42.378764],[139.816964,42.379006],[139.817176,42.37967],[139.817154,42.379907],[139.817059,42.380152],[139.816434,42.380138],[139.81631,42.38114],[139.816691,42.381176],[139.816863,42.381262],[139.817186,42.381813],[139.817358,42.382017],[139.819035,42.382619],[139.819476,42.382852],[139.819623,42.383101],[139.819896,42.383801],[139.820211,42.384284],[139.820211,42.384611],[139.820337,42.385093],[139.820798,42.386521],[139.820749,42.387325],[139.820792,42.388059],[139.820947,42.388256],[139.82111,42.388339],[139.821647,42.388297],[139.821799,42.388212],[139.823063,42.38732],[139.823736,42.386987],[139.823808,42.386893],[139.823732,42.386863],[139.823687,42.386747],[139.823765,42.386656],[139.824578,42.38638],[139.824854,42.386348],[139.825125,42.386397],[139.825757,42.386717],[139.825922,42.386866],[139.82676,42.386918],[139.826784,42.386708],[139.827599,42.384934],[139.827864,42.384522],[139.828128,42.384258],[139.82858,42.383937],[139.829048,42.383744],[139.829542,42.383633],[139.829906,42.383612],[139.830774,42.383718],[139.831386,42.383937],[139.832501,42.38458],[139.832557,42.384776],[139.832392,42.386002],[139.832427,42.386312],[139.832794,42.387216],[139.832914,42.387767],[139.833236,42.388684],[139.833661,42.38939],[139.834161,42.389828],[139.834743,42.390107],[139.835663,42.390372],[139.836193,42.39062],[139.836614,42.391477],[139.836789,42.391946],[139.837,42.392843],[139.837077,42.393728],[139.834832,42.394262],[139.834244,42.393217],[139.831959,42.393901],[139.83201,42.394088],[139.832581,42.394947],[139.833572,42.396105],[139.834227,42.397051],[139.834426,42.398162],[139.834544,42.398486],[139.835854,42.40069],[139.83656,42.402632],[139.836644,42.403454],[139.837702,42.404026],[139.837803,42.403902],[139.837803,42.403404],[139.837937,42.403416],[139.838088,42.403528],[139.840679,42.406892],[139.841946,42.408662],[139.84198,42.408873],[139.841577,42.409795],[139.841392,42.410791],[139.841426,42.411027],[139.841694,42.411401],[139.841795,42.411638],[139.841812,42.412185],[139.841896,42.41241],[139.843576,42.414676],[139.843896,42.414912],[139.844265,42.415012],[139.845141,42.414949],[139.845719,42.415649],[139.844747,42.416739],[139.845167,42.417828],[139.845167,42.418042],[139.844931,42.418217],[139.843224,42.417614],[139.842673,42.41777]]],[[[139.847656,42.456171],[139.84782,42.456281],[139.848128,42.456734],[139.848719,42.457107],[139.848864,42.457446],[139.849574,42.458012],[139.849366,42.458221],[139.849383,42.458283],[139.850109,42.459019],[139.850641,42.459824],[139.851188,42.460409],[139.852211,42.462246],[139.852214,42.462427],[139.852002,42.462646],[139.851955,42.462759],[139.85228,42.463174],[139.852631,42.463499],[139.852715,42.463708],[139.852761,42.464107],[139.852912,42.464727],[139.852935,42.465717],[139.852574,42.466667],[139.852449,42.466731],[139.851784,42.466793],[139.850496,42.466754],[139.849472,42.466521],[139.847842,42.465898],[139.846923,42.465315],[139.846397,42.464731],[139.845662,42.463408],[139.845375,42.462667],[139.84506,42.46255],[139.84372,42.461733],[139.843405,42.46146],[139.8428,42.460546],[139.842748,42.460215],[139.842932,42.459243],[139.843168,42.458698],[139.843983,42.457609],[139.844928,42.456869],[139.84539,42.456584],[139.846046,42.456297],[139.847305,42.456106],[139.847656,42.456171]]],[[[139.846382,42.498486],[139.846086,42.498686],[139.845844,42.498775],[139.845561,42.498755],[139.84544,42.498646],[139.845413,42.497939],[139.845534,42.49754],[139.84575,42.497092],[139.846194,42.496444],[139.846423,42.496255],[139.846853,42.496136],[139.848347,42.496066],[139.848392,42.495361],[139.848526,42.494751],[139.848846,42.494402],[139.849294,42.494105],[139.849657,42.49408],[139.849884,42.494187],[139.850208,42.494238],[139.851566,42.494238],[139.851766,42.494182],[139.851841,42.49406],[139.851779,42.49357],[139.851724,42.493529],[139.850842,42.493586],[139.850443,42.493545],[139.850511,42.493336],[139.850511,42.492714],[139.850449,42.492606],[139.849877,42.492091],[139.849781,42.491928],[139.849805,42.491423],[139.849647,42.49127],[139.849219,42.490637],[139.849164,42.490102],[139.84901,42.489662],[139.848996,42.489489],[139.849106,42.489367],[139.849306,42.48929],[139.849368,42.489188],[139.849368,42.489066],[139.849251,42.48876],[139.849251,42.488551],[139.849501,42.487668],[139.849507,42.487515],[139.849466,42.487433],[139.849039,42.4873],[139.848901,42.487209],[139.848798,42.486648],[139.848777,42.485908],[139.849149,42.485832],[139.849439,42.485674],[139.849912,42.48525],[139.849885,42.48503],[139.849416,42.484719],[139.849347,42.484597],[139.849396,42.48451],[139.849898,42.484316],[139.849988,42.48423],[139.849905,42.483995],[139.849534,42.483622],[139.849479,42.483429],[139.850588,42.483408],[139.85065,42.483332],[139.850648,42.482937],[139.850078,42.482905],[139.849389,42.48273],[139.849389,42.482419],[139.849539,42.482124],[139.849582,42.481869],[139.849066,42.481846],[139.84829,42.481296],[139.848151,42.481256],[139.848097,42.481312],[139.847989,42.481877],[139.848075,42.481989],[139.848323,42.482109],[139.848387,42.48222],[139.848334,42.482626],[139.84789,42.482578],[139.847278,42.481815],[139.847289,42.481097],[139.847558,42.480371],[139.848141,42.479191],[139.848238,42.479071],[139.849358,42.479143],[139.849649,42.479079],[139.849702,42.478928],[139.849692,42.478768],[139.849229,42.478625],[139.849189,42.478449],[139.849285,42.478067],[139.84935,42.477987],[139.849455,42.477953],[139.84992,42.477995],[139.849996,42.477939],[139.85001,42.477368],[139.849879,42.477352],[139.849396,42.477505],[139.849272,42.47748],[139.849123,42.477301],[139.848907,42.477252],[139.848831,42.476817],[139.849349,42.476871],[139.849683,42.476855],[139.849694,42.476719],[139.849672,42.476441],[139.849145,42.476241],[139.848983,42.47605],[139.848856,42.475771],[139.849127,42.475225],[139.850307,42.474791],[139.850641,42.475245],[139.850663,42.475357],[139.849952,42.47558],[139.849909,42.475676],[139.850017,42.475739],[139.85091,42.475723],[139.851029,42.475628],[139.851477,42.47483],[139.851444,42.47448],[139.851358,42.474257],[139.851229,42.474225],[139.851186,42.474161],[139.851197,42.47389],[139.851272,42.473715],[139.851197,42.473508],[139.850981,42.473292],[139.850947,42.473132],[139.851014,42.472793],[139.851356,42.472256],[139.851463,42.472216],[139.851991,42.472264],[139.852077,42.472957],[139.852141,42.473124],[139.852271,42.473236],[139.85283,42.473411],[139.853035,42.473316],[139.854671,42.472861],[139.854822,42.472782],[139.854262,42.471674],[139.852176,42.471442],[139.852279,42.471011],[139.852212,42.470452],[139.852093,42.47007],[139.851693,42.469587],[139.851641,42.469292],[139.85178,42.469008],[139.85305,42.467611],[139.853352,42.467059],[139.853446,42.466714],[139.853794,42.463853],[139.853778,42.463451],[139.853421,42.461854],[139.853111,42.460978],[139.852688,42.460209],[139.852315,42.459755],[139.851977,42.459433],[139.851064,42.458737],[139.850474,42.45813],[139.85,42.457545],[139.849864,42.457244],[139.849838,42.457066],[139.849824,42.456165],[139.850413,42.455929],[139.852914,42.455841],[139.853425,42.455871],[139.854084,42.45614],[139.854595,42.456409],[139.855053,42.456917],[139.855604,42.457017],[139.85586,42.456997],[139.856196,42.456788],[139.857393,42.456549],[139.858079,42.456568],[139.858294,42.456648],[139.858564,42.456967],[139.859055,42.457742],[139.859485,42.458157],[139.8602,42.458635],[139.86051,42.458902],[139.861256,42.459936],[139.861243,42.460105],[139.86038,42.460386],[139.85921,42.460386],[139.859183,42.460455],[139.859479,42.460884],[139.860003,42.461282],[139.860138,42.461541],[139.860165,42.46177],[139.860299,42.46194],[139.860434,42.462258],[139.861079,42.462836],[139.861079,42.462946],[139.859102,42.463673],[139.857551,42.464371],[139.85704,42.46475],[139.856704,42.465109],[139.856368,42.465607],[139.856085,42.466901],[139.855897,42.46717],[139.855654,42.467818],[139.855506,42.467838],[139.855197,42.467768],[139.854672,42.467738],[139.85443,42.467887],[139.854215,42.468515],[139.852753,42.469572],[139.852793,42.469682],[139.853076,42.469761],[139.853372,42.469761],[139.853802,42.469552],[139.854784,42.469223],[139.855188,42.469174],[139.855699,42.469204],[139.855726,42.469313],[139.855672,42.4701],[139.857018,42.470289],[139.857031,42.470399],[139.856937,42.470508],[139.856264,42.470628],[139.85578,42.470678],[139.855,42.470598],[139.853425,42.470787],[139.853385,42.470857],[139.853573,42.470967],[139.854381,42.471365],[139.85465,42.471445],[139.855269,42.471943],[139.855998,42.472422],[139.8555,42.47285],[139.855218,42.473707],[139.854922,42.473836],[139.853764,42.473966],[139.853192,42.473927],[139.852546,42.473967],[139.852304,42.474067],[139.852048,42.474365],[139.851981,42.474654],[139.852008,42.474993],[139.852115,42.475212],[139.852452,42.475501],[139.853595,42.476009],[139.854403,42.476278],[139.854645,42.476298],[139.855156,42.476128],[139.855748,42.476158],[139.856192,42.476786],[139.856233,42.477264],[139.856125,42.477393],[139.8556,42.477573],[139.854793,42.477682],[139.85447,42.477672],[139.85221,42.477164],[139.85058,42.476995],[139.850365,42.477115],[139.850391,42.477314],[139.85069,42.477614],[139.851081,42.477853],[139.851525,42.477962],[139.854687,42.478161],[139.857459,42.47852],[139.858939,42.478849],[139.858966,42.479028],[139.858899,42.479167],[139.858549,42.479207],[139.858038,42.479177],[139.857446,42.479466],[139.855252,42.479466],[139.854741,42.479715],[139.854364,42.479765],[139.851764,42.479805],[139.851266,42.479885],[139.850849,42.480134],[139.85058,42.480393],[139.849826,42.480672],[139.849799,42.480781],[139.849907,42.480881],[139.850297,42.480961],[139.850741,42.480911],[139.85097,42.480981],[139.851334,42.481509],[139.851832,42.481908],[139.852168,42.482247],[139.853123,42.483502],[139.853325,42.483612],[139.85346,42.483871],[139.853419,42.484189],[139.853339,42.484269],[139.852545,42.484309],[139.852343,42.484827],[139.851764,42.484837],[139.851683,42.484877],[139.851764,42.485524],[139.852491,42.486132],[139.852464,42.486261],[139.851847,42.487219],[139.851645,42.487996],[139.851497,42.488773],[139.851484,42.490048],[139.851632,42.490566],[139.852453,42.491592],[139.852695,42.491761],[139.853274,42.49195],[139.853233,42.492379],[139.852722,42.492558],[139.852722,42.493016],[139.854418,42.493895],[139.854418,42.494442],[139.854189,42.496136],[139.853301,42.496514],[139.853193,42.496614],[139.853166,42.496803],[139.853274,42.497052],[139.85326,42.497132],[139.852587,42.497062],[139.852116,42.496863],[139.851699,42.496773],[139.85143,42.496753],[139.850514,42.496923],[139.848711,42.497411],[139.847419,42.49755],[139.847378,42.497749],[139.847607,42.497988],[139.847634,42.498198],[139.847526,42.498377],[139.847324,42.498526],[139.847042,42.498556],[139.846598,42.498456],[139.846382,42.498486]]],[[[139.847872,42.512565],[139.849406,42.513126],[139.848213,42.515704],[139.847562,42.517352],[139.847513,42.517377],[139.847176,42.517144],[139.846097,42.516822],[139.846103,42.516059],[139.846709,42.51605],[139.846817,42.514726],[139.846998,42.513999],[139.845577,42.513878],[139.845645,42.512558],[139.843623,42.512876],[139.843235,42.513765],[139.843093,42.513848],[139.842925,42.513873],[139.842868,42.513937],[139.84286,42.514156],[139.842905,42.514228],[139.843324,42.514306],[139.843374,42.514773],[139.842869,42.514774],[139.842631,42.514578],[139.842579,42.514629],[139.842836,42.514841],[139.843677,42.514855],[139.844017,42.516001],[139.844022,42.516989],[139.842758,42.51688],[139.840886,42.516382],[139.839338,42.515764],[139.838207,42.515226],[139.837372,42.514539],[139.836726,42.513912],[139.836093,42.513085],[139.835689,42.512248],[139.835595,42.51178],[139.835581,42.511202],[139.835655,42.509806],[139.835898,42.509228],[139.835911,42.50891],[139.836153,42.507953],[139.837204,42.506459],[139.838065,42.505603],[139.838317,42.505432],[139.838304,42.505292],[139.837994,42.504555],[139.837967,42.503639],[139.838021,42.502812],[139.838196,42.502055],[139.83829,42.501826],[139.839004,42.501049],[139.839512,42.500619],[139.840158,42.500171],[139.840615,42.500001],[139.842284,42.499533],[139.842567,42.50025],[139.842796,42.500659],[139.84285,42.501007],[139.843011,42.501127],[139.843667,42.501368],[139.843644,42.501494],[139.843724,42.501563],[139.843888,42.501569],[139.844905,42.50191],[139.845117,42.502046],[139.845264,42.502257],[139.845273,42.502488],[139.845209,42.50259],[139.844961,42.502665],[139.844777,42.502991],[139.84474,42.503263],[139.844905,42.503474],[139.845183,42.503645],[139.846675,42.503548],[139.847063,42.50349],[139.847149,42.503375],[139.847347,42.503369],[139.847528,42.503497],[139.849484,42.503579],[139.84976,42.503535],[139.849854,42.503356],[139.849801,42.50305],[139.848112,42.503082],[139.848061,42.503012],[139.847992,42.502527],[139.848035,42.502457],[139.849198,42.502476],[139.850094,42.502668],[139.851085,42.50247],[139.851283,42.502476],[139.853072,42.503274],[139.854502,42.503446],[139.855803,42.503484],[139.855803,42.503593],[139.855364,42.504555],[139.855373,42.504823],[139.855683,42.50562],[139.855726,42.505958],[139.855674,42.506028],[139.853909,42.506985],[139.85384,42.5071],[139.853806,42.507846],[139.853065,42.507629],[139.852807,42.507463],[139.852634,42.507514],[139.852557,42.507661],[139.852617,42.508222],[139.85396,42.510097],[139.85452,42.511359],[139.854477,42.51141],[139.853598,42.511442],[139.850867,42.51141],[139.848372,42.511303],[139.848277,42.511392],[139.847838,42.512457],[139.847872,42.512565]]],[[[139.836121,42.554651],[139.836009,42.554838],[139.835999,42.554963],[139.835934,42.555016],[139.835926,42.555152],[139.835823,42.555202],[139.835786,42.555322],[139.835688,42.555404],[139.835607,42.555704],[139.835522,42.555802],[139.835491,42.55677],[139.835566,42.55688],[139.835564,42.557008],[139.835664,42.557104],[139.835631,42.557256],[139.835736,42.557508],[139.835707,42.557626],[139.835758,42.557685],[139.835741,42.557786],[139.835814,42.557858],[139.83576,42.558007],[139.835829,42.55808],[139.835797,42.558178],[139.835839,42.558249],[139.835788,42.558341],[139.835801,42.558604],[139.835703,42.55876],[139.835744,42.558874],[139.83569,42.558934],[139.835711,42.559099],[139.835654,42.559306],[139.835541,42.559509],[139.835449,42.559579],[139.833485,42.559057],[139.832827,42.558707],[139.831722,42.558007],[139.83088,42.557228],[139.830064,42.555944],[139.82917,42.553591],[139.828985,42.55217],[139.829196,42.550634],[139.829591,42.549272],[139.83038,42.547576],[139.831617,42.545845],[139.831932,42.545514],[139.831327,42.544483],[139.831275,42.544036],[139.831248,42.542868],[139.831827,42.540884],[139.832011,42.540417],[139.833966,42.53736],[139.834807,42.536698],[139.836228,42.536037],[139.837201,42.53592],[139.839201,42.535901],[139.841121,42.536154],[139.839964,42.538274],[139.839518,42.539589],[139.839333,42.539987],[139.839303,42.540224],[139.840048,42.540147],[139.840792,42.54037],[139.840953,42.540569],[139.841061,42.541558],[139.842004,42.543948],[139.842644,42.544807],[139.844564,42.546712],[139.844665,42.547148],[139.844665,42.547496],[139.844479,42.547982],[139.843982,42.548457],[139.843191,42.549466],[139.84213,42.55106],[139.841254,42.552105],[139.840277,42.553824],[139.839823,42.553774],[139.838054,42.553263],[139.837886,42.553363],[139.837246,42.554869],[139.836121,42.554651]]],[[[140.108922,42.66669],[140.108304,42.666568],[140.103362,42.666021],[140.102456,42.665535],[140.101879,42.665535],[140.100397,42.665717],[140.09912,42.666051],[140.097596,42.666051],[140.095825,42.665839],[140.08932,42.665963],[140.089175,42.666501],[140.088306,42.665578],[140.087273,42.664116],[140.086936,42.662995],[140.086936,42.662606],[140.08702,42.662015],[140.087168,42.661532],[140.087315,42.660567],[140.087168,42.660194],[140.086788,42.658824],[140.086725,42.658435],[140.08672,42.657889],[140.08594,42.655912],[140.085582,42.655165],[140.085139,42.654838],[140.084707,42.654167],[140.083716,42.653513],[140.083463,42.652875],[140.083484,42.652377],[140.083716,42.651521],[140.084117,42.650541],[140.084285,42.649669],[140.084412,42.649296],[140.085656,42.647055],[140.086267,42.646368],[140.087975,42.644967],[140.088439,42.643473],[140.088629,42.64257],[140.088755,42.642353],[140.091239,42.640156],[140.091303,42.639923],[140.091303,42.63916],[140.091029,42.638164],[140.090291,42.637308],[140.090207,42.636935],[140.09008,42.63625],[140.090164,42.635145],[140.090734,42.634056],[140.091493,42.632917],[140.091893,42.631299],[140.092673,42.630256],[140.093179,42.629462],[140.093474,42.629182],[140.093895,42.628887],[140.094317,42.628233],[140.094507,42.627735],[140.093518,42.625568],[140.093582,42.624339],[140.09375,42.624152],[140.096258,42.623514],[140.096764,42.623187],[140.097206,42.622611],[140.097544,42.621631],[140.097754,42.621289],[140.098155,42.621102],[140.098576,42.621055],[140.099229,42.621444],[140.100494,42.621958],[140.102749,42.62325],[140.103992,42.623499],[140.104245,42.62367],[140.104814,42.623841],[140.107808,42.624013],[140.111669,42.624581],[140.112506,42.623154],[140.113369,42.622138],[140.113976,42.62169],[140.11519,42.620963],[140.116504,42.620025],[140.117421,42.619189],[140.118972,42.618083],[140.120024,42.617595],[140.120509,42.617525],[140.120955,42.617395],[140.122857,42.616469],[140.124205,42.615672],[140.125203,42.615363],[140.128053,42.614665],[140.129564,42.614247],[140.130858,42.613639],[140.131856,42.613022],[140.132112,42.612763],[140.133975,42.610202],[140.134919,42.609007],[140.135755,42.608149],[140.136887,42.607382],[140.137413,42.607233],[140.139517,42.606864],[140.140218,42.606834],[140.141701,42.606516],[140.143729,42.606306],[140.146759,42.605648],[140.147133,42.605709],[140.147333,42.605929],[140.147663,42.606177],[140.14778,42.606544],[140.14771,42.607017],[140.147774,42.607265],[140.148733,42.607494],[140.150085,42.608004],[140.150285,42.608138],[140.150368,42.608253],[140.150397,42.608573],[140.150079,42.609269],[140.149997,42.609584],[140.149921,42.610328],[140.149303,42.611297],[140.149186,42.611707],[140.149315,42.612285],[140.149485,42.612666],[140.15005,42.613478],[140.150803,42.61437],[140.151026,42.614752],[140.151373,42.615654],[140.151311,42.615891],[140.151109,42.61623],[140.150664,42.616489],[140.150151,42.616558],[140.148749,42.616529],[140.14794,42.616568],[140.147279,42.616758],[140.146631,42.617066],[140.145809,42.617674],[140.14558,42.618023],[140.145378,42.618601],[140.14496,42.620932],[140.144528,42.62146],[140.144232,42.62156],[140.1438,42.621579],[140.141892,42.621864],[140.142997,42.6239],[140.14355,42.625498],[140.143946,42.627015],[140.14413,42.629311],[140.144367,42.631353],[140.144262,42.631898],[140.144051,42.632579],[140.143629,42.633649],[140.143392,42.633785],[140.142839,42.633902],[140.140599,42.633747],[140.138123,42.634233],[140.136621,42.634759],[140.136094,42.634992],[140.135646,42.634992],[140.135646,42.635478],[140.135567,42.635653],[140.134855,42.635945],[140.131571,42.637484],[140.131545,42.638709],[140.13115,42.640052],[140.130333,42.641102],[140.128857,42.642561],[140.126829,42.644156],[140.127909,42.645849],[140.12783,42.646082],[140.127224,42.646958],[140.126829,42.647716],[140.126618,42.648339],[140.126628,42.649821],[140.126549,42.65268],[140.126496,42.653128],[140.126154,42.654101],[140.126034,42.65669],[140.126165,42.658946],[140.124821,42.658946],[140.122107,42.659394],[140.119945,42.660036],[140.117626,42.66095],[140.115728,42.659121],[140.115573,42.659151],[140.114815,42.659492],[140.112015,42.661558],[140.110862,42.662799],[140.110334,42.66348],[140.11017,42.664355],[140.109745,42.665261],[140.108922,42.66669]]],[[[139.979054,42.694116],[139.977901,42.694603],[139.975511,42.695089],[139.972059,42.695211],[139.969834,42.694937],[139.967156,42.69442],[139.964931,42.693752],[139.964066,42.693326],[139.963571,42.693326],[139.962294,42.693691],[139.959451,42.694147],[139.957432,42.694177],[139.954025,42.693964],[139.951677,42.693751],[139.949864,42.693143],[139.948875,42.693386],[139.944384,42.694268],[139.94047,42.694511],[139.937874,42.694329],[139.935573,42.694023],[139.931659,42.69305],[139.929229,42.69302],[139.925603,42.692898],[139.923832,42.692503],[139.921689,42.691591],[139.92033,42.690801],[139.918723,42.689342],[139.917976,42.688291],[139.917614,42.687221],[139.917614,42.686321],[139.917745,42.685592],[139.917877,42.6853],[139.918616,42.684272],[139.919804,42.684895],[139.920543,42.685456],[139.921492,42.686363],[139.922314,42.686847],[139.922855,42.687045],[139.92331,42.687101],[139.923799,42.687032],[139.9243,42.686841],[139.92519,42.686261],[139.925568,42.685703],[139.925849,42.68513],[139.926227,42.684771],[139.926454,42.684819],[139.929413,42.686221],[139.92978,42.686205],[139.932682,42.685623],[139.932952,42.685647],[139.933622,42.685926],[139.935393,42.686269],[139.935728,42.686269],[139.937456,42.685998],[139.939173,42.685934],[139.939992,42.686532],[139.941137,42.687153],[139.943016,42.687352],[139.943243,42.687241],[139.943697,42.686619],[139.94387,42.686571],[139.945522,42.686763],[139.946442,42.686954],[139.94857,42.686827],[139.950687,42.686293],[139.952814,42.685823],[139.953549,42.685783],[139.955072,42.685847],[139.955763,42.685918],[139.955623,42.68599],[139.955407,42.686388],[139.95532,42.68646],[139.954111,42.686388],[139.953441,42.687145],[139.953765,42.687201],[139.956847,42.687217],[139.957646,42.687289],[139.959147,42.686636],[139.95932,42.686644],[139.960065,42.686931],[139.961081,42.687217],[139.961664,42.687321],[139.962323,42.687321],[139.96336,42.687576],[139.965988,42.687791],[139.967058,42.687727],[139.96736,42.687863],[139.968246,42.688134],[139.968624,42.688349],[139.968883,42.688309],[139.969725,42.688341],[139.971173,42.688468],[139.971561,42.688604],[139.973289,42.688747],[139.97344,42.688715],[139.974413,42.687934],[139.97505,42.687918],[139.97546,42.687966],[139.975709,42.687855],[139.976151,42.687456],[139.976508,42.687456],[139.976756,42.687393],[139.97734,42.686986],[139.97964,42.686276],[139.981749,42.685787],[139.982399,42.685833],[139.983449,42.686021],[139.984687,42.686297],[139.985475,42.686598],[139.986222,42.687129],[139.987536,42.687934],[139.988607,42.688419],[139.990017,42.689418],[139.989996,42.689485],[139.989706,42.68975],[139.989464,42.689877],[139.989305,42.689898],[139.988932,42.689775],[139.987758,42.689017],[139.987032,42.688432],[139.986087,42.687523],[139.985092,42.6871],[139.983421,42.686664],[139.982729,42.686652],[139.979219,42.687735],[139.979033,42.687872],[139.979168,42.688208],[139.979489,42.688345],[139.979931,42.688457],[139.980366,42.688444],[139.980805,42.688765],[139.981527,42.690226],[139.98165,42.691046],[139.981279,42.692049],[139.980579,42.692931],[139.979054,42.694116]]],[[[140.057583,42.701605],[140.058081,42.70164],[140.058688,42.701772],[140.059114,42.701927],[140.060168,42.702513],[140.060877,42.703031],[140.062113,42.703819],[140.061488,42.704365],[140.059721,42.70526],[140.05827,42.705571],[140.056767,42.705708],[140.055738,42.705669],[140.054498,42.705455],[140.05318,42.70493],[140.051937,42.704149],[140.050486,42.70269],[140.049484,42.70199],[140.048377,42.701134],[140.045792,42.699714],[140.04297,42.697944],[140.0397,42.696757],[140.034277,42.694402],[140.03019,42.692748],[140.029979,42.692787],[140.028027,42.694149],[140.026419,42.69483],[140.023896,42.69549],[140.021364,42.695781],[140.018345,42.695704],[140.017132,42.695509],[140.015708,42.695042],[140.013572,42.694108],[140.012254,42.693427],[140.009907,42.691677],[140.008562,42.69012],[140.007534,42.688292],[140.007191,42.687591],[140.007299,42.686355],[140.008418,42.686549],[140.008956,42.686705],[140.009905,42.687196],[140.011111,42.68768],[140.013675,42.687172],[140.013844,42.687047],[140.014224,42.686456],[140.014814,42.686238],[140.015101,42.685917],[140.015388,42.685183],[140.015608,42.68512],[140.015895,42.685469],[140.015861,42.685892],[140.015574,42.686478],[140.015625,42.686602],[140.016789,42.687374],[140.017093,42.687399],[140.017515,42.687299],[140.017886,42.687025],[140.01824,42.68649],[140.018038,42.686017],[140.020856,42.68527],[140.021565,42.686515],[140.021697,42.686639],[140.02281,42.686627],[140.023283,42.686764],[140.024093,42.687175],[140.026456,42.686727],[140.028397,42.686614],[140.029351,42.686639],[140.030027,42.686863],[140.031133,42.686956],[140.032228,42.687118],[140.032781,42.687356],[140.033891,42.687662],[140.034662,42.687705],[140.035446,42.6879],[140.03639,42.688368],[140.037151,42.688597],[140.037807,42.688716],[140.038188,42.688733],[140.039967,42.689762],[140.043066,42.691064],[140.043723,42.691498],[140.046402,42.693785],[140.046782,42.694049],[140.05419,42.697238],[140.0548,42.697561],[140.056448,42.698657],[140.056954,42.698881],[140.057029,42.701527],[140.057296,42.701605],[140.057583,42.701605]]],[[[140.085359,42.731674],[140.085221,42.731783],[140.085152,42.732089],[140.085214,42.732303],[140.085497,42.732512],[140.086362,42.732662],[140.08643,42.732751],[140.086109,42.73336],[140.084631,42.734294],[140.083977,42.734528],[140.082435,42.734668],[140.080324,42.73459],[140.079381,42.734481],[140.076658,42.73392],[140.074653,42.733189],[140.073302,42.732193],[140.071897,42.730541],[140.06985,42.730074],[140.068393,42.729638],[140.066557,42.728689],[140.065375,42.727802],[140.064362,42.726884],[140.062547,42.724798],[140.061597,42.722993],[140.060391,42.720344],[140.059715,42.716952],[140.059758,42.716018],[140.059884,42.715411],[140.060053,42.714742],[140.060328,42.714181],[140.060729,42.713699],[140.061974,42.712796],[140.063514,42.712065],[140.064563,42.711877],[140.064449,42.712021],[140.064421,42.712324],[140.064502,42.713019],[140.064626,42.713306],[140.064968,42.713666],[140.065,42.713762],[140.065542,42.714108],[140.065844,42.714559],[140.066025,42.715221],[140.066117,42.715316],[140.066483,42.715491],[140.067519,42.71486],[140.066776,42.714126],[140.066387,42.713528],[140.067856,42.713428],[140.06816,42.713453],[140.068515,42.713578],[140.069072,42.71435],[140.069055,42.714524],[140.068903,42.714549],[140.06789,42.714088],[140.067687,42.714076],[140.067569,42.714126],[140.067552,42.7143],[140.067704,42.714574],[140.069106,42.715744],[140.069882,42.716491],[140.069984,42.71684],[140.07022,42.718421],[140.070186,42.720363],[140.071594,42.721834],[140.072675,42.722731],[140.072725,42.723341],[140.076069,42.723888],[140.07766,42.724313],[140.078166,42.724587],[140.078943,42.72521],[140.079382,42.72572],[140.079813,42.726589],[140.080151,42.729095],[140.080341,42.729484],[140.080636,42.729733],[140.081185,42.729888],[140.081819,42.729904],[140.083929,42.729608],[140.084563,42.729608],[140.085133,42.729764],[140.085787,42.730355],[140.086883,42.731088],[140.086815,42.731337],[140.086486,42.731447],[140.086484,42.731547],[140.086371,42.731643],[140.085749,42.731592],[140.085359,42.731674]]],[[[140.196304,42.824069],[140.196073,42.824555],[140.19561,42.826841],[140.195015,42.827789],[140.194124,42.82881],[140.192472,42.830026],[140.190292,42.831266],[140.188673,42.831898],[140.186129,42.832336],[140.184511,42.832142],[140.182958,42.831534],[140.181835,42.830756],[140.180811,42.82971],[140.180216,42.82881],[140.178631,42.825163],[140.178109,42.822413],[140.174013,42.819179],[140.171933,42.817282],[140.171206,42.816309],[140.170512,42.81502],[140.17005,42.813562],[140.169982,42.810932],[140.169124,42.810397],[140.16734,42.808889],[140.166185,42.80743],[140.165887,42.806458],[140.165887,42.805509],[140.166119,42.804439],[140.166449,42.803832],[140.167188,42.803204],[140.168014,42.802634],[140.168785,42.802276],[140.168953,42.802743],[140.168968,42.803114],[140.169167,42.803514],[140.169182,42.803913],[140.169373,42.804437],[140.169495,42.804572],[140.169961,42.804864],[140.171007,42.805101],[140.172084,42.805169],[140.172412,42.805247],[140.172779,42.805506],[140.173046,42.805945],[140.173606,42.805087],[140.17387,42.804834],[140.174178,42.804668],[140.176873,42.807238],[140.178969,42.809104],[140.1799,42.810083],[140.180201,42.810466],[140.180477,42.810891],[140.18093,42.811815],[140.182185,42.815401],[140.182851,42.817114],[140.185531,42.820506],[140.186767,42.822189],[140.187149,42.822509],[140.187747,42.822831],[140.18824,42.823032],[140.188655,42.823132],[140.189178,42.823184],[140.18997,42.823183],[140.190544,42.823034],[140.191129,42.822704],[140.191419,42.822418],[140.192214,42.819959],[140.192788,42.81865],[140.193494,42.817246],[140.19397,42.816762],[140.20049,42.811258],[140.200881,42.81097],[140.20287,42.809751],[140.204926,42.808355],[140.205648,42.807928],[140.206234,42.807691],[140.208333,42.807359],[140.208515,42.80757],[140.208452,42.807943],[140.208075,42.808316],[140.208961,42.808057],[140.209058,42.80811],[140.209342,42.808071],[140.209373,42.807965],[140.209512,42.807943],[140.209549,42.807843],[140.210061,42.807595],[140.2133,42.806615],[140.214599,42.806401],[140.214906,42.80663],[140.214972,42.806946],[140.214642,42.808989],[140.214213,42.809913],[140.213057,42.811056],[140.211636,42.812053],[140.209919,42.812831],[140.20565,42.813757],[140.205485,42.815046],[140.205088,42.816238],[140.203998,42.818864],[140.203569,42.819447],[140.202116,42.820882],[140.199572,42.822414],[140.198119,42.822876],[140.197955,42.823145],[140.196304,42.824069]]]]}}]}
