{"type":"FeatureCollection","features":[{"type":"Feature","properties":{"potaRef":"JP-1386","nameJa":"Hakusan ichirino","nameEn":"Hakusan Ichirino Prefectural Nature Park","authority":"環境省 生物多様性「見える化」マップ","boundaryStatus":"全国GIS候補・公開前検証待ち","boundarySource":"環境省 生物多様性「見える化」マップの自然公園区域を、POTA代表座標で一意に空間照合して加工","boundaryScaleNote":"区域は概要データであり、正確性は保証されない。POTA運用可否は公式情報で最終確認すること。","candidateMethod":"POTA representative point inside one public natural-park area","sourceParkKind":"都道府県立自然公園","sourceName":"Hakusan ichirino","sourceFeatureCount":1,"cautionMeters":75},"geometry":{"type":"MultiPolygon","coordinates":[[[[136.699366,36.274135],[136.69903,36.274272],[136.698941,36.274357],[136.698747,36.274929],[136.698698,36.275334],[136.698622,36.275489],[136.698459,36.275586],[136.698218,36.27558],[136.69725,36.275264],[136.696461,36.275105],[136.696115,36.274963],[136.696006,36.274714],[136.695988,36.2744],[136.69621,36.27383],[136.696235,36.273638],[136.696184,36.273462],[136.696018,36.273188],[136.695665,36.272966],[136.695231,36.272856],[136.694776,36.272878],[136.694202,36.273174],[136.693987,36.273211],[136.693313,36.272874],[136.692385,36.272272],[136.691996,36.272143],[136.691808,36.272149],[136.69152,36.272247],[136.691118,36.2726],[136.69088,36.272688],[136.689842,36.27236],[136.68955,36.27233],[136.689119,36.272396],[136.68755,36.273157],[136.686667,36.273441],[136.685928,36.273742],[136.685061,36.273708],[136.684294,36.273517],[136.683642,36.273603],[136.683091,36.273568],[136.68293,36.273509],[136.682757,36.272816],[136.682869,36.272598],[136.682874,36.272445],[136.682581,36.271772],[136.682544,36.271555],[136.682581,36.271396],[136.683123,36.270746],[136.68324,36.27068],[136.683936,36.270539],[136.684552,36.270086],[136.684698,36.26993],[136.684742,36.269773],[136.684643,36.269519],[136.684213,36.269062],[136.684067,36.268692],[136.684015,36.268283],[136.683647,36.26784],[136.683627,36.267566],[136.683696,36.267024],[136.683582,36.266326],[136.683631,36.266073],[136.683836,36.265584],[136.683661,36.264942],[136.68356,36.264188],[136.68329,36.263801],[136.68309,36.26359],[136.68273,36.263322],[136.682577,36.263131],[136.682498,36.26284],[136.682523,36.262625],[136.682487,36.26251],[136.682032,36.262243],[136.681875,36.262034],[136.681542,36.261798],[136.681229,36.261789],[136.681129,36.261844],[136.681084,36.261925],[136.681063,36.262255],[136.680905,36.262367],[136.68059,36.262261],[136.680197,36.261923],[136.679758,36.261792],[136.679646,36.261613],[136.679646,36.26132],[136.679458,36.260936],[136.679329,36.26053],[136.679059,36.260299],[136.67872,36.260125],[136.678254,36.259766],[136.677935,36.259636],[136.677764,36.259385],[136.677486,36.258434],[136.677136,36.257854],[136.67709,36.257334],[136.676876,36.256769],[136.676866,36.256616],[136.677048,36.255934],[136.67741,36.255456],[136.67759,36.25493],[136.677648,36.254615],[136.678089,36.254187],[136.678236,36.253656],[136.678503,36.25319],[136.678544,36.252542],[136.678407,36.252275],[136.678043,36.251968],[136.677854,36.251624],[136.677554,36.251331],[136.677381,36.250481],[136.67747,36.250128],[136.677721,36.24956],[136.677671,36.249037],[136.677711,36.248862],[136.678073,36.248231],[136.678178,36.247904],[136.678345,36.247139],[136.678389,36.246418],[136.678602,36.246103],[136.678823,36.245928],[136.679528,36.245527],[136.67965,36.245235],[136.679644,36.244981],[136.679517,36.244731],[136.679538,36.244652],[136.679918,36.244374],[136.680371,36.244288],[136.680727,36.244163],[136.681229,36.243797],[136.68154,36.243676],[136.681801,36.243664],[136.682789,36.24389],[136.683246,36.243882],[136.683604,36.243816],[136.684793,36.243274],[136.685048,36.243056],[136.685503,36.242489],[136.685969,36.242055],[136.686819,36.241586],[136.687272,36.241464],[136.687522,36.241516],[136.687883,36.241677],[136.687978,36.241654],[136.688056,36.24154],[136.688236,36.240559],[136.688497,36.240033],[136.688711,36.239778],[136.68915,36.239413],[136.690378,36.238716],[136.690354,36.238588],[136.689961,36.237911],[136.689994,36.237634],[136.690235,36.237264],[136.690304,36.237068],[136.690242,36.23682],[136.690082,36.236584],[136.689752,36.236222],[136.689293,36.23588],[136.688567,36.235414],[136.687958,36.235156],[136.687614,36.234909],[136.68763,36.234712],[136.687909,36.233952],[136.687633,36.232438],[136.687678,36.231991],[136.687743,36.231968],[136.68917,36.232341],[136.690979,36.232701],[136.692012,36.232708],[136.692943,36.232518],[136.694173,36.232714],[136.695627,36.233295],[136.696203,36.23345],[136.697484,36.233637],[136.698279,36.233965],[136.699376,36.234302],[136.700238,36.234639],[136.70075,36.23474],[136.701009,36.234717],[136.701418,36.234523],[136.702127,36.234042],[136.702364,36.233979],[136.703107,36.233944],[136.703244,36.233852],[136.703005,36.233542],[136.702545,36.233351],[136.702328,36.233201],[136.702351,36.232403],[136.702375,36.23221],[136.702445,36.232114],[136.702513,36.232099],[136.704467,36.232637],[136.706014,36.232879],[136.707578,36.233051],[136.708274,36.232963],[136.708607,36.232863],[136.709274,36.232561],[136.709726,36.232434],[136.710298,36.23232],[136.711402,36.232194],[136.711935,36.232302],[136.712395,36.232552],[136.712757,36.232845],[136.713049,36.232958],[136.713221,36.232971],[136.713485,36.232952],[136.713956,36.232719],[136.714559,36.232528],[136.715684,36.231604],[136.716137,36.231308],[136.716329,36.231307],[136.716567,36.231503],[136.716874,36.232121],[136.716834,36.233599],[136.716922,36.234082],[136.717016,36.234178],[136.717158,36.234191],[136.717654,36.233814],[136.717917,36.233697],[136.718108,36.233684],[136.718237,36.23377],[136.718662,36.234445],[136.719121,36.235006],[136.719227,36.235275],[136.719411,36.236286],[136.71999,36.237092],[136.720206,36.237579],[136.72021,36.238009],[136.720156,36.238104],[136.720034,36.2382],[136.719411,36.238384],[136.719334,36.238481],[136.719284,36.238759],[136.71921,36.238876],[136.718496,36.239237],[136.718395,36.239333],[136.71839,36.239408],[136.718651,36.239618],[136.719152,36.239658],[136.719325,36.239747],[136.720038,36.240869],[136.720191,36.24102],[136.720883,36.240996],[136.721158,36.241016],[136.721371,36.2411],[136.722305,36.242],[136.722425,36.241985],[136.722594,36.241844],[136.722651,36.241645],[136.722668,36.241102],[136.722869,36.240553],[136.723432,36.239652],[136.723653,36.239237],[136.723865,36.238692],[136.723995,36.238048],[136.723976,36.237402],[136.723853,36.236707],[136.723908,36.23624],[136.724156,36.235497],[136.724366,36.235202],[136.724721,36.234869],[136.725145,36.234592],[136.726831,36.23403],[136.727408,36.233781],[136.728615,36.233134],[136.728926,36.23292],[136.72923,36.232621],[136.730154,36.233111],[136.731191,36.233454],[136.731818,36.233794],[136.73214,36.234137],[136.732346,36.234443],[136.732557,36.235007],[136.732505,36.235241],[136.732295,36.235458],[136.731232,36.236212],[136.73091,36.236666],[136.730816,36.236957],[136.730825,36.237364],[136.731187,36.238606],[136.731199,36.239344],[136.731046,36.2402],[136.730648,36.241433],[136.73063,36.24165],[136.730695,36.241938],[136.73085,36.242173],[136.731056,36.242333],[136.73139,36.242494],[136.731495,36.242666],[136.731445,36.242764],[136.730878,36.243258],[136.730839,36.243471],[136.730897,36.243645],[136.73136,36.244361],[136.731532,36.244749],[136.731788,36.245152],[136.731836,36.245367],[136.732198,36.246214],[136.732794,36.247396],[136.732973,36.248269],[136.732901,36.248581],[136.732712,36.248952],[136.732204,36.249584],[136.732023,36.250286],[136.732007,36.250869],[136.732055,36.251138],[136.731957,36.251359],[136.731531,36.252024],[136.72981,36.254184],[136.729595,36.254542],[136.729271,36.255362],[136.729038,36.255677],[136.728007,36.256589],[136.727795,36.256922],[136.727812,36.257114],[136.727999,36.257503],[136.728124,36.258003],[136.728119,36.258783],[136.728445,36.259441],[136.729066,36.259974],[136.729771,36.260433],[136.730798,36.260976],[136.730829,36.261042],[136.730569,36.261745],[136.730203,36.262433],[136.730052,36.262606],[136.7293,36.262993],[136.728824,36.263325],[136.727866,36.264257],[136.727474,36.264808],[136.727289,36.265238],[136.727141,36.265452],[136.726921,36.265647],[136.726522,36.266359],[136.726305,36.266504],[136.726038,36.266537],[136.72521,36.266186],[136.724828,36.266084],[136.724197,36.265741],[136.72383,36.265621],[136.723347,36.265609],[136.723112,36.265668],[136.722399,36.266045],[136.722084,36.26632],[136.721935,36.266521],[136.721491,36.267477],[136.720558,36.268582],[136.719806,36.269681],[136.71939,36.270006],[136.718677,36.270402],[136.718295,36.270675],[136.717472,36.271409],[136.717237,36.271534],[136.715701,36.271726],[136.714989,36.272088],[136.714465,36.272578],[136.714222,36.273303],[136.714035,36.273559],[136.713462,36.273948],[136.713084,36.27402],[136.712459,36.273969],[136.711331,36.274176],[136.71031,36.274568],[136.70969,36.274921],[136.70919,36.27501],[136.708904,36.274986],[136.708072,36.274462],[136.707759,36.274384],[136.706917,36.2744],[136.704901,36.274599],[136.704626,36.274785],[136.704342,36.275308],[136.704008,36.275398],[136.703719,36.275318],[136.703227,36.274844],[136.702771,36.274645],[136.702448,36.274615],[136.701663,36.274712],[136.701229,36.274697],[136.700772,36.274582],[136.699773,36.274157],[136.699366,36.274135]]]]}}]}
