{"type":"FeatureCollection","features":[{"type":"Feature","properties":{"potaRef":"JP-1039","nameJa":"Murone kogen","nameEn":"Murone Kogen Prefectural Nature Park","authority":"環境省 生物多様性「見える化」マップ","boundaryStatus":"全国GIS候補・公開前検証待ち","boundarySource":"環境省 生物多様性「見える化」マップの自然公園区域を、POTA代表座標で一意に空間照合して加工","boundaryScaleNote":"区域は概要データであり、正確性は保証されない。POTA運用可否は公式情報で最終確認すること。","candidateMethod":"POTA representative point inside one public natural-park area","sourceParkKind":"都道府県立自然公園","sourceName":"Murone kogen","sourceFeatureCount":1,"cautionMeters":75},"geometry":{"type":"MultiPolygon","coordinates":[[[[141.468233,39.002657],[141.468138,39.002812],[141.466625,39.002604],[141.465922,39.002647],[141.464965,39.002545],[141.463728,39.00233],[141.462094,39.001761],[141.460976,39.001208],[141.460614,39.001145],[141.458177,39.001849],[141.455217,39.001846],[141.452871,39.002048],[141.451653,39.001569],[141.451481,39.00142],[141.45138,39.001155],[141.451403,39.000899],[141.451992,38.998716],[141.452167,38.997322],[141.452174,38.996722],[141.452054,38.996113],[141.451823,38.995589],[141.451039,38.994563],[141.450403,38.994047],[141.449483,38.993487],[141.448863,38.993238],[141.447996,38.99309],[141.446778,38.99307],[141.445902,38.992935],[141.445035,38.992374],[141.444238,38.990985],[141.444022,38.99027],[141.444002,38.989412],[141.444426,38.988703],[141.44448,38.988458],[141.444276,38.988286],[141.443112,38.988217],[141.442785,38.987846],[141.442775,38.98706],[141.443149,38.986198],[141.444306,38.985216],[141.444665,38.984526],[141.444527,38.983591],[141.444895,38.982363],[141.444717,38.982282],[141.443993,38.982528],[141.443134,38.982622],[141.442695,38.982442],[141.442176,38.982016],[141.441939,38.981655],[141.441686,38.980956],[141.44096,38.979979],[141.441023,38.979784],[141.441474,38.97957],[141.441538,38.979408],[141.441479,38.979239],[141.441029,38.978821],[141.440259,38.978353],[141.439541,38.977678],[141.439575,38.977413],[141.439899,38.976962],[141.439888,38.976806],[141.438338,38.976099],[141.437881,38.975501],[141.437782,38.975073],[141.437845,38.974802],[141.438342,38.974272],[141.438846,38.97392],[141.43893,38.973747],[141.439065,38.972114],[141.438786,38.97105],[141.43879,38.969656],[141.438701,38.969309],[141.437798,38.968017],[141.436388,38.966989],[141.436261,38.966695],[141.436541,38.965576],[141.436792,38.965057],[141.437341,38.963248],[141.43763,38.963022],[141.438433,38.962871],[141.439888,38.963082],[141.440502,38.963017],[141.44076,38.962789],[141.441294,38.961912],[141.441829,38.961493],[141.442789,38.961247],[141.443987,38.961198],[141.444526,38.961066],[141.445223,38.960642],[141.445564,38.960271],[141.445784,38.95985],[141.446249,38.958429],[141.446441,38.958183],[141.447383,38.957778],[141.447923,38.957765],[141.448703,38.957983],[141.450071,38.95865],[141.450793,38.959284],[141.452352,38.960346],[141.453746,38.961123],[141.454873,38.961394],[141.456443,38.961384],[141.456789,38.961486],[141.457289,38.962361],[141.459057,38.964612],[141.460603,38.964893],[141.461832,38.965485],[141.462564,38.966163],[141.462667,38.96637],[141.462781,38.96898],[141.46303,38.969583],[141.463413,38.970166],[141.464094,38.970793],[141.465841,38.971905],[141.466607,38.972266],[141.467748,38.972527],[141.470264,38.971983],[141.471061,38.971981],[141.471679,38.972319],[141.472369,38.972856],[141.474273,38.973923],[141.476525,38.974731],[141.478188,38.97549],[141.480521,38.976052],[141.481847,38.976199],[141.48271,38.975899],[141.482938,38.975659],[141.482986,38.975055],[141.482054,38.973213],[141.481703,38.972257],[141.480887,38.970878],[141.480386,38.969739],[141.480183,38.968881],[141.480242,38.967922],[141.479999,38.967058],[141.479033,38.965148],[141.478856,38.964627],[141.478782,38.964093],[141.47889,38.963139],[141.478881,38.96192],[141.478721,38.961218],[141.478367,38.960532],[141.478615,38.9603],[141.479563,38.960228],[141.479865,38.959932],[141.480338,38.959134],[141.480615,38.957913],[141.480608,38.956716],[141.480195,38.956257],[141.479381,38.955753],[141.479254,38.955481],[141.479717,38.954069],[141.480099,38.953743],[141.480806,38.953587],[141.481228,38.953381],[141.484191,38.951391],[141.484895,38.951135],[141.485138,38.951135],[141.485429,38.951376],[141.487925,38.954436],[141.48956,38.956622],[141.490397,38.957855],[141.49026,38.958386],[141.489691,38.959108],[141.489634,38.959457],[141.489441,38.959798],[141.489293,38.960301],[141.489293,38.96058],[141.48935,38.960722],[141.489469,38.960835],[141.490015,38.961711],[141.490243,38.962452],[141.490231,38.962753],[141.490084,38.963231],[141.490084,38.963672],[141.489285,38.965694],[141.489189,38.966604],[141.489007,38.96691],[141.488916,38.967177],[141.488887,38.967405],[141.488933,38.967644],[141.488881,38.968305],[141.488796,38.968578],[141.488499,38.96941],[141.488329,38.96966],[141.48813,38.969882],[141.486939,38.970761],[141.486489,38.971233],[141.486165,38.972171],[141.486097,38.973181],[141.485657,38.974235],[141.485236,38.974871],[141.485162,38.975372],[141.485194,38.976003],[141.484793,38.976581],[141.484155,38.977158],[141.483562,38.978006],[141.483534,38.978167],[141.482688,38.978393],[141.482247,38.9786],[141.481674,38.979059],[141.481456,38.979355],[141.481144,38.979941],[141.480951,38.980691],[141.480847,38.980888],[141.480494,38.981194],[141.479846,38.981453],[141.479409,38.981834],[141.479077,38.982456],[141.479087,38.9827],[141.479289,38.983448],[141.479253,38.983791],[141.479102,38.983863],[141.478728,38.983827],[141.478336,38.983852],[141.47698,38.984563],[141.476182,38.985057],[141.475288,38.986092],[141.47436,38.987589],[141.474777,38.98994],[141.475299,38.990636],[141.475167,38.991323],[141.475409,38.991761],[141.476362,38.992453],[141.477307,38.992916],[141.478015,38.993062],[141.479426,38.993124],[141.479683,38.993409],[141.479707,38.99394],[141.479406,38.994244],[141.477678,38.995009],[141.476811,38.995536],[141.475928,38.996196],[141.475549,38.996693],[141.475034,38.997028],[141.474266,38.996982],[141.472006,38.997141],[141.471022,38.997355],[141.470404,38.997728],[141.469802,38.998476],[141.469413,38.999316],[141.469252,38.999493],[141.468841,38.999869],[141.467839,39.000419],[141.467689,39.000605],[141.467621,39.000873],[141.467672,39.001164],[141.468222,39.002004],[141.468264,39.002377],[141.468233,39.002657]]]]}}]}
