{"type":"FeatureCollection","features":[{"type":"Feature","properties":{"potaRef":"JP-1574","nameJa":"Hatenashi sanmyaku","nameEn":"Hatenashi Sanmyaku Prefectural Nature Park","authority":"環境省 生物多様性「見える化」マップ","boundaryStatus":"全国GIS候補・公開前検証待ち","boundarySource":"環境省 生物多様性「見える化」マップの自然公園区域を、POTA代表座標で一意に空間照合して加工","boundaryScaleNote":"区域は概要データであり、正確性は保証されない。POTA運用可否は公式情報で最終確認すること。","candidateMethod":"POTA representative point inside one public natural-park area","sourceParkKind":"都道府県立自然公園","sourceName":"Hatenashi sanmyaku","sourceFeatureCount":1,"cautionMeters":75},"geometry":{"type":"MultiPolygon","coordinates":[[[[135.498215,33.864996],[135.498016,33.865574],[135.496979,33.866601],[135.496605,33.866865],[135.496324,33.867536],[135.496311,33.867823],[135.496221,33.86809],[135.495725,33.867507],[135.495408,33.867279],[135.494821,33.867032],[135.494532,33.866842],[135.494264,33.866577],[135.493963,33.866154],[135.493654,33.866033],[135.493201,33.865737],[135.492427,33.865189],[135.492217,33.864985],[135.492084,33.864964],[135.491276,33.865079],[135.490926,33.865046],[135.490325,33.864857],[135.48928,33.864679],[135.488686,33.864324],[135.488327,33.864023],[135.487285,33.863626],[135.487044,33.86359],[135.486271,33.863607],[135.485008,33.863212],[135.484555,33.86321],[135.48442,33.863063],[135.484347,33.86286],[135.484264,33.862191],[135.484281,33.861934],[135.484546,33.861083],[135.484488,33.860552],[135.484366,33.860324],[135.484323,33.859831],[135.484369,33.859454],[135.48446,33.85919],[135.484345,33.858784],[135.484029,33.858173],[135.483925,33.857733],[135.483992,33.857439],[135.484237,33.85706],[135.484273,33.856917],[135.483735,33.855288],[135.483208,33.854707],[135.483041,33.854412],[135.483533,33.853657],[135.483917,33.853278],[135.48442,33.852628],[135.484461,33.852309],[135.484314,33.851697],[135.484332,33.851546],[135.484797,33.85079],[135.484642,33.850245],[135.484675,33.849884],[135.484796,33.849568],[135.485478,33.849005],[135.48566,33.848719],[135.48589,33.847526],[135.486143,33.847701],[135.487258,33.848169],[135.487575,33.848627],[135.487792,33.848799],[135.488149,33.848544],[135.488595,33.848333],[135.489465,33.84803],[135.490231,33.847941],[135.491,33.847762],[135.492157,33.847854],[135.492778,33.847606],[135.493376,33.847521],[135.494182,33.84763],[135.494814,33.847827],[135.495127,33.847977],[135.496905,33.849038],[135.497857,33.849547],[135.498452,33.850127],[135.498912,33.850736],[135.500174,33.851605],[135.500466,33.851953],[135.500469,33.852102],[135.499787,33.853409],[135.499635,33.853768],[135.499615,33.853996],[135.499471,33.854296],[135.498562,33.855054],[135.498349,33.855316],[135.498203,33.855607],[135.49828,33.8561],[135.498417,33.856394],[135.498811,33.856733],[135.499941,33.857315],[135.500095,33.857497],[135.500141,33.857785],[135.500071,33.857988],[135.500063,33.859349],[135.498824,33.860061],[135.498591,33.860329],[135.498446,33.860619],[135.498489,33.861056],[135.498454,33.861669],[135.498252,33.86234],[135.498395,33.863155],[135.498215,33.864996]]],[[[135.565317,33.871813],[135.564897,33.87207],[135.564425,33.872282],[135.561797,33.874049],[135.561028,33.874643],[135.558827,33.873006],[135.558405,33.872868],[135.55708,33.872751],[135.556769,33.872657],[135.555681,33.872111],[135.554408,33.871585],[135.552869,33.870563],[135.551613,33.869885],[135.55098,33.86969],[135.55007,33.869523],[135.54933,33.869572],[135.548532,33.869788],[135.547846,33.869757],[135.547053,33.867465],[135.546672,33.866151],[135.546559,33.865975],[135.546538,33.865813],[135.546275,33.865252],[135.546262,33.865081],[135.546022,33.86473],[135.545986,33.864296],[135.545873,33.863916],[135.545841,33.863394],[135.545965,33.862805],[135.546551,33.861403],[135.546733,33.861118],[135.546939,33.860472],[135.547083,33.859773],[135.547099,33.859214],[135.547138,33.859159],[135.547553,33.859149],[135.547978,33.859015],[135.548502,33.858725],[135.5493,33.858189],[135.55,33.857517],[135.55005,33.857422],[135.550117,33.856925],[135.550224,33.85683],[135.5503,33.856894],[135.550377,33.857161],[135.550653,33.857426],[135.551453,33.857917],[135.55166,33.858153],[135.55176,33.858463],[135.552516,33.85934],[135.552979,33.859709],[135.554029,33.86026],[135.555919,33.861042],[135.556905,33.861643],[135.557394,33.861822],[135.557709,33.861789],[135.55977,33.861966],[135.561447,33.862596],[135.561942,33.862704],[135.562288,33.862848],[135.56275,33.86313],[135.563995,33.863956],[135.566436,33.865123],[135.566885,33.865213],[135.567128,33.865333],[135.567974,33.865991],[135.56828,33.865933],[135.569014,33.865638],[135.569169,33.865644],[135.569181,33.865881],[135.569641,33.866872],[135.570153,33.867417],[135.570931,33.868403],[135.571452,33.868957],[135.571726,33.869168],[135.571981,33.869277],[135.572187,33.869298],[135.572403,33.869507],[135.572448,33.869621],[135.572447,33.86998],[135.572233,33.870734],[135.57222,33.870962],[135.572151,33.87114],[135.572056,33.871219],[135.571668,33.871216],[135.570556,33.871496],[135.569652,33.871769],[135.5692,33.872004],[135.568828,33.872132],[135.568509,33.872176],[135.567945,33.872178],[135.567445,33.872107],[135.566721,33.871825],[135.565946,33.871724],[135.565632,33.871714],[135.565317,33.871813]]],[[[135.618017,33.874375],[135.618086,33.874605],[135.617953,33.874807],[135.617725,33.874998],[135.616982,33.875347],[135.616578,33.875072],[135.616048,33.874867],[135.615972,33.874744],[135.615407,33.874372],[135.615093,33.874226],[135.613713,33.874151],[135.613121,33.874225],[135.611895,33.874283],[135.610825,33.874498],[135.610045,33.874836],[135.610418,33.874146],[135.610617,33.873586],[135.611091,33.872768],[135.611557,33.872099],[135.612472,33.871049],[135.61254,33.869706],[135.612455,33.869011],[135.612319,33.868663],[135.612197,33.868106],[135.612626,33.867766],[135.614083,33.867034],[135.615099,33.866368],[135.615331,33.866093],[135.615491,33.865815],[135.615615,33.865525],[135.61562,33.865299],[135.617144,33.862687],[135.61749,33.862773],[135.617781,33.863081],[135.618165,33.863207],[135.618654,33.863283],[135.61926,33.86326],[135.619508,33.863372],[135.619746,33.863604],[135.620521,33.863516],[135.621386,33.86354],[135.621944,33.863739],[135.622195,33.864632],[135.622163,33.865795],[135.622438,33.86624],[135.622174,33.866772],[135.622038,33.867306],[135.621964,33.868119],[135.621639,33.868736],[135.621591,33.868975],[135.621322,33.869388],[135.621307,33.869728],[135.621025,33.870159],[135.620742,33.870412],[135.620602,33.871018],[135.620235,33.871838],[135.617964,33.872064],[135.61786,33.872107],[135.618069,33.873436],[135.618017,33.874375]]],[[[135.622193,33.898399],[135.621614,33.898527],[135.620964,33.898743],[135.61948,33.899429],[135.618592,33.899362],[135.617253,33.899093],[135.61549,33.898837],[135.615608,33.89855],[135.615682,33.898009],[135.615748,33.897858],[135.615777,33.896999],[135.615657,33.896669],[135.61534,33.896249],[135.61522,33.895948],[135.615377,33.895932],[135.615508,33.896],[135.615637,33.896002],[135.616106,33.895941],[135.61639,33.896053],[135.616604,33.897125],[135.617079,33.897771],[135.617124,33.897931],[135.617319,33.898197],[135.617483,33.89821],[135.618036,33.898209],[135.618163,33.898166],[135.618407,33.897941],[135.618517,33.897913],[135.61902,33.898157],[135.619264,33.898146],[135.619542,33.897927],[135.620023,33.897724],[135.621278,33.897478],[135.621327,33.897416],[135.621307,33.897234],[135.621179,33.897048],[135.621161,33.896924],[135.621219,33.89685],[135.621914,33.896648],[135.622274,33.896438],[135.622756,33.896278],[135.622907,33.8966],[135.622924,33.896846],[135.622682,33.897207],[135.622872,33.897959],[135.622786,33.89806],[135.622193,33.898399]]]]}}]}
