{"type":"FeatureCollection","features":[{"type":"Feature","properties":{"potaRef":"JP-1026","nameJa":"Nakui dake","nameEn":"Nakuidake Prefectural Nature Park","authority":"環境省 生物多様性「見える化」マップ","boundaryStatus":"全国GIS候補・公開前検証待ち","boundarySource":"環境省 生物多様性「見える化」マップの自然公園区域を、POTA代表座標で一意に空間照合して加工","boundaryScaleNote":"区域は概要データであり、正確性は保証されない。POTA運用可否は公式情報で最終確認すること。","candidateMethod":"POTA representative point inside one public natural-park area","sourceParkKind":"都道府県立自然公園","sourceName":"Nakui dake","sourceFeatureCount":1,"cautionMeters":75},"geometry":{"type":"MultiPolygon","coordinates":[[[[141.306722,40.410254],[141.306427,40.411054],[141.305626,40.412083],[141.303889,40.410969],[141.303381,40.41072],[141.302931,40.410333],[141.301916,40.410221],[141.302013,40.405201],[141.301651,40.404403],[141.300185,40.403791],[141.299855,40.403312],[141.299836,40.399045],[141.299358,40.399046],[141.297151,40.39944],[141.296377,40.399853],[141.295544,40.400517],[141.294948,40.400678],[141.293008,40.400614],[141.292441,40.400639],[141.291964,40.400754],[141.290919,40.400734],[141.290052,40.400531],[141.289214,40.399985],[141.288021,40.400262],[141.287335,40.400195],[141.287155,40.399967],[141.287064,40.399762],[141.286644,40.399238],[141.286583,40.398988],[141.286791,40.39869],[141.288071,40.398003],[141.290123,40.396263],[141.292444,40.394591],[141.292533,40.394317],[141.292053,40.393908],[141.291099,40.394184],[141.288869,40.396061],[141.288123,40.3962],[141.287428,40.396262],[141.286755,40.396756],[141.286015,40.396802],[141.284871,40.396739],[141.284127,40.396492],[141.284906,40.39541],[141.285829,40.394929],[141.286156,40.394517],[141.286301,40.393513],[141.286056,40.392167],[141.286024,40.391688],[141.286675,40.390294],[141.288253,40.389491],[141.289774,40.389123],[141.29022,40.38887],[141.290309,40.388574],[141.290159,40.388414],[141.288816,40.388486],[141.288637,40.388395],[141.288396,40.388008],[141.287881,40.386138],[141.287222,40.385569],[141.286594,40.385183],[141.286772,40.385091],[141.287608,40.385157],[141.287637,40.384838],[141.287515,40.384427],[141.287067,40.384269],[141.28703,40.382489],[141.287087,40.381941],[141.287325,40.381804],[141.287475,40.381917],[141.287566,40.382237],[141.287956,40.382669],[141.289331,40.383191],[141.290136,40.383074],[141.290165,40.382846],[141.290074,40.382527],[141.289804,40.382231],[141.289565,40.382095],[141.289205,40.381639],[141.288816,40.381389],[141.288695,40.38107],[141.288663,40.380614],[141.288832,40.380452],[141.28925,40.380428],[141.290027,40.380837],[141.290207,40.380997],[141.290714,40.380904],[141.290713,40.380699],[141.290563,40.38038],[141.289964,40.379993],[141.287572,40.378767],[141.28569,40.378315],[141.285599,40.377973],[141.285628,40.37779],[141.285895,40.377425],[141.28673,40.377377],[141.287028,40.377194],[141.288692,40.375501],[141.289492,40.374244],[141.289548,40.373308],[141.289276,40.372556],[141.290227,40.371686],[141.290938,40.370498],[141.29132,40.369242],[141.292872,40.369375],[141.293678,40.369509],[141.293946,40.369281],[141.294541,40.368982],[141.295195,40.368387],[141.296299,40.368293],[141.297224,40.368519],[141.297943,40.369088],[141.298214,40.369589],[141.298483,40.369725],[141.29905,40.369906],[141.299919,40.370543],[141.301005,40.373256],[141.302528,40.373549],[141.303663,40.373865],[141.305367,40.374636],[141.306595,40.375751],[141.307284,40.376252],[141.309615,40.377044],[141.311201,40.37809],[141.313505,40.379361],[141.314817,40.379266],[141.31616,40.379331],[141.319094,40.381423],[141.32011,40.381534],[141.321845,40.382487],[141.323403,40.383784],[141.324507,40.383895],[141.325135,40.38403],[141.325852,40.384256],[141.326451,40.384756],[141.326426,40.385761],[141.326726,40.386011],[141.327353,40.386077],[141.327743,40.386487],[141.327987,40.387536],[141.329124,40.388149],[141.33038,40.388716],[141.3285,40.388858],[141.327038,40.388817],[141.325666,40.388958],[141.324983,40.389667],[141.325048,40.39083],[141.325258,40.391012],[141.326422,40.391032],[141.327467,40.391212],[141.328485,40.391756],[141.328545,40.391939],[141.328427,40.392144],[141.328339,40.392578],[141.328072,40.392876],[141.328014,40.39315],[141.328819,40.392919],[141.329354,40.392598],[141.329954,40.393099],[141.330136,40.393828],[141.331158,40.395354],[141.33119,40.395696],[141.330922,40.395834],[141.330385,40.395881],[141.329816,40.395404],[141.328976,40.394516],[141.329009,40.395269],[141.328952,40.39584],[141.329132,40.395953],[141.329223,40.396227],[141.329792,40.39659],[141.330719,40.396953],[141.331944,40.397246],[141.332094,40.397497],[141.332186,40.397976],[141.33219,40.398683],[141.33204,40.398683],[141.331711,40.398502],[141.331443,40.398503],[141.331294,40.398663],[141.331085,40.398618],[141.330785,40.398367],[141.330367,40.398323],[141.330579,40.398916],[141.330999,40.399417],[141.331717,40.399757],[141.331868,40.40003],[141.33172,40.400213],[141.331392,40.400351],[141.331182,40.400215],[141.330705,40.400285],[141.330528,40.400605],[141.33038,40.401039],[141.330172,40.401153],[141.329933,40.401108],[141.329721,40.400493],[141.329541,40.400242],[141.329122,40.400129],[141.328763,40.399879],[141.328254,40.39963],[141.327804,40.399175],[141.327532,40.398354],[141.327039,40.39532],[141.326319,40.394546],[141.326317,40.393999],[141.326015,40.393406],[141.325181,40.393614],[141.324795,40.394094],[141.324107,40.393822],[141.323539,40.393527],[141.323391,40.393847],[141.323572,40.39428],[141.324172,40.394918],[141.324114,40.39526],[141.323937,40.395603],[141.323013,40.395993],[141.323374,40.396517],[141.324964,40.398156],[141.325205,40.398589],[141.325299,40.399592],[141.32563,40.400185],[141.325962,40.400914],[141.325785,40.401257],[141.325306,40.401053],[141.324916,40.400598],[141.324555,40.400051],[141.324254,40.399459],[141.324015,40.399391],[141.323446,40.399096],[141.323535,40.398958],[141.322846,40.398367],[141.322609,40.398824],[141.322672,40.399394],[141.323424,40.40067],[141.323485,40.401035],[141.323157,40.401082],[141.323037,40.400831],[141.322706,40.400398],[141.322314,40.399624],[141.321775,40.399237],[141.321055,40.398395],[141.320517,40.398328],[141.319861,40.39833],[141.318665,40.397899],[141.317918,40.397856],[141.318429,40.398585],[141.319057,40.398834],[141.319656,40.399243],[141.319809,40.400041],[141.320143,40.401273],[141.320056,40.401661],[141.319937,40.401821],[141.319074,40.402485],[141.318598,40.402669],[141.31842,40.402943],[141.318601,40.403331],[141.319081,40.403923],[141.318664,40.404129],[141.318395,40.404016],[141.318034,40.403469],[141.317375,40.402946],[141.316748,40.402788],[141.315678,40.40375],[141.315354,40.404732],[141.315536,40.405393],[141.315599,40.406009],[141.315332,40.406534],[141.314857,40.406946],[141.314233,40.407587],[141.314623,40.408157],[141.314836,40.408909],[141.314809,40.409548],[141.314721,40.409799],[141.314392,40.409823],[141.313974,40.40971],[141.31418,40.409025],[141.313731,40.408775],[141.313283,40.408708],[141.312744,40.408504],[141.310832,40.408076],[141.310323,40.407712],[141.307395,40.40724],[141.306722,40.410254]]],[[[141.269468,40.385516],[141.269648,40.385949],[141.2695,40.386086],[141.268933,40.386087],[141.268363,40.38545],[141.267676,40.385132],[141.267527,40.385269],[141.266631,40.385157],[141.266123,40.384907],[141.264358,40.383862],[141.261401,40.383047],[141.260893,40.382797],[141.260173,40.381954],[141.259781,40.380837],[141.259719,40.380312],[141.259715,40.379354],[141.260221,40.37901],[141.26058,40.379101],[141.261208,40.379442],[141.26309,40.380008],[141.266404,40.380571],[141.269754,40.382571],[141.269188,40.382824],[141.268922,40.383303],[141.269103,40.383873],[141.269105,40.38449],[141.268959,40.385129],[141.269468,40.385516]]],[[[141.304496,40.419805],[141.301178,40.419857],[141.301006,40.416967],[141.300038,40.414322],[141.300516,40.414336],[141.300975,40.414533],[141.303571,40.416458],[141.304311,40.417354],[141.305527,40.417777],[141.305869,40.418491],[141.305994,40.419738],[141.305676,40.4198],[141.304496,40.419805]]]]}}]}
