{"type":"FeatureCollection","features":[{"type":"Feature","properties":{"potaRef":"JP-1098","nameJa":"Natsuigawa keikoku","nameEn":"Natsuigawa Keikoku Prefectural Nature Park","authority":"環境省 生物多様性「見える化」マップ","boundaryStatus":"全国GIS候補・公開前検証待ち","boundarySource":"環境省 生物多様性「見える化」マップの自然公園区域を、POTA代表座標で一意に空間照合して加工","boundaryScaleNote":"区域は概要データであり、正確性は保証されない。POTA運用可否は公式情報で最終確認すること。","candidateMethod":"POTA representative point inside one public natural-park area","sourceParkKind":"都道府県立自然公園","sourceName":"Natsuigawa keikoku","sourceFeatureCount":1,"cautionMeters":75},"geometry":{"type":"MultiPolygon","coordinates":[[[[140.784765,37.133687],[140.784326,37.134025],[140.784221,37.134057],[140.783899,37.13402],[140.783569,37.133541],[140.783217,37.133167],[140.783152,37.13305],[140.783193,37.132738],[140.783381,37.132427],[140.783473,37.132164],[140.783465,37.13191],[140.783359,37.131623],[140.78313,37.131244],[140.782288,37.13042],[140.781859,37.12979],[140.781764,37.129529],[140.781786,37.129156],[140.781301,37.128985],[140.780987,37.128581],[140.780951,37.128326],[140.781197,37.127697],[140.781022,37.127443],[140.780454,37.127201],[140.77973,37.127195],[140.778949,37.127463],[140.777662,37.128093],[140.777408,37.128168],[140.777306,37.12809],[140.777066,37.127683],[140.776947,37.127603],[140.776632,37.127566],[140.77526,37.127579],[140.775164,37.127533],[140.775063,37.127341],[140.775196,37.126711],[140.7752,37.126396],[140.774925,37.125734],[140.774919,37.125595],[140.775021,37.125393],[140.775533,37.124768],[140.775631,37.124563],[140.775612,37.124446],[140.775246,37.123733],[140.775246,37.122991],[140.77535,37.122846],[140.775643,37.122679],[140.775747,37.122562],[140.776453,37.121214],[140.776468,37.120817],[140.776393,37.120275],[140.776427,37.119842],[140.776645,37.119668],[140.777469,37.11945],[140.777827,37.119277],[140.778298,37.118532],[140.779136,37.116992],[140.779193,37.116616],[140.778769,37.114899],[140.778913,37.114267],[140.779674,37.112783],[140.780708,37.110606],[140.780719,37.110263],[140.78043,37.109561],[140.780445,37.109399],[140.780663,37.109038],[140.780665,37.108915],[140.780428,37.108432],[140.780365,37.107828],[140.780144,37.107778],[140.780076,37.107832],[140.779897,37.108431],[140.779876,37.10777],[140.779606,37.10741],[140.779253,37.107207],[140.778785,37.107156],[140.778323,37.107008],[140.778056,37.106791],[140.777796,37.1064],[140.777262,37.106307],[140.777011,37.106187],[140.776634,37.105786],[140.776176,37.105224],[140.776069,37.10502],[140.776072,37.104848],[140.7763,37.104188],[140.776373,37.103702],[140.776347,37.103581],[140.776142,37.103464],[140.775661,37.10344],[140.775559,37.103378],[140.77375,37.101572],[140.773728,37.101467],[140.773979,37.101147],[140.775278,37.099928],[140.777034,37.098612],[140.777491,37.098348],[140.77829,37.09767],[140.779097,37.096886],[140.779164,37.09672],[140.779291,37.096581],[140.779535,37.096432],[140.779967,37.096265],[140.780399,37.095985],[140.781038,37.095742],[140.782044,37.095494],[140.782608,37.096078],[140.783583,37.096234],[140.784295,37.096467],[140.784608,37.096468],[140.78533,37.096251],[140.785722,37.096281],[140.786213,37.096207],[140.786795,37.095649],[140.787467,37.095135],[140.788304,37.094338],[140.788857,37.093976],[140.789479,37.093647],[140.790477,37.093303],[140.792196,37.093027],[140.79248,37.092937],[140.792912,37.092711],[140.793805,37.092055],[140.794374,37.091818],[140.79528,37.091557],[140.795633,37.091378],[140.796229,37.090884],[140.796384,37.090602],[140.796243,37.09],[140.79624,37.08977],[140.796339,37.089538],[140.79682,37.08921],[140.79849,37.088729],[140.798679,37.088731],[140.798965,37.08885],[140.79921,37.089032],[140.799633,37.08958],[140.799852,37.089649],[140.800248,37.089584],[140.800746,37.089293],[140.801059,37.089032],[140.801332,37.088668],[140.801359,37.088521],[140.80115,37.087686],[140.801209,37.087637],[140.801575,37.08758],[140.80172,37.087594],[140.803136,37.088191],[140.803856,37.088323],[140.804533,37.088332],[140.804706,37.088469],[140.80478,37.088871],[140.805106,37.089153],[140.80525,37.089207],[140.805963,37.089266],[140.806636,37.089237],[140.807713,37.089047],[140.808999,37.088993],[140.810327,37.088834],[140.810507,37.088748],[140.810638,37.088535],[140.810625,37.088446],[140.810195,37.087754],[140.810685,37.087926],[140.811681,37.088476],[140.81225,37.088681],[140.812824,37.088601],[140.813608,37.088306],[140.814169,37.087991],[140.814579,37.087606],[140.814822,37.087599],[140.815074,37.08774],[140.815253,37.088227],[140.81593,37.08826],[140.816289,37.088372],[140.81641,37.088484],[140.816406,37.088632],[140.816086,37.088921],[140.815998,37.089203],[140.81571,37.089433],[140.815714,37.089531],[140.816429,37.089488],[140.816676,37.089222],[140.817141,37.089109],[140.817292,37.089104],[140.817498,37.08919],[140.817753,37.089188],[140.818113,37.089079],[140.8182,37.089122],[140.818248,37.089321],[140.818516,37.089604],[140.818538,37.089857],[140.818642,37.089935],[140.818776,37.089835],[140.819222,37.08909],[140.820775,37.087184],[140.821088,37.086465],[140.821269,37.08624],[140.821328,37.086281],[140.821226,37.086547],[140.821291,37.086695],[140.821373,37.086765],[140.821682,37.086802],[140.822007,37.086723],[140.822722,37.086319],[140.823081,37.086291],[140.823331,37.086322],[140.823479,37.086373],[140.82373,37.086552],[140.823972,37.086596],[140.824228,37.086533],[140.82461,37.086341],[140.824833,37.0863],[140.82522,37.086277],[140.825479,37.086391],[140.825719,37.086432],[140.826514,37.086055],[140.827327,37.086096],[140.827939,37.085969],[140.828187,37.08602],[140.82891,37.086291],[140.829154,37.086321],[140.830082,37.086305],[140.830766,37.086386],[140.831512,37.086244],[140.831976,37.086346],[140.832906,37.086364],[140.833144,37.086425],[140.833511,37.086653],[140.834293,37.086948],[140.834609,37.087119],[140.834634,37.087294],[140.835301,37.087704],[140.836159,37.088341],[140.837406,37.089573],[140.838294,37.089996],[140.839034,37.089996],[140.839246,37.089917],[140.839866,37.089265],[140.840111,37.089112],[140.840543,37.089035],[140.841133,37.089053],[140.840474,37.089725],[140.840144,37.090209],[140.839917,37.090575],[140.839923,37.090965],[140.839623,37.091329],[140.839585,37.091469],[140.839441,37.091558],[140.839317,37.091717],[140.838802,37.092044],[140.838185,37.092931],[140.838017,37.093529],[140.837752,37.09413],[140.83722,37.09476],[140.836927,37.094965],[140.836358,37.095112],[140.83517,37.09527],[140.834241,37.094986],[140.833893,37.094797],[140.833524,37.094729],[140.832472,37.09473],[140.832433,37.094862],[140.832475,37.095063],[140.83207,37.095075],[140.831498,37.095344],[140.831343,37.095302],[140.831065,37.095071],[140.830921,37.095039],[140.830381,37.09523],[140.830014,37.095544],[140.829881,37.095777],[140.829969,37.096232],[140.829867,37.096344],[140.829854,37.096433],[140.830123,37.096868],[140.830118,37.097111],[140.831345,37.097096],[140.831985,37.097253],[140.832555,37.097232],[140.832781,37.097137],[140.832925,37.097016],[140.833046,37.096817],[140.833091,37.096553],[140.833274,37.096441],[140.83374,37.096383],[140.834206,37.096416],[140.834599,37.096382],[140.834951,37.096445],[140.835705,37.096814],[140.836525,37.097354],[140.836957,37.098133],[140.837503,37.098727],[140.837568,37.099217],[140.837914,37.099397],[140.838127,37.099653],[140.838623,37.100015],[140.8383,37.1001],[140.838027,37.100313],[140.837838,37.100545],[140.837769,37.101086],[140.837567,37.101229],[140.837625,37.102],[140.837273,37.103433],[140.836871,37.103945],[140.836433,37.104399],[140.83523,37.105345],[140.835231,37.105545],[140.835634,37.106151],[140.835758,37.106431],[140.836087,37.10763],[140.836215,37.107749],[140.836361,37.107805],[140.836645,37.107817],[140.837614,37.107557],[140.838285,37.107298],[140.839792,37.106838],[140.840794,37.106642],[140.841795,37.106326],[140.842036,37.106339],[140.842224,37.106553],[140.842905,37.106582],[140.843264,37.106726],[140.84335,37.10682],[140.843371,37.106929],[140.843273,37.107306],[140.843189,37.107419],[140.843008,37.107478],[140.841216,37.1073],[140.841035,37.107343],[140.840468,37.107726],[140.839327,37.108851],[140.839149,37.108963],[140.83865,37.10911],[140.838176,37.109346],[140.837942,37.10956],[140.837819,37.109871],[140.837711,37.109977],[140.837359,37.110104],[140.836927,37.110157],[140.836431,37.110145],[140.835317,37.109873],[140.834109,37.109915],[140.833495,37.109734],[140.83267,37.109941],[140.83218,37.109793],[140.831996,37.109804],[140.83196,37.109912],[140.832073,37.110206],[140.831896,37.110491],[140.832,37.110836],[140.831967,37.111007],[140.832241,37.111182],[140.833107,37.111511],[140.833536,37.112114],[140.833818,37.112259],[140.834721,37.11236],[140.835453,37.112763],[140.836166,37.113052],[140.838062,37.113278],[140.8386,37.113419],[140.839634,37.113772],[140.839749,37.113852],[140.839753,37.113905],[140.839679,37.113969],[140.839271,37.114097],[140.837311,37.114502],[140.837169,37.114566],[140.835598,37.115398],[140.834842,37.116106],[140.834164,37.11651],[140.833411,37.11662],[140.831759,37.116642],[140.831759,37.116749],[140.831951,37.11695],[140.832947,37.117669],[140.833444,37.117961],[140.834273,37.118116],[140.834347,37.118184],[140.83418,37.118361],[140.834133,37.118482],[140.834084,37.119052],[140.834075,37.119481],[140.834253,37.120056],[140.834194,37.120137],[140.833788,37.120395],[140.833755,37.120485],[140.834654,37.121428],[140.835018,37.12194],[140.835428,37.122776],[140.835677,37.123402],[140.835666,37.123496],[140.835548,37.123513],[140.834859,37.123292],[140.834291,37.123228],[140.834002,37.12326],[140.833898,37.123403],[140.833861,37.123916],[140.833683,37.124433],[140.833674,37.124926],[140.834537,37.125547],[140.834975,37.126006],[140.834996,37.126496],[140.83475,37.126694],[140.835016,37.128602],[140.8343,37.129172],[140.833531,37.129625],[140.832629,37.129865],[140.8318,37.129875],[140.831517,37.130145],[140.831209,37.130034],[140.830665,37.129635],[140.83013,37.129458],[140.828988,37.129565],[140.825375,37.13006],[140.824043,37.13008],[140.823689,37.130041],[140.823337,37.129909],[140.823159,37.129792],[140.822482,37.128737],[140.822197,37.128535],[140.82202,37.128467],[140.821765,37.128456],[140.821584,37.12853],[140.82069,37.129249],[140.819878,37.130024],[140.819184,37.130878],[140.818582,37.131424],[140.817969,37.131847],[140.816827,37.132509],[140.816287,37.132675],[140.815855,37.132658],[140.815364,37.132468],[140.815017,37.132197],[140.814916,37.132051],[140.814816,37.131728],[140.814763,37.131048],[140.815156,37.130073],[140.815605,37.129291],[140.814404,37.129636],[140.813974,37.129622],[140.813226,37.129388],[140.812472,37.129556],[140.811932,37.129415],[140.811253,37.129129],[140.810609,37.128983],[140.808462,37.129364],[140.807034,37.129358],[140.806961,37.129398],[140.807154,37.129831],[140.807155,37.130091],[140.806734,37.130337],[140.806698,37.130475],[140.806107,37.130545],[140.805177,37.130541],[140.804177,37.130452],[140.803465,37.130461],[140.800988,37.132307],[140.800633,37.132453],[140.800304,37.132435],[140.79981,37.132194],[140.79958,37.13203],[140.799099,37.131561],[140.798612,37.13122],[140.797997,37.130948],[140.797461,37.130859],[140.79627,37.130765],[140.79553,37.13046],[140.795239,37.130438],[140.794952,37.130552],[140.794531,37.130813],[140.794237,37.131325],[140.793631,37.131702],[140.792552,37.131918],[140.791553,37.131923],[140.790519,37.131775],[140.789726,37.131967],[140.788795,37.132049],[140.787836,37.132518],[140.787224,37.132972],[140.786935,37.133286],[140.786613,37.133537],[140.786294,37.133604],[140.78611,37.133583],[140.785578,37.133317],[140.785151,37.133312],[140.784765,37.133687]]],[[[140.836197,37.198535],[140.836012,37.198788],[140.835844,37.19965],[140.83537,37.199806],[140.835091,37.199995],[140.834863,37.20003],[140.834766,37.200001],[140.833872,37.199222],[140.832981,37.198952],[140.832409,37.198832],[140.832356,37.198766],[140.832617,37.198273],[140.832635,37.198096],[140.832551,37.198019],[140.832169,37.197926],[140.832116,37.197848],[140.832148,37.197529],[140.832051,37.197295],[140.831913,37.197232],[140.831621,37.197215],[140.831377,37.197145],[140.830728,37.196813],[140.829939,37.196786],[140.829652,37.196581],[140.829441,37.196198],[140.829164,37.196082],[140.829042,37.19595],[140.828841,37.195545],[140.828832,37.195116],[140.828961,37.194865],[140.829245,37.194612],[140.82925,37.194055],[140.829355,37.193365],[140.829303,37.193296],[140.82834,37.19272],[140.828134,37.192481],[140.827835,37.19177],[140.82777,37.191482],[140.827778,37.191168],[140.827921,37.190766],[140.827642,37.190247],[140.827519,37.189852],[140.8266,37.189811],[140.825484,37.189572],[140.82481,37.189295],[140.824484,37.188991],[140.824168,37.18878],[140.82359,37.188676],[140.823374,37.188529],[140.823069,37.187865],[140.823057,37.187237],[140.823197,37.186463],[140.823333,37.186175],[140.823557,37.185968],[140.823515,37.184516],[140.823421,37.184264],[140.823249,37.184061],[140.822961,37.183946],[140.821386,37.183896],[140.821061,37.183751],[140.820672,37.183487],[140.820152,37.18304],[140.82,37.183021],[140.818773,37.183275],[140.817988,37.183593],[140.817452,37.183909],[140.81723,37.184136],[140.816742,37.184807],[140.816551,37.18521],[140.816474,37.185579],[140.81642,37.186596],[140.816442,37.187257],[140.816353,37.187857],[140.816257,37.188171],[140.815689,37.189002],[140.815293,37.189402],[140.814966,37.189652],[140.814393,37.189965],[140.813431,37.190317],[140.812499,37.190484],[140.811498,37.19054],[140.809751,37.190527],[140.809243,37.19065],[140.807092,37.191732],[140.806016,37.191983],[140.804911,37.192139],[140.804083,37.192085],[140.80366,37.191928],[140.80073,37.190294],[140.80001,37.190046],[140.799516,37.189975],[140.798977,37.189974],[140.798474,37.190054],[140.797872,37.190268],[140.796936,37.190744],[140.793091,37.192904],[140.792249,37.193306],[140.791852,37.193412],[140.789523,37.193448],[140.788874,37.193525],[140.788235,37.193706],[140.787623,37.194014],[140.787194,37.194324],[140.78636,37.195348],[140.785663,37.19586],[140.785046,37.196193],[140.783255,37.196915],[140.783071,37.196887],[140.782647,37.196617],[140.782511,37.19647],[140.782408,37.196211],[140.782139,37.195045],[140.781625,37.19395],[140.781124,37.193117],[140.780902,37.192117],[140.780121,37.191202],[140.779127,37.18991],[140.778633,37.18954],[140.777374,37.189391],[140.776836,37.18925],[140.776265,37.188906],[140.775446,37.188611],[140.774992,37.18804],[140.774628,37.187748],[140.774165,37.187545],[140.773797,37.187449],[140.773338,37.187443],[140.772941,37.187552],[140.772508,37.187744],[140.772205,37.187986],[140.77185,37.188533],[140.771757,37.188606],[140.771509,37.18864],[140.770687,37.188634],[140.770259,37.188489],[140.769944,37.18826],[140.769861,37.187805],[140.769924,37.187457],[140.770106,37.187173],[140.770551,37.186893],[140.770681,37.186773],[140.770802,37.186549],[140.77084,37.186405],[140.770727,37.185461],[140.770842,37.185231],[140.772166,37.184694],[140.772563,37.184472],[140.772878,37.184204],[140.77292,37.183918],[140.772862,37.183627],[140.772752,37.183342],[140.772383,37.182974],[140.77232,37.182855],[140.772358,37.18272],[140.774072,37.181925],[140.77432,37.181864],[140.774567,37.181865],[140.775923,37.182386],[140.776635,37.182508],[140.777115,37.182559],[140.778822,37.182525],[140.77925,37.182376],[140.779465,37.182184],[140.780047,37.180899],[140.780336,37.179984],[140.780474,37.179838],[140.780695,37.179704],[140.782156,37.179349],[140.78377,37.178815],[140.784382,37.178868],[140.784952,37.179072],[140.785661,37.179085],[140.786808,37.179334],[140.787815,37.178684],[140.788065,37.178598],[140.788602,37.178571],[140.788849,37.178507],[140.789632,37.178185],[140.790033,37.178087],[140.790889,37.178258],[140.792495,37.178296],[140.794183,37.178685],[140.794859,37.178783],[140.797291,37.178409],[140.798427,37.178425],[140.799327,37.178377],[140.799868,37.178272],[140.800871,37.177645],[140.801912,37.176812],[140.802657,37.175899],[140.803333,37.175211],[140.80496,37.17379],[140.806512,37.172103],[140.807645,37.171613],[140.808069,37.171271],[140.80869,37.170503],[140.809043,37.170199],[140.809366,37.170043],[140.810871,37.169565],[140.812516,37.168819],[140.813085,37.168668],[140.813304,37.168644],[140.813668,37.168724],[140.814234,37.169219],[140.814548,37.169329],[140.814766,37.169338],[140.815163,37.16929],[140.815873,37.169114],[140.817017,37.169158],[140.818137,37.168837],[140.81878,37.168572],[140.819071,37.168231],[140.81922,37.167976],[140.819278,37.167312],[140.819364,37.166974],[140.819456,37.166878],[140.819712,37.166739],[140.819933,37.166686],[140.821076,37.166883],[140.821328,37.166891],[140.821679,37.166801],[140.821921,37.166517],[140.822001,37.166201],[140.821991,37.166004],[140.82177,37.165489],[140.821793,37.165116],[140.822107,37.16488],[140.823289,37.164709],[140.823715,37.164565],[140.824014,37.164383],[140.824548,37.163972],[140.825052,37.163148],[140.825166,37.162772],[140.825189,37.162512],[140.825105,37.162177],[140.824467,37.161686],[140.823993,37.160819],[140.823691,37.160452],[140.822875,37.159761],[140.821167,37.15846],[140.820164,37.158005],[140.819693,37.157698],[140.819586,37.157583],[140.819528,37.157407],[140.819516,37.157238],[140.819575,37.156976],[140.81984,37.156722],[140.820197,37.156494],[140.822169,37.155584],[140.823203,37.154976],[140.823638,37.154844],[140.823851,37.154841],[140.823991,37.154871],[140.824098,37.154957],[140.824216,37.155097],[140.824331,37.15538],[140.824388,37.155843],[140.824345,37.156589],[140.824425,37.157043],[140.824564,37.157245],[140.824669,37.157297],[140.824808,37.157304],[140.824996,37.157229],[140.825339,37.156873],[140.825587,37.156471],[140.825825,37.156225],[140.826327,37.155878],[140.826428,37.155734],[140.826501,37.154503],[140.826632,37.154213],[140.826783,37.154073],[140.827468,37.153647],[140.827834,37.153218],[140.827931,37.153205],[140.828324,37.153358],[140.828819,37.153734],[140.829402,37.154703],[140.831007,37.15668],[140.831465,37.15711],[140.832032,37.157345],[140.833463,37.15886],[140.833838,37.159523],[140.834018,37.160183],[140.834301,37.160841],[140.834849,37.161514],[140.835448,37.162101],[140.836416,37.162858],[140.837809,37.163569],[140.839317,37.16453],[140.839958,37.164878],[140.841632,37.165578],[140.843392,37.166476],[140.845097,37.166905],[140.845638,37.166977],[140.846247,37.166981],[140.847355,37.166868],[140.847479,37.167005],[140.847595,37.167813],[140.84772,37.168036],[140.848288,37.168582],[140.848571,37.169035],[140.848786,37.169151],[140.849529,37.169038],[140.850104,37.168841],[140.85038,37.16867],[140.850894,37.16813],[140.85132,37.167814],[140.852934,37.167025],[140.853295,37.166967],[140.854477,37.166927],[140.854707,37.16674],[140.854937,37.166389],[140.854905,37.166361],[140.855347,37.165534],[140.855335,37.165246],[140.855188,37.165043],[140.85402,37.164096],[140.853865,37.1639],[140.853813,37.163665],[140.85376,37.162925],[140.853776,37.162355],[140.854021,37.161924],[140.854673,37.16104],[140.854761,37.160832],[140.854681,37.160572],[140.854044,37.159718],[140.854013,37.158882],[140.854104,37.158635],[140.854517,37.157998],[140.8547,37.15763],[140.854923,37.157372],[140.855186,37.157239],[140.855641,37.156831],[140.85652,37.155597],[140.856672,37.155456],[140.856822,37.15538],[140.857103,37.155375],[140.857376,37.155512],[140.858294,37.156416],[140.85875,37.156947],[140.859067,37.157207],[140.859635,37.157528],[140.860196,37.15767],[140.860287,37.157806],[140.860432,37.158322],[140.860533,37.158432],[140.861025,37.15871],[140.861497,37.158536],[140.861717,37.158631],[140.861682,37.159216],[140.861502,37.159557],[140.861681,37.15984],[140.861714,37.159986],[140.861471,37.160849],[140.86127,37.161273],[140.861252,37.161385],[140.861354,37.161683],[140.861669,37.161616],[140.862346,37.161637],[140.862706,37.161524],[140.863142,37.161487],[140.863589,37.161131],[140.863624,37.161044],[140.863577,37.160817],[140.863592,37.160568],[140.863652,37.160494],[140.863928,37.160393],[140.863976,37.160326],[140.863822,37.16007],[140.863818,37.159989],[140.864155,37.159727],[140.864075,37.159622],[140.863544,37.159354],[140.863545,37.15925],[140.863814,37.158979],[140.864283,37.158929],[140.864864,37.159089],[140.864953,37.159137],[140.865332,37.159639],[140.865569,37.159765],[140.866147,37.15975],[140.866381,37.159644],[140.866609,37.159305],[140.866598,37.159051],[140.866351,37.15831],[140.865799,37.157612],[140.865663,37.157361],[140.865614,37.157159],[140.865728,37.157024],[140.865903,37.157032],[140.866301,37.157209],[140.866455,37.15762],[140.867246,37.158535],[140.867418,37.158995],[140.867605,37.159247],[140.868357,37.159403],[140.868798,37.159439],[140.868893,37.159394],[140.868946,37.159044],[140.869455,37.158501],[140.869578,37.158276],[140.870183,37.157871],[140.8709,37.157736],[140.871263,37.157365],[140.871433,37.156936],[140.871511,37.156844],[140.871661,37.156841],[140.871761,37.156905],[140.871831,37.157021],[140.871941,37.157965],[140.87197,37.159168],[140.872174,37.160116],[140.872636,37.16129],[140.872889,37.161804],[140.873044,37.162001],[140.873828,37.162569],[140.874752,37.163063],[140.874948,37.163545],[140.875206,37.164412],[140.876782,37.16633],[140.877181,37.166701],[140.877355,37.166795],[140.877683,37.166861],[140.878356,37.166765],[140.879009,37.166836],[140.879794,37.167097],[140.880256,37.167303],[140.880402,37.16739],[140.880541,37.167592],[140.880556,37.167735],[140.880462,37.168136],[140.880576,37.168563],[140.880324,37.169738],[140.880276,37.170249],[140.880137,37.170508],[140.879579,37.171113],[140.879382,37.171422],[140.879219,37.171828],[140.879068,37.172312],[140.878884,37.173627],[140.878852,37.17443],[140.878785,37.174747],[140.878241,37.175689],[140.878171,37.175976],[140.878168,37.17646],[140.878365,37.177172],[140.878338,37.177348],[140.878015,37.1776],[140.877583,37.178719],[140.877437,37.178887],[140.877231,37.178975],[140.876131,37.178934],[140.875269,37.179517],[140.874833,37.179688],[140.874228,37.179716],[140.873657,37.179571],[140.873185,37.179386],[140.872726,37.179287],[140.872405,37.179297],[140.871873,37.179409],[140.871079,37.17946],[140.86901,37.179021],[140.868402,37.178801],[140.868006,37.178797],[140.867006,37.178677],[140.86661,37.17871],[140.865111,37.178973],[140.864107,37.179396],[140.863879,37.17976],[140.863746,37.179847],[140.863072,37.180032],[140.86268,37.180261],[140.862169,37.180359],[140.861945,37.180504],[140.861532,37.180937],[140.861255,37.180994],[140.860943,37.181143],[140.86081,37.181263],[140.860344,37.181081],[140.859313,37.18048],[140.858873,37.180326],[140.857374,37.180189],[140.855699,37.179496],[140.85502,37.178782],[140.854701,37.178549],[140.854448,37.178469],[140.853716,37.178424],[140.853309,37.178056],[140.852771,37.17786],[140.852509,37.177638],[140.852151,37.177148],[140.852029,37.176743],[140.851881,37.176457],[140.851461,37.175997],[140.851186,37.175546],[140.851156,37.175314],[140.851241,37.174887],[140.851644,37.174144],[140.851685,37.173825],[140.851533,37.173509],[140.850783,37.172985],[140.850603,37.172791],[140.850463,37.172505],[140.850487,37.171993],[140.850645,37.171739],[140.8512,37.171302],[140.851411,37.171026],[140.851447,37.170911],[140.851387,37.170536],[140.851094,37.170203],[140.850465,37.169946],[140.85021,37.169962],[140.84982,37.170225],[140.849601,37.170285],[140.849423,37.170242],[140.849212,37.170041],[140.849036,37.169947],[140.848854,37.169932],[140.848529,37.170045],[140.847312,37.171266],[140.846666,37.171651],[140.846274,37.171734],[140.845125,37.171534],[140.84395,37.17106],[140.843378,37.171018],[140.841692,37.170594],[140.838344,37.169964],[140.837952,37.169642],[140.837658,37.169601],[140.837295,37.169649],[140.837118,37.169738],[140.836293,37.170393],[140.835651,37.170723],[140.834182,37.170899],[140.83293,37.171249],[140.832215,37.171392],[140.831812,37.171589],[140.829894,37.171834],[140.829845,37.171877],[140.830126,37.172571],[140.830327,37.17325],[140.830759,37.173965],[140.830784,37.174257],[140.830741,37.174772],[140.830805,37.175032],[140.831505,37.176084],[140.8316,37.176319],[140.831559,37.176489],[140.830833,37.177329],[140.831121,37.177359],[140.831352,37.17752],[140.831477,37.177725],[140.831952,37.177921],[140.832979,37.17884],[140.834296,37.180282],[140.835176,37.181127],[140.835467,37.181567],[140.835666,37.181989],[140.835806,37.182646],[140.836446,37.182781],[140.838661,37.182474],[140.840748,37.182095],[140.841917,37.181752],[140.842123,37.181641],[140.841997,37.181857],[140.841768,37.18272],[140.841753,37.184202],[140.841828,37.18455],[140.842048,37.184865],[140.84245,37.185293],[140.843028,37.185711],[140.843651,37.186307],[140.843667,37.187124],[140.843758,37.187644],[140.843953,37.187864],[140.844764,37.188392],[140.844982,37.188614],[140.845155,37.188901],[140.845281,37.189356],[140.84536,37.189981],[140.845667,37.190587],[140.845789,37.191339],[140.846033,37.191704],[140.846116,37.191995],[140.846106,37.19214],[140.845988,37.192399],[140.84612,37.192796],[140.846005,37.193308],[140.845506,37.193792],[140.844746,37.19439],[140.844627,37.194571],[140.844482,37.195192],[140.844411,37.195295],[140.844295,37.19531],[140.84397,37.195139],[140.843435,37.194679],[140.842967,37.194428],[140.842359,37.194228],[140.841319,37.193998],[140.840485,37.193931],[140.841539,37.194505],[140.84195,37.19497],[140.842189,37.195391],[140.842313,37.195912],[140.842396,37.196624],[140.842395,37.197685],[140.842365,37.197831],[140.842281,37.197909],[140.842062,37.197938],[140.841928,37.197908],[140.841826,37.197825],[140.840985,37.196026],[140.840588,37.195496],[140.840321,37.195354],[140.840209,37.19538],[140.840051,37.1955],[140.83995,37.196019],[140.839823,37.196337],[140.839537,37.196629],[140.839131,37.196757],[140.839014,37.196871],[140.838956,37.197108],[140.839041,37.197389],[140.839168,37.197537],[140.840199,37.198342],[140.840609,37.198966],[140.840672,37.19937],[140.840445,37.199767],[140.840314,37.199886],[140.84013,37.199999],[140.839944,37.20003],[140.839702,37.200028],[140.839538,37.199965],[140.839623,37.199199],[140.839348,37.198395],[140.839046,37.198031],[140.83882,37.19784],[140.838599,37.197796],[140.838454,37.19785],[140.838128,37.198306],[140.837709,37.198621],[140.837308,37.198623],[140.83645,37.198418],[140.836197,37.198535]]]]}}]}
