{"type":"FeatureCollection","features":[{"type":"Feature","properties":{"potaRef":"JP-1280","nameJa":"Tama kyuryo","nameEn":"Hirayama Joshi Prefectural Park","authority":"環境省 生物多様性「見える化」マップ","boundaryStatus":"全国GIS候補・公開前検証待ち","boundarySource":"環境省 生物多様性「見える化」マップの自然公園区域を、POTA代表座標で一意に空間照合して加工","boundaryScaleNote":"区域は概要データであり、正確性は保証されない。POTA運用可否は公式情報で最終確認すること。","candidateMethod":"POTA representative point inside one public natural-park area","sourceParkKind":"都道府県立自然公園","sourceName":"Tama kyuryo","sourceFeatureCount":1,"cautionMeters":75},"geometry":{"type":"MultiPolygon","coordinates":[[[[139.398231,35.639773],[139.398398,35.639792],[139.3985,35.639894],[139.398942,35.640816],[139.399118,35.641017],[139.399362,35.64119],[139.400252,35.641517],[139.400957,35.642138],[139.402031,35.642551],[139.402787,35.64307],[139.403845,35.643506],[139.404511,35.643582],[139.404703,35.643678],[139.404844,35.6438],[139.405024,35.64421],[139.405133,35.644312],[139.405827,35.64468],[139.405956,35.644783],[139.406116,35.64502],[139.406404,35.645257],[139.40677,35.645346],[139.407603,35.645378],[139.407729,35.645345],[139.40826,35.644961],[139.408664,35.644769],[139.409068,35.644679],[139.409446,35.644705],[139.40985,35.645],[139.410177,35.645],[139.410523,35.644904],[139.410613,35.644923],[139.411367,35.645373],[139.411618,35.645687],[139.411774,35.646034],[139.412063,35.646382],[139.412807,35.647034],[139.413614,35.647424],[139.414169,35.64736],[139.414734,35.647039],[139.415004,35.647034],[139.415134,35.647147],[139.415232,35.647349],[139.415645,35.647581],[139.415955,35.647886],[139.416095,35.648108],[139.416454,35.648498],[139.41681,35.649051],[139.417839,35.648648],[139.418909,35.648121],[139.420478,35.646999],[139.420975,35.646994],[139.421229,35.646412],[139.421415,35.646262],[139.423545,35.645498],[139.424432,35.645408],[139.424619,35.645352],[139.425011,35.645099],[139.425492,35.644938],[139.425999,35.64434],[139.426402,35.64404],[139.426968,35.643748],[139.427273,35.643748],[139.427351,35.643794],[139.427397,35.643965],[139.42733,35.644378],[139.427366,35.644858],[139.427578,35.645234],[139.427919,35.645497],[139.42841,35.645694],[139.428648,35.645735],[139.429625,35.645704],[139.430528,35.646061],[139.430864,35.646309],[139.430905,35.646386],[139.431799,35.646403],[139.432287,35.646766],[139.432567,35.647292],[139.432845,35.648122],[139.433093,35.648276],[139.433165,35.648389],[139.433207,35.648539],[139.433202,35.649102],[139.43328,35.64942],[139.433735,35.650355],[139.43405,35.650856],[139.434314,35.650876],[139.43542,35.650551],[139.436364,35.65046],[139.436499,35.650414],[139.436543,35.649435],[139.436188,35.648195],[139.436949,35.648015],[139.437295,35.646665],[139.438464,35.646442],[139.43827,35.644468],[139.43846,35.643639],[139.43797,35.641922],[139.43731,35.639917],[139.437557,35.639208],[139.438297,35.638576],[139.438894,35.637799],[139.439026,35.637017],[139.439265,35.636664],[139.439706,35.636479],[139.440436,35.636322],[139.441319,35.635811],[139.442856,35.634595],[139.442799,35.631553],[139.443092,35.631438],[139.444927,35.631391],[139.445621,35.631614],[139.44662,35.632624],[139.448076,35.632572],[139.449255,35.633347],[139.450158,35.633288],[139.451545,35.633781],[139.452331,35.633791],[139.453182,35.633445],[139.454218,35.632508],[139.454471,35.631466],[139.455054,35.629929],[139.456168,35.627995],[139.458117,35.626499],[139.459962,35.625929],[139.462477,35.625058],[139.462777,35.625052],[139.463208,35.624915],[139.464159,35.624514],[139.464413,35.624814],[139.464488,35.625127],[139.464438,35.625389],[139.4643,35.62564],[139.464284,35.626304],[139.464471,35.626696],[139.464517,35.627163],[139.464822,35.628016],[139.465148,35.62851],[139.465206,35.628739],[139.465114,35.628927],[139.46481,35.629227],[139.464526,35.629621],[139.465031,35.629992],[139.465423,35.630362],[139.466412,35.630871],[139.467506,35.630962],[139.467614,35.631128],[139.467677,35.631395],[139.46786,35.631637],[139.468576,35.631642],[139.468635,35.631842],[139.468656,35.632547],[139.468772,35.633009],[139.469073,35.63283],[139.469348,35.632773],[139.470075,35.632782],[139.470387,35.633237],[139.47039,35.634592],[139.469964,35.635561],[139.46989,35.636368],[139.470133,35.63765],[139.469887,35.63833],[139.46955,35.639038],[139.469402,35.639508],[139.46901,35.640162],[139.468906,35.640865],[139.468964,35.642294],[139.468939,35.643277],[139.468897,35.644156],[139.46878,35.644564],[139.469605,35.645131],[139.470558,35.645604],[139.471795,35.64634],[139.47237,35.646602],[139.472604,35.646681],[139.473165,35.646766],[139.473787,35.646795],[139.473849,35.646845],[139.473907,35.647696],[139.473682,35.647999],[139.473624,35.648339],[139.473807,35.649333],[139.472828,35.649257],[139.47255,35.649281],[139.471847,35.649704],[139.471156,35.65002],[139.469154,35.650807],[139.467882,35.651208],[139.464432,35.652111],[139.45966,35.653262],[139.458745,35.653434],[139.455272,35.654328],[139.45207,35.655334],[139.450946,35.655633],[139.449726,35.652435],[139.448499,35.651136],[139.447369,35.650884],[139.445189,35.650713],[139.440481,35.651793],[139.437729,35.652589],[139.436437,35.653354],[139.433435,35.656523],[139.432066,35.656552],[139.42996,35.657048],[139.428036,35.657189],[139.42642,35.657928],[139.425423,35.658319],[139.424946,35.658883],[139.424592,35.659116],[139.423465,35.658697],[139.421505,35.659147],[139.417405,35.658927],[139.413731,35.659187],[139.411237,35.661625],[139.410582,35.662353],[139.409094,35.662524],[139.408609,35.662018],[139.407314,35.661265],[139.405689,35.661006],[139.403901,35.66015],[139.402569,35.659752],[139.401927,35.659863],[139.401377,35.659713],[139.399871,35.65784],[139.399094,35.657402],[139.398047,35.65734],[139.39527,35.654998],[139.395412,35.653717],[139.394329,35.652539],[139.390307,35.649871],[139.388481,35.649467],[139.387767,35.648792],[139.387091,35.647666],[139.385795,35.64696],[139.384866,35.646828],[139.383924,35.647362],[139.382676,35.647179],[139.382267,35.645843],[139.380791,35.645419],[139.379854,35.645668],[139.379015,35.645419],[139.37454,35.642151],[139.373818,35.641856],[139.36902,35.641649],[139.368478,35.641095],[139.367841,35.64092],[139.366941,35.640813],[139.366008,35.640895],[139.364807,35.641259],[139.363836,35.641816],[139.361737,35.64193],[139.360685,35.642154],[139.356572,35.642596],[139.355636,35.642798],[139.355124,35.64222],[139.355088,35.641127],[139.355315,35.639989],[139.354691,35.639221],[139.354611,35.637438],[139.354071,35.636812],[139.353185,35.635992],[139.352446,35.638002],[139.351381,35.638843],[139.350177,35.637947],[139.34983,35.6378],[139.349429,35.638935],[139.348341,35.639443],[139.348085,35.639154],[139.346857,35.639422],[139.346471,35.638395],[139.346469,35.637065],[139.346987,35.635931],[139.34732,35.635318],[139.348234,35.634737],[139.348479,35.63417],[139.348485,35.633885],[139.347875,35.633829],[139.344306,35.636132],[139.343691,35.636314],[139.343141,35.636164],[139.342616,35.636204],[139.341807,35.637333],[139.34183,35.637642],[139.342264,35.63772],[139.341969,35.637953],[139.340682,35.638221],[139.340453,35.638051],[139.340463,35.637576],[139.340847,35.635871],[139.341018,35.634661],[139.340882,35.634184],[139.339516,35.634094],[139.338976,35.633493],[139.338801,35.632112],[139.338537,35.630802],[139.337065,35.627384],[139.337314,35.626603],[139.338062,35.625592],[139.340133,35.623957],[139.341291,35.622833],[139.341336,35.622073],[139.34166,35.621911],[139.342181,35.622037],[139.342525,35.622303],[139.342682,35.623137],[139.342882,35.62333],[139.343583,35.623197],[139.344846,35.62262],[139.345127,35.621721],[139.345519,35.621014],[139.346901,35.620344],[139.348094,35.620336],[139.348931,35.620657],[139.349894,35.620551],[139.351778,35.619508],[139.353238,35.619242],[139.35408,35.619325],[139.354888,35.619669],[139.355737,35.620845],[139.355944,35.622083],[139.356398,35.622659],[139.357234,35.623051],[139.358392,35.623328],[139.359315,35.623721],[139.359735,35.624535],[139.360004,35.627033],[139.359643,35.627646],[139.361648,35.627768],[139.361606,35.628433],[139.361938,35.629269],[139.361693,35.629836],[139.361536,35.630404],[139.361879,35.630741],[139.362776,35.630967],[139.363027,35.631517],[139.363242,35.632399],[139.363336,35.63347],[139.36371,35.633712],[139.364147,35.633695],[139.365229,35.633424],[139.367912,35.633175],[139.369052,35.632906],[139.371106,35.632078],[139.373305,35.6313],[139.375673,35.630786],[139.37587,35.631097],[139.376357,35.631484],[139.377544,35.631809],[139.379112,35.631972],[139.379865,35.632125],[139.380352,35.632512],[139.380554,35.634059],[139.38118,35.634756],[139.381234,35.634971],[139.381717,35.635548],[139.383123,35.635139],[139.384172,35.635058],[139.385481,35.635099],[139.386205,35.635251],[139.386401,35.635634],[139.38639,35.636204],[139.386621,35.636302],[139.38706,35.63619],[139.387588,35.635983],[139.390133,35.633878],[139.391185,35.633655],[139.392228,35.633906],[139.392687,35.634221],[139.392096,35.634689],[139.391559,35.635323],[139.391518,35.63594],[139.391623,35.636488],[139.392076,35.63716],[139.393398,35.637961],[139.39371,35.638393],[139.393744,35.639582],[139.394148,35.639753],[139.394497,35.639805],[139.395741,35.640155],[139.396268,35.640019],[139.396828,35.63967],[139.397586,35.639609],[139.398231,35.639773]]]]}}]}
