{"type":"FeatureCollection","features":[{"type":"Feature","properties":{"potaRef":"JP-1350","nameJa":"Agano gawa line","nameEn":"Aganogawa Line Prefectural Nature Park","authority":"環境省 生物多様性「見える化」マップ","boundaryStatus":"全国GIS候補・公開前検証待ち","boundarySource":"環境省 生物多様性「見える化」マップの自然公園区域を、POTA代表座標で一意に空間照合して加工","boundaryScaleNote":"区域は概要データであり、正確性は保証されない。POTA運用可否は公式情報で最終確認すること。","candidateMethod":"POTA representative point inside one public natural-park area","sourceParkKind":"都道府県立自然公園","sourceName":"Agano gawa line","sourceFeatureCount":1,"cautionMeters":75},"geometry":{"type":"MultiPolygon","coordinates":[[[[139.463616,37.743599],[139.462612,37.743643],[139.462354,37.743412],[139.462066,37.742347],[139.46147,37.741144],[139.460737,37.740775],[139.460097,37.740558],[139.459746,37.74025],[139.459243,37.739181],[139.458329,37.738316],[139.457269,37.737639],[139.455367,37.737273],[139.454824,37.736962],[139.454105,37.735948],[139.45353,37.734917],[139.452548,37.733937],[139.452105,37.733419],[139.451915,37.732222],[139.451779,37.730723],[139.451622,37.730266],[139.451044,37.729329],[139.450899,37.728284],[139.451204,37.727378],[139.450738,37.72686],[139.449373,37.725913],[139.449001,37.725453],[139.448893,37.724883],[139.448503,37.724139],[139.447575,37.724013],[139.445254,37.724247],[139.44454,37.724162],[139.443645,37.72362],[139.442341,37.723185],[139.441713,37.722381],[139.441008,37.721859],[139.439986,37.721675],[139.438699,37.721563],[139.437864,37.721552],[139.435931,37.720408],[139.434217,37.720177],[139.433485,37.719807],[139.432675,37.71972],[139.431726,37.719461],[139.430618,37.718821],[139.429262,37.717457],[139.428629,37.716936],[139.428152,37.716911],[139.427504,37.717073],[139.426908,37.717046],[139.425983,37.716787],[139.42503,37.716699],[139.423951,37.716969],[139.422643,37.717031],[139.421334,37.717026],[139.420074,37.716716],[139.419738,37.716564],[139.418686,37.715551],[139.416,37.714697],[139.414629,37.713822],[139.411958,37.713527],[139.409886,37.712817],[139.409144,37.712921],[139.408062,37.713324],[139.406273,37.71328],[139.404703,37.713032],[139.403901,37.712604],[139.403364,37.712047],[139.402891,37.710732],[139.402321,37.709492],[139.401571,37.708875],[139.400085,37.708316],[139.399953,37.707774],[139.400029,37.705898],[139.40016,37.704819],[139.400493,37.704312],[139.401326,37.703868],[139.402805,37.703348],[139.404036,37.702682],[139.405596,37.701679],[139.407331,37.700906],[139.411136,37.699686],[139.41273,37.698797],[139.414005,37.698303],[139.415226,37.698129],[139.416037,37.698121],[139.417175,37.69734],[139.417874,37.697008],[139.418756,37.69594],[139.419311,37.695625],[139.420419,37.695147],[139.42217,37.693578],[139.42276,37.69387],[139.423453,37.693841],[139.423868,37.693373],[139.423828,37.693031],[139.424192,37.692751],[139.425104,37.692479],[139.426014,37.69234],[139.427299,37.692471],[139.428319,37.692769],[139.428764,37.693154],[139.428955,37.693175],[139.429609,37.69271],[139.430415,37.691811],[139.431792,37.691014],[139.432576,37.691176],[139.433562,37.690772],[139.434323,37.690896],[139.434356,37.690479],[139.434765,37.690295],[139.435343,37.690235],[139.435423,37.690778],[139.436605,37.691286],[139.437305,37.692073],[139.43827,37.692692],[139.438325,37.693489],[139.43923,37.693539],[139.439662,37.69345],[139.439298,37.692592],[139.439682,37.692483],[139.43971,37.692275],[139.439179,37.691434],[139.43966,37.69127],[139.439861,37.690742],[139.441475,37.691142],[139.4425,37.691194],[139.442846,37.691786],[139.442979,37.692281],[139.442921,37.692754],[139.442699,37.693111],[139.44264,37.69366],[139.443925,37.692653],[139.443935,37.692179],[139.44477,37.69219],[139.444853,37.692798],[139.444943,37.693027],[139.445252,37.693107],[139.44641,37.692496],[139.445613,37.691803],[139.445312,37.691363],[139.445139,37.690508],[139.444937,37.689899],[139.446644,37.689276],[139.447828,37.688572],[139.448336,37.688218],[139.451431,37.687368],[139.452314,37.68736],[139.453427,37.687773],[139.454773,37.688435],[139.455817,37.688695],[139.457769,37.68893],[139.459926,37.688465],[139.462486,37.688081],[139.464807,37.687789],[139.465473,37.687874],[139.465658,37.68816],[139.465754,37.68928],[139.465441,37.690565],[139.465423,37.691437],[139.465564,37.692728],[139.465411,37.693181],[139.465186,37.69369],[139.4647,37.69412],[139.464371,37.695007],[139.463587,37.696039],[139.462593,37.696766],[139.462251,37.697179],[139.462259,37.697937],[139.462548,37.698965],[139.462964,37.699596],[139.463386,37.699961],[139.466078,37.69903],[139.467017,37.698625],[139.46829,37.698224],[139.471136,37.697882],[139.472684,37.698016],[139.473987,37.698488],[139.475517,37.699493],[139.475911,37.700105],[139.475053,37.700037],[139.474621,37.701321],[139.474075,37.701162],[139.47274,37.701145],[139.468981,37.701722],[139.468469,37.702265],[139.467648,37.702747],[139.466974,37.703004],[139.466643,37.704023],[139.466368,37.704645],[139.465839,37.704828],[139.465711,37.705262],[139.465931,37.706175],[139.466182,37.706728],[139.466623,37.707341],[139.466925,37.707705],[139.467496,37.707807],[139.46793,37.707585],[139.468081,37.707227],[139.46811,37.706943],[139.468543,37.706797],[139.468618,37.706608],[139.468628,37.706153],[139.468871,37.705929],[139.471109,37.704991],[139.47137,37.70507],[139.471527,37.705584],[139.471583,37.706343],[139.472218,37.706807],[139.472613,37.707286],[139.472653,37.707703],[139.472957,37.707973],[139.473524,37.708284],[139.473421,37.708642],[139.473437,37.709022],[139.474491,37.709983],[139.475285,37.710847],[139.475606,37.711477],[139.476141,37.713323],[139.476721,37.714126],[139.47732,37.715177],[139.479127,37.717836],[139.480307,37.71969],[139.48192,37.721322],[139.482876,37.721861],[139.483762,37.722112],[139.484883,37.722346],[139.48617,37.722457],[139.490381,37.723118],[139.491384,37.723093],[139.491979,37.723158],[139.492834,37.723396],[139.493383,37.723365],[139.494151,37.723185],[139.49492,37.722911],[139.495927,37.722715],[139.496824,37.722025],[139.49729,37.721367],[139.497662,37.720709],[139.497891,37.718797],[139.498309,37.718214],[139.499247,37.717866],[139.500225,37.717859],[139.501536,37.717952],[139.502509,37.718249],[139.503717,37.7187],[139.50512,37.718945],[139.507004,37.719045],[139.508675,37.719009],[139.509657,37.71887],[139.511981,37.718407],[139.514855,37.717931],[139.516056,37.717548],[139.516899,37.717122],[139.517482,37.716618],[139.517761,37.715787],[139.518587,37.712688],[139.520303,37.710397],[139.52154,37.709369],[139.522434,37.708831],[139.524736,37.708272],[139.526566,37.70748],[139.527614,37.706355],[139.528329,37.705189],[139.529114,37.704099],[139.530222,37.702387],[139.53095,37.701752],[139.531765,37.701553],[139.534196,37.701716],[139.535815,37.701926],[139.538712,37.702607],[139.539472,37.702825],[139.540589,37.703047],[139.541228,37.70332],[139.541838,37.703821],[139.542763,37.704154],[139.544119,37.704323],[139.546242,37.704368],[139.547051,37.70453],[139.548174,37.704411],[139.549009,37.70444],[139.550524,37.705065],[139.552468,37.705753],[139.553933,37.706491],[139.554527,37.706612],[139.555197,37.706507],[139.555912,37.706572],[139.55629,37.706767],[139.557477,37.707104],[139.557948,37.707413],[139.558178,37.70787],[139.558698,37.708123],[139.560121,37.708558],[139.561262,37.70878],[139.562575,37.708758],[139.563961,37.708662],[139.566938,37.707731],[139.568025,37.707061],[139.568395,37.70644],[139.568555,37.705551],[139.568731,37.703847],[139.568725,37.702918],[139.567153,37.70032],[139.56518,37.694988],[139.565192,37.694362],[139.565488,37.693854],[139.567516,37.692608],[139.568356,37.692353],[139.569286,37.692345],[139.572449,37.692896],[139.573155,37.693416],[139.574362,37.695194],[139.57495,37.695618],[139.575923,37.695895],[139.576946,37.69604],[139.578188,37.695979],[139.580804,37.695196],[139.581599,37.694769],[139.582066,37.694073],[139.582204,37.693108],[139.582051,37.692348],[139.581403,37.691316],[139.580982,37.690837],[139.580513,37.690433],[139.580166,37.68986],[139.578106,37.687807],[139.576943,37.6862],[139.576141,37.684522],[139.575811,37.683058],[139.574925,37.681967],[139.574123,37.681483],[139.573845,37.681044],[139.573687,37.680587],[139.573196,37.680069],[139.573043,37.679347],[139.571701,37.67715],[139.57157,37.676523],[139.571752,37.675748],[139.572579,37.674923],[139.573914,37.673707],[139.574928,37.673094],[139.575743,37.672857],[139.577773,37.672749],[139.580689,37.672405],[139.584458,37.671161],[139.586852,37.670678],[139.587879,37.670614],[139.588379,37.670677],[139.589016,37.671026],[139.589612,37.671071],[139.590066,37.671039],[139.590546,37.670855],[139.591297,37.670238],[139.591864,37.669278],[139.592069,37.668503],[139.592182,37.667613],[139.591984,37.66672],[139.591686,37.66609],[139.592312,37.665738],[139.592621,37.667106],[139.5926,37.668206],[139.592465,37.669039],[139.591724,37.670357],[139.590845,37.671446],[139.590175,37.671571],[139.589126,37.671558],[139.587436,37.671329],[139.58622,37.671334],[139.581927,37.672553],[139.581036,37.672997],[139.580341,37.673159],[139.57941,37.673224],[139.576756,37.673533],[139.575412,37.673991],[139.574425,37.674434],[139.573531,37.675049],[139.572968,37.6758],[139.572715,37.676518],[139.572707,37.676954],[139.573587,37.678329],[139.573836,37.679015],[139.574437,37.680065],[139.574715,37.680467],[139.575586,37.681103],[139.57598,37.681676],[139.57638,37.681984],[139.576919,37.682503],[139.577076,37.682998],[139.577226,37.685142],[139.577739,37.685774],[139.578714,37.68717],[139.579275,37.687783],[139.579793,37.688168],[139.58037,37.689142],[139.581655,37.690618],[139.582278,37.691687],[139.582592,37.692734],[139.582516,37.693017],[139.582624,37.693587],[139.582491,37.694325],[139.582242,37.694872],[139.581802,37.695416],[139.580694,37.695934],[139.579901,37.696247],[139.577552,37.696806],[139.575783,37.696993],[139.575046,37.696833],[139.574274,37.696473],[139.57332,37.695821],[139.572961,37.694921],[139.572322,37.694657],[139.571588,37.693753],[139.569121,37.693595],[139.567666,37.693918],[139.567223,37.694596],[139.567152,37.695491],[139.56729,37.696687],[139.567688,37.698355],[139.567875,37.699808],[139.568815,37.701142],[139.569596,37.702431],[139.569962,37.702947],[139.569668,37.704266],[139.569421,37.705927],[139.568964,37.707372],[139.567822,37.708126],[139.566309,37.708619],[139.562805,37.709344],[139.561514,37.709457],[139.560549,37.70936],[139.558998,37.709042],[139.55804,37.708604],[139.557555,37.708726],[139.557275,37.709319],[139.557309,37.710301],[139.557773,37.711331],[139.559538,37.714424],[139.559754,37.715494],[139.559597,37.716175],[139.559834,37.716917],[139.560107,37.717575],[139.560667,37.718236],[139.56098,37.718723],[139.560871,37.720684],[139.561105,37.72154],[139.561527,37.721915],[139.561987,37.722176],[139.562516,37.722609],[139.562898,37.72324],[139.562925,37.723667],[139.562738,37.724091],[139.562877,37.72432],[139.563232,37.724467],[139.563767,37.724587],[139.564222,37.725104],[139.565041,37.725342],[139.566286,37.725784],[139.567106,37.725964],[139.567668,37.726511],[139.569521,37.728866],[139.570292,37.729728],[139.571423,37.73051],[139.572272,37.731004],[139.573044,37.731838],[139.574023,37.733072],[139.575719,37.734259],[139.576357,37.734636],[139.577069,37.734816],[139.577745,37.735051],[139.57859,37.735829],[139.579122,37.736092],[139.579943,37.736215],[139.581152,37.736657],[139.581966,37.73715],[139.582738,37.738012],[139.583582,37.738819],[139.584967,37.739433],[139.586003,37.739559],[139.587327,37.739603],[139.588573,37.739988],[139.589284,37.740281],[139.590141,37.740405],[139.591102,37.740729],[139.591806,37.741363],[139.592445,37.741655],[139.593516,37.741838],[139.59484,37.741883],[139.598187,37.741041],[139.599874,37.740805],[139.600882,37.740533],[139.602971,37.739903],[139.604669,37.739099],[139.606286,37.738833],[139.607721,37.73868],[139.614654,37.739444],[139.615866,37.739743],[139.617632,37.7411],[139.618447,37.741565],[139.617942,37.741758],[139.615753,37.740083],[139.614539,37.739869],[139.609213,37.739323],[139.607172,37.739327],[139.605413,37.739534],[139.603034,37.740359],[139.600441,37.741153],[139.597385,37.741799],[139.594403,37.742276],[139.593184,37.742346],[139.591975,37.741877],[139.590235,37.741117],[139.588781,37.74036],[139.587607,37.739948],[139.58632,37.739847],[139.58485,37.739915],[139.583889,37.73959],[139.583111,37.739097],[139.581845,37.737888],[139.581253,37.737027],[139.580362,37.736761],[139.57872,37.736485],[139.578046,37.736193],[139.576065,37.734917],[139.574998,37.734535],[139.574114,37.733955],[139.573054,37.733175],[139.572112,37.731912],[139.571017,37.731102],[139.569638,37.730232],[139.568238,37.728537],[139.56688,37.72653],[139.565816,37.726034],[139.564796,37.725794],[139.563932,37.725328],[139.563112,37.725148],[139.561894,37.725161],[139.561322,37.724934],[139.561795,37.724541],[139.562093,37.723976],[139.561753,37.723005],[139.56123,37.722316],[139.560535,37.721227],[139.560442,37.720458],[139.560501,37.719264],[139.559947,37.718319],[139.558784,37.71549],[139.558633,37.714066],[139.558118,37.712922],[139.557346,37.712116],[139.556721,37.711113],[139.556628,37.710401],[139.556749,37.709691],[139.556216,37.709457],[139.556116,37.709086],[139.55674,37.708298],[139.552656,37.706627],[139.550164,37.705942],[139.548672,37.705355],[139.547384,37.705282],[139.545271,37.705341],[139.542595,37.70491],[139.536547,37.703044],[139.534477,37.702733],[139.53222,37.702819],[139.530918,37.703485],[139.529855,37.704752],[139.528845,37.706986],[139.527569,37.708165],[139.526333,37.709116],[139.525108,37.709499],[139.523095,37.709929],[139.521499,37.710989],[139.520223,37.712139],[139.519439,37.713779],[139.518722,37.71559],[139.518444,37.71698],[139.517966,37.7176],[139.517239,37.718188],[139.515615,37.718793],[139.513639,37.719166],[139.511306,37.719478],[139.510189,37.719834],[139.508072,37.720034],[139.503461,37.719692],[139.500396,37.718999],[139.499356,37.719099],[139.498957,37.71935],[139.498839,37.71986],[139.498664,37.721422],[139.498477,37.721818],[139.496985,37.723022],[139.496515,37.723243],[139.495833,37.723348],[139.494681,37.723647],[139.494031,37.723894],[139.491811,37.723923],[139.489135,37.72388],[139.48726,37.723643],[139.485333,37.723319],[139.482723,37.722305],[139.479746,37.720816],[139.478688,37.719992],[139.477494,37.718014],[139.477137,37.717071],[139.476394,37.716635],[139.474648,37.717901],[139.474823,37.718662],[139.474787,37.719287],[139.474561,37.719834],[139.474313,37.720286],[139.474424,37.720666],[139.474442,37.720989],[139.474013,37.722083],[139.473969,37.723087],[139.47395,37.724016],[139.474312,37.726144],[139.474126,37.727052],[139.473731,37.72771],[139.473265,37.72833],[139.473324,37.728899],[139.474149,37.730597],[139.474066,37.731165],[139.472967,37.732364],[139.47278,37.73331],[139.473098,37.734129],[139.473773,37.734972],[139.474066,37.73581],[139.475005,37.737737],[139.475252,37.738517],[139.475192,37.739085],[139.474701,37.739743],[139.473486,37.740789],[139.471913,37.741811],[139.470371,37.742512],[139.468811,37.742908],[139.467585,37.74331],[139.466841,37.74347],[139.465221,37.743336],[139.463616,37.743599]]],[[[139.321973,37.743209],[139.321653,37.743281],[139.32096,37.743663],[139.320156,37.744018],[139.319069,37.744217],[139.318051,37.744228],[139.317116,37.744025],[139.31574,37.743639],[139.314729,37.7426],[139.314085,37.742225],[139.313091,37.741831],[139.312039,37.741197],[139.311513,37.740532],[139.311271,37.739985],[139.310059,37.738666],[139.309074,37.737919],[139.309013,37.737804],[139.309544,37.737559],[139.305113,37.736434],[139.302582,37.736435],[139.301672,37.736561],[139.300828,37.736599],[139.300259,37.736414],[139.299846,37.736396],[139.299149,37.736929],[139.298623,37.736997],[139.298222,37.737131],[139.297815,37.737517],[139.297172,37.737811],[139.296514,37.738016],[139.295459,37.738228],[139.294286,37.738717],[139.293184,37.73889],[139.292104,37.738786],[139.290672,37.738753],[139.289621,37.738512],[139.287994,37.738284],[139.287228,37.738374],[139.286655,37.738341],[139.285548,37.738059],[139.28437,37.738055],[139.283611,37.737829],[139.283214,37.737798],[139.283667,37.736123],[139.288697,37.737448],[139.289206,37.737492],[139.290471,37.736432],[139.291752,37.735212],[139.292029,37.735157],[139.292693,37.735318],[139.296143,37.735739],[139.296473,37.736131],[139.29655,37.736461],[139.297283,37.736409],[139.298155,37.736095],[139.299876,37.735241],[139.301717,37.735114],[139.303685,37.735389],[139.304159,37.735566],[139.305235,37.735468],[139.306118,37.73548],[139.30726,37.735668],[139.308493,37.736008],[139.309483,37.736572],[139.309906,37.736881],[139.310264,37.736905],[139.311011,37.736593],[139.311321,37.736598],[139.311721,37.73685],[139.312946,37.738503],[139.313336,37.739319],[139.313628,37.740138],[139.314205,37.741019],[139.315023,37.741789],[139.315861,37.74273],[139.316551,37.742907],[139.318797,37.743126],[139.320497,37.742931],[139.322713,37.741214],[139.323223,37.740443],[139.323643,37.739451],[139.323867,37.737831],[139.324659,37.735793],[139.325158,37.735024],[139.326427,37.733777],[139.327025,37.732822],[139.327407,37.73253],[139.327947,37.732339],[139.328489,37.731689],[139.329668,37.73124],[139.331413,37.730346],[139.332278,37.730194],[139.333442,37.730181],[139.334427,37.72987],[139.337664,37.729696],[139.341217,37.729161],[139.342694,37.72869],[139.344133,37.727898],[139.345235,37.726288],[139.346878,37.725126],[139.347889,37.72386],[139.348419,37.722761],[139.34871,37.721412],[139.349148,37.72065],[139.349155,37.719794],[139.349542,37.719353],[139.350859,37.718428],[139.351403,37.718167],[139.351862,37.71816],[139.352493,37.718476],[139.352895,37.718518],[139.353875,37.718315],[139.354615,37.718305],[139.354949,37.718158],[139.355487,37.71774],[139.356261,37.716901],[139.357554,37.714691],[139.358749,37.71354],[139.358721,37.713102],[139.358815,37.712969],[139.360863,37.712358],[139.362402,37.711555],[139.363139,37.711463],[139.363876,37.711498],[139.364913,37.711755],[139.364874,37.71207],[139.365541,37.71213],[139.366022,37.712339],[139.366817,37.712975],[139.366951,37.71331],[139.366883,37.713998],[139.367145,37.714753],[139.367169,37.716543],[139.366886,37.718328],[139.366971,37.718916],[139.367678,37.7197],[139.368936,37.720735],[139.370308,37.721375],[139.371472,37.721746],[139.372676,37.721881],[139.37385,37.722314],[139.374263,37.722361],[139.374917,37.722288],[139.376738,37.721689],[139.378152,37.720951],[139.379536,37.72051],[139.380838,37.719362],[139.382056,37.717419],[139.382115,37.71709],[139.381951,37.716051],[139.381686,37.715465],[139.381398,37.715381],[139.380833,37.715539],[139.380546,37.715504],[139.37937,37.714579],[139.379165,37.714604],[139.378724,37.714922],[139.378388,37.714945],[139.377971,37.714737],[139.377662,37.714386],[139.376568,37.711728],[139.376547,37.710545],[139.376195,37.709166],[139.376623,37.707813],[139.376216,37.705806],[139.376011,37.705349],[139.376093,37.704857],[139.377147,37.703576],[139.378218,37.703158],[139.378889,37.702323],[139.379511,37.701979],[139.379685,37.701575],[139.37911,37.699437],[139.378807,37.697785],[139.377552,37.695822],[139.37682,37.695036],[139.376561,37.694269],[139.37683,37.693598],[139.376719,37.693004],[139.376755,37.692252],[139.377304,37.691222],[139.377559,37.689352],[139.377913,37.688076],[139.378097,37.686873],[139.378375,37.686029],[139.378565,37.685781],[139.379031,37.685457],[139.37969,37.685223],[139.38032,37.685138],[139.382011,37.685682],[139.382847,37.686139],[139.384594,37.687976],[139.385974,37.689173],[139.386599,37.68989],[139.386844,37.690505],[139.38788,37.691456],[139.388901,37.692868],[139.389149,37.693507],[139.389644,37.694212],[139.390336,37.696773],[139.392524,37.699272],[139.394884,37.70082],[139.395932,37.701294],[139.397417,37.701781],[139.398599,37.701916],[139.399478,37.70166],[139.401401,37.701574],[139.402584,37.701187],[139.403674,37.700493],[139.404434,37.70029],[139.406709,37.699025],[139.407373,37.69881],[139.40896,37.698711],[139.410153,37.697771],[139.412647,37.696622],[139.414285,37.69626],[139.415937,37.69551],[139.416111,37.695316],[139.416097,37.694381],[139.416276,37.693103],[139.416072,37.69266],[139.416548,37.692528],[139.417517,37.691867],[139.417987,37.691165],[139.419006,37.690162],[139.419662,37.689841],[139.421274,37.689599],[139.4221,37.689254],[139.422634,37.688754],[139.422895,37.688255],[139.423877,37.687574],[139.425401,37.687465],[139.427246,37.686562],[139.428528,37.686305],[139.429835,37.685655],[139.430808,37.685331],[139.431562,37.685327],[139.432067,37.685806],[139.433176,37.685196],[139.433573,37.68518],[139.434843,37.685656],[139.43601,37.685846],[139.435857,37.685983],[139.435279,37.686053],[139.433997,37.685855],[139.433821,37.685953],[139.433661,37.686446],[139.433344,37.686543],[139.432378,37.686417],[139.43109,37.686396],[139.430661,37.686856],[139.429895,37.687069],[139.429684,37.68742],[139.429884,37.687866],[139.430296,37.688066],[139.431153,37.688008],[139.432363,37.687734],[139.4346,37.687678],[139.435774,37.687485],[139.438633,37.687636],[139.43971,37.687461],[139.440937,37.686736],[139.441326,37.686648],[139.442091,37.686582],[139.443025,37.686386],[139.44351,37.686032],[139.444055,37.685757],[139.445215,37.685505],[139.446101,37.685346],[139.447833,37.685364],[139.450184,37.685098],[139.45236,37.684671],[139.454392,37.684768],[139.455041,37.684289],[139.456105,37.684099],[139.456779,37.683727],[139.457717,37.68342],[139.458391,37.682945],[139.459049,37.682789],[139.459273,37.682634],[139.459685,37.682007],[139.461145,37.681752],[139.461485,37.681472],[139.462616,37.681771],[139.463474,37.681801],[139.46412,37.681715],[139.464747,37.681382],[139.465758,37.680959],[139.466163,37.681002],[139.466751,37.681408],[139.467661,37.68123],[139.467577,37.682992],[139.467871,37.684133],[139.469097,37.684813],[139.469741,37.684821],[139.470678,37.684511],[139.470673,37.684776],[139.470327,37.685341],[139.471145,37.686185],[139.470993,37.68662],[139.470911,37.68713],[139.471068,37.687587],[139.471419,37.687952],[139.472409,37.688496],[139.472971,37.689053],[139.47366,37.690351],[139.474496,37.691443],[139.475319,37.69206],[139.476665,37.692741],[139.476874,37.693028],[139.477179,37.69326],[139.477723,37.693513],[139.478433,37.69375],[139.479455,37.693952],[139.479977,37.694111],[139.480568,37.694384],[139.481331,37.694413],[139.482672,37.694146],[139.482335,37.695468],[139.481884,37.695349],[139.479742,37.695113],[139.478986,37.694743],[139.478296,37.694658],[139.476794,37.694254],[139.475126,37.693328],[139.474113,37.69267],[139.473272,37.691787],[139.472626,37.690755],[139.472112,37.690179],[139.471498,37.689906],[139.470546,37.68978],[139.469649,37.689332],[139.46876,37.688449],[139.468158,37.687569],[139.467574,37.686973],[139.46684,37.686698],[139.466607,37.68643],[139.466619,37.685842],[139.466433,37.685612],[139.465098,37.685576],[139.464353,37.685813],[139.464158,37.686019],[139.464103,37.686397],[139.463905,37.686736],[139.463402,37.686843],[139.461275,37.686986],[139.45938,37.687473],[139.457178,37.687843],[139.45637,37.68768],[139.455874,37.687427],[139.455286,37.68704],[139.454071,37.686968],[139.453099,37.686642],[139.452059,37.686202],[139.451054,37.686359],[139.449674,37.686152],[139.448523,37.686459],[139.447777,37.686771],[139.446918,37.686741],[139.445697,37.686971],[139.443682,37.687495],[139.443001,37.688092],[139.442517,37.688446],[139.441652,37.688719],[139.440766,37.688878],[139.439336,37.68884],[139.437563,37.689196],[139.435744,37.689475],[139.434817,37.689292],[139.434039,37.689197],[139.43298,37.689306],[139.429817,37.689927],[139.428783,37.690311],[139.428633,37.690632],[139.428642,37.691352],[139.42828,37.691556],[139.425417,37.691537],[139.424483,37.691714],[139.422321,37.692424],[139.420994,37.693108],[139.420094,37.69393],[139.419327,37.694072],[139.418604,37.694441],[139.417428,37.695885],[139.416455,37.696763],[139.415825,37.69721],[139.414246,37.697378],[139.412998,37.697741],[139.411768,37.69835],[139.410917,37.699078],[139.410051,37.699445],[139.407995,37.699607],[139.407082,37.699917],[139.406593,37.70046],[139.405892,37.700887],[139.404884,37.701139],[139.404404,37.701187],[139.403863,37.701612],[139.40247,37.70222],[139.401496,37.702812],[139.399747,37.703341],[139.397825,37.70343],[139.396445,37.703224],[139.393367,37.70231],[139.392406,37.701964],[139.391764,37.701618],[139.390403,37.700568],[139.389131,37.699875],[139.388468,37.699215],[139.387665,37.698175],[139.386516,37.696113],[139.386381,37.695072],[139.385918,37.693604],[139.385807,37.692819],[139.385612,37.692273],[139.385212,37.691673],[139.385327,37.691498],[139.385644,37.691565],[139.386078,37.692089],[139.386328,37.692282],[139.386647,37.692262],[139.386842,37.692049],[139.38691,37.691861],[139.387414,37.692095],[139.3877,37.692086],[139.38761,37.691845],[139.386889,37.691367],[139.386577,37.691085],[139.386242,37.690398],[139.385781,37.689621],[139.385168,37.689296],[139.384661,37.689214],[139.382818,37.687634],[139.382775,37.687456],[139.382968,37.687332],[139.38332,37.687249],[139.383323,37.687097],[139.383202,37.686792],[139.382806,37.686749],[139.382516,37.686909],[139.381788,37.68676],[139.381167,37.686777],[139.38119,37.686474],[139.380951,37.686483],[139.380662,37.686605],[139.380483,37.686767],[139.379782,37.686821],[139.378916,37.687188],[139.378414,37.688306],[139.37806,37.689944],[139.378099,37.691816],[139.378284,37.692462],[139.378485,37.692718],[139.378485,37.693476],[139.378357,37.693975],[139.37882,37.694643],[139.378955,37.695076],[139.378684,37.695254],[139.378671,37.695391],[139.379162,37.695831],[139.379451,37.696626],[139.379645,37.696754],[139.380108,37.696789],[139.380347,37.696742],[139.380487,37.696428],[139.380691,37.696914],[139.38049,37.697811],[139.381425,37.698856],[139.381679,37.699528],[139.381668,37.699895],[139.381284,37.700981],[139.380668,37.701831],[139.380037,37.702404],[139.379717,37.702924],[139.379673,37.703932],[139.379365,37.704553],[139.379128,37.704735],[139.378935,37.70473],[139.378945,37.704479],[139.378659,37.70445],[139.378277,37.704495],[139.37797,37.70426],[139.377663,37.70425],[139.377357,37.704514],[139.377082,37.705432],[139.37675,37.70586],[139.376777,37.70613],[139.377069,37.706019],[139.377555,37.705385],[139.377847,37.705389],[139.378026,37.705544],[139.377987,37.705795],[139.377176,37.706805],[139.377124,37.707032],[139.377587,37.70695],[139.378103,37.706603],[139.378081,37.706881],[139.377882,37.707583],[139.377973,37.708421],[139.377817,37.709519],[139.378073,37.710566],[139.378044,37.710984],[139.378279,37.712015],[139.378819,37.713476],[139.37926,37.713709],[139.381817,37.713896],[139.3824,37.714157],[139.382756,37.714617],[139.382697,37.715134],[139.382735,37.715602],[139.382943,37.715947],[139.383075,37.716586],[139.383146,37.718037],[139.382508,37.71932],[139.381376,37.720629],[139.381362,37.721845],[139.381227,37.72203],[139.381432,37.72229],[139.381673,37.723279],[139.382217,37.723495],[139.383019,37.723923],[139.383177,37.724342],[139.383458,37.724631],[139.383838,37.724712],[139.384142,37.725],[139.38431,37.726064],[139.384565,37.726409],[139.385199,37.726892],[139.385813,37.727166],[139.386068,37.727529],[139.385998,37.728571],[139.38589,37.729138],[139.386121,37.729483],[139.386689,37.729718],[139.387017,37.729988],[139.387057,37.73033],[139.387022,37.730879],[139.387231,37.731147],[139.38768,37.731362],[139.388095,37.732031],[139.388016,37.732353],[139.387676,37.732632],[139.387671,37.732879],[139.388047,37.73313],[139.388042,37.733377],[139.387633,37.733523],[139.387009,37.733647],[139.387054,37.73378],[139.387292,37.73384],[139.388438,37.733837],[139.389472,37.734553],[139.389814,37.735316],[139.39098,37.735375],[139.392084,37.736151],[139.39274,37.736359],[139.39274,37.737194],[139.391129,37.737284],[139.389982,37.737479],[139.389737,37.73776],[139.389505,37.738554],[139.389309,37.738778],[139.388667,37.739755],[139.387717,37.740653],[139.38713,37.741308],[139.386614,37.741946],[139.386095,37.742754],[139.385854,37.742864],[139.385005,37.742416],[139.38443,37.742484],[139.383972,37.742706],[139.38364,37.742606],[139.382799,37.742841],[139.382635,37.742687],[139.382832,37.742406],[139.382934,37.742104],[139.383102,37.740987],[139.382795,37.740832],[139.382083,37.740632],[139.381589,37.740284],[139.381478,37.739884],[139.380115,37.737799],[139.379373,37.736822],[139.379135,37.736762],[139.378846,37.736872],[139.378465,37.736848],[139.378326,37.736656],[139.378284,37.73639],[139.378576,37.736032],[139.378998,37.735376],[139.378794,37.73488],[139.378582,37.734745],[139.378128,37.734795],[139.377795,37.734734],[139.377418,37.734482],[139.377307,37.734139],[139.377387,37.733723],[139.377703,37.7335],[139.37823,37.733413],[139.378405,37.733017],[139.378371,37.73241],[139.378121,37.731838],[139.377943,37.73121],[139.377598,37.730636],[139.377315,37.73048],[139.37735,37.729969],[139.377838,37.728383],[139.378455,37.727444],[139.378566,37.726725],[139.37839,37.726059],[139.377159,37.725606],[139.37688,37.725261],[139.376606,37.723608],[139.376377,37.723196],[139.375641,37.723172],[139.374884,37.723285],[139.374248,37.723164],[139.373053,37.723203],[139.372107,37.722995],[139.371324,37.722974],[139.370613,37.722467],[139.369041,37.722139],[139.368057,37.721671],[139.36744,37.721142],[139.366047,37.719432],[139.365996,37.718472],[139.365699,37.717879],[139.365389,37.714996],[139.365126,37.714028],[139.365249,37.713837],[139.365773,37.71354],[139.365831,37.713296],[139.365369,37.712921],[139.363432,37.712391],[139.363153,37.712445],[139.362728,37.712869],[139.360082,37.71353],[139.359335,37.714048],[139.35889,37.714641],[139.35829,37.716151],[139.356966,37.718187],[139.356861,37.718785],[139.356525,37.719295],[139.355441,37.719483],[139.354197,37.719305],[139.353529,37.719352],[139.352367,37.718966],[139.352037,37.719052],[139.351159,37.719627],[139.350002,37.72015],[139.349867,37.720387],[139.349778,37.721331],[139.349625,37.7219],[139.349621,37.722519],[139.349447,37.722952],[139.349489,37.723368],[139.347811,37.725035],[139.345528,37.727659],[139.344737,37.728392],[139.343545,37.729134],[139.342688,37.729493],[139.339118,37.730619],[139.336522,37.730753],[139.3345,37.730961],[139.333217,37.730964],[139.331705,37.731357],[139.330296,37.731952],[139.328875,37.732855],[139.328206,37.733591],[139.32765,37.734936],[139.327538,37.735692],[139.327403,37.736032],[139.327145,37.73618],[139.32625,37.736357],[139.32598,37.73701],[139.325926,37.737995],[139.325045,37.738994],[139.324647,37.739683],[139.324301,37.74093],[139.324137,37.741142],[139.323879,37.74129],[139.323222,37.742191],[139.32277,37.742437],[139.321973,37.743209]]]]}}]}
