{"type":"FeatureCollection","features":[{"type":"Feature","properties":{"potaRef":"JP-1711","nameJa":"Hachiman dake","nameEn":"Hachimandake Prefectural Nature Park","authority":"環境省 生物多様性「見える化」マップ","boundaryStatus":"全国GIS候補・公開前検証待ち","boundarySource":"環境省 生物多様性「見える化」マップの自然公園区域を、POTA代表座標で一意に空間照合して加工","boundaryScaleNote":"区域は概要データであり、正確性は保証されない。POTA運用可否は公式情報で最終確認すること。","candidateMethod":"POTA representative point inside one public natural-park area","sourceParkKind":"都道府県立自然公園","sourceName":"Hachiman dake","sourceFeatureCount":1,"cautionMeters":75},"geometry":{"type":"MultiPolygon","coordinates":[[[[130.026563,33.30002],[130.02699,33.302029],[130.02699,33.302237],[130.027486,33.30329],[130.027486,33.303528],[130.027427,33.303747],[130.027238,33.303916],[130.026836,33.304025],[130.026174,33.304084],[130.025712,33.304045],[130.024825,33.303717],[130.024589,33.303558],[130.024279,33.303129],[130.023605,33.302493],[130.023569,33.302324],[130.023747,33.30148],[130.023664,33.301311],[130.023144,33.300825],[130.023073,33.300149],[130.022943,33.29999],[130.022647,33.299861],[130.022351,33.299832],[130.02215,33.299981],[130.022043,33.300211],[130.021951,33.300677],[130.021859,33.302058],[130.021637,33.302492],[130.019235,33.302337],[130.017804,33.302102],[130.017694,33.300795],[130.017406,33.300515],[130.017283,33.299322],[130.019293,33.297366],[130.019541,33.297068],[130.019517,33.296998],[130.018855,33.297038],[130.018211,33.297209],[130.017076,33.298364],[130.016793,33.298527],[130.016665,33.298514],[130.016494,33.298403],[130.016134,33.298016],[130.01554,33.29793],[130.015649,33.297289],[130.015528,33.29616],[130.015298,33.294625],[130.015114,33.294008],[130.014547,33.294282],[130.014388,33.294471],[130.014348,33.295013],[130.014193,33.294989],[130.013922,33.294765],[130.013486,33.294131],[130.013271,33.293688],[130.013091,33.292179],[130.013025,33.292083],[130.012807,33.291948],[130.012769,33.291813],[130.012921,33.291615],[130.014689,33.289911],[130.014803,33.289697],[130.015058,33.288799],[130.015162,33.288187],[130.015143,33.287389],[130.014944,33.287047],[130.014443,33.286475],[130.013459,33.284868],[130.013193,33.284666],[130.013941,33.282781],[130.014407,33.281184],[130.014195,33.280544],[130.01425,33.280267],[130.014431,33.279832],[130.014412,33.279671],[130.014283,33.279446],[130.013937,33.279048],[130.01391,33.278914],[130.014274,33.278209],[130.014466,33.278067],[130.014622,33.277795],[130.014678,33.277398],[130.014556,33.277113],[130.014561,33.277032],[130.014793,33.276945],[130.01586,33.276934],[130.016519,33.277081],[130.016694,33.277047],[130.016965,33.276885],[130.017209,33.276632],[130.017209,33.27653],[130.017105,33.276383],[130.01659,33.276069],[130.016448,33.275851],[130.016603,33.275281],[130.016944,33.274876],[130.018018,33.274546],[130.018281,33.274379],[130.018879,33.273812],[130.019049,33.273729],[130.019278,33.27367],[130.019828,33.273715],[130.020509,33.273423],[130.021098,33.273353],[130.021344,33.273251],[130.021702,33.272838],[130.022158,33.27252],[130.022603,33.271964],[130.022682,33.271794],[130.023662,33.271604],[130.024028,33.271828],[130.024146,33.271846],[130.024276,33.271758],[130.02448,33.271495],[130.024969,33.27134],[130.025059,33.271268],[130.025222,33.27084],[130.025619,33.270717],[130.025932,33.271073],[130.026026,33.271347],[130.026044,33.27183],[130.026323,33.272633],[130.026396,33.273516],[130.026327,33.274042],[130.02623,33.27427],[130.026357,33.274563],[130.026499,33.274744],[130.026896,33.275077],[130.027209,33.275214],[130.027545,33.27522],[130.027665,33.27527],[130.027794,33.275541],[130.02797,33.275752],[130.028749,33.276373],[130.029114,33.276558],[130.030931,33.277311],[130.031384,33.277274],[130.031933,33.277083],[130.032471,33.276975],[130.032597,33.276904],[130.032773,33.276678],[130.032693,33.276144],[130.03283,33.275947],[130.033114,33.275334],[130.033181,33.275063],[130.033257,33.274982],[130.033771,33.27468],[130.034112,33.274555],[130.035123,33.274533],[130.03528,33.274592],[130.035377,33.274693],[130.035699,33.275169],[130.035885,33.275586],[130.036153,33.275782],[130.036432,33.275798],[130.038152,33.275458],[130.040097,33.276121],[130.040704,33.276791],[130.040782,33.277235],[130.040952,33.277454],[130.041111,33.27752],[130.042551,33.2778],[130.042912,33.27793],[130.04305,33.278033],[130.04335,33.278961],[130.043445,33.279473],[130.043546,33.279658],[130.043643,33.279738],[130.043897,33.279817],[130.044265,33.279843],[130.045301,33.279818],[130.045753,33.279859],[130.046376,33.280032],[130.046767,33.280284],[130.046921,33.28046],[130.047085,33.280774],[130.047293,33.281617],[130.048236,33.282574],[130.048346,33.282534],[130.048502,33.282368],[130.048932,33.281738],[130.049204,33.281441],[130.049384,33.281113],[130.050046,33.280635],[130.050849,33.280579],[130.051489,33.280706],[130.052142,33.281285],[130.05247,33.282033],[130.052639,33.282197],[130.052912,33.282303],[130.053439,33.282363],[130.054094,33.282059],[130.054258,33.282798],[130.054481,33.283453],[130.054701,33.283943],[130.055234,33.284765],[130.05581,33.285351],[130.056706,33.285953],[130.058156,33.286613],[130.058418,33.286662],[130.059115,33.286155],[130.059964,33.285685],[130.060047,33.285671],[130.060735,33.285908],[130.060799,33.285973],[130.060873,33.286601],[130.06118,33.287342],[130.061235,33.287756],[130.061628,33.288417],[130.061899,33.288687],[130.062383,33.288987],[130.062698,33.28949],[130.063514,33.290155],[130.063511,33.290261],[130.062883,33.290829],[130.062875,33.290888],[130.063142,33.291036],[130.063837,33.291266],[130.063793,33.291686],[130.063871,33.291942],[130.063965,33.29201],[130.0643,33.291993],[130.064312,33.292709],[130.063659,33.294476],[130.063338,33.295158],[130.063078,33.295529],[130.062508,33.296022],[130.062481,33.296232],[130.062618,33.296311],[130.062927,33.296859],[130.063318,33.297215],[130.06452,33.297302],[130.065335,33.297864],[130.065966,33.297983],[130.066601,33.297846],[130.066691,33.297972],[130.066702,33.298084],[130.06663,33.298247],[130.066345,33.29846],[130.066133,33.298557],[130.065752,33.298638],[130.065346,33.298648],[130.064656,33.298511],[130.062981,33.297741],[130.06191,33.2971],[130.061125,33.296361],[130.060217,33.295352],[130.058859,33.293569],[130.058832,33.293474],[130.059388,33.293139],[130.059607,33.293157],[130.05983,33.293247],[130.059967,33.293135],[130.059803,33.292917],[130.059356,33.291822],[130.05921,33.291671],[130.058394,33.292074],[130.055641,33.293036],[130.053239,33.293532],[130.049247,33.29392],[130.048287,33.294107],[130.047677,33.294339],[130.047049,33.294789],[130.046383,33.294898],[130.0457,33.294898],[130.04541,33.295073],[130.044412,33.29619],[130.044006,33.296532],[130.041566,33.297773],[130.040421,33.298161],[130.038448,33.298299],[130.037724,33.298572],[130.036985,33.298659],[130.036646,33.298622],[130.036601,33.298494],[130.036407,33.298385],[130.036329,33.297963],[130.036261,33.297861],[130.036238,33.297762],[130.036406,33.297616],[130.03749,33.297133],[130.039149,33.296543],[130.040326,33.296217],[130.040483,33.2961],[130.041232,33.295045],[130.041432,33.294872],[130.043638,33.294057],[130.04394,33.293889],[130.044433,33.293452],[130.044691,33.292998],[130.045061,33.292646],[130.045062,33.292409],[130.045463,33.291219],[130.045411,33.29114],[130.045113,33.291073],[130.044916,33.291079],[130.044696,33.291175],[130.043985,33.291658],[130.043697,33.291677],[130.041873,33.291226],[130.040768,33.290806],[130.040458,33.290781],[130.039125,33.290935],[130.038593,33.29106],[130.037708,33.291124],[130.037261,33.291054],[130.037125,33.290984],[130.037012,33.290851],[130.036748,33.29018],[130.036512,33.289873],[130.036535,33.289227],[130.036488,33.288651],[130.036346,33.288442],[130.036121,33.288373],[130.035483,33.288433],[130.034809,33.288611],[130.034679,33.288691],[130.034288,33.289158],[130.033999,33.289744],[130.033171,33.292108],[130.03271,33.29319],[130.032497,33.293468],[130.032367,33.293359],[130.032095,33.292783],[130.031717,33.291681],[130.031551,33.291373],[130.031338,33.291194],[130.031102,33.291134],[130.030747,33.291164],[130.030617,33.291283],[130.030558,33.291432],[130.030546,33.291641],[130.030617,33.291998],[130.030889,33.292773],[130.030948,33.293212],[130.030924,33.293321],[130.030758,33.293361],[130.030297,33.293073],[130.028653,33.291017],[130.028015,33.290471],[130.027366,33.290143],[130.02678,33.290127],[130.026751,33.29019],[130.026903,33.290429],[130.028454,33.29197],[130.028615,33.292201],[130.028615,33.292312],[130.028511,33.292367],[130.0268,33.292294],[130.026694,33.292345],[130.026596,33.293],[130.026483,33.293248],[130.026142,33.293572],[130.02589,33.294093],[130.025947,33.294605],[130.026118,33.295284],[130.026081,33.295463],[130.025866,33.295734],[130.025814,33.295904],[130.025909,33.295992],[130.026496,33.296209],[130.026674,33.296186],[130.02707,33.296007],[130.027189,33.296017],[130.027462,33.296154],[130.027533,33.296271],[130.027393,33.296572],[130.0274,33.296878],[130.027731,33.297207],[130.027955,33.297612],[130.028056,33.297716],[130.028158,33.297656],[130.028117,33.297071],[130.028184,33.296995],[130.02839,33.29722],[130.028693,33.297447],[130.028888,33.297738],[130.029231,33.297976],[130.029586,33.298516],[130.029679,33.298475],[130.029743,33.297974],[130.029846,33.297856],[130.030227,33.297721],[130.030704,33.297725],[130.030999,33.297593],[130.030925,33.297805],[130.030572,33.298097],[130.03053,33.298406],[130.030415,33.298713],[130.030426,33.299152],[130.030553,33.29926],[130.030935,33.299425],[130.030933,33.299734],[130.030766,33.299895],[130.030457,33.299865],[130.030304,33.299897],[130.030149,33.300012],[130.030087,33.300124],[130.030094,33.300227],[130.030169,33.300313],[130.03026,33.300345],[130.030662,33.300291],[130.030768,33.300342],[130.030749,33.300467],[130.030347,33.301668],[130.029886,33.302433],[130.029697,33.302592],[130.029342,33.302652],[130.028999,33.302602],[130.028881,33.302473],[130.028727,33.301808],[130.027994,33.300089],[130.027604,33.299742],[130.02674,33.299166],[130.026421,33.299166],[130.026255,33.299255],[130.026314,33.299484],[130.026563,33.30002]]]]}}]}
