{"type":"FeatureCollection","features":[{"type":"Feature","properties":{"potaRef":"JP-1519","nameJa":"明治の森箕面","nameEn":"Mino Prefectural Park","authority":"環境省 生物多様性「見える化」マップ","boundaryStatus":"全国GIS候補・公開前検証待ち","boundarySource":"環境省 生物多様性「見える化」マップの自然公園区域を、POTA代表座標で一意に空間照合して加工","boundaryScaleNote":"区域は概要データであり、正確性は保証されない。POTA運用可否は公式情報で最終確認すること。","candidateMethod":"POTA representative point inside one public natural-park area","sourceParkKind":"国定公園","sourceName":"明治の森箕面","sourceFeatureCount":13,"cautionMeters":75},"geometry":{"type":"MultiPolygon","coordinates":[[[[135.466744,34.845535],[135.467463,34.845133],[135.468525,34.84432],[135.469106,34.843352],[135.469904,34.842416],[135.46949,34.842148],[135.468357,34.841774],[135.469795,34.838594],[135.470522,34.838639],[135.471162,34.838118],[135.471566,34.838374],[135.471891,34.838838],[135.472187,34.839098],[135.472718,34.839167],[135.472856,34.839338],[135.47361,34.839651],[135.47493,34.841636],[135.47397,34.842189],[135.475878,34.845308],[135.475735,34.845552],[135.47578,34.845788],[135.475947,34.845966],[135.476085,34.84628],[135.475445,34.846975],[135.475292,34.847439],[135.475085,34.847862],[135.475105,34.848329],[135.475218,34.84876],[135.475459,34.849147],[135.476587,34.850167],[135.476139,34.850907],[135.475519,34.851769],[135.474996,34.852945],[135.475065,34.8534],[135.475267,34.853864],[135.475709,34.854479],[135.475381,34.854584],[135.474726,34.854681],[135.473859,34.855088],[135.47281,34.854974],[135.472317,34.854828],[135.471692,34.854966],[135.470682,34.855011],[135.470396,34.855104],[135.470155,34.85532],[135.470165,34.855523],[135.470465,34.855934],[135.470903,34.856092],[135.471426,34.856365],[135.471884,34.856475],[135.472253,34.856438],[135.472499,34.856231],[135.473834,34.856613],[135.474051,34.856466],[135.474272,34.85617],[135.474509,34.85597],[135.475257,34.8563],[135.475696,34.85643],[135.476262,34.856414],[135.476523,34.8563],[135.47671,34.855905],[135.476883,34.855767],[135.477474,34.855938],[135.478321,34.856739],[135.478681,34.856979],[135.478804,34.857357],[135.478631,34.857873],[135.479134,34.857969],[135.479602,34.85829],[135.479799,34.859209],[135.479946,34.859343],[135.480114,34.859327],[135.480094,34.858721],[135.480439,34.858668],[135.481,34.85877],[135.481326,34.859087],[135.481355,34.85988],[135.481695,34.859888],[135.481729,34.859498],[135.481818,34.859152],[135.482074,34.859128],[135.482316,34.859417],[135.482311,34.860173],[135.482187,34.860657],[135.482355,34.860934],[135.48232,34.861145],[135.482143,34.861304],[135.482449,34.861739],[135.482242,34.862117],[135.481853,34.862552],[135.481439,34.863918],[135.481537,34.864061],[135.481725,34.864069],[135.481813,34.863947],[135.481966,34.863471],[135.48238,34.862776],[135.482468,34.862515],[135.482764,34.862536],[135.482843,34.864541],[135.482946,34.864748],[135.483133,34.864646],[135.483399,34.86269],[135.48337,34.862275],[135.483483,34.862056],[135.483867,34.862044],[135.484379,34.862223],[135.484675,34.862442],[135.485384,34.862471],[135.485128,34.862739],[135.485236,34.862991],[135.484867,34.863199],[135.48436,34.863853],[135.484502,34.864114],[135.483877,34.865041],[135.483059,34.865529],[135.483,34.866114],[135.482389,34.865944],[135.482222,34.865732],[135.482197,34.864825],[135.481793,34.86441],[135.481276,34.864036],[135.481035,34.863467],[135.48102,34.863048],[135.479848,34.862149],[135.479513,34.861796],[135.479316,34.861332],[135.478966,34.860864],[135.478705,34.860226],[135.478282,34.860242],[135.478173,34.859962],[135.478774,34.859779],[135.479183,34.859579],[135.479375,34.859051],[135.479237,34.858506],[135.478676,34.858085],[135.478816,34.858471],[135.47842,34.85911],[135.47628,34.858711],[135.475905,34.858817],[135.47556,34.859272],[135.475107,34.859614],[135.47425,34.859663],[135.473245,34.859842],[135.472989,34.8605],[135.472704,34.860736],[135.472349,34.860354],[135.471866,34.859427],[135.470822,34.859248],[135.470113,34.859224],[135.469879,34.860167],[135.469249,34.859716],[135.468657,34.859419],[135.468052,34.859224],[135.4672,34.859248],[135.466742,34.859175],[135.467273,34.857528],[135.468032,34.857052],[135.468199,34.85667],[135.468062,34.856324],[135.467298,34.855413],[135.468249,34.853526],[135.468653,34.852001],[135.468766,34.851408],[135.468786,34.850387],[135.468308,34.849976],[135.468195,34.849809],[135.468155,34.849464],[135.46819,34.849155],[135.467879,34.84911],[135.467702,34.848951],[135.467707,34.848589],[135.467224,34.848179],[135.467741,34.847512],[135.467643,34.847394],[135.466791,34.847378],[135.466303,34.847064],[135.466101,34.846804],[135.466082,34.846499],[135.466219,34.846312],[135.466899,34.846068],[135.466744,34.845535]]],[[[135.486443,34.866983],[135.48665,34.866226],[135.486916,34.865974],[135.4873,34.865893],[135.487724,34.866072],[135.488305,34.865966],[135.488581,34.866015],[135.489231,34.866299],[135.490285,34.866226],[135.490492,34.866251],[135.490965,34.866901],[135.491319,34.867096],[135.49189,34.867113],[135.491979,34.866926],[135.492314,34.866836],[135.492905,34.866966],[135.492583,34.867475],[135.491762,34.86839],[135.491043,34.867991],[135.489448,34.867788],[135.488433,34.867731],[135.48795,34.867519],[135.487733,34.867365],[135.487408,34.867332],[135.486443,34.866983]]],[[[135.489712,34.863165],[135.49008,34.863203],[135.491331,34.862975],[135.491725,34.862845],[135.492366,34.862755],[135.492624,34.864252],[135.492068,34.864321],[135.49156,34.864516],[135.490945,34.864626],[135.490472,34.864589],[135.489837,34.864415],[135.48931,34.864492],[135.488827,34.864325],[135.488694,34.864199],[135.488603,34.86389],[135.488347,34.863711],[135.488169,34.863727],[135.487943,34.863565],[135.4875,34.863117],[135.487421,34.862759],[135.488563,34.863357],[135.489125,34.863463],[135.48948,34.863495],[135.489519,34.863146],[135.489712,34.863165]]],[[[135.494819,34.867105],[135.494779,34.867182],[135.494986,34.867454],[135.495006,34.867686],[135.494853,34.8683],[135.494631,34.868853],[135.494031,34.869744],[135.493735,34.87002],[135.493523,34.870122],[135.493252,34.869996],[135.493523,34.869849],[135.493937,34.869325],[135.494272,34.868711],[135.494459,34.868463],[135.494385,34.86782],[135.494188,34.867515],[135.493705,34.867113],[135.494257,34.866466],[135.494311,34.866649],[135.494819,34.867105]]],[[[135.467791,34.869032],[135.468259,34.869052],[135.468815,34.869146],[135.469327,34.869565],[135.469638,34.869561],[135.469953,34.869427],[135.47045,34.86939],[135.470623,34.869211],[135.470559,34.868821],[135.470436,34.868442],[135.470495,34.868137],[135.470342,34.867666],[135.470032,34.867161],[135.469756,34.866844],[135.469347,34.865946],[135.469455,34.865539],[135.469761,34.865205],[135.47013,34.864961],[135.47077,34.864726],[135.471544,34.864229],[135.473041,34.863619],[135.473351,34.863306],[135.473814,34.86183],[135.473972,34.861464],[135.474366,34.861021],[135.474829,34.860639],[135.475558,34.860183],[135.47644,34.859886],[135.477883,34.859272],[135.47842,34.85911],[135.478816,34.858471],[135.478676,34.858085],[135.479237,34.858506],[135.479375,34.859051],[135.479183,34.859579],[135.478774,34.859779],[135.478173,34.859962],[135.478282,34.860242],[135.47803,34.860319],[135.478021,34.860746],[135.477725,34.861356],[135.477425,34.861755],[135.476962,34.862202],[135.47672,34.862605],[135.476612,34.863101],[135.47676,34.863186],[135.477755,34.862641],[135.478267,34.862654],[135.478823,34.862861],[135.479321,34.863365],[135.479488,34.863723],[135.479479,34.864126],[135.478819,34.864545],[135.478528,34.864785],[135.478553,34.865094],[135.479065,34.865643],[135.47935,34.86611],[135.479794,34.867025],[135.479789,34.867582],[135.479607,34.867965],[135.479193,34.86818],[135.478863,34.868493],[135.478769,34.868957],[135.478912,34.869315],[135.479301,34.869697],[135.479483,34.870014],[135.479405,34.870352],[135.479075,34.870628],[135.479025,34.870872],[135.479045,34.871161],[135.479282,34.871376],[135.48004,34.871401],[135.480439,34.871507],[135.480715,34.871885],[135.480744,34.872275],[135.480616,34.872462],[135.480592,34.872889],[135.480823,34.873263],[135.481296,34.873605],[135.481936,34.873755],[135.482818,34.873585],[135.483852,34.873184],[135.483993,34.873676],[135.483089,34.874164],[135.481857,34.874441],[135.481853,34.874704],[135.481532,34.874697],[135.480794,34.87442],[135.480139,34.874095],[135.479685,34.873692],[135.479616,34.873249],[135.479749,34.872903],[135.479749,34.872525],[135.479498,34.872302],[135.478498,34.872119],[135.478139,34.871928],[135.477897,34.871549],[135.477769,34.870899],[135.477784,34.870533],[135.478292,34.870207],[135.478257,34.870032],[135.477794,34.86954],[135.477632,34.869134],[135.477558,34.868524],[135.477745,34.868081],[135.478651,34.867536],[135.478745,34.867198],[135.47872,34.866771],[135.478533,34.866234],[135.477484,34.865112],[135.477366,34.864831],[135.477479,34.864587],[135.477868,34.864221],[135.478336,34.863872],[135.478326,34.86364],[135.478129,34.863502],[135.477774,34.863518],[135.477124,34.863998],[135.476499,34.86427],[135.47609,34.864258],[135.475686,34.864046],[135.475386,34.863489],[135.475632,34.862896],[135.475834,34.862538],[135.475883,34.862017],[135.476105,34.861733],[135.476738,34.861293],[135.476782,34.86107],[135.476703,34.860907],[135.476245,34.860968],[135.475427,34.861326],[135.475164,34.86159],[135.474445,34.863461],[135.4741,34.864128],[135.473686,34.864486],[135.472945,34.864644],[135.472049,34.86497],[135.470763,34.865901],[135.470679,34.866198],[135.470788,34.866584],[135.47163,34.86804],[135.471586,34.868711],[135.471733,34.86952],[135.471566,34.869951],[135.471206,34.870215],[135.470596,34.870289],[135.469862,34.87059],[135.46934,34.870663],[135.46899,34.870516],[135.468675,34.870142],[135.468376,34.870017],[135.468234,34.869634],[135.467791,34.869032]]],[[[135.475709,34.854479],[135.476873,34.854063],[135.479168,34.853965],[135.479799,34.85414],[135.48035,34.854535],[135.480643,34.85484],[135.480198,34.855082],[135.479538,34.855671],[135.478833,34.856672],[135.479144,34.856977],[135.479075,34.857213],[135.480414,34.857644],[135.481143,34.857827],[135.481537,34.85766],[135.48199,34.857599],[135.48235,34.857652],[135.48268,34.857904],[135.482734,34.858201],[135.483202,34.858575],[135.48433,34.859067],[135.484813,34.859148],[135.485566,34.859596],[135.48632,34.859791],[135.486724,34.860254],[135.486812,34.860641],[135.486709,34.861121],[135.487807,34.861503],[135.488659,34.861405],[135.489413,34.86121],[135.490167,34.860913],[135.490753,34.860494],[135.491895,34.859945],[135.492873,34.859563],[135.493425,34.859465],[135.493671,34.859228],[135.494582,34.85996],[135.495464,34.86046],[135.495966,34.860927],[135.497247,34.860765],[135.497922,34.860765],[135.498621,34.861005],[135.498665,34.861578],[135.498877,34.861806],[135.499527,34.862005],[135.50001,34.862245],[135.500965,34.863115],[135.501561,34.863363],[135.502236,34.863798],[135.502492,34.864234],[135.502778,34.865319],[135.502512,34.8656],[135.501941,34.86597],[135.501192,34.866316],[135.500035,34.86636],[135.499517,34.866637],[135.498857,34.867613],[135.498133,34.868837],[135.49739,34.869402],[135.497454,34.868772],[135.497597,34.868463],[135.497597,34.868162],[135.497311,34.867877],[135.49706,34.867999],[135.496858,34.867617],[135.496503,34.867434],[135.496518,34.867243],[135.496015,34.866905],[135.495513,34.867113],[135.494819,34.867105],[135.494311,34.866649],[135.494257,34.866466],[135.493705,34.867113],[135.494188,34.867515],[135.494385,34.86782],[135.494459,34.868463],[135.494272,34.868711],[135.493937,34.869325],[135.493523,34.869849],[135.493252,34.869996],[135.493523,34.870122],[135.493735,34.87002],[135.494031,34.869744],[135.494631,34.868853],[135.494853,34.8683],[135.495006,34.867686],[135.495444,34.867686],[135.495562,34.867902],[135.495449,34.868381],[135.495198,34.868943],[135.494582,34.869675],[135.49407,34.870122],[135.494528,34.870553],[135.494873,34.870541],[135.495119,34.870614],[135.495479,34.870813],[135.495937,34.870427],[135.49602,34.870553],[135.495858,34.871029],[135.496072,34.871046],[135.495991,34.871252],[135.495858,34.872086],[135.49574,34.873363],[135.494883,34.875014],[135.494474,34.875331],[135.493592,34.875205],[135.493538,34.874939],[135.493144,34.874337],[135.49339,34.873963],[135.493508,34.87319],[135.493114,34.872426],[135.493311,34.871124],[135.493016,34.870083],[135.492415,34.868871],[135.491762,34.86839],[135.492583,34.867475],[135.492905,34.866966],[135.492314,34.866836],[135.491979,34.866926],[135.49189,34.867113],[135.491319,34.867096],[135.490965,34.866901],[135.490492,34.866251],[135.490285,34.866226],[135.489231,34.866299],[135.488581,34.866015],[135.488305,34.865966],[135.487724,34.866072],[135.4873,34.865893],[135.486916,34.865974],[135.48665,34.866226],[135.486443,34.866983],[135.485601,34.866647],[135.484877,34.866484],[135.484626,34.866594],[135.484103,34.866505],[135.483,34.866114],[135.483059,34.865529],[135.483877,34.865041],[135.484502,34.864114],[135.48436,34.863853],[135.484867,34.863199],[135.485236,34.862991],[135.485128,34.862739],[135.485384,34.862471],[135.484675,34.862442],[135.484379,34.862223],[135.483867,34.862044],[135.483483,34.862056],[135.48337,34.862275],[135.483399,34.86269],[135.483133,34.864646],[135.482946,34.864748],[135.482843,34.864541],[135.482764,34.862536],[135.482468,34.862515],[135.48238,34.862776],[135.481966,34.863471],[135.481813,34.863947],[135.481725,34.864069],[135.481537,34.864061],[135.481439,34.863918],[135.481853,34.862552],[135.482242,34.862117],[135.482449,34.861739],[135.482143,34.861304],[135.48232,34.861145],[135.482355,34.860934],[135.482187,34.860657],[135.482311,34.860173],[135.482316,34.859417],[135.482074,34.859128],[135.481818,34.859152],[135.481729,34.859498],[135.481695,34.859888],[135.481355,34.85988],[135.481326,34.859087],[135.481,34.85877],[135.480439,34.858668],[135.480094,34.858721],[135.480114,34.859327],[135.479946,34.859343],[135.479799,34.859209],[135.479602,34.85829],[135.479134,34.857969],[135.478631,34.857873],[135.478804,34.857357],[135.478681,34.856979],[135.478321,34.856739],[135.477474,34.855938],[135.476883,34.855767],[135.47671,34.855905],[135.476523,34.8563],[135.476262,34.856414],[135.475696,34.85643],[135.475257,34.8563],[135.474509,34.85597],[135.474272,34.85617],[135.474051,34.856466],[135.473834,34.856613],[135.472499,34.856231],[135.472253,34.856438],[135.471884,34.856475],[135.471426,34.856365],[135.470903,34.856092],[135.470465,34.855934],[135.470165,34.855523],[135.470155,34.85532],[135.470396,34.855104],[135.470682,34.855011],[135.471692,34.854966],[135.472317,34.854828],[135.47281,34.854974],[135.473859,34.855088],[135.474726,34.854681],[135.475381,34.854584],[135.475709,34.854479]],[[135.489712,34.863165],[135.489519,34.863146],[135.48948,34.863495],[135.489125,34.863463],[135.488563,34.863357],[135.487421,34.862759],[135.4875,34.863117],[135.487943,34.863565],[135.488169,34.863727],[135.488347,34.863711],[135.488603,34.86389],[135.488694,34.864199],[135.488827,34.864325],[135.48931,34.864492],[135.489837,34.864415],[135.490472,34.864589],[135.490945,34.864626],[135.49156,34.864516],[135.492068,34.864321],[135.492624,34.864252],[135.492366,34.862755],[135.491725,34.862845],[135.491659,34.86195],[135.491432,34.861958],[135.490561,34.861544],[135.490521,34.861308],[135.489329,34.861515],[135.489379,34.861889],[135.489712,34.863165]]],[[[135.466744,34.845535],[135.466899,34.846068],[135.466219,34.846312],[135.466082,34.846499],[135.466101,34.846804],[135.466303,34.847064],[135.466791,34.847378],[135.467643,34.847394],[135.467741,34.847512],[135.467224,34.848179],[135.467707,34.848589],[135.467702,34.848951],[135.467879,34.84911],[135.46819,34.849155],[135.468155,34.849464],[135.468195,34.849809],[135.468308,34.849976],[135.468786,34.850387],[135.468766,34.851408],[135.468653,34.852001],[135.468249,34.853526],[135.467298,34.855413],[135.468062,34.856324],[135.468199,34.85667],[135.468032,34.857052],[135.467273,34.857528],[135.466742,34.859175],[135.4672,34.859248],[135.468052,34.859224],[135.468657,34.859419],[135.469249,34.859716],[135.469879,34.860167],[135.470113,34.859224],[135.470822,34.859248],[135.471866,34.859427],[135.472349,34.860354],[135.472704,34.860736],[135.472989,34.8605],[135.473245,34.859842],[135.47425,34.859663],[135.475107,34.859614],[135.47556,34.859272],[135.475905,34.858817],[135.47628,34.858711],[135.47842,34.85911],[135.477883,34.859272],[135.47644,34.859886],[135.475558,34.860183],[135.474829,34.860639],[135.474366,34.861021],[135.473972,34.861464],[135.473814,34.86183],[135.473351,34.863306],[135.473041,34.863619],[135.471544,34.864229],[135.47077,34.864726],[135.47013,34.864961],[135.469761,34.865205],[135.469455,34.865539],[135.469347,34.865946],[135.469756,34.866844],[135.470032,34.867161],[135.470342,34.867666],[135.470495,34.868137],[135.470436,34.868442],[135.470559,34.868821],[135.470623,34.869211],[135.47045,34.86939],[135.469953,34.869427],[135.469638,34.869561],[135.469327,34.869565],[135.468815,34.869146],[135.468259,34.869052],[135.467791,34.869032],[135.467759,34.868666],[135.467601,34.868264],[135.465808,34.867865],[135.465025,34.867084],[135.464079,34.867048],[135.463863,34.866828],[135.462597,34.86697],[135.462198,34.866791],[135.462173,34.866592],[135.462341,34.866295],[135.462602,34.866055],[135.462922,34.865958],[135.462843,34.865576],[135.462868,34.865226],[135.462981,34.864929],[135.462636,34.864864],[135.462193,34.864864],[135.461853,34.864717],[135.46142,34.864412],[135.46141,34.863815],[135.460705,34.86318],[135.460262,34.863099],[135.460075,34.8629],[135.459957,34.862456],[135.460031,34.862184],[135.459804,34.861761],[135.459445,34.861464],[135.459341,34.860553],[135.459558,34.86011],[135.459563,34.859813],[135.459248,34.859089],[135.459287,34.858585],[135.458942,34.857955],[135.45878,34.857556],[135.458987,34.857125],[135.458578,34.856186],[135.458504,34.855596],[135.458676,34.855344],[135.459119,34.854929],[135.459587,34.854401],[135.459538,34.853803],[135.459834,34.852689],[135.459858,34.8517],[135.459676,34.850981],[135.459671,34.850354],[135.459794,34.849443],[135.459144,34.848236],[135.459001,34.847589],[135.458927,34.846739],[135.45873,34.846426],[135.458725,34.84621],[135.458918,34.845999],[135.4591,34.845905],[135.459115,34.84554],[135.45943,34.845084],[135.460001,34.845108],[135.460607,34.845316],[135.461026,34.845291],[135.461139,34.845174],[135.461173,34.844889],[135.461922,34.844104],[135.462646,34.84351],[135.462912,34.84362],[135.463242,34.843994],[135.463616,34.844547],[135.463961,34.845312],[135.464193,34.845348],[135.464715,34.845129],[135.465114,34.845019],[135.465734,34.845178],[135.466434,34.845544],[135.466744,34.845535]]],[[[135.468376,34.870017],[135.468675,34.870142],[135.46899,34.870516],[135.46934,34.870663],[135.469862,34.87059],[135.470596,34.870289],[135.471206,34.870215],[135.471566,34.869951],[135.471733,34.86952],[135.471586,34.868711],[135.47163,34.86804],[135.470788,34.866584],[135.470679,34.866198],[135.470763,34.865901],[135.472049,34.86497],[135.472945,34.864644],[135.473686,34.864486],[135.4741,34.864128],[135.474445,34.863461],[135.475164,34.86159],[135.475427,34.861326],[135.476245,34.860968],[135.476703,34.860907],[135.476782,34.86107],[135.476738,34.861293],[135.476105,34.861733],[135.475883,34.862017],[135.475834,34.862538],[135.475632,34.862896],[135.475386,34.863489],[135.475686,34.864046],[135.47609,34.864258],[135.476499,34.86427],[135.477124,34.863998],[135.477774,34.863518],[135.478129,34.863502],[135.478326,34.86364],[135.478336,34.863872],[135.477868,34.864221],[135.477479,34.864587],[135.477366,34.864831],[135.477484,34.865112],[135.478533,34.866234],[135.47872,34.866771],[135.478745,34.867198],[135.478651,34.867536],[135.477745,34.868081],[135.477558,34.868524],[135.477632,34.869134],[135.477794,34.86954],[135.478257,34.870032],[135.478292,34.870207],[135.477784,34.870533],[135.477769,34.870899],[135.477897,34.871549],[135.478139,34.871928],[135.478498,34.872119],[135.479498,34.872302],[135.479749,34.872525],[135.479749,34.872903],[135.479616,34.873249],[135.479685,34.873692],[135.480139,34.874095],[135.480794,34.87442],[135.481532,34.874697],[135.481853,34.874704],[135.481838,34.875498],[135.481345,34.877116],[135.481099,34.878499],[135.48104,34.879231],[135.481446,34.880614],[135.481422,34.881138],[135.481018,34.881512],[135.480757,34.881602],[135.479067,34.880959],[135.478129,34.880756],[135.476986,34.880252],[135.475597,34.879853],[135.474521,34.880016],[135.473787,34.88],[135.47325,34.880215],[135.472551,34.880679],[135.471817,34.880894],[135.470807,34.880862],[135.469758,34.880589],[135.469485,34.880451],[135.46979,34.880012],[135.470007,34.879199],[135.469712,34.877214],[135.468786,34.876628],[135.467062,34.875807],[135.468766,34.874433],[135.468372,34.873855],[135.468744,34.873347],[135.469197,34.872956],[135.469005,34.872367],[135.469015,34.871419],[135.468559,34.870512],[135.468376,34.870017]]],[[[135.472718,34.839167],[135.472916,34.83897],[135.47331,34.838813],[135.473918,34.838813],[135.474559,34.8391],[135.47502,34.839489],[135.475324,34.839823],[135.475785,34.840082],[135.475988,34.840258],[135.476134,34.840471],[135.476359,34.840582],[135.476494,34.840879],[135.476438,34.841119],[135.476213,34.841453],[135.476134,34.841712],[135.476066,34.843018],[135.476078,34.843954],[135.476362,34.845307],[135.476336,34.845649],[135.477671,34.846707],[135.477947,34.847374],[135.478124,34.84765],[135.478725,34.848171],[135.478991,34.849033],[135.479525,34.850379],[135.48053,34.850358],[135.481303,34.85046],[135.481633,34.85072],[135.480643,34.85484],[135.48035,34.854535],[135.479799,34.85414],[135.479168,34.853965],[135.476873,34.854063],[135.475709,34.854479],[135.475267,34.853864],[135.475065,34.8534],[135.474996,34.852945],[135.475519,34.851769],[135.476139,34.850907],[135.476587,34.850167],[135.475459,34.849147],[135.475218,34.84876],[135.475105,34.848329],[135.475085,34.847862],[135.475292,34.847439],[135.475445,34.846975],[135.476085,34.84628],[135.475947,34.845966],[135.47578,34.845788],[135.475735,34.845552],[135.475878,34.845308],[135.47397,34.842189],[135.47493,34.841636],[135.47361,34.839651],[135.472856,34.839338],[135.472718,34.839167]]],[[[135.478282,34.860242],[135.478705,34.860226],[135.478966,34.860864],[135.479316,34.861332],[135.479513,34.861796],[135.479848,34.862149],[135.48102,34.863048],[135.481035,34.863467],[135.481276,34.864036],[135.481793,34.86441],[135.482197,34.864825],[135.482222,34.865732],[135.482389,34.865944],[135.484103,34.866505],[135.484626,34.866594],[135.484877,34.866484],[135.485601,34.866647],[135.487408,34.867332],[135.487733,34.867365],[135.48795,34.867519],[135.488433,34.867731],[135.489448,34.867788],[135.491043,34.867991],[135.491762,34.86839],[135.492415,34.868871],[135.493016,34.870083],[135.493311,34.871124],[135.493114,34.872426],[135.493508,34.87319],[135.49339,34.873963],[135.493144,34.874337],[135.493538,34.874939],[135.493592,34.875205],[135.492991,34.875173],[135.492913,34.874811],[135.492903,34.873973],[135.492829,34.873457],[135.492494,34.873107],[135.491947,34.87272],[135.491371,34.872403],[135.490731,34.871716],[135.49009,34.871427],[135.489376,34.871273],[135.487416,34.871313],[135.486682,34.87124],[135.485623,34.87137],[135.483687,34.872139],[135.483648,34.872472],[135.483852,34.873184],[135.482818,34.873585],[135.481936,34.873755],[135.481296,34.873605],[135.480823,34.873263],[135.480592,34.872889],[135.480616,34.872462],[135.480744,34.872275],[135.480715,34.871885],[135.480439,34.871507],[135.48004,34.871401],[135.479282,34.871376],[135.479045,34.871161],[135.479025,34.870872],[135.479075,34.870628],[135.479405,34.870352],[135.479483,34.870014],[135.479301,34.869697],[135.478912,34.869315],[135.478769,34.868957],[135.478863,34.868493],[135.479193,34.86818],[135.479607,34.867965],[135.479789,34.867582],[135.479794,34.867025],[135.47935,34.86611],[135.479065,34.865643],[135.478553,34.865094],[135.478528,34.864785],[135.478819,34.864545],[135.479479,34.864126],[135.479488,34.863723],[135.479321,34.863365],[135.478823,34.862861],[135.478267,34.862654],[135.477755,34.862641],[135.47676,34.863186],[135.476612,34.863101],[135.47672,34.862605],[135.476962,34.862202],[135.477425,34.861755],[135.477725,34.861356],[135.478021,34.860746],[135.47803,34.860319],[135.478282,34.860242]]],[[[135.480643,34.85484],[135.480934,34.855015],[135.481978,34.855181],[135.483121,34.855539],[135.484062,34.8561],[135.484288,34.856332],[135.483956,34.856637],[135.484724,34.857971],[135.485199,34.85806],[135.485436,34.857975],[135.485859,34.857471],[135.486273,34.857369],[135.487312,34.857938],[135.487406,34.85828],[135.487302,34.858744],[135.488322,34.859793],[135.488613,34.859927],[135.488844,34.859903],[135.489411,34.859671],[135.490588,34.858845],[135.491716,34.858431],[135.492597,34.85887],[135.493262,34.858622],[135.493991,34.858589],[135.493671,34.859228],[135.493425,34.859465],[135.492873,34.859563],[135.491895,34.859945],[135.490753,34.860494],[135.490167,34.860913],[135.489413,34.86121],[135.488659,34.861405],[135.487807,34.861503],[135.486709,34.861121],[135.486812,34.860641],[135.486724,34.860254],[135.48632,34.859791],[135.485566,34.859596],[135.484813,34.859148],[135.48433,34.859067],[135.483202,34.858575],[135.482734,34.858201],[135.48268,34.857904],[135.48235,34.857652],[135.48199,34.857599],[135.481537,34.85766],[135.481143,34.857827],[135.480414,34.857644],[135.479075,34.857213],[135.479144,34.856977],[135.478833,34.856672],[135.479538,34.855671],[135.480198,34.855082],[135.480643,34.85484]]],[[[135.489712,34.863165],[135.489379,34.861889],[135.489329,34.861515],[135.490521,34.861308],[135.490561,34.861544],[135.491432,34.861958],[135.491659,34.86195],[135.491725,34.862845],[135.491331,34.862975],[135.49008,34.863203],[135.489712,34.863165]]],[[[135.494819,34.867105],[135.495513,34.867113],[135.496015,34.866905],[135.496518,34.867243],[135.496503,34.867434],[135.496858,34.867617],[135.49706,34.867999],[135.497311,34.867877],[135.497597,34.868162],[135.497597,34.868463],[135.497454,34.868772],[135.49739,34.869402],[135.496877,34.870008],[135.496267,34.870549],[135.496072,34.871046],[135.495858,34.871029],[135.49602,34.870553],[135.495937,34.870427],[135.495479,34.870813],[135.495119,34.870614],[135.494873,34.870541],[135.494528,34.870553],[135.49407,34.870122],[135.494582,34.869675],[135.494907,34.869321],[135.495198,34.868943],[135.495449,34.868381],[135.495562,34.867902],[135.495444,34.867686],[135.495006,34.867686],[135.494986,34.867454],[135.494779,34.867182],[135.494819,34.867105]]]]}}]}
