{"type":"FeatureCollection","features":[{"type":"Feature","properties":{"potaRef":"JP-1758","nameJa":"Saitobaru sugiyasu kyo","nameEn":"Saitobaru Burial Mounds Prefectural Park","authority":"環境省 生物多様性「見える化」マップ","boundaryStatus":"全国GIS候補・公開前検証待ち","boundarySource":"環境省 生物多様性「見える化」マップの自然公園区域を、POTA代表座標で一意に空間照合して加工","boundaryScaleNote":"区域は概要データであり、正確性は保証されない。POTA運用可否は公式情報で最終確認すること。","candidateMethod":"POTA representative point inside one public natural-park area","sourceParkKind":"都道府県立自然公園","sourceName":"Saitobaru sugiyasu kyo","sourceFeatureCount":1,"cautionMeters":75},"geometry":{"type":"MultiPolygon","coordinates":[[[[131.37268,32.166223],[131.372528,32.16627],[131.37234,32.166137],[131.372365,32.165649],[131.372162,32.165437],[131.371716,32.16517],[131.371223,32.165079],[131.369949,32.164673],[131.368,32.164202],[131.367457,32.164237],[131.366731,32.164971],[131.36667,32.164885],[131.366723,32.164628],[131.366638,32.16454],[131.36658,32.164522],[131.366336,32.164648],[131.366179,32.164612],[131.365961,32.164195],[131.365357,32.163392],[131.364615,32.162847],[131.36419,32.162589],[131.363088,32.162136],[131.361714,32.161427],[131.361415,32.161369],[131.361139,32.161343],[131.360362,32.161507],[131.359686,32.161784],[131.358758,32.162081],[131.357065,32.162851],[131.356554,32.163035],[131.355554,32.163228],[131.354904,32.163163],[131.354285,32.162897],[131.35314,32.161597],[131.352454,32.16068],[131.352396,32.16054],[131.352065,32.160189],[131.351994,32.159871],[131.351838,32.159498],[131.351272,32.158534],[131.351188,32.158106],[131.351264,32.157581],[131.35156,32.157103],[131.352122,32.15668],[131.352456,32.156578],[131.352908,32.156522],[131.353255,32.15634],[131.35391,32.156205],[131.354392,32.156256],[131.355203,32.156226],[131.355604,32.156166],[131.355658,32.156026],[131.35532,32.15557],[131.355347,32.155397],[131.355442,32.155389],[131.356083,32.155747],[131.356575,32.15574],[131.356739,32.155662],[131.356908,32.155471],[131.357043,32.155294],[131.357195,32.154839],[131.357566,32.154466],[131.357664,32.154233],[131.357618,32.153872],[131.357526,32.153704],[131.357385,32.153571],[131.357021,32.153545],[131.35747,32.153239],[131.357486,32.153158],[131.357395,32.153078],[131.357004,32.152938],[131.357208,32.152696],[131.357349,32.152601],[131.35768,32.152563],[131.358033,32.152378],[131.358015,32.152134],[131.357941,32.152086],[131.357795,32.152078],[131.357467,32.152175],[131.357229,32.152171],[131.357626,32.151652],[131.357982,32.15157],[131.358023,32.151444],[131.357979,32.151254],[131.357806,32.151053],[131.358173,32.150807],[131.358134,32.150734],[131.357744,32.150624],[131.357191,32.150588],[131.357178,32.150535],[131.35763,32.150381],[131.357911,32.150166],[131.357935,32.149994],[131.357168,32.149618],[131.357204,32.149454],[131.357298,32.14935],[131.358022,32.149529],[131.35816,32.149512],[131.358326,32.149386],[131.358324,32.14926],[131.358287,32.149085],[131.358048,32.148762],[131.357281,32.148422],[131.356652,32.148232],[131.356686,32.148099],[131.356928,32.147945],[131.357076,32.147728],[131.357211,32.147712],[131.357522,32.148148],[131.35771,32.148208],[131.357847,32.148185],[131.357956,32.14811],[131.358029,32.147925],[131.358109,32.147303],[131.358268,32.147074],[131.35847,32.147076],[131.358517,32.147129],[131.358597,32.147931],[131.358703,32.148179],[131.358917,32.148417],[131.359083,32.148459],[131.359184,32.148426],[131.359252,32.148276],[131.359522,32.148066],[131.359935,32.147896],[131.36007,32.147776],[131.360073,32.147615],[131.359991,32.147383],[131.360251,32.146981],[131.360258,32.146642],[131.360316,32.14662],[131.360643,32.146691],[131.360711,32.146806],[131.360721,32.147164],[131.360781,32.147321],[131.360939,32.147407],[131.361108,32.147418],[131.361344,32.147292],[131.361537,32.1471],[131.361732,32.147538],[131.361818,32.147542],[131.361942,32.147403],[131.362213,32.147328],[131.362335,32.147359],[131.362504,32.147704],[131.362977,32.147781],[131.363159,32.148119],[131.363367,32.148261],[131.363648,32.148327],[131.364251,32.148574],[131.364433,32.148552],[131.364453,32.148382],[131.3639,32.147686],[131.363817,32.147547],[131.363842,32.147509],[131.365469,32.148252],[131.365666,32.148247],[131.365757,32.148157],[131.365655,32.147869],[131.365351,32.147569],[131.365288,32.147292],[131.365299,32.147169],[131.365374,32.147138],[131.3656,32.147226],[131.3658,32.147383],[131.365922,32.147385],[131.365966,32.147334],[131.365912,32.14691],[131.365707,32.146596],[131.365434,32.146357],[131.364982,32.146105],[131.363916,32.145645],[131.36325,32.145179],[131.363187,32.144982],[131.363084,32.144872],[131.362689,32.14483],[131.362504,32.144726],[131.362444,32.144244],[131.362351,32.144156],[131.361992,32.144204],[131.361968,32.144157],[131.362325,32.144094],[131.362831,32.144109],[131.363016,32.143941],[131.363232,32.143899],[131.363393,32.143772],[131.363664,32.143676],[131.363865,32.143699],[131.364003,32.143794],[131.364107,32.143786],[131.364171,32.143745],[131.364209,32.143534],[131.364265,32.143468],[131.364482,32.14336],[131.364454,32.143095],[131.364639,32.143225],[131.365032,32.143275],[131.367081,32.143051],[131.367175,32.142941],[131.36714,32.142744],[131.366795,32.14249],[131.367279,32.142443],[131.368197,32.142649],[131.369142,32.143233],[131.369459,32.143525],[131.369646,32.143578],[131.37007,32.14359],[131.370421,32.143714],[131.371145,32.143839],[131.372387,32.143853],[131.372593,32.143947],[131.372612,32.144043],[131.372545,32.144167],[131.372127,32.14454],[131.372064,32.14465],[131.371518,32.146654],[131.371152,32.147503],[131.371253,32.147733],[131.371356,32.147853],[131.371575,32.147957],[131.371945,32.147993],[131.372281,32.14796],[131.372771,32.147808],[131.374882,32.146172],[131.376368,32.147802],[131.376459,32.148473],[131.37672,32.148825],[131.377132,32.149181],[131.377339,32.149424],[131.377702,32.149952],[131.377975,32.150598],[131.377986,32.150741],[131.377896,32.150997],[131.378004,32.151765],[131.377932,32.152423],[131.378296,32.15306],[131.378522,32.153319],[131.378569,32.153489],[131.378548,32.153619],[131.378435,32.153734],[131.378235,32.153809],[131.377977,32.153832],[131.377915,32.153957],[131.378246,32.154583],[131.378626,32.155679],[131.378715,32.156077],[131.379035,32.156474],[131.379989,32.156832],[131.381089,32.15748],[131.381795,32.158926],[131.381798,32.159281],[131.38164,32.15955],[131.381453,32.16095],[131.381744,32.161007],[131.381978,32.160917],[131.382032,32.160936],[131.382053,32.161085],[131.381865,32.161625],[131.381449,32.161996],[131.380895,32.162169],[131.38056,32.16254],[131.380083,32.163214],[131.379394,32.163948],[131.379003,32.16412],[131.377912,32.164047],[131.377714,32.163939],[131.377531,32.163904],[131.377201,32.163965],[131.376942,32.16412],[131.376346,32.165005],[131.375894,32.165558],[131.374899,32.16564],[131.373786,32.16608],[131.373071,32.166055],[131.37268,32.166223]]],[[[131.380946,32.129903],[131.380166,32.129791],[131.379428,32.129575],[131.379057,32.12959],[131.378566,32.129516],[131.378272,32.129414],[131.377958,32.129119],[131.377058,32.127956],[131.376732,32.127766],[131.376428,32.127789],[131.376139,32.127599],[131.376157,32.127438],[131.375769,32.126892],[131.376235,32.126272],[131.376468,32.126319],[131.377403,32.12609],[131.37839,32.125781],[131.378869,32.125557],[131.379909,32.124529],[131.380649,32.124714],[131.381043,32.123844],[131.381349,32.122508],[131.381345,32.122193],[131.381147,32.121159],[131.381178,32.120913],[131.38168,32.120186],[131.382452,32.119698],[131.382559,32.11948],[131.382672,32.118968],[131.382568,32.118068],[131.382181,32.115799],[131.382162,32.115444],[131.382486,32.114534],[131.383922,32.111625],[131.384541,32.110932],[131.385543,32.110744],[131.386647,32.110732],[131.387806,32.110495],[131.388392,32.11032],[131.390362,32.109318],[131.390889,32.109117],[131.391779,32.108552],[131.392567,32.107898],[131.392893,32.107689],[131.393373,32.107589],[131.39436,32.107605],[131.394629,32.107523],[131.394834,32.107312],[131.395117,32.106735],[131.396663,32.106717],[131.396727,32.106778],[131.396943,32.107352],[131.396954,32.107798],[131.396826,32.107972],[131.396818,32.108071],[131.396976,32.10817],[131.397442,32.108206],[131.397619,32.108333],[131.39817,32.109103],[131.398309,32.109367],[131.398438,32.109786],[131.398558,32.109875],[131.398693,32.11012],[131.398972,32.110914],[131.399164,32.111278],[131.399236,32.112443],[131.399262,32.112595],[131.399337,32.112701],[131.399273,32.112776],[131.39903,32.112656],[131.398664,32.112638],[131.39699,32.112862],[131.396986,32.11318],[131.397168,32.113821],[131.397181,32.114253],[131.397113,32.11489],[131.397001,32.11496],[131.39651,32.115019],[131.396193,32.116398],[131.395591,32.118568],[131.395798,32.120465],[131.395875,32.120716],[131.394859,32.120957],[131.394401,32.120879],[131.393934,32.120695],[131.393867,32.120903],[131.393786,32.121603],[131.393957,32.121718],[131.393925,32.122203],[131.393968,32.122533],[131.39405,32.122698],[131.39419,32.12281],[131.393997,32.123508],[131.394285,32.123839],[131.393972,32.124098],[131.392475,32.124947],[131.392351,32.125281],[131.392406,32.125484],[131.392464,32.125617],[131.392585,32.125711],[131.392803,32.125728],[131.392945,32.125817],[131.392962,32.125966],[131.392893,32.126099],[131.392523,32.126478],[131.390513,32.127351],[131.389724,32.127637],[131.389364,32.127659],[131.389058,32.12787],[131.388608,32.127977],[131.388005,32.128211],[131.387382,32.1286],[131.386852,32.128618],[131.386534,32.128694],[131.386187,32.128962],[131.385938,32.129272],[131.385078,32.129358],[131.384594,32.129621],[131.384218,32.129726],[131.384043,32.129721],[131.38331,32.129451],[131.382678,32.129476],[131.382476,32.129356],[131.382139,32.129495],[131.381928,32.129676],[131.381508,32.129674],[131.380946,32.129903]]]]}}]}
