{"type":"FeatureCollection","features":[{"type":"Feature","properties":{"potaRef":"JP-1373","nameJa":"Io zen","nameEn":"Iozen Prefectural Nature Park","authority":"環境省 生物多様性「見える化」マップ","boundaryStatus":"全国GIS候補・公開前検証待ち","boundarySource":"環境省 生物多様性「見える化」マップの自然公園区域を、POTA代表座標で一意に空間照合して加工","boundaryScaleNote":"区域は概要データであり、正確性は保証されない。POTA運用可否は公式情報で最終確認すること。","candidateMethod":"POTA representative point inside one public natural-park area","sourceParkKind":"都道府県立自然公園","sourceName":"Io zen","sourceFeatureCount":1,"cautionMeters":75},"geometry":{"type":"MultiPolygon","coordinates":[[[[136.830023,36.570902],[136.829545,36.570697],[136.829192,36.570684],[136.828984,36.570564],[136.828217,36.570704],[136.827327,36.57041],[136.827084,36.570381],[136.826918,36.570428],[136.82656,36.570696],[136.82603,36.570892],[136.824907,36.570705],[136.824214,36.570487],[136.824071,36.570412],[136.823968,36.570279],[136.823974,36.570155],[136.824108,36.569883],[136.824345,36.569616],[136.824266,36.569494],[136.824026,36.569433],[136.823696,36.569527],[136.823457,36.569531],[136.823019,36.569305],[136.822811,36.569116],[136.822619,36.568833],[136.822462,36.568406],[136.822407,36.567435],[136.822342,36.567204],[136.821843,36.566657],[136.821785,36.566526],[136.821752,36.566128],[136.8218,36.566036],[136.821919,36.565948],[136.822276,36.565926],[136.822876,36.565796],[136.823324,36.565557],[136.824905,36.565624],[136.825183,36.565435],[136.825508,36.565293],[136.825508,36.56516],[136.82504,36.564852],[136.824555,36.564726],[136.823868,36.564369],[136.821965,36.562488],[136.821382,36.562156],[136.820684,36.561915],[136.820109,36.561626],[136.81992,36.56139],[136.819536,36.561107],[136.818791,36.560366],[136.818505,36.560177],[136.81774,36.559344],[136.817255,36.559021],[136.816857,36.558599],[136.81653,36.558212],[136.816367,36.557898],[136.815871,36.557216],[136.815834,36.557145],[136.815849,36.556983],[136.815286,36.556],[136.815457,36.55577],[136.815673,36.555342],[136.815866,36.554437],[136.815985,36.55419],[136.817115,36.55279],[136.817234,36.552386],[136.817219,36.552138],[136.816951,36.551513],[136.81658,36.550902],[136.816543,36.550769],[136.816602,36.549405],[136.816788,36.548488],[136.816595,36.547963],[136.816194,36.547426],[136.815675,36.547042],[136.815212,36.546238],[136.814885,36.54546],[136.814595,36.544591],[136.814313,36.544313],[136.814223,36.544156],[136.81426,36.54374],[136.814216,36.543613],[136.813822,36.543209],[136.813696,36.542992],[136.812707,36.540893],[136.812647,36.540657],[136.812588,36.539831],[136.812618,36.539028],[136.812662,36.538799],[136.812848,36.538576],[136.812885,36.538352],[136.812856,36.538099],[136.812543,36.537683],[136.811978,36.537333],[136.811882,36.537134],[136.81186,36.536687],[136.811748,36.536313],[136.810752,36.534503],[136.810558,36.534026],[136.810217,36.533471],[136.809681,36.532904],[136.808781,36.532283],[136.808261,36.531522],[136.808201,36.531046],[136.807963,36.530871],[136.807651,36.530539],[136.807532,36.53011],[136.807525,36.528765],[136.807465,36.528505],[136.807383,36.528385],[136.806603,36.527787],[136.806327,36.527479],[136.805785,36.526448],[136.805658,36.525965],[136.805361,36.525168],[136.805108,36.524903],[136.804396,36.524687],[136.804283,36.524589],[136.804235,36.524466],[136.804052,36.522809],[136.803963,36.522501],[136.80348,36.522151],[136.803308,36.522109],[136.80316,36.522001],[136.802617,36.521379],[136.802357,36.521162],[136.802,36.521083],[136.80121,36.520618],[136.800345,36.520794],[136.800048,36.520993],[136.799908,36.521054],[136.799806,36.521035],[136.799821,36.520257],[136.800096,36.51864],[136.799997,36.518312],[136.7998,36.518093],[136.799479,36.517517],[136.79924,36.51697],[136.799219,36.516624],[136.799494,36.515834],[136.799494,36.515665],[136.799353,36.515448],[136.799152,36.515279],[136.798274,36.513909],[136.797955,36.513553],[136.797159,36.512817],[136.796921,36.512714],[136.796258,36.512689],[136.796142,36.512636],[136.796494,36.512115],[136.796468,36.511948],[136.796378,36.511797],[136.796178,36.51161],[136.795255,36.510971],[136.795107,36.510808],[136.795173,36.510011],[136.79501,36.509565],[136.794832,36.509329],[136.794869,36.50878],[136.795025,36.508038],[136.795196,36.507833],[136.795962,36.507296],[136.796125,36.507139],[136.796244,36.506868],[136.796252,36.506524],[136.796125,36.506186],[136.795887,36.50586],[136.795709,36.505516],[136.795717,36.505251],[136.795836,36.504732],[136.795925,36.504545],[136.796304,36.504129],[136.796393,36.503966],[136.796438,36.503423],[136.796387,36.503065],[136.796428,36.502837],[136.796531,36.502614],[136.796956,36.502308],[136.797091,36.501994],[136.797059,36.501653],[136.796951,36.501308],[136.796698,36.500748],[136.79666,36.500228],[136.796531,36.499721],[136.796154,36.498638],[136.796116,36.497881],[136.796046,36.497728],[136.795782,36.497514],[136.794382,36.4972],[136.79395,36.496981],[136.793977,36.496911],[136.794629,36.496601],[136.794931,36.496334],[136.795443,36.494638],[136.795491,36.494398],[136.795502,36.493808],[136.795599,36.493594],[136.795788,36.493389],[136.796299,36.493078],[136.796854,36.493026],[136.797064,36.492925],[136.79763,36.492379],[136.798104,36.491872],[136.79839,36.491492],[136.798589,36.491173],[136.798788,36.490605],[136.798934,36.490334],[136.799182,36.490185],[136.799413,36.49019],[136.799898,36.490286],[136.800502,36.490579],[136.801514,36.490753],[136.80173,36.490732],[136.801978,36.490635],[136.802517,36.490347],[136.80256,36.490286],[136.80256,36.490155],[136.802393,36.489665],[136.802285,36.488944],[136.802339,36.488673],[136.802495,36.488319],[136.802506,36.487926],[136.802441,36.487677],[136.802123,36.487153],[136.802026,36.486886],[136.801951,36.486318],[136.802048,36.485977],[136.802673,36.485601],[136.802791,36.485435],[136.802818,36.485007],[136.802764,36.484858],[136.802635,36.484731],[136.802037,36.484487],[136.801843,36.48436],[136.80173,36.484242],[136.801585,36.483857],[136.801418,36.483739],[136.800637,36.4836],[136.800292,36.483411],[136.799882,36.483036],[136.799602,36.482419],[136.799446,36.481917],[136.799295,36.480973],[136.798503,36.480278],[136.798277,36.48002],[136.79818,36.479561],[136.797663,36.478748],[136.797431,36.47773],[136.797307,36.477424],[136.796865,36.476983],[136.796785,36.476778],[136.796709,36.476332],[136.796602,36.476135],[136.795777,36.475278],[136.795551,36.474885],[136.795287,36.473369],[136.795368,36.473181],[136.795497,36.473098],[136.796122,36.472862],[136.796176,36.47281],[136.796197,36.472639],[136.795767,36.471966],[136.795707,36.471774],[136.795697,36.471538],[136.795804,36.471214],[136.795998,36.470847],[136.796908,36.469676],[136.798185,36.468863],[136.799919,36.468975],[136.801858,36.469218],[136.803548,36.469341],[136.805584,36.469782],[136.806096,36.470691],[136.806388,36.471381],[136.807498,36.471587],[136.808335,36.471464],[136.810099,36.470401],[136.810901,36.470204],[136.811455,36.469921],[136.81186,36.469632],[136.812454,36.469041],[136.812802,36.468824],[136.813515,36.468099],[136.814117,36.467763],[136.814786,36.467166],[136.815346,36.466799],[136.815469,36.466736],[136.815746,36.466718],[136.816515,36.467127],[136.81801,36.468164],[136.818432,36.468712],[136.819209,36.469386],[136.81938,36.469677],[136.819759,36.470127],[136.820449,36.470675],[136.821107,36.471021],[136.821561,36.47144],[136.821738,36.471662],[136.821854,36.4719],[136.822435,36.472438],[136.822585,36.47267],[136.823394,36.473608],[136.823445,36.473771],[136.823699,36.474091],[136.823868,36.474671],[136.824166,36.475181],[136.825134,36.47603],[136.825348,36.476323],[136.825815,36.476658],[136.826353,36.477239],[136.826572,36.477346],[136.826928,36.477655],[136.827171,36.47777],[136.827454,36.477834],[136.827899,36.478169],[136.828428,36.478392],[136.828799,36.478651],[136.828929,36.478869],[136.829218,36.479023],[136.829508,36.479382],[136.829707,36.479515],[136.830395,36.479463],[136.830643,36.479312],[136.830801,36.479318],[136.83096,36.479456],[136.831019,36.479681],[136.83113,36.479816],[136.831385,36.47996],[136.831656,36.479979],[136.831908,36.480062],[136.8324,36.480348],[136.832609,36.480541],[136.832741,36.480765],[136.832823,36.481061],[136.832764,36.481349],[136.832243,36.482505],[136.83221,36.482767],[136.831997,36.483397],[136.832118,36.483615],[136.832038,36.483941],[136.832115,36.484074],[136.832039,36.484241],[136.832039,36.484496],[136.831747,36.485419],[136.83183,36.485646],[136.831901,36.486328],[136.832063,36.486819],[136.832282,36.48727],[136.832572,36.487626],[136.832877,36.487833],[136.833424,36.487909],[136.833912,36.488202],[136.834281,36.488322],[136.834743,36.488558],[136.834885,36.488671],[136.835092,36.48893],[136.835271,36.489547],[136.835524,36.489904],[136.835531,36.489998],[136.835427,36.490128],[136.835683,36.490676],[136.835813,36.491073],[136.835764,36.491393],[136.835458,36.491447],[136.835147,36.491706],[136.83517,36.49196],[136.834994,36.492253],[136.835232,36.492945],[136.835203,36.493297],[136.835302,36.493559],[136.835101,36.493919],[136.834676,36.494386],[136.834451,36.494714],[136.834404,36.494877],[136.834193,36.495235],[136.834186,36.495496],[136.834248,36.49583],[136.834748,36.496506],[136.835022,36.496732],[136.835002,36.496953],[136.834491,36.497549],[136.833737,36.498278],[136.83332,36.498844],[136.83304,36.499335],[136.832622,36.500646],[136.832384,36.501201],[136.832293,36.501602],[136.832353,36.502188],[136.832314,36.50248],[136.832444,36.502773],[136.832556,36.503202],[136.832773,36.503556],[136.83299,36.503845],[136.833611,36.50432],[136.833965,36.504507],[136.834343,36.504642],[136.83462,36.504684],[136.835208,36.504904],[136.835966,36.504982],[136.8363,36.505096],[136.836478,36.505255],[136.836579,36.505519],[136.836769,36.505708],[136.836852,36.505968],[136.837191,36.506358],[136.837265,36.506592],[136.837239,36.506746],[136.837499,36.506876],[136.837796,36.507264],[136.838233,36.507709],[136.83825,36.507805],[136.838157,36.508141],[136.837877,36.508664],[136.838078,36.50925],[136.838067,36.50977],[136.838136,36.509899],[136.83815,36.510093],[136.838306,36.510425],[136.838342,36.511071],[136.838468,36.511463],[136.838518,36.512053],[136.838613,36.512341],[136.838621,36.512732],[136.838787,36.513454],[136.838779,36.513808],[136.838696,36.514064],[136.837797,36.513558],[136.837496,36.513306],[136.837451,36.513078],[136.837329,36.513034],[136.837139,36.513064],[136.836853,36.513254],[136.836405,36.513381],[136.836014,36.513355],[136.835798,36.51327],[136.835557,36.513251],[136.835238,36.513408],[136.834877,36.513348],[136.83403,36.513614],[136.833186,36.513703],[136.832744,36.513831],[136.832182,36.513795],[136.831647,36.513647],[136.831125,36.513593],[136.830716,36.513464],[136.830509,36.513308],[136.830272,36.513304],[136.829812,36.513126],[136.82964,36.513008],[136.829243,36.512962],[136.828561,36.513278],[136.828363,36.513474],[136.827887,36.51378],[136.827443,36.514207],[136.827342,36.514607],[136.827344,36.515191],[136.826587,36.517044],[136.826521,36.518135],[136.826696,36.51905],[136.827225,36.519364],[136.828216,36.51972],[136.829292,36.521067],[136.830165,36.522913],[136.830363,36.523504],[136.830811,36.524291],[136.832576,36.525554],[136.832958,36.525908],[136.833231,36.526236],[136.833393,36.526526],[136.83305,36.526508],[136.832915,36.52659],[136.832847,36.526697],[136.832898,36.526854],[136.833333,36.527245],[136.833389,36.527436],[136.833348,36.5276],[136.833197,36.527771],[136.832713,36.527969],[136.832637,36.528559],[136.832733,36.528881],[136.833521,36.529556],[136.833692,36.530208],[136.833875,36.530494],[136.834386,36.53086],[136.83534,36.53169],[136.835537,36.532002],[136.835565,36.532169],[136.835528,36.53243],[136.835611,36.532593],[136.835569,36.53279],[136.835617,36.532988],[136.835548,36.533571],[136.835333,36.533908],[136.834811,36.534376],[136.834818,36.53446],[136.834887,36.534525],[136.835051,36.534561],[136.836064,36.53425],[136.836214,36.534222],[136.836327,36.534256],[136.836549,36.534471],[136.836707,36.53493],[136.836958,36.535253],[136.83719,36.535865],[136.837107,36.536029],[136.836436,36.536503],[136.836154,36.536793],[136.835708,36.536984],[136.835347,36.537057],[136.834988,36.537204],[136.83494,36.537308],[136.83513,36.537598],[136.836013,36.537855],[136.83663,36.537965],[136.836912,36.5382],[136.837451,36.538406],[136.837569,36.538538],[136.837767,36.539345],[136.837851,36.539506],[136.83783,36.539645],[136.837937,36.539999],[136.837987,36.540619],[136.83794,36.540715],[136.83779,36.540758],[136.837419,36.54063],[136.837103,36.540645],[136.837026,36.540731],[136.836986,36.541188],[136.837083,36.541541],[136.83773,36.541896],[136.837978,36.542188],[136.838087,36.542637],[136.838234,36.542934],[136.838171,36.543026],[136.838001,36.543095],[136.837486,36.543],[136.836344,36.543118],[136.835452,36.543114],[136.835007,36.542916],[136.834347,36.542537],[136.833321,36.541734],[136.832572,36.54123],[136.83164,36.540883],[136.830705,36.540878],[136.828609,36.540721],[136.82811,36.540517],[136.827418,36.540366],[136.827174,36.540268],[136.82628,36.540111],[136.826089,36.540176],[136.826007,36.540574],[136.826062,36.540703],[136.826172,36.540777],[136.827847,36.540958],[136.829059,36.541348],[136.829425,36.541292],[136.829753,36.541363],[136.8319,36.541562],[136.83259,36.541819],[136.834278,36.54307],[136.834721,36.543293],[136.835306,36.5437],[136.836863,36.544182],[136.838082,36.544661],[136.838155,36.544728],[136.83838,36.545377],[136.838232,36.545627],[136.838023,36.545659],[136.837162,36.545434],[136.83685,36.545443],[136.836441,36.545596],[136.836143,36.545845],[136.83618,36.546032],[136.836296,36.546125],[136.836548,36.546218],[136.836648,36.546326],[136.836632,36.546416],[136.836549,36.546479],[136.836145,36.54656],[136.834649,36.54639],[136.834396,36.546479],[136.834326,36.546587],[136.83434,36.546677],[136.83461,36.546852],[136.835342,36.546898],[136.836121,36.547069],[136.836643,36.547108],[136.837331,36.546969],[136.837845,36.546784],[136.838622,36.546702],[136.83894,36.54681],[136.83934,36.547069],[136.839548,36.54729],[136.839726,36.547742],[136.839616,36.548036],[136.839373,36.548263],[136.838746,36.548582],[136.838019,36.548875],[136.837811,36.54885],[136.836405,36.549036],[136.834056,36.549041],[136.832758,36.548727],[136.831903,36.548575],[136.83081,36.548558],[136.83049,36.548678],[136.830131,36.548743],[136.829407,36.549408],[136.829599,36.549727],[136.830269,36.549469],[136.830632,36.549265],[136.831307,36.549205],[136.83147,36.549282],[136.832005,36.549396],[136.833263,36.549433],[136.833911,36.549717],[136.834602,36.549715],[136.835002,36.54967],[136.83549,36.549523],[136.835772,36.549537],[136.836089,36.549454],[136.836505,36.549472],[136.837889,36.54998],[136.838505,36.550362],[136.838784,36.550468],[136.839232,36.550728],[136.839556,36.550699],[136.839805,36.550774],[136.840126,36.550774],[136.840618,36.550858],[136.841145,36.550864],[136.841504,36.55081],[136.841791,36.550871],[136.842007,36.55113],[136.842268,36.551616],[136.842264,36.552368],[136.842071,36.552634],[136.84115,36.553267],[136.841047,36.553368],[136.841054,36.553417],[136.841406,36.55363],[136.842346,36.554041],[136.843132,36.554576],[136.84359,36.555025],[136.843692,36.555181],[136.843712,36.555543],[136.843524,36.555782],[136.843526,36.55587],[136.843733,36.555953],[136.844182,36.555888],[136.844456,36.555995],[136.844511,36.556121],[136.844497,36.556418],[136.845096,36.55686],[136.84539,36.557182],[136.845747,36.557406],[136.846001,36.557861],[136.846053,36.558121],[136.845936,36.558612],[136.845934,36.558839],[136.84563,36.559142],[136.845302,36.559266],[136.844498,36.559322],[136.843976,36.559253],[136.843279,36.559077],[136.843075,36.559079],[136.842432,36.559221],[136.842039,36.559404],[136.841505,36.559547],[136.840902,36.559541],[136.840333,36.559449],[136.839971,36.559583],[136.83953,36.55988],[136.839011,36.560287],[136.838955,36.560412],[136.839097,36.560499],[136.839261,36.560503],[136.839504,36.560373],[136.840515,36.560045],[136.84144,36.559868],[136.842369,36.559911],[136.843698,36.559756],[136.844435,36.559868],[136.844714,36.559944],[136.844916,36.560066],[136.845244,36.560087],[136.845628,36.559878],[136.84604,36.559554],[136.846273,36.559476],[136.846407,36.559484],[136.846519,36.559582],[136.846521,36.559945],[136.846578,36.560035],[136.847273,36.560358],[136.84773,36.560699],[136.849248,36.561562],[136.84958,36.561885],[136.849647,36.562152],[136.850124,36.562864],[136.850407,36.562969],[136.851342,36.562976],[136.851437,36.56306],[136.851661,36.563492],[136.851729,36.563809],[136.851693,36.563943],[136.851447,36.564198],[136.851299,36.564286],[136.850971,36.564377],[136.849881,36.564426],[136.849112,36.564267],[136.848828,36.564136],[136.848376,36.564088],[136.847622,36.564414],[136.846926,36.564564],[136.846496,36.564755],[136.846268,36.564793],[136.846274,36.564935],[136.846215,36.564973],[136.846095,36.564973],[136.845847,36.564856],[136.845562,36.564978],[136.845282,36.564955],[136.844957,36.565091],[136.84398,36.564952],[136.843628,36.564963],[136.843346,36.565063],[136.842987,36.565384],[136.842834,36.565741],[136.842862,36.565932],[136.842676,36.566132],[136.841869,36.566307],[136.841146,36.566547],[136.83943,36.567241],[136.838948,36.567565],[136.837799,36.568565],[136.837436,36.568791],[136.837037,36.568905],[136.836763,36.568878],[136.834894,36.568968],[136.834582,36.56915],[136.834137,36.569313],[136.833644,36.569402],[136.833331,36.569836],[136.833013,36.569994],[136.832607,36.569892],[136.832365,36.56969],[136.832156,36.569595],[136.831505,36.569652],[136.831241,36.569785],[136.831074,36.56994],[136.830595,36.570152],[136.830379,36.570361],[136.8302,36.570422],[136.830023,36.570902]]]]}}]}
