{"type":"FeatureCollection","features":[{"type":"Feature","properties":{"potaRef":"JP-1698","nameJa":"Sefuri raizan","nameEn":"Sefuriraizan Prefectural Nature Park","authority":"環境省 生物多様性「見える化」マップ","boundaryStatus":"全国GIS候補・公開前検証待ち","boundarySource":"環境省 生物多様性「見える化」マップの自然公園区域を、POTA代表座標で一意に空間照合して加工","boundaryScaleNote":"区域は概要データであり、正確性は保証されない。POTA運用可否は公式情報で最終確認すること。","candidateMethod":"POTA representative point inside one public natural-park area","sourceParkKind":"都道府県立自然公園","sourceName":"Sefuri raizan","sourceFeatureCount":1,"cautionMeters":75},"geometry":{"type":"MultiPolygon","coordinates":[[[[130.252502,33.504109],[130.251427,33.504679],[130.25042,33.504996],[130.249335,33.505237],[130.247644,33.505858],[130.245266,33.505835],[130.24467,33.505672],[130.243949,33.505405],[130.243353,33.504783],[130.243027,33.504528],[130.242142,33.504133],[130.241795,33.504046],[130.237813,33.504243],[130.236835,33.504179],[130.236586,33.504034],[130.236441,33.503891],[130.236482,33.503557],[130.236726,33.502863],[130.236852,33.502161],[130.237003,33.501721],[130.237238,33.501259],[130.238759,33.499567],[130.238844,33.49932],[130.238886,33.497274],[130.238844,33.496698],[130.238668,33.496229],[130.238625,33.495877],[130.238709,33.494219],[130.238533,33.493491],[130.238128,33.493168],[130.237811,33.493493],[130.237376,33.493696],[130.236895,33.4937],[130.235834,33.493842],[130.23424,33.493715],[130.233315,33.493752],[130.233086,33.493194],[130.232969,33.493127],[130.232472,33.493025],[130.232267,33.493119],[130.231854,33.493591],[130.231306,33.494048],[130.230818,33.494136],[130.230389,33.494081],[130.229752,33.493872],[130.22962,33.493883],[130.229304,33.494097],[130.229162,33.494284],[130.22894,33.494941],[130.227767,33.494922],[130.227187,33.495363],[130.227049,33.496139],[130.227066,33.496464],[130.227239,33.497304],[130.227156,33.497414],[130.227059,33.497373],[130.22681,33.497033],[130.226865,33.496686],[130.226531,33.496427],[130.22648,33.49616],[130.226339,33.495883],[130.226355,33.495473],[130.226235,33.495275],[130.225567,33.49459],[130.225433,33.494891],[130.225437,33.495314],[130.225703,33.496248],[130.225818,33.496842],[130.225889,33.497441],[130.225937,33.499196],[130.226031,33.499764],[130.22625,33.50046],[130.226347,33.501259],[130.226609,33.501844],[130.22667,33.502627],[130.226542,33.503147],[130.226299,33.503639],[130.22537,33.504623],[130.225053,33.504886],[130.224533,33.504893],[130.224244,33.504716],[130.223732,33.504242],[130.223617,33.504188],[130.223114,33.50419],[130.222092,33.504557],[130.221953,33.50463],[130.221822,33.504804],[130.221665,33.504885],[130.220901,33.505151],[130.221097,33.505439],[130.220731,33.505537],[130.220072,33.505535],[130.21963,33.505372],[130.21923,33.505145],[130.21833,33.504257],[130.218092,33.503857],[130.217754,33.502853],[130.217654,33.502231],[130.21758,33.500768],[130.217679,33.499746],[130.217412,33.49858],[130.216378,33.497389],[130.216083,33.496889],[130.215674,33.496012],[130.215362,33.49492],[130.214869,33.493946],[130.214443,33.493311],[130.2139,33.492006],[130.213826,33.491481],[130.213613,33.490712],[130.213547,33.490247],[130.213505,33.489055],[130.213186,33.489117],[130.212995,33.489253],[130.212944,33.489583],[130.212748,33.48973],[130.212407,33.48989],[130.211911,33.490629],[130.211567,33.490695],[130.211251,33.490823],[130.210816,33.491157],[130.210603,33.491494],[130.21064,33.491767],[130.210598,33.491925],[130.210258,33.492224],[130.209962,33.49234],[130.209467,33.492661],[130.208333,33.492757],[130.207938,33.492851],[130.207753,33.492948],[130.207278,33.493358],[130.206771,33.493253],[130.206346,33.493329],[130.206149,33.493541],[130.206015,33.493802],[130.206075,33.494148],[130.206042,33.494283],[130.205958,33.494372],[130.205772,33.494383],[130.205202,33.494705],[130.205101,33.494854],[130.205112,33.495082],[130.205035,33.495136],[130.204595,33.495238],[130.203964,33.495515],[130.20295,33.495777],[130.202221,33.496168],[130.200916,33.496431],[130.200626,33.496547],[130.200179,33.496643],[130.198999,33.496757],[130.198078,33.496747],[130.194805,33.496385],[130.194367,33.496269],[130.194001,33.496064],[130.193397,33.495604],[130.192649,33.49514],[130.192066,33.494889],[130.191109,33.494619],[130.18995,33.494484],[130.189667,33.494378],[130.189074,33.493908],[130.188824,33.493825],[130.188597,33.493792],[130.188297,33.493876],[130.187819,33.494201],[130.187591,33.494233],[130.186987,33.493843],[130.186848,33.493536],[130.186536,33.492365],[130.186198,33.49132],[130.185926,33.490734],[130.185001,33.489229],[130.183296,33.487091],[130.182736,33.486273],[130.182237,33.485372],[130.182007,33.4845],[130.182032,33.484421],[130.181699,33.484046],[130.181505,33.484025],[130.181482,33.483874],[130.181484,33.48403],[130.18136,33.484111],[130.181268,33.484505],[130.181196,33.484621],[130.181153,33.485052],[130.180972,33.485356],[130.180799,33.485473],[130.180617,33.485509],[130.180513,33.485604],[130.180238,33.486188],[130.180044,33.486252],[130.179971,33.486195],[130.179924,33.486215],[130.179228,33.486714],[130.179135,33.486978],[130.179189,33.487137],[130.179126,33.487386],[130.179189,33.487593],[130.179155,33.487823],[130.178718,33.488049],[130.178588,33.488474],[130.178457,33.48851],[130.178286,33.488455],[130.177959,33.488257],[130.176815,33.487751],[130.176666,33.487633],[130.176199,33.487052],[130.175937,33.486819],[130.175704,33.486672],[130.175468,33.486622],[130.174978,33.486637],[130.17463,33.486849],[130.174566,33.486974],[130.174335,33.486993],[130.174222,33.486927],[130.172319,33.487031],[130.171498,33.487231],[130.171028,33.487406],[130.170392,33.48773],[130.168229,33.489032],[130.167902,33.489106],[130.167676,33.489099],[130.166399,33.488656],[130.166053,33.488414],[130.165605,33.487924],[130.165259,33.487623],[130.164439,33.487422],[130.163791,33.487494],[130.163618,33.487596],[130.16342,33.4878],[130.162418,33.489732],[130.162081,33.490276],[130.161894,33.490478],[130.161725,33.490625],[130.161453,33.490756],[130.159488,33.491379],[130.159131,33.491546],[130.158741,33.491837],[130.157836,33.492765],[130.157654,33.492894],[130.157176,33.492955],[130.156892,33.492644],[130.156689,33.492585],[130.156319,33.492568],[130.155662,33.492701],[130.155483,33.492668],[130.155411,33.492525],[130.155447,33.492265],[130.155263,33.492135],[130.154931,33.492123],[130.154581,33.492344],[130.152215,33.493243],[130.150302,33.494133],[130.150047,33.494383],[130.149499,33.495154],[130.148916,33.495537],[130.148137,33.495872],[130.147595,33.495882],[130.147464,33.495806],[130.147379,33.495606],[130.147316,33.494954],[130.147211,33.494782],[130.146745,33.494591],[130.145685,33.494424],[130.145441,33.494252],[130.144204,33.492714],[130.143375,33.491947],[130.141235,33.490191],[130.140408,33.489415],[130.139126,33.488072],[130.138754,33.487556],[130.138044,33.486194],[130.136919,33.486417],[130.133182,33.486372],[130.131433,33.48647],[130.130454,33.486689],[130.129696,33.486945],[130.129026,33.487233],[130.128231,33.487604],[130.127725,33.487935],[130.127,33.488309],[130.126738,33.488525],[130.126408,33.488659],[130.126213,33.48866],[130.124782,33.488315],[130.124153,33.488293],[130.123923,33.488335],[130.122006,33.489667],[130.12168,33.489822],[130.120109,33.489992],[130.119676,33.49014],[130.119214,33.490369],[130.118501,33.490842],[130.117982,33.491258],[130.11784,33.4913],[130.116776,33.491261],[130.115262,33.490538],[130.114618,33.490341],[130.114012,33.489906],[130.113509,33.489717],[130.113284,33.489717],[130.112608,33.48987],[130.111904,33.48994],[130.111309,33.490155],[130.10876,33.490679],[130.108618,33.490734],[130.108529,33.490991],[130.10829,33.491351],[130.10809,33.491515],[130.10707,33.491883],[130.105165,33.492415],[130.104051,33.492657],[130.10342,33.492713],[130.103159,33.492639],[130.100046,33.491237],[130.099374,33.488804],[130.099178,33.487781],[130.098423,33.4854],[130.097846,33.483041],[130.097934,33.482735],[130.097939,33.482521],[130.098019,33.482406],[130.098532,33.482239],[130.099134,33.481887],[130.100068,33.481432],[130.101128,33.480855],[130.102078,33.480224],[130.102238,33.480067],[130.10231,33.479793],[130.102147,33.479178],[130.102044,33.479109],[130.101763,33.479124],[130.097661,33.479856],[130.096839,33.479897],[130.095304,33.479749],[130.094035,33.479359],[130.093336,33.479256],[130.092748,33.479335],[130.091611,33.479596],[130.089532,33.480232],[130.088431,33.480735],[130.08753,33.481071],[130.087144,33.481319],[130.086715,33.481507],[130.086495,33.481545],[130.086308,33.481511],[130.086039,33.481251],[130.085766,33.479951],[130.085574,33.479689],[130.083227,33.478226],[130.082088,33.477441],[130.081428,33.476674],[130.081116,33.476433],[130.080928,33.476376],[130.080538,33.476367],[130.080208,33.476439],[130.079303,33.47679],[130.078916,33.476781],[130.078107,33.476534],[130.077756,33.47629],[130.077656,33.476135],[130.077717,33.47575],[130.077811,33.475615],[130.078442,33.475284],[130.07848,33.47514],[130.078448,33.474937],[130.078375,33.474853],[130.078214,33.474787],[130.077652,33.474734],[130.077453,33.474547],[130.07711,33.473706],[130.077019,33.473175],[130.076964,33.473074],[130.077133,33.472868],[130.077251,33.472832],[130.077498,33.473198],[130.077663,33.47322],[130.077822,33.47271],[130.078,33.472336],[130.07801,33.472211],[130.077888,33.472124],[130.077487,33.472197],[130.077412,33.472167],[130.077392,33.471983],[130.077449,33.471806],[130.077396,33.471605],[130.077518,33.471339],[130.077499,33.47112],[130.077309,33.471111],[130.076919,33.47135],[130.076748,33.471374],[130.076675,33.471324],[130.076634,33.471148],[130.07644,33.471069],[130.076418,33.470879],[130.076832,33.47025],[130.07762,33.470002],[130.077965,33.469811],[130.078394,33.469411],[130.078623,33.469417],[130.078724,33.469347],[130.078796,33.469206],[130.078883,33.468815],[130.07918,33.468633],[130.079807,33.46846],[130.080622,33.46868],[130.080912,33.468838],[130.081355,33.468858],[130.081828,33.469194],[130.082116,33.469194],[130.082415,33.469113],[130.082947,33.46922],[130.083121,33.469435],[130.083274,33.469517],[130.083412,33.469502],[130.083647,33.469327],[130.085255,33.469525],[130.085806,33.469708],[130.085929,33.469681],[130.086145,33.469503],[130.08672,33.469396],[130.087083,33.469454],[130.087422,33.46943],[130.088564,33.468927],[130.088921,33.468674],[130.089414,33.468525],[130.089877,33.468498],[130.090829,33.468618],[130.091483,33.468843],[130.091964,33.469068],[130.09283,33.469037],[130.093557,33.469099],[130.094188,33.469219],[130.096676,33.469875],[130.098633,33.470092],[130.099356,33.47027],[130.100304,33.470638],[130.100861,33.470915],[130.101644,33.471587],[130.101856,33.471848],[130.102113,33.472225],[130.102272,33.472599],[130.102404,33.473039],[130.102532,33.474053],[130.102756,33.474996],[130.103005,33.475551],[130.103028,33.475746],[130.10313,33.475887],[130.10419,33.476067],[130.104812,33.475987],[130.105077,33.476036],[130.10539,33.47617],[130.105586,33.476334],[130.106313,33.47745],[130.106493,33.477637],[130.106738,33.477815],[130.107199,33.47797],[130.107719,33.477908],[130.108068,33.477679],[130.108486,33.477312],[130.109122,33.476534],[130.10993,33.476012],[130.111216,33.47575],[130.115686,33.475245],[130.116568,33.475189],[130.117291,33.475228],[130.119234,33.475769],[130.119859,33.475878],[130.120608,33.475856],[130.121696,33.475523],[130.122359,33.4755],[130.123226,33.475511],[130.124568,33.475817],[130.125954,33.475956],[130.126451,33.475956],[130.127194,33.475684],[130.127691,33.475561],[130.129064,33.475639],[130.129559,33.475626],[130.12974,33.475554],[130.130825,33.474711],[130.131332,33.474509],[130.131667,33.474473],[130.131949,33.474337],[130.133206,33.473194],[130.1344,33.47266],[130.135101,33.472426],[130.135588,33.472454],[130.136932,33.471776],[130.137514,33.47157],[130.137858,33.471333],[130.138801,33.470436],[130.138966,33.470398],[130.139298,33.470578],[130.139413,33.470706],[130.139724,33.47133],[130.139847,33.471474],[130.140695,33.471729],[130.140957,33.471862],[130.141174,33.47206],[130.1414,33.4725],[130.141934,33.473108],[130.142088,33.473374],[130.142241,33.473894],[130.142545,33.474312],[130.142771,33.474454],[130.142997,33.474461],[130.143959,33.474222],[130.144485,33.474175],[130.145593,33.474373],[130.145976,33.474497],[130.146439,33.474783],[130.146928,33.475167],[130.147669,33.475541],[130.147952,33.475803],[130.148331,33.476332],[130.148434,33.476751],[130.148497,33.47729],[130.148583,33.477397],[130.148886,33.477341],[130.149021,33.477446],[130.149267,33.477512],[130.149991,33.477518],[130.150449,33.477712],[130.150853,33.477746],[130.151105,33.47769],[130.151742,33.477212],[130.152007,33.477096],[130.152763,33.477118],[130.153804,33.476745],[130.154693,33.476718],[130.156138,33.476857],[130.156928,33.476812],[130.157299,33.476456],[130.158049,33.475589],[130.158229,33.475594],[130.158475,33.475756],[130.158878,33.475862],[130.159315,33.475862],[130.159746,33.475673],[130.160167,33.475364],[130.160972,33.474648],[130.161668,33.473954],[130.162257,33.473044],[130.162605,33.472675],[130.163929,33.472346],[130.164012,33.472172],[130.1643,33.47191],[130.164426,33.471398],[130.164465,33.470109],[130.164573,33.469634],[130.164784,33.469392],[130.165426,33.469129],[130.166714,33.46873],[130.167802,33.46822],[130.168637,33.467703],[130.168852,33.467621],[130.169811,33.467676],[130.170895,33.46764],[130.171246,33.467561],[130.172028,33.46719],[130.172149,33.467196],[130.17247,33.467354],[130.172863,33.467387],[130.17387,33.467356],[130.17483,33.467386],[130.175034,33.467303],[130.175279,33.467105],[130.175797,33.466417],[130.175873,33.465994],[130.175935,33.465923],[130.176052,33.465917],[130.17673,33.46634],[130.177349,33.466574],[130.177679,33.46668],[130.178436,33.466777],[130.178875,33.46677],[130.179306,33.466603],[130.179807,33.466308],[130.18062,33.466332],[130.182799,33.466648],[130.183154,33.466768],[130.183906,33.467253],[130.184302,33.467357],[130.185212,33.467858],[130.185859,33.468059],[130.186232,33.468248],[130.186474,33.46847],[130.186506,33.468727],[130.186387,33.47064],[130.18653,33.470836],[130.186883,33.471011],[130.187267,33.471084],[130.187614,33.471084],[130.18863,33.470824],[130.188781,33.470874],[130.188853,33.470959],[130.188857,33.47119],[130.188608,33.471556],[130.188419,33.472511],[130.188663,33.473128],[130.188566,33.473954],[130.18867,33.474704],[130.188789,33.474892],[130.189233,33.475123],[130.190306,33.475431],[130.190612,33.475602],[130.190793,33.475798],[130.190893,33.476125],[130.191089,33.476292],[130.191519,33.476428],[130.191847,33.476485],[130.192005,33.476434],[130.192286,33.476212],[130.192527,33.476104],[130.192916,33.476054],[130.193552,33.476187],[130.19393,33.476187],[130.194196,33.476112],[130.194531,33.476109],[130.19495,33.476485],[130.195311,33.476991],[130.195779,33.477907],[130.19597,33.478085],[130.196143,33.478066],[130.196818,33.477824],[130.197792,33.477413],[130.198253,33.477272],[130.198488,33.477299],[130.198734,33.47752],[130.198968,33.477928],[130.198913,33.478099],[130.198534,33.478667],[130.197955,33.479344],[130.198063,33.479643],[130.198037,33.479878],[130.198096,33.48013],[130.197929,33.480374],[130.197929,33.480529],[130.198523,33.481172],[130.198666,33.4812],[130.198801,33.481178],[130.199308,33.480934],[130.199684,33.480936],[130.200522,33.480547],[130.201088,33.480396],[130.201584,33.480041],[130.201735,33.480041],[130.202286,33.480328],[130.202646,33.480431],[130.203332,33.480747],[130.203537,33.480919],[130.203733,33.481418],[130.203884,33.481573],[130.204265,33.481327],[130.204521,33.481279],[130.205079,33.48139],[130.205587,33.481404],[130.207689,33.481232],[130.20852,33.481082],[130.20892,33.480899],[130.20928,33.480847],[130.209913,33.480964],[130.210061,33.480922],[130.210155,33.480749],[130.211065,33.480791],[130.212321,33.480757],[130.212779,33.480682],[130.213488,33.480382],[130.214651,33.479752],[130.214891,33.479697],[130.215185,33.479709],[130.216033,33.479915],[130.216306,33.479837],[130.216667,33.479488],[130.21776,33.479052],[130.217884,33.478866],[130.217966,33.478482],[130.218175,33.478186],[130.220765,33.477699],[130.221663,33.477656],[130.222523,33.477892],[130.223154,33.478229],[130.223342,33.478279],[130.223463,33.478219],[130.223542,33.478084],[130.224585,33.477479],[130.224881,33.477376],[130.22562,33.477247],[130.226114,33.476909],[130.226802,33.476695],[130.227258,33.47679],[130.228537,33.477523],[130.229147,33.477814],[130.229911,33.478302],[130.230347,33.478471],[130.23055,33.47849],[130.231891,33.478371],[130.232668,33.478572],[130.233314,33.478923],[130.234128,33.478491],[130.234404,33.478397],[130.234914,33.478388],[130.236155,33.478202],[130.236611,33.478019],[130.237261,33.477453],[130.237545,33.477129],[130.237935,33.476204],[130.237943,33.474461],[130.2381,33.474308],[130.238359,33.474258],[130.239249,33.474312],[130.241433,33.474907],[130.242548,33.475098],[130.242664,33.475071],[130.243343,33.474613],[130.244363,33.474529],[130.244729,33.474346],[130.245419,33.473568],[130.246082,33.472119],[130.246485,33.471576],[130.246798,33.471252],[130.247228,33.471047],[130.24779,33.470963],[130.248699,33.470918],[130.249926,33.470932],[130.251717,33.471053],[130.252082,33.471146],[130.252392,33.471306],[130.253856,33.473063],[130.255952,33.474817],[130.257322,33.476176],[130.257687,33.476368],[130.258052,33.476467],[130.259248,33.476631],[130.259987,33.476791],[130.261608,33.477407],[130.262634,33.478005],[130.262769,33.47803],[130.263384,33.477937],[130.264496,33.477563],[130.264626,33.477596],[130.264679,33.477684],[130.264959,33.477814],[130.26513,33.477954],[130.266103,33.477905],[130.2665,33.478317],[130.267017,33.478634],[130.267175,33.478696],[130.267911,33.478756],[130.268858,33.479295],[130.269383,33.479527],[130.270761,33.479717],[130.27095,33.479902],[130.271039,33.479931],[130.271119,33.479927],[130.271325,33.479785],[130.271526,33.47978],[130.272222,33.479407],[130.272866,33.479552],[130.273732,33.479669],[130.274945,33.479713],[130.276749,33.478877],[130.27728,33.478508],[130.278429,33.477317],[130.278642,33.476831],[130.278753,33.476303],[130.279101,33.476005],[130.280012,33.475442],[130.280865,33.475098],[130.282051,33.474505],[130.282929,33.473716],[130.283176,33.473438],[130.283453,33.473014],[130.28372,33.472747],[130.286029,33.471683],[130.287176,33.470592],[130.287768,33.470119],[130.28825,33.469875],[130.288741,33.469714],[130.289189,33.469681],[130.290927,33.469792],[130.291232,33.469659],[130.291623,33.469225],[130.292709,33.467235],[130.29322,33.466574],[130.293815,33.46611],[130.295183,33.465407],[130.295368,33.465173],[130.295858,33.46405],[130.296203,33.463522],[130.296727,33.4631],[130.297323,33.462737],[130.297904,33.462614],[130.298381,33.462388],[130.301455,33.462169],[130.301737,33.462022],[130.301908,33.461726],[130.302215,33.461478],[130.302544,33.461296],[130.30273,33.461273],[130.30308,33.461305],[130.303391,33.461414],[130.303975,33.461876],[130.304369,33.461979],[130.305111,33.462511],[130.305674,33.463143],[130.305932,33.46333],[130.306051,33.463349],[130.306617,33.462901],[130.307238,33.462784],[130.307881,33.462395],[130.308163,33.462372],[130.308294,33.462421],[130.308678,33.462372],[130.309046,33.462425],[130.309985,33.462139],[130.311025,33.462052],[130.311245,33.461782],[130.311687,33.461491],[130.312764,33.461187],[130.313026,33.460934],[130.313278,33.460464],[130.313377,33.460059],[130.313483,33.459235],[130.313619,33.459114],[130.313659,33.459008],[130.313824,33.458032],[130.314252,33.458094],[130.314872,33.458443],[130.315058,33.458499],[130.316687,33.458712],[130.317498,33.458677],[130.318563,33.458734],[130.319657,33.458732],[130.319994,33.458702],[130.320301,33.458535],[130.320989,33.458349],[130.321417,33.458133],[130.321776,33.457807],[130.322736,33.456583],[130.323416,33.455951],[130.324928,33.455405],[130.32549,33.455319],[130.326622,33.454886],[130.327913,33.454173],[130.328764,33.453821],[130.329167,33.453546],[130.329782,33.452996],[130.330593,33.45255],[130.331872,33.451533],[130.332839,33.45121],[130.33445,33.450784],[130.334819,33.450557],[130.335155,33.45033],[130.335385,33.450055],[130.335557,33.449657],[130.335672,33.449086],[130.336204,33.448509],[130.336384,33.448097],[130.336482,33.44719],[130.336761,33.446241],[130.336759,33.445534],[130.336956,33.445286],[130.338005,33.445053],[130.33907,33.444695],[130.339767,33.44464],[130.340111,33.444744],[130.340472,33.444929],[130.341119,33.445527],[130.341341,33.445561],[130.341578,33.445534],[130.341947,33.445142],[130.343602,33.444503],[130.343974,33.444441],[130.344195,33.444434],[130.344814,33.444578],[130.345181,33.444802],[130.345428,33.445021],[130.345816,33.444418],[130.346989,33.44352],[130.34726,33.44319],[130.347604,33.442538],[130.348481,33.441383],[130.349426,33.440366],[130.349631,33.439988],[130.349737,33.439432],[130.349795,33.439354],[130.349947,33.439286],[130.351072,33.439138],[130.351233,33.439073],[130.351519,33.438761],[130.351672,33.438724],[130.35186,33.438566],[130.352163,33.438105],[130.352351,33.437054],[130.352523,33.436669],[130.35322,33.436133],[130.353773,33.435556],[130.353963,33.435348],[130.354781,33.434037],[130.35524,33.433591],[130.355552,33.433384],[130.355814,33.433384],[130.355972,33.433438],[130.356094,33.433592],[130.356417,33.434528],[130.356576,33.43469],[130.356888,33.434747],[130.357223,33.43469],[130.357443,33.434553],[130.357979,33.434024],[130.358069,33.433967],[130.358297,33.433949],[130.358657,33.433975],[130.359458,33.434384],[130.35975,33.434429],[130.36046,33.434402],[130.361463,33.434438],[130.362659,33.434816],[130.363193,33.434787],[130.363317,33.434935],[130.363384,33.434943],[130.364182,33.434355],[130.364941,33.434037],[130.36574,33.433989],[130.366689,33.434038],[130.367347,33.434256],[130.367649,33.434435],[130.367957,33.434718],[130.368243,33.43514],[130.368451,33.43559],[130.368476,33.435981],[130.368528,33.436168],[130.368625,33.436268],[130.368811,33.436281],[130.368944,33.436192],[130.369118,33.436246],[130.36944,33.436173],[130.369846,33.435842],[130.370144,33.435458],[130.370173,33.434961],[130.370233,33.434874],[130.37027,33.434643],[130.370214,33.433987],[130.370527,33.433524],[130.370579,33.433205],[130.370646,33.433124],[130.371307,33.432961],[130.371794,33.432352],[130.37211,33.432415],[130.372457,33.431666],[130.372903,33.431473],[130.374068,33.430723],[130.375261,33.43025],[130.376602,33.428989],[130.376835,33.427875],[130.377343,33.427319],[130.377843,33.427141],[130.377947,33.427026],[130.377996,33.426595],[130.377898,33.426306],[130.377846,33.425849],[130.378033,33.425091],[130.378383,33.425126],[130.37865,33.425221],[130.379391,33.425747],[130.379552,33.425786],[130.380419,33.425738],[130.380845,33.425805],[130.381488,33.425998],[130.382654,33.426515],[130.38292,33.426716],[130.383714,33.427594],[130.384081,33.427762],[130.385888,33.428034],[130.386853,33.428236],[130.387393,33.428116],[130.388737,33.42633],[130.38945,33.426099],[130.390333,33.426052],[130.391193,33.426077],[130.393312,33.426606],[130.393931,33.426715],[130.395042,33.426732],[130.395704,33.42686],[130.395784,33.426901],[130.396243,33.427517],[130.396334,33.42756],[130.396484,33.427551],[130.397297,33.427143],[130.397595,33.426784],[130.397951,33.426586],[130.398061,33.426441],[130.398107,33.426287],[130.398082,33.425655],[130.398127,33.425457],[130.398865,33.425166],[130.399043,33.425041],[130.399123,33.424887],[130.399152,33.424665],[130.399095,33.424492],[130.398833,33.424231],[130.398815,33.424064],[130.398325,33.423377],[130.398259,33.42246],[130.39846,33.422069],[130.398684,33.421799],[130.398952,33.421615],[130.39908,33.421585],[130.39931,33.421573],[130.400634,33.421806],[130.400881,33.421782],[130.401134,33.421619],[130.401186,33.42094],[130.401257,33.420832],[130.401389,33.42076],[130.402102,33.42062],[130.402337,33.420495],[130.402688,33.420134],[130.403026,33.419332],[130.403502,33.419042],[130.403654,33.418867],[130.403687,33.418539],[130.403454,33.417962],[130.403707,33.417589],[130.404467,33.416999],[130.404797,33.416558],[130.40558,33.416117],[130.406476,33.415906],[130.406804,33.415772],[130.406859,33.41569],[130.407459,33.415494],[130.407488,33.415335],[130.407357,33.414905],[130.40735,33.41476],[130.407404,33.414635],[130.407646,33.414319],[130.408646,33.413804],[130.409228,33.413545],[130.409858,33.413395],[130.410072,33.413405],[130.410665,33.413158],[130.412608,33.411953],[130.41383,33.411412],[130.415382,33.41106],[130.416845,33.410427],[130.416796,33.410309],[130.416542,33.410239],[130.415601,33.410375],[130.415333,33.409845],[130.415543,33.409568],[130.415535,33.409485],[130.415095,33.40929],[130.414834,33.408764],[130.414651,33.408516],[130.414562,33.408236],[130.414264,33.407832],[130.413902,33.407482],[130.413713,33.407336],[130.413396,33.407304],[130.413155,33.407217],[130.41284,33.406756],[130.412632,33.406536],[130.412657,33.406351],[130.412605,33.406186],[130.411999,33.405459],[130.411801,33.405068],[130.411599,33.40482],[130.411404,33.404701],[130.411179,33.404135],[130.410948,33.40373],[130.410444,33.403657],[130.410233,33.403569],[130.409982,33.403276],[130.409754,33.402765],[130.409534,33.402603],[130.409004,33.402475],[130.408328,33.402238],[130.407997,33.402022],[130.407824,33.401851],[130.40775,33.401629],[130.407708,33.400959],[130.407606,33.400522],[130.407635,33.399977],[130.407533,33.399341],[130.407556,33.399002],[130.407683,33.398604],[130.407852,33.398367],[130.408097,33.398192],[130.408747,33.397399],[130.409511,33.396616],[130.410477,33.396075],[130.410946,33.395449],[130.410962,33.395189],[130.411664,33.395348],[130.412097,33.395512],[130.412372,33.395516],[130.413037,33.395764],[130.413357,33.396012],[130.414038,33.397039],[130.41398,33.397294],[130.413759,33.397413],[130.413646,33.397616],[130.413653,33.397951],[130.413749,33.398335],[130.413915,33.398569],[130.414473,33.398982],[130.415423,33.398985],[130.415716,33.39902],[130.415966,33.399114],[130.416312,33.399356],[130.416578,33.399709],[130.417407,33.400589],[130.418135,33.401134],[130.418351,33.401205],[130.418783,33.401233],[130.419285,33.401005],[130.420155,33.400338],[130.420568,33.399422],[130.421386,33.398975],[130.421638,33.398689],[130.421876,33.3985],[130.422077,33.398451],[130.422839,33.398465],[130.423285,33.398392],[130.423568,33.398287],[130.424511,33.39828],[130.425007,33.397997],[130.425721,33.397843],[130.425959,33.397896],[130.426225,33.397885],[130.426587,33.397801],[130.427,33.397787],[130.427502,33.397417],[130.427668,33.397354],[130.428018,33.396998],[130.428472,33.396879],[130.428757,33.396876],[130.429249,33.39712],[130.42985,33.397253],[130.430113,33.397365],[130.430713,33.397886],[130.431554,33.398203],[130.432243,33.398609],[130.43283,33.398727],[130.433155,33.398721],[130.43375,33.398654],[130.434273,33.398539],[130.434923,33.39871],[130.435593,33.398784],[130.435839,33.398861],[130.436064,33.39899],[130.436586,33.399454],[130.437244,33.399528],[130.437603,33.399783],[130.43815,33.400069],[130.43835,33.400338],[130.438,33.401484],[130.437904,33.401942],[130.43789,33.402515],[130.437748,33.402899],[130.437527,33.403186],[130.437263,33.403818],[130.437036,33.404744],[130.437034,33.405022],[130.437809,33.405361],[130.43912,33.406543],[130.439186,33.406763],[130.439268,33.407546],[130.439702,33.408666],[130.440668,33.410089],[130.440635,33.410254],[130.439636,33.411017],[130.439521,33.411209],[130.439578,33.411388],[130.439709,33.411539],[130.440443,33.41172],[130.44112,33.412244],[130.441175,33.412517],[130.441454,33.412852],[130.44156,33.413171],[130.441391,33.413866],[130.4412,33.414072],[130.441154,33.414222],[130.441709,33.414904],[130.442214,33.415634],[130.442384,33.415714],[130.442903,33.415819],[130.443386,33.41614],[130.443636,33.416245],[130.444023,33.416304],[130.444408,33.41685],[130.445347,33.417671],[130.446684,33.418575],[130.447684,33.418946],[130.448396,33.419086],[130.448831,33.419071],[130.449597,33.41882],[130.450544,33.418775],[130.450849,33.418848],[130.45109,33.418971],[130.451371,33.419264],[130.452513,33.419781],[130.453401,33.419841],[130.453972,33.419743],[130.454436,33.419596],[130.456054,33.419456],[130.457297,33.419519],[130.458081,33.419781],[130.458261,33.419975],[130.458188,33.420722],[130.458176,33.42218],[130.458285,33.422445],[130.458584,33.422907],[130.458619,33.423061],[130.458561,33.423292],[130.458279,33.423932],[130.458038,33.424769],[130.458009,33.425015],[130.458067,33.425169],[130.458274,33.42541],[130.458825,33.425544],[130.459101,33.425698],[130.459739,33.426954],[130.459865,33.427099],[130.460324,33.42732],[130.460951,33.427729],[130.461413,33.428237],[130.460706,33.429301],[130.460563,33.429282],[130.460023,33.429041],[130.459049,33.428783],[130.458388,33.428832],[130.457653,33.429053],[130.456978,33.42894],[130.456811,33.428978],[130.456567,33.429751],[130.456584,33.429852],[130.45705,33.430208],[130.457811,33.430658],[130.457894,33.4308],[130.457889,33.430973],[130.457627,33.431938],[130.457216,33.432504],[130.456903,33.43305],[130.456817,33.433219],[130.456751,33.433674],[130.456346,33.434239],[130.456395,33.434747],[130.456162,33.435597],[130.456102,33.435989],[130.456044,33.436066],[130.455734,33.436186],[130.455504,33.43621],[130.454835,33.436034],[130.453939,33.43602],[130.453131,33.435927],[130.452156,33.43592],[130.4505,33.436133],[130.450082,33.435803],[130.44895,33.434745],[130.448753,33.434437],[130.448681,33.434107],[130.448642,33.433096],[130.448256,33.431804],[130.448151,33.431639],[130.447797,33.431535],[130.447254,33.431464],[130.447054,33.431461],[130.446189,33.431619],[130.445129,33.431687],[130.444729,33.431817],[130.443634,33.432315],[130.441899,33.433916],[130.441568,33.434043],[130.440369,33.434255],[130.43993,33.43438],[130.438851,33.434904],[130.438333,33.435284],[130.438012,33.435685],[130.437717,33.436268],[130.43754,33.436768],[130.437037,33.437439],[130.436529,33.438476],[130.435562,33.439425],[130.435111,33.439933],[130.434864,33.440407],[130.434659,33.441404],[130.434159,33.441885],[130.43352,33.442221],[130.433282,33.442462],[130.432818,33.443211],[130.431941,33.444118],[130.431703,33.444465],[130.431324,33.444603],[130.429965,33.444607],[130.429572,33.444805],[130.428718,33.445618],[130.427795,33.446127],[130.427471,33.446376],[130.426551,33.447212],[130.42618,33.447702],[130.425984,33.448115],[130.425951,33.448725],[130.426029,33.449115],[130.426344,33.450006],[130.426731,33.450477],[130.427021,33.45064],[130.42771,33.451265],[130.428343,33.451483],[130.428688,33.451963],[130.428325,33.452413],[130.428206,33.452684],[130.427931,33.453044],[130.427767,33.453354],[130.427604,33.453162],[130.42748,33.452705],[130.427358,33.452592],[130.426858,33.452568],[130.426446,33.452726],[130.426277,33.45263],[130.425702,33.452079],[130.425252,33.451874],[130.424361,33.451636],[130.423789,33.451599],[130.423106,33.451443],[130.422789,33.451197],[130.422311,33.450953],[130.421828,33.450082],[130.421334,33.449824],[130.420926,33.449514],[130.42068,33.449514],[130.420271,33.449611],[130.419,33.449296],[130.418584,33.449173],[130.418059,33.448729],[130.417778,33.448155],[130.417494,33.447845],[130.417087,33.447185],[130.416828,33.446633],[130.416169,33.445509],[130.41616,33.445351],[130.416477,33.445258],[130.41686,33.44528],[130.417447,33.4455],[130.418963,33.4463],[130.419157,33.446327],[130.419462,33.446265],[130.419672,33.446037],[130.419734,33.445839],[130.419677,33.445619],[130.419367,33.445052],[130.418743,33.44422],[130.417894,33.443336],[130.41675,33.442272],[130.415836,33.441041],[130.415431,33.44029],[130.414768,33.439903],[130.414052,33.439592],[130.411398,33.439071],[130.411016,33.438929],[130.410878,33.43876],[130.410815,33.437706],[130.410558,33.437342],[130.410324,33.437297],[130.409443,33.437406],[130.407043,33.43786],[130.404822,33.438533],[130.404407,33.438533],[130.403861,33.438457],[130.403558,33.437943],[130.403433,33.437443],[130.403458,33.436762],[130.403086,33.435155],[130.402847,33.433497],[130.402682,33.433132],[130.401604,33.433887],[130.400206,33.434608],[130.398124,33.435303],[130.398052,33.435407],[130.397575,33.4371],[130.396891,33.438177],[130.396871,33.43875],[130.397026,33.439367],[130.397444,33.44014],[130.398542,33.441122],[130.399184,33.442155],[130.399577,33.442459],[130.40027,33.442867],[130.400018,33.44296],[130.399677,33.443347],[130.399203,33.444125],[130.398924,33.44495],[130.39887,33.44528],[130.398959,33.445903],[130.399203,33.446632],[130.399315,33.447491],[130.39949,33.447826],[130.399355,33.448791],[130.399234,33.448998],[130.398916,33.449313],[130.398129,33.449751],[130.396988,33.449965],[130.396727,33.450352],[130.39652,33.450521],[130.395957,33.450704],[130.395075,33.450745],[130.394891,33.450817],[130.394607,33.451094],[130.394498,33.451142],[130.393849,33.451185],[130.393406,33.45131],[130.391821,33.452499],[130.391442,33.452581],[130.391206,33.452542],[130.390994,33.452576],[130.390554,33.452781],[130.389621,33.4535],[130.389173,33.453991],[130.387964,33.454797],[130.38782,33.454961],[130.387599,33.455618],[130.386451,33.454932],[130.385438,33.454541],[130.384754,33.454457],[130.380378,33.454337],[130.38016,33.454243],[130.379773,33.453759],[130.379439,33.453527],[130.378172,33.453452],[130.377763,33.453674],[130.377466,33.454025],[130.377366,33.454363],[130.37666,33.455119],[130.376295,33.455319],[130.375721,33.454977],[130.372401,33.454861],[130.372217,33.454723],[130.372244,33.454399],[130.372689,33.453492],[130.371452,33.453118],[130.371158,33.453379],[130.371141,33.453505],[130.3714,33.453772],[130.371453,33.453896],[130.371103,33.453928],[130.370599,33.453754],[130.369958,33.453643],[130.36928,33.4532],[130.369081,33.453167],[130.368676,33.452923],[130.36804,33.4524],[130.367834,33.452406],[130.36743,33.452561],[130.367277,33.4527],[130.365348,33.452667],[130.363596,33.452761],[130.363802,33.451866],[130.363789,33.450733],[130.363636,33.450227],[130.363291,33.449426],[130.362933,33.44882],[130.362105,33.447809],[130.360414,33.446347],[130.359811,33.445997],[130.35905,33.445686],[130.358546,33.44563],[130.357107,33.445697],[130.356387,33.445805],[130.355435,33.446279],[130.355124,33.446385],[130.354871,33.446597],[130.354487,33.446986],[130.353642,33.448115],[130.353304,33.448898],[130.352633,33.450855],[130.35264,33.451742],[130.35273,33.452256],[130.35269,33.453167],[130.352525,33.454384],[130.35229,33.455276],[130.352001,33.455683],[130.351771,33.455857],[130.351393,33.455957],[130.350929,33.455965],[130.350283,33.455841],[130.347183,33.454846],[130.346738,33.454796],[130.34644,33.454829],[130.346162,33.454974],[130.345971,33.455208],[130.345909,33.456767],[130.34588,33.456945],[130.345673,33.457097],[130.345242,33.457146],[130.345076,33.457063],[130.344792,33.456613],[130.344211,33.456317],[130.343892,33.45627],[130.343426,33.45638],[130.343039,33.456598],[130.341365,33.457314],[130.34042,33.457619],[130.338787,33.457758],[130.339061,33.458641],[130.339318,33.458967],[130.341133,33.459988],[130.340876,33.46035],[130.339957,33.460938],[130.339287,33.461188],[130.33736,33.461327],[130.336717,33.461449],[130.3362,33.461616],[130.335292,33.462099],[130.334695,33.462349],[130.334068,33.462511],[130.332204,33.462755],[130.330056,33.462972],[130.329592,33.463228],[130.329154,33.463539],[130.328849,33.463883],[130.328633,33.464245],[130.330125,33.465318],[130.330649,33.465757],[130.331087,33.466268],[130.331348,33.466801],[130.331343,33.466962],[130.331482,33.467141],[130.33148,33.467637],[130.331669,33.467894],[130.331846,33.468403],[130.331801,33.468891],[130.331886,33.469125],[130.331866,33.469464],[130.331974,33.469723],[130.331905,33.470089],[130.332049,33.470796],[130.332339,33.470955],[130.332609,33.47103],[130.332963,33.470982],[130.333457,33.471365],[130.33378,33.471426],[130.333889,33.471498],[130.334121,33.471902],[130.33457,33.472247],[130.33486,33.472626],[130.33528,33.473061],[130.335809,33.474036],[130.336054,33.474263],[130.336166,33.474446],[130.336504,33.474744],[130.3366,33.474936],[130.336768,33.475111],[130.336719,33.475133],[130.337118,33.475631],[130.337197,33.475913],[130.33806,33.476679],[130.338344,33.477021],[130.33565,33.476851],[130.323949,33.475856],[130.324072,33.475974],[130.32405,33.476245],[130.324192,33.47624],[130.324446,33.476735],[130.324865,33.477326],[130.324834,33.477364],[130.325581,33.478199],[130.325876,33.478921],[130.325745,33.479447],[130.325789,33.479927],[130.325616,33.480308],[130.325131,33.482124],[130.324552,33.482604],[130.32426,33.48271],[130.323899,33.482728],[130.323586,33.482639],[130.32261,33.481674],[130.3221,33.481087],[130.32207,33.480944],[130.322156,33.479757],[130.32207,33.4791],[130.321916,33.478633],[130.321731,33.478157],[130.321418,33.477793],[130.320765,33.477191],[130.319413,33.475017],[130.319165,33.474461],[130.318966,33.4728],[130.318761,33.472221],[130.318185,33.471492],[130.317459,33.470927],[130.317125,33.470803],[130.316775,33.47078],[130.316477,33.470794],[130.316159,33.470958],[130.315682,33.471305],[130.314709,33.471883],[130.314375,33.471887],[130.313563,33.471732],[130.312686,33.471847],[130.312464,33.471821],[130.311604,33.471309],[130.311265,33.471163],[130.310861,33.471114],[130.310182,33.471292],[130.309865,33.471487],[130.309556,33.471887],[130.308822,33.47315],[130.308451,33.473657],[130.307084,33.474929],[130.306691,33.475409],[130.306262,33.476836],[130.306135,33.477504],[130.306061,33.477632],[130.305876,33.477712],[130.305727,33.477712],[130.305531,33.477672],[130.304836,33.477295],[130.304576,33.477357],[130.30448,33.477477],[130.304305,33.478673],[130.304162,33.47906],[130.303891,33.479375],[130.304056,33.479922],[130.305043,33.481488],[130.305186,33.481901],[130.306385,33.483844],[130.307193,33.485383],[130.307235,33.485828],[130.30723,33.486192],[130.306842,33.48717],[130.306688,33.48741],[130.306026,33.488171],[130.305812,33.488648],[130.305749,33.488837],[130.305661,33.490153],[130.305817,33.490446],[130.306165,33.490856],[130.306483,33.491413],[130.306934,33.49181],[130.306997,33.491979],[130.306794,33.492364],[130.306877,33.492539],[130.307672,33.493398],[130.308103,33.493984],[130.308187,33.494232],[130.308105,33.494463],[130.307623,33.495167],[130.307433,33.495831],[130.307266,33.495992],[130.306455,33.496364],[130.306342,33.496508],[130.306364,33.496699],[130.306495,33.496721],[130.306789,33.496926],[130.307329,33.497144],[130.308296,33.497183],[130.308397,33.497237],[130.308347,33.497277],[130.308446,33.497381],[130.308515,33.497622],[130.308834,33.497826],[130.309321,33.497751],[130.309535,33.49753],[130.309487,33.497899],[130.309663,33.498132],[130.309632,33.498401],[130.30944,33.498527],[130.309397,33.49876],[130.309047,33.498787],[130.308845,33.498975],[130.308777,33.499266],[130.308909,33.499428],[130.308218,33.499791],[130.307776,33.500331],[130.307725,33.500488],[130.307772,33.500631],[130.307923,33.500778],[130.308103,33.500853],[130.307917,33.501077],[130.307366,33.500845],[130.307106,33.50067],[130.306961,33.500661],[130.306902,33.500526],[130.30674,33.50044],[130.306557,33.500448],[130.306427,33.50057],[130.306257,33.50042],[130.306116,33.500362],[130.305824,33.500431],[130.30562,33.500355],[130.305432,33.500369],[130.305156,33.500314],[130.305002,33.500336],[130.304906,33.50041],[130.304848,33.500641],[130.304615,33.500459],[130.304424,33.500457],[130.303982,33.500712],[130.30365,33.50081],[130.303412,33.500971],[130.30324,33.500944],[130.303061,33.50098],[130.302587,33.501206],[130.302405,33.501224],[130.302805,33.501045],[130.303278,33.500743],[130.303331,33.500697],[130.303332,33.500616],[130.303679,33.500387],[130.303832,33.500163],[130.303817,33.499978],[130.303628,33.499629],[130.303588,33.499449],[130.303672,33.499283],[130.303652,33.499059],[130.303571,33.498978],[130.303544,33.498854],[130.303474,33.498817],[130.303471,33.498677],[130.303206,33.49844],[130.302964,33.498429],[130.301316,33.498968],[130.300884,33.49921],[130.300558,33.499534],[130.299893,33.499607],[130.299819,33.499461],[130.299711,33.499389],[130.299119,33.49934],[130.297023,33.499354],[130.29636,33.499056],[130.295511,33.498185],[130.294852,33.497326],[130.294555,33.4971],[130.294279,33.496966],[130.29271,33.496686],[130.290801,33.495597],[130.288896,33.494819],[130.288121,33.494636],[130.286646,33.494458],[130.284199,33.494476],[130.281579,33.49473],[130.280889,33.494823],[130.28004,33.495072],[130.278113,33.495857],[130.277883,33.495865],[130.27712,33.4954],[130.276744,33.495223],[130.275332,33.495063],[130.27471,33.49488],[130.274525,33.494738],[130.273588,33.494454],[130.272346,33.494249],[130.271322,33.493965],[130.270674,33.494043],[130.269634,33.494471],[130.268918,33.494638],[130.267504,33.494619],[130.266206,33.494856],[130.265397,33.495098],[130.264781,33.49546],[130.264493,33.495553],[130.263874,33.49567],[130.262713,33.495749],[130.262429,33.495872],[130.26198,33.496258],[130.261629,33.496967],[130.261308,33.497911],[130.261038,33.498192],[130.260374,33.498663],[130.260252,33.498799],[130.260151,33.499249],[130.260032,33.499422],[130.259845,33.499546],[130.259697,33.499577],[130.258596,33.499503],[130.258302,33.499532],[130.257708,33.499746],[130.257366,33.500084],[130.256908,33.500723],[130.256478,33.501118],[130.253327,33.503296],[130.252502,33.504109]]]]}}]}
