{"type":"FeatureCollection","features":[{"type":"Feature","properties":{"potaRef":"JP-1555","nameJa":"Tsukigase konosan","nameEn":"Tsukigase Konosan Prefectural Nature Park","authority":"環境省 生物多様性「見える化」マップ","boundaryStatus":"全国GIS候補・公開前検証待ち","boundarySource":"環境省 生物多様性「見える化」マップの自然公園区域を、POTA代表座標で一意に空間照合して加工","boundaryScaleNote":"区域は概要データであり、正確性は保証されない。POTA運用可否は公式情報で最終確認すること。","candidateMethod":"POTA representative point inside one public natural-park area","sourceParkKind":"都道府県立自然公園","sourceName":"Tsukigase konosan","sourceFeatureCount":1,"cautionMeters":75},"geometry":{"type":"MultiPolygon","coordinates":[[[[136.011727,34.714799],[136.009893,34.716057],[136.009371,34.716597],[136.007914,34.716723],[136.007534,34.716691],[136.007611,34.715806],[136.007545,34.715666],[136.007305,34.715406],[136.006831,34.715043],[136.006704,34.714868],[136.006709,34.714778],[136.006865,34.714592],[136.007753,34.71468],[136.007938,34.714611],[136.008294,34.713993],[136.008439,34.713966],[136.008805,34.714017],[136.010253,34.713919],[136.010337,34.713863],[136.010416,34.713669],[136.010443,34.713338],[136.010495,34.713139],[136.010553,34.713083],[136.010696,34.713083],[136.010801,34.713168],[136.011215,34.713699],[136.011418,34.713691],[136.011489,34.713643],[136.011587,34.713272],[136.012383,34.712399],[136.012597,34.712065],[136.012586,34.71167],[136.012459,34.710782],[136.012343,34.710504],[136.011774,34.709528],[136.011349,34.70979],[136.010722,34.709504],[136.010617,34.709398],[136.01053,34.709138],[136.010166,34.708955],[136.010163,34.708807],[136.01045,34.708269],[136.009899,34.707948],[136.009851,34.707774],[136.00958,34.707835],[136.009159,34.70783],[136.00849,34.707658],[136.008205,34.707648],[136.007952,34.707735],[136.007894,34.707727],[136.007888,34.707679],[136.0082,34.707515],[136.008411,34.707287],[136.008703,34.707335],[136.008756,34.707252],[136.008917,34.707165],[136.009128,34.707377],[136.009241,34.707372],[136.009346,34.707022],[136.00942,34.706958],[136.009837,34.706926],[136.010114,34.706794],[136.010348,34.706743],[136.01038,34.706677],[136.010319,34.706576],[136.009826,34.70629],[136.009816,34.706142],[136.009681,34.70602],[136.009671,34.705903],[136.009887,34.705853],[136.010417,34.705866],[136.010541,34.705731],[136.01052,34.70524],[136.011007,34.705261],[136.011213,34.705163],[136.010992,34.704972],[136.010936,34.704736],[136.010725,34.704604],[136.010691,34.704317],[136.010277,34.704087],[136.010285,34.703962],[136.010398,34.703885],[136.010441,34.703551],[136.010506,34.703437],[136.010475,34.703103],[136.010303,34.702936],[136.010298,34.70283],[136.010359,34.702729],[136.010361,34.70253],[136.010493,34.702316],[136.010483,34.702223],[136.01029,34.702051],[136.013349,34.699866],[136.023628,34.701412],[136.023768,34.701351],[136.0242,34.700998],[136.024488,34.700884],[136.02464,34.700905],[136.024403,34.701088],[136.024263,34.701138],[136.024234,34.701181],[136.024285,34.701221],[136.024664,34.701141],[136.024862,34.701181],[136.025104,34.700937],[136.025133,34.700974],[136.025038,34.701195],[136.025287,34.70105],[136.025308,34.700948],[136.025246,34.700788],[136.025271,34.7006],[136.02509,34.700194],[136.025174,34.700125],[136.025211,34.700009],[136.025023,34.6995],[136.025036,34.699394],[136.025136,34.699341],[136.025769,34.699463],[136.025837,34.699532],[136.026061,34.699463],[136.027053,34.699473],[136.027833,34.699328],[136.028687,34.699338],[136.028769,34.699359],[136.028764,34.699452],[136.028239,34.699529],[136.027923,34.699672],[136.028147,34.700492],[136.028418,34.700839],[136.028632,34.700969],[136.028914,34.700895],[136.029734,34.701011],[136.030783,34.701372],[136.031126,34.70112],[136.031142,34.701051],[136.031092,34.700998],[136.030907,34.70094],[136.030886,34.700852],[136.030939,34.700775],[136.031105,34.700698],[136.031234,34.700505],[136.03139,34.700518],[136.031619,34.700643],[136.031951,34.70095],[136.032563,34.70129],[136.032718,34.701451],[136.033214,34.701772],[136.033506,34.702134],[136.033931,34.702101],[136.034171,34.702133],[136.034559,34.702385],[136.035041,34.70279],[136.035286,34.702801],[136.03555,34.702639],[136.035785,34.702634],[136.035874,34.702695],[136.035932,34.702814],[136.035969,34.703106],[136.036143,34.703238],[136.036349,34.703299],[136.036715,34.703318],[136.036866,34.703413],[136.037348,34.703371],[136.037572,34.703612],[136.038007,34.703572],[136.038366,34.703652],[136.038563,34.703644],[136.039486,34.703432],[136.039729,34.703228],[136.040069,34.702827],[136.040929,34.7031],[136.042824,34.703273],[136.043119,34.701942],[136.04323,34.701663],[136.043981,34.700796],[136.044379,34.699879],[136.044938,34.698922],[136.045321,34.698341],[136.045587,34.698068],[136.046141,34.697676],[136.04637,34.697644],[136.046452,34.699064],[136.046367,34.699369],[136.04638,34.699796],[136.046663,34.700267],[136.046673,34.700527],[136.047166,34.700859],[136.047575,34.701302],[136.048186,34.701593],[136.048418,34.701747],[136.048724,34.702062],[136.049223,34.702235],[136.049476,34.702402],[136.049629,34.702664],[136.049615,34.702821],[136.050182,34.702815],[136.050237,34.70288],[136.050235,34.702964],[136.050011,34.703123],[136.050053,34.703388],[136.049832,34.703505],[136.049207,34.7036],[136.04888,34.703842],[136.048832,34.704268],[136.048882,34.704576],[136.0486,34.704865],[136.048592,34.704982],[136.048498,34.704918],[136.047978,34.704918],[136.047883,34.704873],[136.047664,34.704502],[136.046974,34.703979],[136.046444,34.703788],[136.046138,34.703598],[136.045853,34.703568],[136.04564,34.703701],[136.045329,34.704115],[136.044337,34.706108],[136.044248,34.706111],[136.043807,34.706633],[136.043776,34.706877],[136.044121,34.707275],[136.044121,34.707522],[136.044063,34.707641],[136.043718,34.707872],[136.043515,34.708097],[136.043385,34.708643],[136.042817,34.708431],[136.042297,34.708619],[136.041714,34.708733],[136.041492,34.709119],[136.041226,34.709433],[136.041232,34.709632],[136.041282,34.709704],[136.041255,34.70981],[136.04076,34.709879],[136.040356,34.709847],[136.040391,34.710284],[136.040507,34.710465],[136.040364,34.710913],[136.040359,34.71118],[136.040607,34.711716],[136.040245,34.711613],[136.039829,34.711732],[136.039499,34.711902],[136.039333,34.712053],[136.039241,34.712262],[136.039035,34.712453],[136.038875,34.712485],[136.038268,34.712464],[136.037385,34.712299],[136.037164,34.712297],[136.036847,34.712517],[136.036322,34.712448],[136.035919,34.712488],[136.03512,34.712442],[136.033789,34.712806],[136.032631,34.712689],[136.032486,34.71231],[136.032421,34.712257],[136.032015,34.712196],[136.031656,34.711939],[136.031395,34.711862],[136.031218,34.711994],[136.031192,34.712161],[136.031461,34.71253],[136.031477,34.712668],[136.03139,34.712869],[136.031237,34.71305],[136.030757,34.712981],[136.030375,34.713482],[136.030098,34.713508],[136.029839,34.713609],[136.029257,34.713951],[136.028935,34.713644],[136.028658,34.713219],[136.028498,34.712716],[136.028403,34.711997],[136.028173,34.711743],[136.027918,34.711682],[136.027862,34.711621],[136.027646,34.71096],[136.027662,34.710868],[136.027169,34.70991],[136.027174,34.709698],[136.027401,34.709242],[136.027744,34.708073],[136.028144,34.707185],[136.028437,34.706218],[136.027881,34.706077],[136.027598,34.706058],[136.026813,34.706105],[136.025882,34.706315],[136.023662,34.706965],[136.01926,34.708597],[136.018481,34.708554],[136.015779,34.707907],[136.014319,34.70778],[136.013723,34.707837],[136.013345,34.707988],[136.013006,34.708216],[136.012889,34.708453],[136.012871,34.708633],[136.012963,34.708982],[136.013643,34.710747],[136.013767,34.711385],[136.013712,34.71168],[136.013514,34.712156],[136.013451,34.713],[136.013233,34.713417],[136.012682,34.714029],[136.011727,34.714799]]],[[[136.00078,34.674417],[136.000523,34.674628],[136.00038,34.674675],[135.998578,34.675085],[135.998114,34.67515],[135.997973,34.675197],[135.997707,34.67548],[135.997449,34.675542],[135.99708,34.675552],[135.996469,34.676226],[135.995969,34.676507],[135.995887,34.676268],[135.995445,34.67597],[135.995234,34.675682],[135.995173,34.675139],[135.994999,34.674931],[135.994863,34.674657],[135.994774,34.674591],[135.993709,34.674295],[135.993425,34.674394],[135.992866,34.674814],[135.992467,34.674637],[135.992389,34.674474],[135.992181,34.67433],[135.992085,34.67429],[135.991732,34.674301],[135.991846,34.674183],[135.991401,34.673667],[135.991209,34.67351],[135.990925,34.673467],[135.990321,34.672981],[135.990027,34.67233],[135.989649,34.672063],[135.989488,34.671845],[135.98935,34.6715],[135.98948,34.670976],[135.989781,34.670242],[135.989804,34.66988],[135.989709,34.66958],[135.990774,34.667397],[135.992164,34.667186],[135.993083,34.666043],[135.994054,34.665719],[135.993362,34.66532],[135.993378,34.664919],[135.993469,34.664729],[135.993677,34.664589],[135.993652,34.664273],[135.993685,34.664131],[135.994209,34.663756],[135.994373,34.663497],[135.994495,34.663418],[135.994892,34.663203],[135.995659,34.66321],[135.995873,34.663105],[135.995937,34.663155],[135.995966,34.663324],[135.99626,34.663579],[135.996369,34.663611],[135.996897,34.663219],[135.997886,34.663668],[135.9983,34.663608],[135.998587,34.663302],[135.998789,34.663318],[135.998932,34.663451],[135.9992,34.663583],[135.999856,34.663617],[136.000096,34.663587],[136.000516,34.663427],[136.001203,34.662802],[136.001796,34.662778],[136.001971,34.661437],[136.002203,34.661543],[136.002564,34.66193],[136.002798,34.662053],[136.002877,34.662049],[136.002937,34.661958],[136.002868,34.661587],[136.002961,34.661572],[136.003149,34.661671],[136.003537,34.661586],[136.003708,34.661631],[136.004147,34.6619],[136.005029,34.662126],[136.005114,34.662179],[136.005483,34.662666],[136.005663,34.662809],[136.00692,34.66331],[136.007291,34.663795],[136.00761,34.664326],[136.007928,34.665135],[136.008517,34.666136],[136.008622,34.666441],[136.008538,34.666589],[136.00806,34.666788],[136.007595,34.667067],[136.008132,34.667399],[136.008159,34.667533],[136.008016,34.667887],[136.008142,34.668142],[136.008076,34.668196],[136.007648,34.668191],[136.006855,34.668013],[136.006611,34.667853],[136.005876,34.668534],[136.005514,34.66894],[136.004356,34.670664],[136.004135,34.670908],[136.003811,34.671139],[136.004394,34.672554],[136.004178,34.672599],[136.003971,34.672571],[136.003678,34.672328],[136.003222,34.672334],[136.002817,34.671862],[136.001804,34.672973],[136.001253,34.674236],[136.000884,34.674276],[136.00078,34.674417]]]]}}]}
