{"type":"FeatureCollection","features":[{"type":"Feature","properties":{"potaRef":"JP-1442","nameJa":"Omaezaki enshunada","nameEn":"Omaezaki Enshunada Prefectural Nature Park","authority":"環境省 生物多様性「見える化」マップ","boundaryStatus":"全国GIS候補・公開前検証待ち","boundarySource":"環境省 生物多様性「見える化」マップの自然公園区域を、POTA代表座標で一意に空間照合して加工","boundaryScaleNote":"区域は概要データであり、正確性は保証されない。POTA運用可否は公式情報で最終確認すること。","candidateMethod":"POTA representative point inside one public natural-park area","sourceParkKind":"都道府県立自然公園","sourceName":"Omaezaki enshunada","sourceFeatureCount":1,"cautionMeters":75},"geometry":{"type":"MultiPolygon","coordinates":[[[[137.980073,34.669764],[137.980274,34.67026],[137.980257,34.670387],[137.980836,34.671007],[137.981569,34.671337],[137.981978,34.672024],[137.982659,34.672724],[137.982495,34.672931],[137.982245,34.673012],[137.982089,34.672979],[137.981743,34.672678],[137.980932,34.672197],[137.980147,34.671891],[137.979607,34.671803],[137.978605,34.671456],[137.978227,34.671141],[137.977729,34.670973],[137.97561,34.669841],[137.975118,34.669452],[137.974617,34.668877],[137.973409,34.669179],[137.972425,34.669574],[137.971662,34.670043],[137.97103,34.670765],[137.97043,34.671178],[137.969917,34.671044],[137.969385,34.671009],[137.968903,34.670864],[137.967544,34.670864],[137.967665,34.670099],[137.967864,34.669656],[137.967602,34.669397],[137.967494,34.669013],[137.967494,34.667985],[137.967427,34.667847],[137.967227,34.667745],[137.966625,34.667902],[137.965215,34.667932],[137.96476,34.66803],[137.962384,34.668229],[137.960812,34.668488],[137.95992,34.668462],[137.959399,34.668634],[137.958726,34.668681],[137.957096,34.668577],[137.955837,34.668681],[137.955165,34.668861],[137.953385,34.668747],[137.950927,34.668922],[137.949959,34.668889],[137.947062,34.669015],[137.94662,34.668958],[137.946091,34.669072],[137.944982,34.66901],[137.941864,34.669124],[137.940378,34.66908],[137.939112,34.6693],[137.935248,34.669266],[137.934064,34.669163],[137.933474,34.669219],[137.930874,34.669146],[137.930283,34.669202],[137.927758,34.669128],[137.927239,34.669199],[137.924791,34.669054],[137.923899,34.669168],[137.922704,34.669033],[137.920481,34.669322],[137.918993,34.669283],[137.918478,34.669196],[137.917885,34.669255],[137.916769,34.669227],[137.914998,34.668992],[137.913809,34.669035],[137.912697,34.66893],[137.911505,34.66903],[137.911133,34.668974],[137.910758,34.669177],[137.909598,34.668988],[137.908399,34.669009],[137.907651,34.668913],[137.906558,34.66865],[137.906109,34.668699],[137.90379,34.668383],[137.903487,34.668464],[137.903138,34.668419],[137.902928,34.668463],[137.902852,34.668564],[137.902887,34.668823],[137.902829,34.668892],[137.901776,34.668775],[137.901267,34.66886],[137.90127,34.66965],[137.900932,34.670815],[137.900395,34.670782],[137.899786,34.670884],[137.899351,34.670829],[137.898507,34.670039],[137.897684,34.669417],[137.895751,34.667628],[137.895087,34.667343],[137.893769,34.667158],[137.892798,34.666852],[137.892368,34.667006],[137.891487,34.666727],[137.890366,34.666609],[137.888965,34.666264],[137.887726,34.666136],[137.885633,34.665801],[137.885118,34.665806],[137.883585,34.665553],[137.882912,34.665492],[137.882471,34.665534],[137.88114,34.665316],[137.880561,34.665156],[137.879884,34.665145],[137.879357,34.665223],[137.877605,34.664912],[137.877163,34.664951],[137.87249,34.664126],[137.871991,34.664149],[137.86992,34.663787],[137.869334,34.663776],[137.867559,34.663427],[137.866297,34.663311],[137.866156,34.66325],[137.866079,34.663098],[137.866093,34.662719],[137.86596,34.662582],[137.864996,34.662451],[137.863318,34.662066],[137.862716,34.662009],[137.860658,34.661536],[137.860208,34.66153],[137.858218,34.66105],[137.856441,34.660771],[137.855874,34.660596],[137.855343,34.660569],[137.853299,34.660093],[137.85283,34.660076],[137.851536,34.659691],[137.850485,34.659557],[137.849529,34.659283],[137.848122,34.659075],[137.84761,34.658881],[137.844289,34.658311],[137.842745,34.657901],[137.842265,34.657484],[137.842023,34.657393],[137.841074,34.657343],[137.839971,34.657125],[137.839386,34.656868],[137.83871,34.656752],[137.83725,34.656216],[137.836735,34.656152],[137.835421,34.655666],[137.833578,34.655143],[137.832856,34.654862],[137.832186,34.654734],[137.830803,34.654189],[137.830289,34.654123],[137.828655,34.653614],[137.828405,34.653384],[137.828157,34.653444],[137.827937,34.6534],[137.826321,34.652858],[137.82574,34.652779],[137.825213,34.652544],[137.823299,34.652012],[137.821552,34.651331],[137.821048,34.650961],[137.820032,34.650737],[137.819592,34.650707],[137.817665,34.650247],[137.816704,34.650103],[137.815245,34.649726],[137.81427,34.649619],[137.812882,34.649214],[137.812371,34.649174],[137.811718,34.64896],[137.80995,34.648556],[137.809716,34.648599],[137.809216,34.649128],[137.808882,34.649148],[137.808296,34.648893],[137.807346,34.648616],[137.806899,34.648558],[137.805131,34.648021],[137.804554,34.647936],[137.803585,34.647616],[137.802402,34.647739],[137.801737,34.647935],[137.800317,34.648206],[137.798711,34.649439],[137.797855,34.650464],[137.797083,34.650793],[137.796799,34.650822],[137.796589,34.650299],[137.796622,34.650188],[137.796742,34.650057],[137.797356,34.649837],[137.797734,34.649596],[137.797674,34.649153],[137.798209,34.648815],[137.799007,34.64792],[137.799337,34.647251],[137.799482,34.64664],[137.79991,34.646324],[137.800285,34.645846],[137.800529,34.645009],[137.801024,34.644858],[137.801158,34.644863],[137.801566,34.644987],[137.802806,34.645499],[137.803582,34.645662],[137.806033,34.646321],[137.807279,34.646552],[137.808131,34.646558],[137.809588,34.646682],[137.809833,34.646868],[137.810875,34.647155],[137.811304,34.647437],[137.812571,34.647549],[137.812911,34.647639],[137.813871,34.647775],[137.814109,34.647944],[137.814246,34.648135],[137.81445,34.648293],[137.815104,34.64858],[137.816602,34.649003],[137.817398,34.649341],[137.817909,34.649453],[137.818188,34.649588],[137.818842,34.649707],[137.819339,34.649999],[137.8197,34.650135],[137.820456,34.650315],[137.820728,34.650523],[137.8213,34.650568],[137.822015,34.650799],[137.822927,34.65094],[137.823534,34.65112],[137.824603,34.65134],[137.826577,34.651909],[137.827817,34.652359],[137.829349,34.652692],[137.830119,34.652951],[137.830588,34.65303],[137.831392,34.653328],[137.832679,34.653537],[137.83385,34.654027],[137.834436,34.654218],[137.834864,34.65428],[137.835641,34.654297],[137.836935,34.654708],[137.838044,34.655001],[137.839011,34.655108],[137.840046,34.655474],[137.841177,34.655587],[137.841762,34.65584],[137.842477,34.655874],[137.842967,34.656015],[137.84356,34.656088],[137.844016,34.656263],[137.844656,34.656364],[137.845372,34.656572],[137.847087,34.656921],[137.848511,34.657344],[137.851323,34.657975],[137.853243,34.658318],[137.854659,34.658358],[137.855837,34.658538],[137.857771,34.65891],[137.859399,34.659299],[137.861912,34.659636],[137.862844,34.65989],[137.863314,34.659969],[137.864193,34.660019],[137.865085,34.660183],[137.86646,34.660341],[137.867618,34.660718],[137.869102,34.660977],[137.87056,34.661174],[137.871417,34.661202],[137.872371,34.661423],[137.875309,34.661693],[137.876093,34.661812],[137.876591,34.662031],[137.878696,34.662256],[137.879296,34.662386],[137.881818,34.662645],[137.88265,34.662847],[137.883931,34.663061],[137.887094,34.663371],[137.888791,34.663698],[137.890713,34.663799],[137.891469,34.663934],[137.894836,34.6643],[137.89594,34.664593],[137.897119,34.664824],[137.897303,34.664903],[137.897794,34.665274],[137.898408,34.665442],[137.8985,34.665518],[137.898964,34.665547],[137.90114,34.666834],[137.901573,34.666884],[137.901955,34.666786],[137.902481,34.666417],[137.902985,34.666476],[137.903365,34.666421],[137.90359,34.666312],[137.90366,34.666132],[137.903575,34.665767],[137.903772,34.66483],[137.903949,34.664732],[137.904387,34.664753],[137.904678,34.66488],[137.905001,34.665293],[137.905034,34.665674],[137.905309,34.665929],[137.905227,34.666538],[137.905282,34.666657],[137.905435,34.666725],[137.906914,34.666778],[137.907003,34.666659],[137.907017,34.666151],[137.907231,34.66603],[137.908134,34.666178],[137.909912,34.666217],[137.910141,34.666405],[137.910181,34.667131],[137.910773,34.667195],[137.910894,34.667067],[137.910867,34.666255],[137.911001,34.665152],[137.910993,34.664725],[137.910849,34.664216],[137.911027,34.663919],[137.911328,34.663813],[137.911482,34.663991],[137.911378,34.66639],[137.911504,34.666544],[137.913142,34.666964],[137.913961,34.667111],[137.91533,34.667252],[137.916182,34.667252],[137.916782,34.667342],[137.917687,34.667306],[137.918374,34.667339],[137.9214,34.667903],[137.922001,34.667919],[137.923324,34.667836],[137.923699,34.667864],[137.924766,34.668077],[137.925127,34.668096],[137.925976,34.668071],[137.926979,34.667963],[137.928434,34.667932],[137.930902,34.667611],[137.931385,34.667608],[137.932434,34.667895],[137.933204,34.667951],[137.935382,34.667844],[137.937981,34.667534],[137.938786,34.667582],[137.940012,34.667427],[137.941962,34.667648],[137.942763,34.667654],[137.944421,34.667496],[137.944884,34.667388],[137.945289,34.667217],[137.945639,34.66716],[137.945864,34.667163],[137.94646,34.667417],[137.947047,34.667434],[137.95004,34.666793],[137.950364,34.666772],[137.9512,34.666971],[137.951914,34.66705],[137.952237,34.667037],[137.954081,34.666814],[137.955016,34.666783],[137.956029,34.666655],[137.956378,34.666682],[137.957753,34.666458],[137.958349,34.666414],[137.958452,34.666454],[137.958599,34.666406],[137.958746,34.666438],[137.959451,34.666367],[137.960135,34.666199],[137.96209,34.665872],[137.962553,34.66595],[137.96307,34.66594],[137.965472,34.665664],[137.966359,34.665664],[137.968175,34.665378],[137.969457,34.665426],[137.970874,34.665277],[137.972192,34.665039],[137.972834,34.665007],[137.973636,34.665043],[137.974191,34.664915],[137.975267,34.664439],[137.975509,34.664376],[137.976579,34.66438],[137.977899,34.664488],[137.978831,34.664432],[137.979605,34.664275],[137.98088,34.664119],[137.981577,34.663945],[137.983387,34.663822],[137.984575,34.663552],[137.985007,34.663376],[137.985349,34.663306],[137.985968,34.663246],[137.986602,34.663111],[137.987894,34.662971],[137.988118,34.662887],[137.989128,34.662739],[137.99023,34.662495],[137.990644,34.662453],[137.991903,34.662467],[137.992713,34.66234],[137.994441,34.66222],[137.995863,34.661944],[137.997112,34.661874],[137.99765,34.661799],[137.998226,34.661673],[137.999095,34.661377],[137.999803,34.661251],[138.000693,34.660995],[138.002281,34.660944],[138.00248,34.660797],[138.002833,34.660774],[138.004495,34.660357],[138.006646,34.659934],[138.007836,34.659868],[138.008257,34.659802],[138.010196,34.659322],[138.011218,34.658996],[138.015652,34.657993],[138.016732,34.657877],[138.018455,34.657813],[138.019956,34.657404],[138.020943,34.657265],[138.021422,34.657066],[138.022394,34.656805],[138.02286,34.656617],[138.023805,34.656398],[138.024341,34.656205],[138.024732,34.65613],[138.025,34.656153],[138.025467,34.656001],[138.027507,34.655884],[138.027779,34.6558],[138.028487,34.655466],[138.03001,34.655156],[138.030596,34.654968],[138.030951,34.654975],[138.031812,34.654811],[138.03208,34.654734],[138.032586,34.654486],[138.035623,34.653657],[138.037011,34.653586],[138.038845,34.653076],[138.041058,34.652648],[138.043397,34.65196],[138.045687,34.651562],[138.046741,34.651173],[138.048278,34.65069],[138.048659,34.650584],[138.049904,34.650371],[138.050862,34.650048],[138.052325,34.649965],[138.053726,34.649621],[138.055918,34.648816],[138.056461,34.648706],[138.056944,34.648533],[138.057058,34.648607],[138.057672,34.648542],[138.058635,34.648213],[138.060276,34.647442],[138.060752,34.647295],[138.061735,34.646892],[138.062134,34.646898],[138.062284,34.646966],[138.062887,34.646877],[138.064898,34.646262],[138.066246,34.646084],[138.066576,34.645983],[138.067674,34.645408],[138.068351,34.645256],[138.069391,34.645111],[138.072391,34.644282],[138.073787,34.643739],[138.075735,34.643082],[138.076367,34.643028],[138.076775,34.642911],[138.078482,34.642245],[138.079221,34.642078],[138.08025,34.641931],[138.081445,34.641534],[138.082803,34.641168],[138.084897,34.64051],[138.085627,34.64039],[138.085651,34.640554],[138.085686,34.64055],[138.085661,34.640386],[138.086085,34.640318],[138.087335,34.639802],[138.087913,34.639656],[138.089538,34.639042],[138.091404,34.638568],[138.092828,34.637959],[138.09372,34.637719],[138.096398,34.636826],[138.0963,34.637124],[138.096427,34.636858],[138.097086,34.636551],[138.099252,34.635889],[138.100472,34.635444],[138.101737,34.635116],[138.105327,34.633763],[138.106848,34.633317],[138.107289,34.633296],[138.107406,34.633482],[138.107387,34.633372],[138.107451,34.633275],[138.10777,34.633046],[138.110184,34.632074],[138.112548,34.63129],[138.114808,34.630478],[138.116014,34.629926],[138.117102,34.629541],[138.117575,34.629262],[138.118962,34.628716],[138.120123,34.628324],[138.120999,34.628102],[138.121313,34.627939],[138.122632,34.627532],[138.124004,34.627003],[138.125244,34.626621],[138.126331,34.626115],[138.127178,34.625895],[138.129055,34.625193],[138.13026,34.624666],[138.130599,34.624439],[138.131047,34.624305],[138.132188,34.623814],[138.133703,34.623314],[138.13419,34.623196],[138.134858,34.62296],[138.135137,34.622778],[138.135909,34.622482],[138.136533,34.6223],[138.136779,34.622179],[138.137105,34.622129],[138.137082,34.622226],[138.136711,34.622503],[138.136548,34.622564],[138.136446,34.622849],[138.136597,34.62284],[138.136843,34.622492],[138.137119,34.622258],[138.137146,34.62213],[138.137553,34.621936],[138.137622,34.621772],[138.137728,34.621677],[138.137596,34.621506],[138.137972,34.621297],[138.138089,34.62145],[138.138584,34.621066],[138.139208,34.62073],[138.139846,34.620487],[138.139957,34.620411],[138.139927,34.62035],[138.140131,34.620228],[138.140272,34.620195],[138.140365,34.620237],[138.140888,34.619969],[138.140938,34.619913],[138.14088,34.619868],[138.140994,34.619767],[138.141157,34.619728],[138.141289,34.619788],[138.142908,34.619016],[138.143756,34.618704],[138.144016,34.618661],[138.144072,34.618591],[138.144783,34.618274],[138.144764,34.618225],[138.145201,34.618096],[138.145555,34.617907],[138.145514,34.617827],[138.145823,34.617702],[138.145901,34.617775],[138.146136,34.617713],[138.146397,34.617542],[138.146809,34.617407],[138.147096,34.617258],[138.147402,34.617196],[138.147661,34.617002],[138.148393,34.616765],[138.148456,34.616678],[138.148661,34.616605],[138.149549,34.616366],[138.149708,34.61638],[138.149675,34.616327],[138.149882,34.616247],[138.149928,34.616326],[138.150155,34.616298],[138.150351,34.616223],[138.150271,34.616081],[138.150464,34.616005],[138.150537,34.616123],[138.15069,34.61613],[138.151272,34.615928],[138.15166,34.615859],[138.153176,34.615412],[138.153418,34.615371],[138.153442,34.61542],[138.153515,34.615427],[138.154148,34.61529],[138.154223,34.615338],[138.154688,34.61526],[138.155359,34.615005],[138.155533,34.615016],[138.155878,34.614904],[138.156288,34.614884],[138.156579,34.614791],[138.158022,34.614561],[138.158602,34.614303],[138.159062,34.614184],[138.161442,34.613349],[138.162801,34.612956],[138.172795,34.609723],[138.175893,34.60861],[138.178037,34.607764],[138.178606,34.607621],[138.179505,34.607526],[138.179991,34.607323],[138.180406,34.607213],[138.180667,34.607074],[138.180907,34.60679],[138.181652,34.606449],[138.188609,34.602828],[138.189932,34.601982],[138.191106,34.601042],[138.191866,34.600773],[138.194195,34.600604],[138.197024,34.600707],[138.198098,34.600698],[138.198769,34.600782],[138.199627,34.600813],[138.200335,34.600721],[138.201444,34.600669],[138.202442,34.600695],[138.204471,34.600364],[138.206777,34.600256],[138.207988,34.599992],[138.208333,34.599833],[138.208781,34.599822],[138.209209,34.599679],[138.211653,34.599373],[138.212798,34.598941],[138.213484,34.598845],[138.213825,34.598736],[138.213992,34.598751],[138.215518,34.5983],[138.215982,34.598124],[138.216756,34.597721],[138.217169,34.597488],[138.217399,34.597243],[138.217594,34.59714],[138.2181,34.596947],[138.21878,34.596582],[138.219339,34.596392],[138.219636,34.596231],[138.220231,34.596214],[138.220951,34.596112],[138.221297,34.596235],[138.221823,34.596226],[138.222928,34.596096],[138.2237,34.59589],[138.223905,34.595717],[138.224149,34.595654],[138.22445,34.595389],[138.224933,34.595321],[138.225287,34.595059],[138.225588,34.59503],[138.226205,34.595073],[138.226364,34.595036],[138.226358,34.594989],[138.226527,34.594985],[138.22654,34.595095],[138.226695,34.595106],[138.226698,34.595062],[138.226968,34.595158],[138.227061,34.595095],[138.227213,34.595132],[138.227256,34.595268],[138.227857,34.595456],[138.228649,34.595798],[138.229558,34.596306],[138.230437,34.596971],[138.230497,34.596898],[138.230617,34.596927],[138.230695,34.597008],[138.230727,34.597192],[138.232349,34.598679],[138.232606,34.598837],[138.2331,34.599438],[138.233504,34.600142],[138.234087,34.601757],[138.234145,34.602099],[138.234099,34.602733],[138.233931,34.603094],[138.234126,34.603711],[138.234266,34.603903],[138.234238,34.604002],[138.234025,34.604266],[138.233941,34.60476],[138.233971,34.605028],[138.233933,34.605196],[138.233804,34.60534],[138.23308,34.605837],[138.232804,34.606144],[138.232558,34.606279],[138.232099,34.606733],[138.231879,34.606839],[138.231384,34.607402],[138.231206,34.607731],[138.230618,34.60844],[138.230415,34.607883],[138.230599,34.607033],[138.230636,34.605987],[138.230566,34.605438],[138.230644,34.60445],[138.230603,34.604018],[138.230483,34.603902],[138.228535,34.604222],[138.227936,34.604416],[138.227634,34.604632],[138.226271,34.6052],[138.225534,34.605417],[138.225319,34.605414],[138.225242,34.605326],[138.225397,34.603709],[138.225607,34.603584],[138.226257,34.603427],[138.227073,34.602702],[138.227269,34.602424],[138.227924,34.602181],[138.228379,34.602204],[138.229351,34.602037],[138.230472,34.602068],[138.230666,34.601991],[138.230727,34.601826],[138.230575,34.601322],[138.229111,34.599524],[138.22891,34.599149],[138.228653,34.598338],[138.228166,34.597898],[138.227814,34.597152],[138.227667,34.597023],[138.22687,34.596887],[138.226639,34.596698],[138.225697,34.596295],[138.224322,34.596604],[138.223816,34.59696],[138.222921,34.59738],[138.220953,34.597647],[138.220726,34.597842],[138.220655,34.598206],[138.220291,34.598143],[138.219315,34.598183],[138.218638,34.598473],[138.21843,34.5985],[138.217656,34.598943],[138.216973,34.599479],[138.216753,34.599546],[138.216226,34.599552],[138.216122,34.599899],[138.216012,34.599978],[138.215471,34.599901],[138.214896,34.600007],[138.214158,34.599859],[138.213622,34.600009],[138.212964,34.600386],[138.212966,34.600481],[138.213367,34.600871],[138.213514,34.601187],[138.213492,34.601357],[138.213368,34.601454],[138.212372,34.601592],[138.212291,34.601298],[138.2118,34.601262],[138.211515,34.601054],[138.211051,34.601304],[138.210529,34.60113],[138.210256,34.601121],[138.207982,34.601753],[138.206983,34.601439],[138.206606,34.601393],[138.206374,34.601459],[138.205991,34.601864],[138.205699,34.602007],[138.205463,34.602],[138.204873,34.601802],[138.204279,34.60174],[138.204226,34.601872],[138.204464,34.60207],[138.20395,34.602197],[138.204099,34.602568],[138.204039,34.602623],[138.204033,34.60306],[138.203875,34.603231],[138.203445,34.603242],[138.203124,34.602634],[138.202558,34.602519],[138.202263,34.602541],[138.202142,34.602646],[138.201992,34.60305],[138.201193,34.603298],[138.201096,34.603661],[138.200903,34.603721],[138.200293,34.603698],[138.199602,34.603187],[138.199401,34.602142],[138.199165,34.601811],[138.197447,34.602277],[138.195164,34.602004],[138.19472,34.602122],[138.191879,34.602397],[138.190889,34.602845],[138.188946,34.603882],[138.188194,34.604171],[138.187731,34.604456],[138.187128,34.604998],[138.185597,34.605988],[138.184562,34.606493],[138.183722,34.607012],[138.182146,34.607722],[138.179658,34.608484],[138.17912,34.608705],[138.178603,34.608763],[138.176356,34.609251],[138.174788,34.609784],[138.174186,34.610078],[138.173661,34.610185],[138.173139,34.610424],[138.171361,34.610916],[138.17082,34.611185],[138.169915,34.611853],[138.169301,34.612177],[138.167964,34.612276],[138.167571,34.612424],[138.166695,34.61257],[138.16466,34.613167],[138.16376,34.61352],[138.162851,34.613985],[138.16241,34.614369],[138.161339,34.615004],[138.160449,34.615666],[138.16039,34.614059],[138.160283,34.61392],[138.160132,34.613906],[138.159381,34.61424],[138.158594,34.614875],[138.158217,34.614892],[138.157474,34.615087],[138.154131,34.61551],[138.152242,34.61593],[138.151885,34.615864],[138.151651,34.615905],[138.149183,34.616798],[138.147912,34.617382],[138.147456,34.617488],[138.145289,34.618399],[138.144817,34.618532],[138.144444,34.618783],[138.142845,34.619505],[138.140826,34.620604],[138.137337,34.622796],[138.137226,34.623038],[138.137362,34.623347],[138.137595,34.624629],[138.137501,34.624832],[138.136895,34.624863],[138.136433,34.62498],[138.135175,34.624715],[138.134804,34.624783],[138.133985,34.625158],[138.133588,34.625432],[138.131866,34.626325],[138.12895,34.627585],[138.127128,34.628438],[138.125776,34.629158],[138.124692,34.629626],[138.12183,34.631182],[138.121519,34.631269],[138.120777,34.631645],[138.116918,34.633822],[138.11676,34.633784],[138.116129,34.632898],[138.115391,34.631451],[138.115234,34.631339],[138.114626,34.631427],[138.113219,34.63187],[138.111562,34.632499],[138.109896,34.633241],[138.109588,34.633472],[138.10853,34.633814],[138.108095,34.634128],[138.106575,34.634485],[138.105977,34.634791],[138.105165,34.634911],[138.102211,34.636156],[138.098873,34.636861],[138.097509,34.637437],[138.096605,34.637584],[138.096461,34.637698],[138.096446,34.63795],[138.096298,34.638059],[138.0942,34.638631],[138.092556,34.6392],[138.092112,34.63927],[138.090888,34.639829],[138.089836,34.640168],[138.089173,34.640294],[138.085932,34.641357],[138.085819,34.641441],[138.08577,34.641798],[138.085632,34.641988],[138.084475,34.642807],[138.083325,34.643758],[138.082933,34.644432],[138.082706,34.644617],[138.082563,34.644651],[138.082452,34.6446],[138.08225,34.644178],[138.082077,34.644019],[138.081692,34.644021],[138.080787,34.644581],[138.080488,34.644947],[138.079789,34.645279],[138.079666,34.645397],[138.079554,34.645711],[138.078875,34.645866],[138.078599,34.645725],[138.078299,34.645425],[138.078007,34.645394],[138.076862,34.64591],[138.075907,34.646236],[138.074556,34.647025],[138.074008,34.647148],[138.072946,34.647666],[138.072497,34.647776],[138.070408,34.648557],[138.068747,34.649376],[138.068136,34.649586],[138.067615,34.649676],[138.066875,34.649622],[138.065101,34.649724],[138.063296,34.650086],[138.061366,34.650158],[138.060618,34.650332],[138.060449,34.650234],[138.059729,34.649183],[138.059723,34.649097],[138.05999,34.648839],[138.059801,34.648791],[138.0591,34.648878],[138.058659,34.649372],[138.057904,34.649693],[138.057681,34.649733],[138.057375,34.649613],[138.05715,34.649618],[138.056557,34.649876],[138.054173,34.650545],[138.053349,34.650859],[138.052882,34.650939],[138.052058,34.651243],[138.048657,34.652822],[138.048495,34.652859],[138.048386,34.652798],[138.048591,34.65244],[138.048367,34.652024],[138.048185,34.652011],[138.047262,34.652272],[138.045999,34.652829],[138.044781,34.653261],[138.042822,34.654194],[138.042578,34.654137],[138.042529,34.654018],[138.042807,34.653641],[138.042742,34.653385],[138.04262,34.653212],[138.042411,34.653184],[138.042028,34.653371],[138.039401,34.654233],[138.039023,34.654473],[138.037458,34.654941],[138.034528,34.656107],[138.033008,34.656595],[138.032497,34.65685],[138.031119,34.657257],[138.029258,34.657937],[138.028756,34.65844],[138.028592,34.6588],[138.0284,34.65894],[138.028162,34.658884],[138.02816,34.65849],[138.027967,34.658006],[138.025146,34.658482],[138.025059,34.658069],[138.02481,34.657992],[138.02308,34.658645],[138.021862,34.659006],[138.021727,34.658906],[138.02158,34.658528],[138.021304,34.65846],[138.01612,34.660319],[138.014458,34.660807],[138.013313,34.661378],[138.013047,34.661403],[138.01287,34.66121],[138.01274,34.661189],[138.010103,34.662131],[138.009833,34.662095],[138.009435,34.661296],[138.009247,34.661162],[138.008953,34.661203],[138.007757,34.661574],[138.006765,34.661754],[138.006199,34.661979],[138.005566,34.662425],[138.004599,34.662658],[138.003075,34.663306],[138.002908,34.663276],[138.002786,34.662768],[138.002606,34.662604],[138.00043,34.662785],[137.999148,34.662971],[137.998348,34.66325],[137.99753,34.663357],[137.997133,34.663496],[137.995587,34.663607],[137.993572,34.66406],[137.992061,34.664226],[137.991159,34.664442],[137.99057,34.664503],[137.989683,34.66475],[137.986826,34.665192],[137.985479,34.665528],[137.982957,34.665886],[137.981315,34.66626],[137.979597,34.666455],[137.978763,34.666725],[137.978232,34.66672],[137.978105,34.666776],[137.978108,34.667006],[137.97909,34.668083],[137.980073,34.669764]]],[[[138.147525,34.64185],[138.147752,34.642215],[138.147252,34.642679],[138.146201,34.643095],[138.145205,34.64381],[138.144829,34.6442],[138.144329,34.643974],[138.143739,34.643546],[138.143371,34.643115],[138.142957,34.642905],[138.142742,34.642555],[138.142315,34.642215],[138.142323,34.641854],[138.142533,34.641609],[138.143079,34.641583],[138.143073,34.641129],[138.143181,34.64098],[138.144132,34.640848],[138.144817,34.640913],[138.145382,34.641249],[138.14567,34.641573],[138.145885,34.641674],[138.146,34.641628],[138.146268,34.641254],[138.14651,34.641128],[138.146633,34.641202],[138.146596,34.641508],[138.146856,34.641657],[138.147062,34.64164],[138.147393,34.641313],[138.147592,34.641354],[138.147646,34.641475],[138.147525,34.64185]]],[[[138.099033,34.657446],[138.097978,34.657648],[138.097795,34.657853],[138.09742,34.657957],[138.096794,34.657975],[138.095985,34.658182],[138.094807,34.658331],[138.094418,34.658012],[138.094168,34.657626],[138.093627,34.656409],[138.092852,34.656193],[138.092217,34.655294],[138.091618,34.655255],[138.091246,34.654889],[138.09044,34.654469],[138.090247,34.653866],[138.090409,34.653634],[138.091318,34.653213],[138.09192,34.653195],[138.092058,34.653051],[138.092158,34.652627],[138.092899,34.652216],[138.093362,34.652262],[138.093955,34.652122],[138.094844,34.652077],[138.095373,34.651958],[138.095582,34.652088],[138.095599,34.652775],[138.095771,34.652891],[138.096517,34.653042],[138.097106,34.652777],[138.097494,34.652757],[138.097863,34.652606],[138.098091,34.652595],[138.099331,34.653206],[138.100599,34.652812],[138.101175,34.652798],[138.10123,34.652907],[138.101131,34.653269],[138.101237,34.65364],[138.101225,34.654394],[138.101137,34.654498],[138.100776,34.654241],[138.100407,34.654294],[138.100314,34.654532],[138.100511,34.654918],[138.100362,34.655281],[138.100665,34.655451],[138.102362,34.655531],[138.102431,34.655625],[138.102257,34.656087],[138.102067,34.656141],[138.101309,34.656112],[138.10118,34.656213],[138.101138,34.656391],[138.101166,34.656963],[138.101291,34.657169],[138.102428,34.657177],[138.102476,34.657345],[138.102365,34.657602],[138.102134,34.657732],[138.10057,34.657978],[138.100351,34.657907],[138.09993,34.657503],[138.099775,34.65744],[138.099033,34.657446]]],[[[138.098798,34.675815],[138.098329,34.675804],[138.098039,34.675732],[138.097849,34.67555],[138.097479,34.675525],[138.097293,34.675795],[138.097063,34.675676],[138.097016,34.675352],[138.09675,34.67512],[138.09749,34.675218],[138.097766,34.675144],[138.097519,34.674928],[138.097639,34.67485],[138.098006,34.674439],[138.097694,34.674415],[138.097131,34.674854],[138.096887,34.675107],[138.096953,34.674899],[138.096967,34.674495],[138.097113,34.674256],[138.097394,34.674021],[138.097527,34.673572],[138.097276,34.673501],[138.096857,34.673749],[138.096532,34.674097],[138.096547,34.673645],[138.096754,34.673327],[138.097232,34.67308],[138.097418,34.672778],[138.097345,34.67263],[138.097068,34.672721],[138.096689,34.672954],[138.096702,34.672583],[138.096504,34.672659],[138.096488,34.673095],[138.096215,34.673072],[138.096056,34.672398],[138.095856,34.672333],[138.095553,34.672442],[138.095163,34.672982],[138.095143,34.67318],[138.095403,34.673452],[138.095396,34.67366],[138.094976,34.673987],[138.09498,34.674131],[138.094301,34.67466],[138.094155,34.67485],[138.094073,34.6752],[138.09388,34.675253],[138.09362,34.675247],[138.093176,34.675007],[138.09312,34.674869],[138.093102,34.674639],[138.093388,34.674423],[138.093394,34.674265],[138.093215,34.67416],[138.0932,34.674074],[138.093337,34.673898],[138.094179,34.67343],[138.094387,34.672954],[138.094602,34.672765],[138.094965,34.672314],[138.095026,34.672072],[138.094933,34.671983],[138.095044,34.671806],[138.095511,34.671602],[138.095982,34.671549],[138.096108,34.67143],[138.096071,34.671235],[138.096152,34.670928],[138.096623,34.670121],[138.096776,34.66973],[138.096654,34.66949],[138.096435,34.669535],[138.096335,34.669906],[138.095797,34.670884],[138.095631,34.671404],[138.095425,34.671579],[138.095235,34.671552],[138.09514,34.671292],[138.095249,34.6709],[138.09537,34.670658],[138.09538,34.670386],[138.095153,34.670179],[138.094978,34.67019],[138.094907,34.670072],[138.094868,34.669743],[138.094814,34.669642],[138.094716,34.66963],[138.094555,34.669736],[138.094404,34.669747],[138.094255,34.6697],[138.094095,34.669486],[138.093833,34.669355],[138.093529,34.669439],[138.093302,34.669792],[138.093227,34.669795],[138.092824,34.669388],[138.092822,34.668962],[138.092718,34.668113],[138.092807,34.667895],[138.093204,34.667631],[138.093392,34.667401],[138.093399,34.667205],[138.093491,34.66705],[138.094213,34.666445],[138.094483,34.665996],[138.094875,34.665896],[138.095048,34.665747],[138.095249,34.66546],[138.096499,34.664454],[138.096796,34.664411],[138.097073,34.66469],[138.097127,34.664907],[138.097048,34.665415],[138.096661,34.666059],[138.096682,34.666203],[138.096863,34.666222],[138.097004,34.666175],[138.097409,34.665538],[138.097724,34.665467],[138.097825,34.6656],[138.097813,34.665955],[138.097883,34.666183],[138.098102,34.66664],[138.09806,34.66672],[138.098072,34.66693],[138.097996,34.666916],[138.097551,34.667253],[138.096916,34.667905],[138.096358,34.668592],[138.096347,34.669232],[138.096958,34.668255],[138.09712,34.668108],[138.09726,34.667741],[138.098143,34.666971],[138.098478,34.667053],[138.099049,34.666937],[138.09924,34.667087],[138.099233,34.667281],[138.099056,34.667309],[138.098992,34.667469],[138.099101,34.667698],[138.099272,34.667847],[138.099724,34.667777],[138.099714,34.668051],[138.099461,34.668594],[138.099555,34.668694],[138.100121,34.668707],[138.100167,34.669096],[138.099987,34.669188],[138.100038,34.669416],[138.100175,34.669419],[138.100247,34.669598],[138.100164,34.669742],[138.100217,34.669905],[138.100404,34.670135],[138.101008,34.670198],[138.101121,34.670314],[138.101147,34.670686],[138.101259,34.670285],[138.101357,34.670271],[138.101431,34.670402],[138.101435,34.670854],[138.101055,34.671087],[138.101433,34.671452],[138.101731,34.671895],[138.101502,34.672277],[138.101187,34.672334],[138.100882,34.672133],[138.100809,34.67197],[138.100557,34.671899],[138.100461,34.672414],[138.099936,34.672353],[138.099928,34.672579],[138.100009,34.673049],[138.09978,34.673448],[138.099792,34.673674],[138.099978,34.673937],[138.099864,34.674403],[138.099723,34.674528],[138.099516,34.674847],[138.099438,34.674845],[138.099469,34.674506],[138.099313,34.674519],[138.099092,34.674691],[138.098944,34.674994],[138.098975,34.675237],[138.09907,34.67532],[138.098932,34.675333],[138.09885,34.675461],[138.098798,34.675815]],[[138.101026,34.671927],[138.101221,34.671947],[138.101288,34.671707],[138.101035,34.671668],[138.101026,34.671927]]],[[[138.03167,34.679133],[138.031208,34.679477],[138.030849,34.679113],[138.030151,34.678966],[138.029907,34.678686],[138.029919,34.678347],[138.029627,34.678308],[138.029441,34.678028],[138.029628,34.676079],[138.029464,34.675219],[138.030093,34.674006],[138.030379,34.673658],[138.030559,34.673549],[138.030588,34.673292],[138.030488,34.672805],[138.031829,34.672482],[138.031597,34.672961],[138.031751,34.673029],[138.032212,34.672701],[138.032339,34.672446],[138.032518,34.672354],[138.032812,34.672345],[138.033054,34.672124],[138.033121,34.672433],[138.033663,34.672575],[138.034109,34.672134],[138.034119,34.672409],[138.034653,34.672228],[138.0347,34.673101],[138.034483,34.674259],[138.034517,34.674954],[138.035128,34.675373],[138.035804,34.675583],[138.035895,34.675795],[138.035563,34.675787],[138.035569,34.676692],[138.035301,34.677089],[138.034546,34.676893],[138.034279,34.676693],[138.033983,34.676766],[138.034382,34.677099],[138.034079,34.677366],[138.033686,34.677421],[138.033554,34.677273],[138.033291,34.677525],[138.032768,34.677399],[138.032665,34.677558],[138.032696,34.677769],[138.033552,34.677886],[138.033544,34.678112],[138.032743,34.678109],[138.032561,34.678266],[138.032768,34.678481],[138.033608,34.678518],[138.033437,34.678917],[138.032984,34.679003],[138.032815,34.679354],[138.032005,34.679044],[138.03167,34.679133]]],[[[138.196576,34.665803],[138.196722,34.66624],[138.19705,34.666617],[138.19737,34.667162],[138.197601,34.667857],[138.197868,34.668272],[138.198311,34.669282],[138.198405,34.66978],[138.198596,34.670137],[138.198849,34.671015],[138.199527,34.672263],[138.199539,34.672559],[138.199678,34.672929],[138.19952,34.673836],[138.199706,34.674024],[138.200507,34.674339],[138.200731,34.674535],[138.201304,34.675598],[138.203517,34.678867],[138.204984,34.681192],[138.205495,34.681913],[138.205693,34.682341],[138.206047,34.683372],[138.206517,34.683923],[138.207388,34.685087],[138.207127,34.685096],[138.206305,34.685474],[138.205244,34.685811],[138.205015,34.685796],[138.204882,34.685634],[138.203958,34.68395],[138.203255,34.68295],[138.203014,34.681963],[138.202132,34.681205],[138.199101,34.676898],[138.198152,34.675053],[138.197717,34.674522],[138.196901,34.672181],[138.194438,34.666569],[138.195667,34.665344],[138.19623,34.665275],[138.196576,34.665803]]],[[[138.208644,34.693704],[138.208708,34.693809],[138.208564,34.694077],[138.208495,34.694402],[138.208282,34.6947],[138.207937,34.694079],[138.207351,34.693707],[138.206919,34.693657],[138.206789,34.693781],[138.206648,34.694264],[138.206548,34.694365],[138.205604,34.69432],[138.205252,34.694455],[138.204886,34.694431],[138.204665,34.694123],[138.204686,34.693781],[138.204052,34.693711],[138.204,34.69355],[138.203318,34.693463],[138.203141,34.693267],[138.203134,34.692885],[138.203241,34.692576],[138.203479,34.692391],[138.203921,34.692441],[138.204239,34.692743],[138.204326,34.692729],[138.204331,34.692601],[138.203851,34.692224],[138.203711,34.691806],[138.203717,34.691631],[138.20415,34.691386],[138.204777,34.690795],[138.204961,34.690791],[138.205259,34.691085],[138.205351,34.691231],[138.20526,34.69134],[138.204944,34.691293],[138.204879,34.691212],[138.204903,34.691348],[138.20505,34.691566],[138.205336,34.691676],[138.205715,34.691582],[138.205777,34.691455],[138.205815,34.690899],[138.205995,34.690998],[138.206442,34.691471],[138.206889,34.691688],[138.207726,34.691755],[138.20762,34.692016],[138.207264,34.691984],[138.207223,34.692078],[138.207809,34.692418],[138.207919,34.692604],[138.208112,34.693166],[138.208168,34.69351],[138.208644,34.693704]]],[[[138.036429,34.701491],[138.036321,34.701779],[138.034887,34.701389],[138.034509,34.701573],[138.033413,34.701595],[138.032378,34.701021],[138.030499,34.699837],[138.029911,34.699575],[138.029494,34.699537],[138.028858,34.698917],[138.028799,34.698752],[138.028854,34.698622],[138.029281,34.698564],[138.0296,34.698437],[138.029735,34.698457],[138.029951,34.698647],[138.030259,34.69927],[138.030435,34.699418],[138.030558,34.699386],[138.030753,34.699084],[138.031062,34.698965],[138.031284,34.698937],[138.031904,34.699045],[138.032037,34.698707],[138.032564,34.698416],[138.033094,34.697677],[138.033104,34.697501],[138.032835,34.697181],[138.032843,34.697007],[138.033308,34.696653],[138.033826,34.696428],[138.034359,34.696512],[138.034537,34.696435],[138.034641,34.696243],[138.034694,34.695526],[138.03508,34.695389],[138.035181,34.695088],[138.035436,34.694871],[138.03575,34.694885],[138.035941,34.695057],[138.035992,34.695248],[138.035886,34.695595],[138.03606,34.695921],[138.035987,34.696098],[138.035535,34.696334],[138.03551,34.696477],[138.035658,34.696586],[138.036344,34.696285],[138.03736,34.695479],[138.037546,34.695472],[138.037943,34.695844],[138.038004,34.69602],[138.037741,34.696631],[138.038566,34.696453],[138.039453,34.696405],[138.039609,34.696449],[138.039913,34.696708],[138.040392,34.696796],[138.041549,34.696041],[138.041807,34.69575],[138.041937,34.695699],[138.042071,34.695756],[138.042281,34.696125],[138.043445,34.696737],[138.043964,34.696911],[138.044063,34.697028],[138.044062,34.697205],[138.043857,34.697502],[138.043809,34.698074],[138.043393,34.698676],[138.043173,34.698796],[138.042643,34.698719],[138.042062,34.698338],[138.041398,34.69826],[138.040771,34.697899],[138.040474,34.697621],[138.040108,34.697452],[138.039712,34.697455],[138.039218,34.697765],[138.038823,34.69776],[138.038582,34.697854],[138.038221,34.697799],[138.037848,34.697862],[138.037344,34.697584],[138.037077,34.697566],[138.03699,34.697822],[138.037535,34.698433],[138.037364,34.698849],[138.037787,34.699053],[138.037987,34.699478],[138.037871,34.699976],[138.037586,34.700308],[138.036822,34.700322],[138.036777,34.700498],[138.036655,34.70064],[138.03646,34.700603],[138.036561,34.701058],[138.036429,34.701491]]],[[[138.108168,34.730365],[138.107762,34.730745],[138.107147,34.730891],[138.106951,34.730887],[138.106763,34.730678],[138.106376,34.729807],[138.107172,34.729417],[138.108848,34.728864],[138.109501,34.728094],[138.109493,34.727932],[138.1089,34.727735],[138.108376,34.727798],[138.108007,34.727908],[138.10753,34.728133],[138.107102,34.728058],[138.105971,34.727579],[138.105528,34.727203],[138.104797,34.727196],[138.104465,34.727005],[138.104155,34.726922],[138.10388,34.726959],[138.103738,34.726912],[138.103745,34.726719],[138.103931,34.726605],[138.104868,34.726681],[138.105223,34.726582],[138.105246,34.725915],[138.104828,34.72556],[138.104639,34.724996],[138.104633,34.72469],[138.10499,34.725305],[138.105202,34.725411],[138.105421,34.725317],[138.105606,34.725004],[138.105751,34.724903],[138.106205,34.724958],[138.106301,34.724902],[138.10626,34.724526],[138.106396,34.724211],[138.10638,34.72389],[138.106575,34.723931],[138.106962,34.72416],[138.10725,34.724192],[138.107715,34.724054],[138.108216,34.724069],[138.108673,34.723815],[138.108974,34.723844],[138.110347,34.724927],[138.111161,34.724866],[138.111892,34.724921],[138.113597,34.72544],[138.114231,34.726193],[138.115033,34.726648],[138.115555,34.726664],[138.116442,34.726469],[138.116889,34.72674],[138.117414,34.726879],[138.117626,34.727069],[138.117708,34.727437],[138.118081,34.72765],[138.118236,34.727893],[138.118768,34.728391],[138.118809,34.728551],[138.118696,34.72862],[138.118245,34.728638],[138.117859,34.729043],[138.117039,34.729287],[138.116493,34.729613],[138.115886,34.729695],[138.115088,34.729401],[138.114631,34.729534],[138.114432,34.729503],[138.114436,34.729399],[138.114727,34.729079],[138.114706,34.72885],[138.114383,34.728581],[138.114277,34.728197],[138.114153,34.728053],[138.113565,34.728048],[138.112569,34.728703],[138.111626,34.729076],[138.111382,34.729501],[138.110896,34.729852],[138.110697,34.73029],[138.110592,34.730369],[138.110161,34.730328],[138.109574,34.730398],[138.109133,34.730184],[138.108168,34.730365]]],[[[138.129397,34.742776],[138.129509,34.742924],[138.130284,34.743136],[138.130856,34.74357],[138.131044,34.743784],[138.131017,34.74401],[138.131143,34.744336],[138.131624,34.744557],[138.13146,34.744779],[138.131029,34.744801],[138.130505,34.74466],[138.129936,34.744162],[138.129147,34.743772],[138.128883,34.743491],[138.128649,34.742888],[138.129138,34.742318],[138.129598,34.741489],[138.128951,34.74094],[138.128644,34.740772],[138.128561,34.740334],[138.128544,34.738573],[138.128851,34.737046],[138.129385,34.735766],[138.12959,34.73548],[138.129739,34.735144],[138.129609,34.734931],[138.12889,34.734236],[138.128698,34.733569],[138.129005,34.733173],[138.128995,34.732898],[138.128587,34.732824],[138.128417,34.732626],[138.128421,34.732529],[138.128873,34.732475],[138.129191,34.732321],[138.128877,34.731797],[138.128736,34.73076],[138.1286,34.730756],[138.128418,34.730914],[138.128205,34.73086],[138.127897,34.730691],[138.127772,34.730365],[138.128038,34.730033],[138.128107,34.729711],[138.128272,34.730054],[138.12854,34.730222],[138.128922,34.729924],[138.129393,34.729871],[138.129765,34.729314],[138.130482,34.729509],[138.130237,34.729228],[138.130064,34.729144],[138.130266,34.728954],[138.130542,34.728896],[138.130785,34.72866],[138.130861,34.728726],[138.130747,34.729192],[138.13062,34.729464],[138.131208,34.729994],[138.13158,34.730552],[138.131782,34.730379],[138.132239,34.73018],[138.133025,34.730069],[138.133112,34.729813],[138.133215,34.72967],[138.133601,34.729841],[138.133515,34.730065],[138.13275,34.730661],[138.132658,34.731078],[138.131991,34.731111],[138.132008,34.731208],[138.132963,34.731861],[138.133132,34.732075],[138.133248,34.732126],[138.133345,34.732128],[138.133506,34.732019],[138.133594,34.731714],[138.133908,34.731689],[138.133974,34.732062],[138.133924,34.732368],[138.133548,34.732504],[138.133404,34.732695],[138.133433,34.732986],[138.132942,34.733039],[138.132763,34.733132],[138.132828,34.733521],[138.133294,34.733613],[138.134417,34.733381],[138.135253,34.732965],[138.135893,34.73256],[138.136127,34.732597],[138.136131,34.733034],[138.136617,34.733126],[138.136925,34.732713],[138.137408,34.732337],[138.137938,34.732269],[138.138051,34.732417],[138.137666,34.732795],[138.137658,34.733005],[138.137139,34.733316],[138.137034,34.733523],[138.137203,34.733721],[138.137581,34.733536],[138.137875,34.733527],[138.138043,34.733773],[138.138295,34.733844],[138.138358,34.733135],[138.138817,34.732887],[138.139211,34.73393],[138.139432,34.734339],[138.139843,34.734898],[138.139741,34.735025],[138.13926,34.734787],[138.138957,34.734489],[138.138783,34.734437],[138.138566,34.734496],[138.138497,34.734801],[138.138335,34.734943],[138.13814,34.734922],[138.137988,34.734806],[138.137735,34.734751],[138.137439,34.734841],[138.137494,34.734923],[138.137783,34.735059],[138.138294,34.735572],[138.138026,34.735953],[138.138023,34.73605],[138.138453,34.736076],[138.138723,34.736164],[138.138712,34.736486],[138.138526,34.736773],[138.138896,34.737411],[138.137956,34.738003],[138.137734,34.738192],[138.137719,34.738611],[138.137589,34.73898],[138.137385,34.739217],[138.137149,34.739276],[138.136786,34.739574],[138.136158,34.74019],[138.136023,34.740138],[138.135933,34.73991],[138.136063,34.739557],[138.13621,34.739254],[138.136736,34.738766],[138.136411,34.738548],[138.136055,34.738087],[138.135918,34.738084],[138.13576,34.738678],[138.135526,34.738656],[138.135393,34.738556],[138.135248,34.738214],[138.135315,34.737989],[138.135273,34.737504],[138.135179,34.737372],[138.135188,34.736565],[138.134382,34.73611],[138.134343,34.736674],[138.134678,34.737151],[138.134824,34.737477],[138.134792,34.737815],[138.134893,34.738286],[138.134599,34.738328],[138.134465,34.738244],[138.13418,34.737995],[138.13407,34.737766],[138.133107,34.736774],[138.132848,34.736897],[138.133207,34.737261],[138.13343,34.737606],[138.13352,34.738399],[138.133474,34.738608],[138.133283,34.739024],[138.133146,34.739037],[138.13286,34.738255],[138.132617,34.737926],[138.132286,34.737869],[138.132102,34.738091],[138.131991,34.738476],[138.13176,34.738358],[138.13175,34.738664],[138.131863,34.738796],[138.132154,34.738852],[138.132477,34.73915],[138.132734,34.740206],[138.132869,34.740258],[138.133087,34.740182],[138.133438,34.74019],[138.133912,34.740088],[138.134339,34.740163],[138.134295,34.740307],[138.133693,34.740762],[138.13359,34.740904],[138.13407,34.741158],[138.134345,34.741148],[138.13438,34.741262],[138.134156,34.741515],[138.134091,34.741692],[138.134178,34.742017],[138.134507,34.742105],[138.134579,34.742301],[138.134554,34.742445],[138.134411,34.74262],[138.133942,34.742593],[138.133461,34.74179],[138.133135,34.741621],[138.133091,34.741765],[138.133134,34.742202],[138.133086,34.742475],[138.133005,34.742554],[138.132715,34.742451],[138.132564,34.74172],[138.132307,34.741779],[138.132164,34.741969],[138.132124,34.74255],[138.132176,34.742745],[138.13233,34.742829],[138.132564,34.742851],[138.132678,34.74295],[138.132708,34.74321],[138.1332,34.743706],[138.132864,34.743779],[138.132474,34.743737],[138.132264,34.743603],[138.132214,34.743343],[138.131904,34.743271],[138.131762,34.743413],[138.131684,34.743395],[138.131323,34.743096],[138.131053,34.742977],[138.131173,34.742883],[138.13118,34.742689],[138.131105,34.74259],[138.130753,34.742582],[138.131018,34.741716],[138.131092,34.741282],[138.130907,34.74097],[138.130711,34.740982],[138.13069,34.741595],[138.130498,34.742059],[138.129947,34.742692],[138.129614,34.742717],[138.129459,34.742681],[138.129397,34.742776]]],[[[138.222977,34.750708],[138.222867,34.750662],[138.222686,34.750397],[138.222322,34.750411],[138.222188,34.750341],[138.221826,34.749904],[138.221909,34.749427],[138.22185,34.748931],[138.221443,34.748679],[138.221065,34.747807],[138.221247,34.747597],[138.221609,34.747395],[138.222375,34.746424],[138.222426,34.745987],[138.222615,34.745684],[138.222613,34.744499],[138.223337,34.744301],[138.223441,34.744353],[138.223464,34.744674],[138.224069,34.745033],[138.224316,34.744893],[138.224685,34.745029],[138.224864,34.744942],[138.225227,34.745277],[138.225599,34.745358],[138.225529,34.745484],[138.225349,34.745589],[138.225519,34.745775],[138.226086,34.745933],[138.226447,34.746323],[138.226518,34.746851],[138.226487,34.747123],[138.226678,34.747327],[138.227045,34.747536],[138.227236,34.74774],[138.227234,34.748495],[138.227754,34.749323],[138.227973,34.750236],[138.226851,34.750342],[138.226272,34.750192],[138.225369,34.750354],[138.224787,34.750095],[138.22434,34.750022],[138.222977,34.750708]]],[[[138.249403,34.742523],[138.251959,34.744072],[138.252464,34.74446],[138.253725,34.745209],[138.25442,34.745558],[138.25626,34.746702],[138.257406,34.747316],[138.259246,34.748504],[138.26217,34.750069],[138.261449,34.750816],[138.261311,34.750872],[138.261164,34.750836],[138.2603,34.750282],[138.259855,34.750099],[138.259132,34.749586],[138.258166,34.749104],[138.257295,34.748529],[138.256276,34.748008],[138.255267,34.747352],[138.254674,34.747107],[138.253515,34.746325],[138.253075,34.746141],[138.251543,34.745254],[138.250068,34.744323],[138.249502,34.744044],[138.248512,34.743359],[138.247764,34.743002],[138.246741,34.742374],[138.24599,34.742027],[138.245716,34.74197],[138.245045,34.741985],[138.244656,34.742163],[138.244459,34.742182],[138.244046,34.741662],[138.243604,34.740773],[138.243292,34.740466],[138.239386,34.737798],[138.237788,34.736533],[138.23741,34.736401],[138.236738,34.736876],[138.236512,34.73712],[138.2362,34.737041],[138.234895,34.735997],[138.234172,34.735527],[138.233325,34.734775],[138.232586,34.734407],[138.232157,34.734074],[138.231937,34.734031],[138.231483,34.734213],[138.231243,34.734182],[138.230016,34.733112],[138.228654,34.732157],[138.227983,34.731554],[138.22761,34.731355],[138.226699,34.730529],[138.224836,34.729105],[138.224393,34.728392],[138.224283,34.728009],[138.223842,34.727203],[138.223625,34.726941],[138.223851,34.726732],[138.224824,34.726352],[138.22493,34.726131],[138.224859,34.725816],[138.223207,34.723827],[138.222766,34.723519],[138.222428,34.723402],[138.222063,34.72299],[138.21811,34.717192],[138.217873,34.716951],[138.217524,34.71679],[138.217374,34.716632],[138.216502,34.715085],[138.216098,34.713971],[138.215681,34.713284],[138.215556,34.71278],[138.215096,34.711909],[138.214735,34.710746],[138.214485,34.710257],[138.214527,34.71011],[138.214894,34.709991],[138.216854,34.713751],[138.221545,34.719942],[138.224622,34.722963],[138.226205,34.724303],[138.226839,34.725033],[138.22792,34.726636],[138.229045,34.727004],[138.229309,34.726958],[138.229288,34.727352],[138.22939,34.727549],[138.23061,34.728856],[138.231299,34.729452],[138.232028,34.730252],[138.233016,34.731108],[138.233439,34.731322],[138.233596,34.731452],[138.233841,34.731806],[138.234052,34.732015],[138.234454,34.732246],[138.237242,34.734515],[138.238319,34.735264],[138.239696,34.736058],[138.241332,34.737134],[138.241952,34.737624],[138.243813,34.738817],[138.244106,34.73906],[138.244747,34.73942],[138.244911,34.739578],[138.244981,34.73977],[138.245613,34.740192],[138.24761,34.741374],[138.249403,34.742523]]],[[[138.189601,34.761847],[138.189047,34.76175],[138.18805,34.761727],[138.187629,34.761584],[138.187328,34.761359],[138.187371,34.76096],[138.187601,34.760662],[138.187684,34.760398],[138.187694,34.760107],[138.187388,34.760028],[138.187049,34.760056],[138.186978,34.759994],[138.187434,34.759532],[138.187702,34.759417],[138.188278,34.759321],[138.188198,34.759077],[138.187943,34.758817],[138.188313,34.758728],[138.188463,34.758623],[138.188515,34.758406],[138.188618,34.758384],[138.188702,34.758495],[138.188694,34.758749],[138.18876,34.758969],[138.189213,34.759016],[138.189333,34.758946],[138.189419,34.758572],[138.189617,34.758347],[138.189738,34.758689],[138.189956,34.758742],[138.190334,34.758436],[138.190155,34.758941],[138.190003,34.759095],[138.189907,34.759323],[138.19029,34.759283],[138.190151,34.759486],[138.190192,34.759596],[138.190527,34.759652],[138.19097,34.759589],[138.190965,34.759735],[138.190874,34.759817],[138.190565,34.759847],[138.19056,34.759992],[138.190772,34.760215],[138.190797,34.760361],[138.190588,34.760465],[138.190367,34.760484],[138.19029,34.760579],[138.190564,34.760743],[138.190731,34.761013],[138.190679,34.761242],[138.189898,34.761757],[138.189667,34.761643],[138.189601,34.761847]]],[[[138.156784,34.761552],[138.155872,34.761731],[138.155344,34.761982],[138.154741,34.76214],[138.154085,34.76202],[138.153697,34.761776],[138.153583,34.761335],[138.153652,34.761154],[138.154646,34.760745],[138.155462,34.760302],[138.157896,34.759495],[138.159293,34.759235],[138.160585,34.758736],[138.161104,34.758614],[138.1615,34.758436],[138.161865,34.758394],[138.162388,34.758155],[138.163511,34.757947],[138.164621,34.758027],[138.165374,34.757889],[138.166178,34.758007],[138.166778,34.757763],[138.168018,34.756717],[138.168689,34.756409],[138.169882,34.756448],[138.170395,34.756286],[138.171265,34.756855],[138.171577,34.756936],[138.173288,34.756619],[138.173758,34.757132],[138.173662,34.757198],[138.1732,34.757198],[138.172965,34.757265],[138.172577,34.757654],[138.172262,34.757788],[138.171885,34.757852],[138.171268,34.757874],[138.169894,34.758133],[138.169542,34.758124],[138.169227,34.758335],[138.169219,34.758571],[138.169307,34.758555],[138.169421,34.758449],[138.170236,34.758431],[138.17108,34.758245],[138.171606,34.758252],[138.171892,34.758335],[138.17188,34.758426],[138.171186,34.758653],[138.171027,34.758753],[138.171059,34.758808],[138.171739,34.758846],[138.172184,34.758683],[138.172473,34.758811],[138.172867,34.759293],[138.172862,34.759438],[138.172829,34.759558],[138.172532,34.759648],[138.172318,34.759462],[138.172067,34.759516],[138.172122,34.759627],[138.172326,34.75968],[138.172439,34.759804],[138.172356,34.759988],[138.172144,34.760041],[138.171546,34.759856],[138.170971,34.759467],[138.169702,34.759446],[138.169247,34.759369],[138.167306,34.759812],[138.166797,34.759559],[138.166567,34.759516],[138.166432,34.759553],[138.166307,34.759837],[138.16614,34.759941],[138.164609,34.760179],[138.164189,34.76013],[138.164032,34.760185],[138.16388,34.759983],[138.163733,34.759969],[138.163213,34.760276],[138.162702,34.760277],[138.161936,34.760547],[138.161539,34.76003],[138.161355,34.75993],[138.161152,34.759931],[138.160388,34.760104],[138.16015,34.760383],[138.160045,34.760811],[138.159926,34.760935],[138.159766,34.760988],[138.159245,34.760968],[138.158932,34.761273],[138.158709,34.761386],[138.157969,34.761375],[138.156784,34.761552]]],[[[138.290382,34.763817],[138.290478,34.764043],[138.289097,34.764896],[138.288806,34.764973],[138.287185,34.764084],[138.286448,34.763767],[138.286225,34.763796],[138.285695,34.764179],[138.28549,34.764223],[138.284827,34.763768],[138.284524,34.763656],[138.28284,34.762638],[138.282547,34.762693],[138.282013,34.763187],[138.281806,34.76325],[138.280707,34.761308],[138.280165,34.760851],[138.279056,34.76035],[138.277994,34.75969],[138.277536,34.759562],[138.276349,34.758875],[138.276057,34.75863],[138.275703,34.758546],[138.274684,34.757908],[138.274024,34.757649],[138.27342,34.757259],[138.274354,34.755989],[138.27591,34.756664],[138.277691,34.757521],[138.284371,34.760939],[138.288445,34.762894],[138.289141,34.762928],[138.289966,34.763153],[138.290301,34.763361],[138.290382,34.763637],[138.290382,34.763817]]]]}}]}
