{"type":"FeatureCollection","features":[{"type":"Feature","properties":{"potaRef":"JP-1131","nameJa":"Mashiko","nameEn":"Mashiko Prefectural Nature Park","authority":"環境省 生物多様性「見える化」マップ","boundaryStatus":"全国GIS候補・公開前検証待ち","boundarySource":"環境省 生物多様性「見える化」マップの自然公園区域を、POTA代表座標で一意に空間照合して加工","boundaryScaleNote":"区域は概要データであり、正確性は保証されない。POTA運用可否は公式情報で最終確認すること。","candidateMethod":"POTA representative point inside one public natural-park area","sourceParkKind":"都道府県立自然公園","sourceName":"Mashiko","sourceFeatureCount":1,"cautionMeters":75},"geometry":{"type":"MultiPolygon","coordinates":[[[[140.147187,36.464746],[140.146354,36.466194],[140.144882,36.467332],[140.143622,36.467556],[140.142278,36.467591],[140.140848,36.468401],[140.139998,36.468402],[140.13928,36.467813],[140.138829,36.46696],[140.138805,36.46581],[140.139327,36.464785],[140.13928,36.46377],[140.137073,36.463827],[140.136077,36.463195],[140.135282,36.461844],[140.133835,36.461],[140.133041,36.460078],[140.132179,36.459199],[140.132056,36.458701],[140.13337,36.455484],[140.134314,36.454588],[140.1353,36.452068],[140.136245,36.450608],[140.136779,36.450177],[140.137846,36.450011],[140.138503,36.449679],[140.138996,36.449215],[140.144581,36.444505],[140.144581,36.443709],[140.143801,36.443709],[140.143062,36.444174],[140.138175,36.448817],[140.137682,36.44895],[140.137312,36.448751],[140.140844,36.442515],[140.141337,36.440658],[140.141378,36.43963],[140.141091,36.439198],[140.140598,36.439232],[140.140146,36.43963],[140.1399,36.441354],[140.13953,36.442349],[140.138586,36.443378],[140.138339,36.444605],[140.137107,36.445998],[140.136861,36.447325],[140.135547,36.448618],[140.134479,36.448817],[140.133452,36.448718],[140.132713,36.44832],[140.13222,36.447723],[140.131809,36.44696],[140.13107,36.446363],[140.130085,36.445799],[140.129469,36.444903],[140.128853,36.443311],[140.128976,36.440757],[140.128113,36.439994],[140.127497,36.440326],[140.126676,36.441885],[140.126635,36.4456],[140.127456,36.447325],[140.127579,36.448087],[140.127497,36.451139],[140.12836,36.455418],[140.12836,36.456413],[140.127867,36.457905],[140.127867,36.460061],[140.12763,36.461262],[140.127579,36.462018],[140.128319,36.463942],[140.128319,36.465434],[140.12799,36.466098],[140.127087,36.466794],[140.126388,36.466794],[140.125239,36.466363],[140.124417,36.46633],[140.12376,36.466595],[140.123308,36.466529],[140.12261,36.466297],[140.121543,36.46633],[140.119284,36.466794],[140.118093,36.466662],[140.117354,36.466429],[140.116943,36.466031],[140.116984,36.465368],[140.117313,36.464937],[140.118709,36.463875],[140.119407,36.462283],[140.119407,36.461653],[140.119161,36.461454],[140.118093,36.461554],[140.117805,36.460592],[140.117286,36.460571],[140.116975,36.46168],[140.116198,36.462413],[140.114254,36.459712],[140.112258,36.457954],[140.110677,36.457305],[140.109614,36.457284],[140.108525,36.457598],[140.106115,36.45921],[140.105311,36.459377],[140.104767,36.458959],[140.105015,36.456446],[140.106581,36.454646],[140.108914,36.453453],[140.112932,36.448994],[140.114383,36.446607],[140.114798,36.445142],[140.114643,36.443174],[140.114176,36.443007],[140.113813,36.443509],[140.113347,36.445142],[140.112258,36.447487],[140.110599,36.449413],[140.108059,36.45205],[140.107644,36.45205],[140.107333,36.451883],[140.107281,36.451464],[140.109614,36.448156],[140.11034,36.446649],[140.110547,36.445477],[140.110495,36.442462],[140.110703,36.441709],[140.11205,36.439699],[140.112569,36.438568],[140.113191,36.438066],[140.115057,36.437438],[140.116146,36.435554],[140.116924,36.435386],[140.118945,36.435344],[140.119775,36.435051],[140.120552,36.434381],[140.123456,36.426761],[140.125218,36.425505],[140.125374,36.424793],[140.125374,36.422198],[140.126151,36.421276],[140.128432,36.419225],[140.130247,36.416838],[140.131434,36.414832],[140.131823,36.414922],[140.132054,36.414922],[140.132376,36.41481],[140.132718,36.41461],[140.133663,36.414218],[140.134698,36.413405],[140.134949,36.413264],[140.135774,36.412943],[140.137682,36.412486],[140.138764,36.412285],[140.141019,36.412006],[140.141261,36.412024],[140.141431,36.412094],[140.141552,36.412265],[140.141853,36.413028],[140.141994,36.413138],[140.143452,36.41361],[140.144262,36.414045],[140.144543,36.413453],[140.144996,36.412982],[140.145086,36.412801],[140.145086,36.411746],[140.145237,36.411495],[140.145711,36.411138],[140.146184,36.410515],[140.146616,36.410304],[140.146918,36.410013],[140.147189,36.40935],[140.147451,36.408959],[140.147682,36.408697],[140.148379,36.4082],[140.14846,36.407939],[140.14845,36.407165],[140.14849,36.406824],[140.148561,36.406663],[140.148792,36.406402],[140.149738,36.405794],[140.15017,36.405392],[140.150823,36.404629],[140.152243,36.402222],[140.152383,36.402061],[140.152837,36.401831],[140.1536,36.401308],[140.154555,36.400284],[140.156187,36.398155],[140.156506,36.397994],[140.15673,36.397994],[140.157092,36.398084],[140.15772,36.398004],[140.15867,36.398083],[140.159585,36.398013],[140.160671,36.398365],[140.161592,36.39882],[140.162175,36.398941],[140.162627,36.399101],[140.162838,36.399282],[140.16309,36.399403],[140.164457,36.399493],[140.164739,36.399614],[140.16497,36.399835],[140.165281,36.400005],[140.165593,36.400107],[140.166006,36.400078],[140.167975,36.399734],[140.168116,36.399644],[140.168506,36.399192],[140.168727,36.399051],[140.169099,36.398992],[140.170908,36.399193],[140.172014,36.398991],[140.172614,36.39907],[140.173009,36.398891],[140.17324,36.39865],[140.173451,36.398509],[140.173676,36.398441],[140.174075,36.39851],[140.174909,36.398831],[140.176273,36.398649],[140.176545,36.398489],[140.177228,36.397956],[140.177781,36.397685],[140.178354,36.397334],[140.178587,36.397284],[140.178897,36.397335],[140.17949,36.397646],[140.179711,36.397656],[140.180499,36.397435],[140.180686,36.397445],[140.181438,36.397686],[140.183448,36.398088],[140.184031,36.398369],[140.185158,36.398337],[140.185439,36.399001],[140.185761,36.399351],[140.185791,36.399533],[140.185731,36.400153],[140.185801,36.400425],[140.186103,36.401117],[140.186284,36.401388],[140.186646,36.401579],[140.187883,36.40188],[140.189109,36.402241],[140.189159,36.402372],[140.188903,36.403644],[140.188933,36.403784],[140.189435,36.404136],[140.191486,36.404357],[140.192491,36.404577],[140.192622,36.404698],[140.192632,36.40505],[140.192531,36.405642],[140.192662,36.406656],[140.193722,36.407769],[140.193913,36.40814],[140.194617,36.408793],[140.195552,36.409024],[140.195793,36.409205],[140.195944,36.409435],[140.196185,36.41053],[140.196631,36.411591],[140.196822,36.411732],[140.197324,36.411852],[140.197475,36.411943],[140.197535,36.412284],[140.197686,36.412676],[140.197988,36.413228],[140.197978,36.413389],[140.197767,36.413838],[140.197777,36.413918],[140.197998,36.414129],[140.198209,36.41446],[140.198289,36.414792],[140.198259,36.415354],[140.198299,36.415575],[140.19841,36.415786],[140.198541,36.415927],[140.199476,36.416338],[140.200219,36.417112],[140.199685,36.417918],[140.197995,36.419407],[140.197293,36.419336],[140.195691,36.418397],[140.193058,36.415331],[140.189371,36.412796],[140.1878,36.412854],[140.186145,36.414515],[140.185026,36.415082],[140.183073,36.415189],[140.180527,36.414409],[140.179536,36.415141],[140.179179,36.41619],[140.179087,36.4183],[140.179385,36.418651],[140.181454,36.41912],[140.181648,36.419293],[140.182433,36.420761],[140.182616,36.421353],[140.175032,36.417726],[140.172099,36.41682],[140.170266,36.415802],[140.169121,36.41582],[140.16715,36.41495],[140.164853,36.414867],[140.162397,36.415475],[140.159031,36.417234],[140.158555,36.41717],[140.158278,36.416594],[140.158517,36.41329],[140.157675,36.411857],[140.156134,36.410848],[140.155767,36.411524],[140.156426,36.413246],[140.156457,36.414968],[140.156217,36.416512],[140.156507,36.41986],[140.158156,36.423775],[140.158859,36.426163],[140.158641,36.426653],[140.156823,36.426653],[140.153986,36.426124],[140.150981,36.425811],[140.148425,36.425082],[140.147464,36.424952],[140.147016,36.425125],[140.147101,36.425495],[140.148457,36.427279],[140.14851,36.428986],[140.149385,36.430744],[140.14899,36.43408],[140.149172,36.434614],[140.152555,36.438338],[140.152576,36.439898],[140.1547,36.441966],[140.154529,36.443578],[140.154102,36.446198],[140.152565,36.449422],[140.152544,36.4528],[140.150986,36.454972],[140.148809,36.456817],[140.147187,36.464746]]]]}}]}
