{"type":"FeatureCollection","features":[{"type":"Feature","properties":{"potaRef":"JP-1680","nameJa":"Washio yama","nameEn":"Washioyama Prefectural Nature Park","authority":"環境省 生物多様性「見える化」マップ","boundaryStatus":"全国GIS候補・公開前検証待ち","boundarySource":"環境省 生物多様性「見える化」マップの自然公園区域を、POTA代表座標で一意に空間照合して加工","boundaryScaleNote":"区域は概要データであり、正確性は保証されない。POTA運用可否は公式情報で最終確認すること。","candidateMethod":"POTA representative point inside one public natural-park area","sourceParkKind":"都道府県立自然公園","sourceName":"Washio yama","sourceFeatureCount":1,"cautionMeters":75},"geometry":{"type":"MultiPolygon","coordinates":[[[[133.539093,33.551665],[133.538925,33.551755],[133.538945,33.552094],[133.538901,33.552201],[133.53803,33.552713],[133.537481,33.552733],[133.536332,33.55287],[133.535552,33.55286],[133.534838,33.552746],[133.534417,33.552613],[133.534203,33.552496],[133.5331,33.551776],[133.53307,33.551447],[133.532558,33.550602],[133.530544,33.550619],[133.53051,33.550057],[133.530625,33.549649],[133.530625,33.549212],[133.530471,33.548813],[133.530148,33.548688],[133.528079,33.549146],[133.527806,33.54915],[133.527095,33.549],[133.525917,33.549141],[133.525263,33.548929],[133.525089,33.548696],[133.524782,33.547701],[133.524747,33.547468],[133.524782,33.547189],[133.524931,33.546632],[133.525085,33.546336],[133.525535,33.546232],[133.526146,33.545529],[133.526141,33.545254],[133.525903,33.545171],[133.525589,33.545487],[133.525177,33.545516],[133.524859,33.545437],[133.524779,33.545266],[133.524744,33.544813],[133.524829,33.544613],[133.525382,33.544247],[133.526006,33.543377],[133.526518,33.542998],[133.526866,33.542935],[133.527944,33.543156],[133.528675,33.543094],[133.529052,33.54299],[133.529246,33.542852],[133.529385,33.542557],[133.529395,33.542278],[133.528018,33.542274],[133.527268,33.541891],[133.526706,33.541895],[133.525886,33.542145],[133.525503,33.542215],[133.524745,33.541999],[133.523756,33.541882],[133.522807,33.541566],[133.522906,33.541125],[133.523145,33.540825],[133.523274,33.540738],[133.524142,33.540609],[133.524918,33.540097],[133.525221,33.540159],[133.525599,33.539864],[133.525812,33.539472],[133.524809,33.539456],[133.524455,33.539024],[133.52327,33.538162],[133.523023,33.538079],[133.521962,33.538002],[133.521517,33.53718],[133.521231,33.5369],[133.521166,33.535765],[133.521401,33.535635],[133.521282,33.535282],[133.521162,33.535205],[133.521055,33.534772],[133.521149,33.534466],[133.520254,33.534143],[133.520131,33.534493],[133.520147,33.534639],[133.52037,33.535019],[133.520358,33.535625],[133.520306,33.535741],[133.51963,33.536231],[133.518961,33.53655],[133.518345,33.53665],[133.517108,33.536527],[133.51654,33.536114],[133.516194,33.535978],[133.516128,33.535598],[133.515977,33.535252],[133.515949,33.535208],[133.515758,33.535202],[133.515464,33.535498],[133.513569,33.536108],[133.512348,33.536897],[133.511752,33.537096],[133.511006,33.537113],[133.510084,33.536943],[133.509435,33.536624],[133.508671,33.536371],[133.508048,33.536297],[133.507647,33.536108],[133.506875,33.535911],[133.506608,33.535548],[133.506608,33.535365],[133.506696,33.535129],[133.506722,33.534865],[133.506278,33.534572],[133.50617,33.534316],[133.506089,33.533427],[133.50599,33.533304],[133.505771,33.533171],[133.504779,33.532891],[133.504441,33.532718],[133.50427,33.532548],[133.503963,33.532062],[133.503784,33.531935],[133.503689,33.531909],[133.503538,33.532052],[133.501978,33.532035],[133.501783,33.532088],[133.501747,33.532138],[133.501769,33.532331],[133.501857,33.532408],[133.502588,33.532591],[133.502851,33.532798],[133.503073,33.533067],[133.503654,33.53328],[133.503615,33.533457],[133.503003,33.533354],[133.502259,33.53335],[133.501981,33.533304],[133.500802,33.532938],[133.499633,33.532295],[133.499554,33.532312],[133.498651,33.533034],[133.498293,33.533454],[133.498353,33.53373],[133.498961,33.53402],[133.499832,33.534799],[133.499792,33.535075],[133.499345,33.535414],[133.498997,33.535368],[133.498272,33.535872],[133.497597,33.535976],[133.496981,33.536192],[133.496837,33.536309],[133.496693,33.536688],[133.497095,33.537012],[133.497324,33.537104],[133.49739,33.537391],[133.49735,33.537745],[133.497176,33.537837],[133.496704,33.537953],[133.496376,33.538107],[133.49572,33.538095],[133.495407,33.537986],[133.495357,33.537474],[133.495377,33.53675],[133.495457,33.536446],[133.495049,33.536122],[133.49497,33.536105],[133.494161,33.536259],[133.492377,33.536255],[133.492198,33.536405],[133.49265,33.536792],[133.492998,33.537021],[133.493823,33.537458],[133.493798,33.537741],[133.49349,33.537932],[133.493306,33.537916],[133.492834,33.537678],[133.491981,33.537945],[133.490748,33.537974],[133.490341,33.53792],[133.490063,33.537416],[133.489844,33.536867],[133.489829,33.536363],[133.489724,33.535893],[133.489893,33.535668],[133.490634,33.535323],[133.49131,33.534935],[133.491902,33.53439],[133.4925,33.534211],[133.492947,33.534013],[133.493189,33.533608],[133.493301,33.53329],[133.493593,33.533181],[133.494022,33.53329],[133.494662,33.533035],[133.495529,33.533056],[133.495926,33.532916],[133.496529,33.532879],[133.496684,33.532754],[133.496697,33.532583],[133.496453,33.532042],[133.496329,33.531927],[133.495695,33.531667],[133.495161,33.531511],[133.494434,33.531053],[133.494367,33.530819],[133.494646,33.530652],[133.494889,33.530205],[133.494775,33.529872],[133.494688,33.529758],[133.49442,33.529737],[133.494135,33.529836],[133.493892,33.529773],[133.49375,33.529612],[133.49352,33.529596],[133.493259,33.529695],[133.492861,33.53021],[133.492898,33.530299],[133.493128,33.530507],[133.49306,33.530991],[133.492659,33.531324],[133.492025,33.531667],[133.491056,33.531885],[133.488985,33.531807],[133.487078,33.531802],[133.486282,33.531958],[133.486015,33.531797],[133.485904,33.531433],[133.486512,33.530548],[133.485817,33.530694],[133.485431,33.530902],[133.484879,33.530949],[133.484132,33.530808],[133.483983,33.530658],[133.484039,33.530382],[133.484094,33.530351],[133.484747,33.530215],[133.485356,33.530012],[133.485731,33.529763],[133.486433,33.529066],[133.486396,33.528764],[133.484474,33.528873],[133.484132,33.528707],[133.483635,33.528623],[133.482455,33.529185],[133.482182,33.529268],[133.481641,33.529008],[133.481377,33.528785],[133.481073,33.528722],[133.480713,33.528162],[133.480547,33.527666],[133.480638,33.52747],[133.480648,33.5273],[133.480485,33.526841],[133.480353,33.526707],[133.480691,33.526281],[133.481235,33.525915],[133.481839,33.525862],[133.483052,33.526151],[133.483406,33.526071],[133.483381,33.525795],[133.483063,33.525405],[133.483095,33.525059],[133.483159,33.524889],[133.483341,33.524743],[133.483179,33.52457],[133.483004,33.524486],[133.482655,33.524117],[133.48409,33.524619],[133.485576,33.525795],[133.48661,33.526727],[133.48732,33.526877],[133.487702,33.526704],[133.48922,33.526294],[133.492907,33.526593],[133.4938,33.526905],[133.494809,33.527419],[133.495415,33.52765],[133.495192,33.527021],[133.495185,33.526797],[133.494885,33.526667],[133.494656,33.526474],[133.494413,33.526355],[133.493704,33.525751],[133.493449,33.525606],[133.493126,33.525606],[133.492735,33.52585],[133.492524,33.525798],[133.492229,33.525153],[133.492136,33.524716],[133.491918,33.524549],[133.490405,33.524123],[133.489244,33.523738],[133.486792,33.523379],[133.486003,33.523311],[133.483155,33.52328],[133.483175,33.521529],[133.482976,33.521193],[133.482896,33.52116],[133.482554,33.521196],[133.482391,33.521113],[133.482336,33.520873],[133.482527,33.520574],[133.482535,33.520354],[133.482423,33.520257],[133.482077,33.520191],[133.481732,33.519825],[133.481638,33.519651],[133.481594,33.519372],[133.481439,33.519149],[133.481336,33.519132],[133.48128,33.519172],[133.481022,33.519452],[133.480883,33.519698],[133.4807,33.519808],[133.480525,33.519765],[133.480384,33.519668],[133.480284,33.519518],[133.480272,33.519405],[133.480181,33.519348],[133.479922,33.519585],[133.479799,33.519585],[133.479597,33.519295],[133.479676,33.518816],[133.479588,33.518493],[133.479493,33.518413],[133.479,33.518606],[133.478642,33.518586],[133.478227,33.519158],[133.477949,33.519242],[133.477742,33.519198],[133.477438,33.518696],[133.477731,33.518509],[133.478011,33.518532],[133.478118,33.518428],[133.477911,33.518085],[133.477923,33.517803],[133.477995,33.517583],[133.477929,33.517064],[133.477968,33.516868],[133.478116,33.516798],[133.478481,33.516977],[133.478994,33.517464],[133.479189,33.51747],[133.479575,33.51739],[133.479615,33.517307],[133.47946,33.516964],[133.479571,33.516605],[133.479562,33.516048],[133.479709,33.515975],[133.480067,33.516062],[133.480237,33.516042],[133.480289,33.515992],[133.480336,33.515699],[133.480586,33.515402],[133.480612,33.515189],[133.480516,33.514866],[133.480735,33.514443],[133.480751,33.514304],[133.480723,33.514187],[133.480373,33.513688],[133.480179,33.513228],[133.480604,33.512835],[133.480755,33.512332],[133.481289,33.511357],[133.48203,33.510847],[133.482006,33.511237],[133.481923,33.511576],[133.481923,33.511876],[133.482165,33.511879],[133.482591,33.51137],[133.482682,33.510894],[133.48318,33.510224],[133.483283,33.509825],[133.483617,33.509652],[133.483939,33.509652],[133.484114,33.510121],[133.484134,33.510551],[133.484007,33.510967],[133.483562,33.511729],[133.483555,33.513534],[133.483638,33.513717],[133.483833,33.513631],[133.484032,33.513364],[133.483988,33.512852],[133.484078,33.512515],[133.484233,33.512179],[133.484022,33.512112],[133.484364,33.51164],[133.484984,33.51123],[133.485429,33.511164],[133.485596,33.510954],[133.48541,33.510651],[133.48558,33.510321],[133.485922,33.510115],[133.485938,33.509911],[133.485771,33.509732],[133.485767,33.509479],[133.486304,33.509186],[133.485872,33.508353],[133.485828,33.50809],[133.485907,33.507847],[133.48648,33.507857],[133.48673,33.508137],[133.486853,33.50842],[133.488133,33.507917],[133.488571,33.507944],[133.48817,33.508283],[133.488023,33.508516],[133.488079,33.508679],[133.489378,33.508739],[133.489559,33.508843],[133.489516,33.509246],[133.489196,33.509498],[133.489158,33.509817],[133.488973,33.510388],[133.488861,33.510464],[133.488673,33.510487],[133.488699,33.51062],[133.488861,33.510901],[133.488834,33.511123],[133.488978,33.511344],[133.489044,33.511581],[133.488984,33.511772],[133.488744,33.512],[133.488715,33.5121],[133.488831,33.512768],[133.489008,33.513092],[133.48901,33.51335],[133.488714,33.513883],[133.487992,33.514806],[133.487721,33.515223],[133.487702,33.515319],[133.487757,33.515449],[133.487952,33.515529],[133.488175,33.515536],[133.488548,33.515449],[133.488787,33.515283],[133.489184,33.514473],[133.489319,33.514064],[133.489796,33.513584],[133.489812,33.513235],[133.489656,33.512382],[133.489676,33.511377],[133.48948,33.5111],[133.489692,33.510461],[133.489716,33.509971],[133.489931,33.509605],[133.490079,33.509102],[133.490528,33.509122],[133.490703,33.509049],[133.49089,33.508613],[133.49118,33.508669],[133.491247,33.508972],[133.49117,33.509822],[133.491285,33.510271],[133.491512,33.510521],[133.492024,33.510774],[133.492394,33.510867],[133.492497,33.510774],[133.492136,33.510497],[133.492008,33.510184],[133.491945,33.509652],[133.492008,33.509515],[133.492299,33.509129],[133.492589,33.509465],[133.493165,33.509808],[133.493408,33.510171],[133.492752,33.511064],[133.493076,33.512162],[133.493092,33.512409],[133.493219,33.512695],[133.493354,33.513208],[133.493978,33.51449],[133.494248,33.513867],[133.494121,33.513091],[133.49436,33.512549],[133.494088,33.512129],[133.493989,33.51173],[133.494033,33.511287],[133.494192,33.511014],[133.494123,33.510487],[133.494604,33.509772],[133.49462,33.510374],[133.494779,33.510644],[133.494819,33.51086],[133.494704,33.511433],[133.495133,33.51151],[133.495272,33.511686],[133.495121,33.512682],[133.495141,33.513065],[133.495841,33.512965],[133.496153,33.514478],[133.496417,33.515385],[133.496322,33.515822],[133.496899,33.515855],[133.496875,33.516278],[133.496553,33.516671],[133.496298,33.517827],[133.496183,33.518013],[133.495706,33.518476],[133.495579,33.518746],[133.495555,33.519445],[133.495596,33.519831],[133.495807,33.520287],[133.495624,33.520677],[133.495596,33.520853],[133.495779,33.5212],[133.495771,33.521982],[133.495882,33.522565],[133.495874,33.522885],[133.495201,33.52374],[133.495181,33.52392],[133.49525,33.52449],[133.495087,33.525019],[133.495087,33.525245],[133.495237,33.525588],[133.49548,33.525742],[133.4974,33.526677],[133.498014,33.526857],[133.499075,33.52687],[133.499794,33.527064],[133.500613,33.524733],[133.501662,33.523604],[133.50205,33.523308],[133.502341,33.522911],[133.503052,33.522325],[133.503659,33.522122],[133.503136,33.520507],[133.502941,33.520044],[133.5026,33.519621],[133.502179,33.519255],[133.501126,33.518596],[133.501359,33.518378],[133.501096,33.518149],[133.501061,33.517887],[133.500713,33.517645],[133.500579,33.517283],[133.500609,33.516888],[133.50038,33.516671],[133.500301,33.51653],[133.50036,33.516421],[133.50043,33.516421],[133.501081,33.516671],[133.5012,33.516621],[133.501345,33.516284],[133.501633,33.516238],[133.502001,33.516363],[133.502041,33.516263],[133.501986,33.515689],[133.502016,33.515514],[133.50208,33.515472],[133.502264,33.515497],[133.502547,33.515697],[133.502672,33.515718],[133.502945,33.515293],[133.503099,33.515227],[133.503223,33.515252],[133.503347,33.515364],[133.503283,33.515755],[133.503844,33.515818],[133.503924,33.516147],[133.504073,33.516184],[133.504763,33.516093],[133.504908,33.516155],[133.504892,33.516321],[133.504683,33.5165],[133.504482,33.516883],[133.504736,33.516967],[133.50477,33.517042],[133.504746,33.517216],[133.504611,33.517383],[133.504631,33.517424],[133.505188,33.517295],[133.505665,33.517075],[133.505849,33.517116],[133.505943,33.517204],[133.505968,33.517375],[133.505854,33.517554],[133.505695,33.517687],[133.50573,33.517928],[133.505601,33.51819],[133.505601,33.518303],[133.505357,33.518598],[133.505432,33.518856],[133.50568,33.518756],[133.506112,33.518432],[133.506316,33.518398],[133.506515,33.518523],[133.506694,33.518407],[133.506768,33.517945],[133.506843,33.517758],[133.507194,33.517337],[133.507075,33.516925],[133.507085,33.516754],[133.507214,33.516517],[133.507324,33.516455],[133.507463,33.516463],[133.507706,33.516754],[133.508178,33.516838],[133.508337,33.516942],[133.508362,33.517137],[133.508841,33.51787],[133.508935,33.517841],[133.50901,33.517716],[133.509208,33.517162],[133.509313,33.517033],[133.509695,33.517067],[133.510038,33.516929],[133.510252,33.517004],[133.510341,33.517175],[133.510283,33.517449],[133.510363,33.517691],[133.510507,33.517762],[133.510825,33.51777],[133.510865,33.517849],[133.51075,33.518294],[133.510908,33.518473],[133.510898,33.518578],[133.510749,33.518744],[133.510471,33.51884],[133.51054,33.519085],[133.510496,33.51931],[133.510257,33.519543],[133.509894,33.519764],[133.510763,33.520005],[133.510882,33.520109],[133.510927,33.520238],[133.510798,33.520413],[133.510619,33.520505],[133.509824,33.52065],[133.509605,33.520933],[133.509322,33.521162],[133.509297,33.521241],[133.509913,33.521383],[133.510583,33.521425],[133.510747,33.521558],[133.510767,33.521816],[133.510991,33.521866],[133.51114,33.521978],[133.511169,33.522436],[133.511546,33.522819],[133.511909,33.523901],[133.511999,33.525079],[133.512501,33.523805],[133.512503,33.523481],[133.512548,33.523389],[133.512757,33.523318],[133.513308,33.523377],[133.513219,33.522952],[133.513373,33.522719],[133.513288,33.522586],[133.512985,33.522319],[133.51301,33.522182],[133.513288,33.522124],[133.514054,33.52214],[133.514219,33.522057],[133.514233,33.521966],[133.51396,33.521678],[133.513856,33.52152],[133.513816,33.521337],[133.51391,33.521212],[133.514338,33.520946],[133.514361,33.52075],[133.514277,33.520517],[133.51465,33.520105],[133.514833,33.520101],[133.515171,33.520247],[133.51542,33.520168],[133.515713,33.520426],[133.516071,33.52033],[133.516165,33.52033],[133.516294,33.520417],[133.516309,33.520659],[133.516114,33.521021],[133.516089,33.521262],[133.516014,33.521395],[133.516114,33.521599],[133.516198,33.522003],[133.516312,33.52197],[133.516894,33.521537],[133.517376,33.521383],[133.517556,33.52146],[133.517604,33.521549],[133.517648,33.521713],[133.517604,33.522019],[133.517672,33.522059],[133.518061,33.521979],[133.518463,33.521566],[133.518948,33.521326],[133.519534,33.52132],[133.51984,33.521449],[133.520043,33.521676],[133.520182,33.522042],[133.520317,33.522209],[133.520321,33.522322],[133.52019,33.522525],[133.5198,33.522638],[133.519599,33.522785],[133.51876,33.523584],[133.519015,33.523747],[133.5195,33.523604],[133.519846,33.52365],[133.520084,33.523804],[133.520299,33.52406],[133.520434,33.524017],[133.520824,33.523724],[133.520935,33.523697],[133.521058,33.523774],[133.521143,33.52417],[133.521568,33.524153],[133.521751,33.524203],[133.521791,33.52434],[133.521648,33.524639],[133.521875,33.524896],[133.521855,33.525056],[133.52171,33.525269],[133.5214,33.525565],[133.52134,33.525692],[133.522406,33.525233],[133.523221,33.525229],[133.52345,33.524867],[133.523743,33.524796],[133.523669,33.52443],[133.523689,33.524143],[133.523757,33.523957],[133.523824,33.523917],[133.524198,33.523967],[133.524273,33.523907],[133.524076,33.523064],[133.524068,33.522808],[133.524187,33.522725],[133.524489,33.522702],[133.5248,33.522598],[133.524865,33.522169],[133.524988,33.522165],[133.525274,33.522378],[133.525473,33.522645],[133.525616,33.522958],[133.525584,33.523098],[133.525278,33.523271],[133.525831,33.52376],[133.52591,33.523764],[133.526367,33.522818],[133.526323,33.522252],[133.526416,33.521762],[133.526527,33.521626],[133.526666,33.521613],[133.527147,33.521949],[133.527779,33.521812],[133.527914,33.521932],[133.527958,33.522185],[133.528109,33.522508],[133.528181,33.522535],[133.528558,33.522435],[133.528793,33.522495],[133.528976,33.522665],[133.52905,33.522881],[133.529332,33.522821],[133.529833,33.522428],[133.529949,33.522418],[133.530131,33.522535],[133.530227,33.522735],[133.530189,33.523181],[133.529895,33.523294],[133.529692,33.523511],[133.529358,33.523694],[133.529263,33.523907],[133.528988,33.524163],[133.529044,33.524423],[133.529282,33.524506],[133.529342,33.52457],[133.529473,33.524969],[133.529557,33.525059],[133.529704,33.525019],[133.529744,33.524683],[133.529883,33.52443],[133.530253,33.524346],[133.530388,33.524153],[133.530575,33.52405],[133.530765,33.524037],[133.53102,33.524097],[133.531444,33.523504],[133.531838,33.523201],[133.531933,33.523231],[133.531953,33.523401],[133.532215,33.52372],[133.532315,33.524147],[133.532788,33.52408],[133.533733,33.5242],[133.53376,33.524313],[133.533701,33.524363],[133.533148,33.524586],[133.533073,33.524823],[133.532961,33.524989],[133.53244,33.525395],[133.532433,33.525572],[133.532238,33.525775],[133.532309,33.525978],[133.53219,33.526215],[133.532464,33.526318],[133.532575,33.526411],[133.532389,33.526631],[133.532612,33.52697],[133.532608,33.527144],[133.532394,33.527247],[133.532099,33.527493],[133.531613,33.527643],[133.531577,33.527893],[133.53149,33.528089],[133.531629,33.528099],[133.532074,33.527876],[133.532798,33.527879],[133.532893,33.527939],[133.533317,33.528605],[133.533428,33.528692],[133.533718,33.528372],[133.53371,33.528046],[133.533861,33.527866],[133.533848,33.527423],[133.533932,33.5272],[133.534067,33.52704],[133.534313,33.52696],[133.534333,33.526641],[133.534597,33.525968],[133.534756,33.525652],[133.535101,33.525306],[133.535181,33.525292],[133.535272,33.525352],[133.535241,33.525522],[133.53528,33.525688],[133.535626,33.526131],[133.535761,33.526474],[133.536274,33.526877],[133.53639,33.526045],[133.536362,33.525658],[133.536521,33.525306],[133.536707,33.525149],[133.53664,33.524726],[133.537936,33.523777],[133.53837,33.523634],[133.538994,33.523664],[133.540409,33.523094],[133.54083,33.521982],[133.541319,33.521846],[133.541518,33.521669],[133.541991,33.521546],[133.542413,33.521373],[133.542655,33.52118],[133.542897,33.521113],[133.543446,33.520617],[133.543752,33.520684],[133.543748,33.521083],[133.54414,33.521203],[133.544116,33.521406],[133.543814,33.521706],[133.543722,33.521876],[133.543639,33.522275],[133.543029,33.522692],[133.542795,33.522955],[133.542556,33.523444],[133.542574,33.523614],[133.542683,33.523654],[133.542787,33.523624],[133.543065,33.523461],[133.544266,33.522588],[133.544576,33.522422],[133.54477,33.522422],[133.544853,33.522791],[133.545088,33.523071],[133.545592,33.523344],[133.545162,33.523847],[133.545099,33.524147],[133.544781,33.52425],[133.54463,33.524053],[133.544435,33.52394],[133.544308,33.52393],[133.54387,33.524306],[133.543397,33.52429],[133.543346,33.524436],[133.543524,33.524686],[133.543274,33.525006],[133.54354,33.524992],[133.543691,33.525076],[133.543535,33.525522],[133.543578,33.525725],[133.543622,33.525772],[133.543813,33.525802],[133.543968,33.525758],[133.544628,33.525229],[133.545018,33.525179],[133.545141,33.525252],[133.545117,33.525542],[133.545177,33.525692],[133.545292,33.525815],[133.545682,33.526061],[133.546006,33.526001],[133.546404,33.526021],[133.546498,33.526421],[133.546633,33.526557],[133.547412,33.526574],[133.547695,33.526691],[133.547621,33.526826],[133.54737,33.526972],[133.547256,33.527114],[133.546887,33.527134],[133.54668,33.527212],[133.54622,33.527783],[133.545922,33.528026],[133.545603,33.528379],[133.54542,33.528326],[133.545209,33.528429],[133.544955,33.528426],[133.544609,33.528579],[133.544637,33.528715],[133.545034,33.528745],[133.545941,33.528935],[133.546,33.529091],[133.546155,33.529105],[133.546287,33.529025],[133.54616,33.529371],[133.546124,33.529661],[133.546041,33.529754],[133.546017,33.529874],[133.545858,33.529904],[133.545734,33.529741],[133.545599,33.530094],[133.545516,33.530187],[133.545357,33.530254],[133.545305,33.53024],[133.545277,33.530154],[133.545305,33.529877],[133.54523,33.529814],[133.545039,33.529841],[133.545023,33.530004],[133.544919,33.530157],[133.544719,33.530174],[133.544814,33.53028],[133.544687,33.530297],[133.544719,33.530394],[133.544679,33.530487],[133.544357,33.530697],[133.544351,33.530853],[133.544252,33.531056],[133.544276,33.531169],[133.544439,33.531386],[133.544777,33.531622],[133.545401,33.531842],[133.54552,33.531925],[133.545691,33.532182],[133.545748,33.532671],[133.545728,33.532934],[133.545416,33.534336],[133.545373,33.534393],[133.545237,33.534426],[133.544228,33.534396],[133.544185,33.534616],[133.543967,33.534962],[133.543494,33.535405],[133.543398,33.535415],[133.542913,33.535345],[133.542865,33.535305],[133.542754,33.534915],[133.542507,33.534895],[133.541863,33.535478],[133.540682,33.535515],[133.540086,33.535222],[133.539768,33.535352],[133.538774,33.535358],[133.538484,33.535248],[133.538297,33.534902],[133.537492,33.53419],[133.536872,33.534546],[133.537164,33.534832],[133.536989,33.535129],[133.536337,33.535365],[133.535764,33.535358],[133.53495,33.535119],[133.534433,33.535148],[133.533562,33.535044],[133.533449,33.535216],[133.534508,33.536071],[133.535203,33.536098],[133.536054,33.536271],[133.536794,33.536331],[133.537537,33.53652],[133.538078,33.53672],[133.538994,33.536767],[133.539273,33.536943],[133.539746,33.536993],[133.539981,33.537173],[133.540012,33.537716],[133.540472,33.538392],[133.540392,33.538781],[133.539846,33.539174],[133.539754,33.539587],[133.539225,33.540143],[133.53874,33.540453],[133.538302,33.540553],[133.537461,33.54055],[133.536992,33.540689],[133.536801,33.540623],[133.536738,33.54056],[133.536694,33.540296],[133.53638,33.540103],[133.535625,33.54],[133.534856,33.539997],[133.534709,33.540023],[133.534421,33.540217],[133.534444,33.54053],[133.535104,33.541106],[133.535775,33.542797],[133.536081,33.543187],[133.536296,33.543367],[133.536427,33.5436],[133.536439,33.544109],[133.536555,33.544512],[133.536528,33.544882],[133.536675,33.545255],[133.536659,33.545458],[133.536814,33.545894],[133.536548,33.545997],[133.536425,33.54614],[133.536465,33.546936],[133.536401,33.547236],[133.536966,33.547902],[133.537011,33.548341],[133.537142,33.548508],[133.537405,33.548591],[133.538435,33.548644],[133.540443,33.550765],[133.540772,33.551255],[133.540792,33.551565],[133.540736,33.551635],[133.54012,33.551841],[133.539488,33.551888],[133.539285,33.551688],[133.539093,33.551665]]],[[[133.56239,33.497691],[133.562414,33.498094],[133.561388,33.498916],[133.56086,33.498859],[133.560713,33.498437],[133.56086,33.49811],[133.560876,33.497831],[133.560727,33.497556],[133.560426,33.497574],[133.560136,33.497474],[133.559997,33.497691],[133.55985,33.497737],[133.559349,33.497641],[133.559055,33.497641],[133.558873,33.497767],[133.558602,33.49828],[133.558503,33.498367],[133.558308,33.49842],[133.558137,33.498377],[133.558022,33.49822],[133.557911,33.497754],[133.55795,33.497368],[133.558002,33.497251],[133.558161,33.497121],[133.558459,33.497261],[133.559119,33.497418],[133.560899,33.497261],[133.561798,33.497121],[133.562008,33.497161],[133.562116,33.497238],[133.562338,33.497521],[133.56239,33.497691]]],[[[133.554022,33.511353],[133.55375,33.511352],[133.553699,33.51107],[133.553549,33.510991],[133.553518,33.510911],[133.553732,33.510976],[133.553798,33.510952],[133.553885,33.511042],[133.554079,33.511104],[133.554088,33.51131],[133.554022,33.511353]]],[[[133.55318,33.51488],[133.553351,33.514953],[133.553393,33.515011],[133.553367,33.515104],[133.553225,33.515121],[133.552978,33.515028],[133.552836,33.514922],[133.552925,33.514854],[133.55318,33.51488]]],[[[133.549043,33.516073],[133.548938,33.516143],[133.548848,33.516316],[133.54885,33.516521],[133.548791,33.516657],[133.5485,33.516909],[133.548244,33.516954],[133.548094,33.517042],[133.547843,33.517361],[133.547605,33.517534],[133.547543,33.517223],[133.547777,33.517067],[133.54809,33.516768],[133.548436,33.516555],[133.548508,33.516285],[133.548655,33.516009],[133.548682,33.515559],[133.548982,33.515073],[133.548931,33.513771],[133.549055,33.513601],[133.549906,33.513045],[133.550123,33.512702],[133.550278,33.512589],[133.550188,33.512206],[133.550276,33.512136],[133.550554,33.511463],[133.550399,33.511237],[133.550128,33.51119],[133.549889,33.511243],[133.550231,33.51109],[133.550728,33.510734],[133.551134,33.510338],[133.55195,33.509885],[133.552642,33.509379],[133.55306,33.509009],[133.553287,33.508736],[133.554556,33.50788],[133.554763,33.507814],[133.555862,33.50779],[133.555802,33.506898],[133.555694,33.506405],[133.556091,33.506525],[133.556592,33.506578],[133.556866,33.506395],[133.557435,33.506435],[133.557691,33.506485],[133.557762,33.506711],[133.557993,33.506758],[133.558267,33.506685],[133.558681,33.506691],[133.558768,33.506951],[133.55914,33.507085],[133.559372,33.50725],[133.559509,33.507291],[133.559451,33.50758],[133.559355,33.50773],[133.559349,33.507879],[133.559571,33.508257],[133.559718,33.508396],[133.559666,33.508476],[133.559426,33.508575],[133.559107,33.508617],[133.55864,33.508839],[133.558876,33.509216],[133.558422,33.50942],[133.558442,33.50951],[133.558288,33.509532],[133.558183,33.509635],[133.557943,33.509574],[133.557923,33.509471],[133.557809,33.509356],[133.557548,33.509354],[133.556953,33.509488],[133.556373,33.509915],[133.556203,33.509943],[133.555853,33.509816],[133.555758,33.509612],[133.555574,33.509494],[133.554777,33.509735],[133.554419,33.509536],[133.554277,33.509554],[133.55392,33.509716],[133.55355,33.510006],[133.553287,33.510395],[133.553279,33.510792],[133.552842,33.510275],[133.551992,33.510919],[133.5514,33.511238],[133.551094,33.51127],[133.550909,33.511364],[133.55084,33.511537],[133.55083,33.511792],[133.550988,33.512023],[133.551242,33.512131],[133.551195,33.512248],[133.551263,33.512382],[133.551131,33.512676],[133.551198,33.512864],[133.55131,33.512995],[133.551302,33.513101],[133.551375,33.51324],[133.551252,33.513342],[133.550794,33.513194],[133.550549,33.513431],[133.550543,33.513502],[133.550598,33.513514],[133.550566,33.5136],[133.549966,33.513582],[133.549772,33.513667],[133.549638,33.513816],[133.549334,33.514252],[133.549129,33.514694],[133.549177,33.515379],[133.549149,33.515575],[133.549321,33.515856],[133.549293,33.516021],[133.549043,33.516073]]]]}}]}
