{"type":"FeatureCollection","features":[{"type":"Feature","properties":{"potaRef":"JP-1778","nameJa":"Irabu","nameEn":"Irabu Prefectural Nature Park","authority":"環境省 生物多様性「見える化」マップ","boundaryStatus":"全国GIS候補・公開前検証待ち","boundarySource":"環境省 生物多様性「見える化」マップの自然公園区域を、POTA代表座標で一意に空間照合して加工","boundaryScaleNote":"区域は概要データであり、正確性は保証されない。POTA運用可否は公式情報で最終確認すること。","candidateMethod":"POTA representative point inside one public natural-park area","sourceParkKind":"都道府県立自然公園","sourceName":"Irabu","sourceFeatureCount":1,"cautionMeters":75},"geometry":{"type":"MultiPolygon","coordinates":[[[[125.193299,24.863467],[125.189204,24.865957],[125.185543,24.868447],[125.184571,24.869031],[125.182968,24.869894],[125.18188,24.870315],[125.180149,24.870836],[125.179518,24.870969],[125.178375,24.871062],[125.17794,24.871148],[125.176657,24.871591],[125.17589,24.87198],[125.173731,24.87286],[125.172068,24.87342],[125.168914,24.873988],[125.166043,24.874743],[125.164286,24.874922],[125.162425,24.874891],[125.160582,24.874626],[125.159738,24.874377],[125.158815,24.874042],[125.157997,24.873669],[125.156726,24.872859],[125.155839,24.872058],[125.154819,24.870968],[125.153301,24.869187],[125.152679,24.8683],[125.151367,24.866828],[125.15065,24.865949],[125.150258,24.865366],[125.149832,24.864494],[125.149443,24.863506],[125.146467,24.86342],[125.142464,24.863177],[125.140823,24.86314],[125.140468,24.863559],[125.140222,24.863584],[125.13983,24.863504],[125.138718,24.863087],[125.137804,24.862595],[125.13718,24.862177],[125.136443,24.861543],[125.13587,24.860858],[125.135149,24.85988],[125.134017,24.857988],[125.132515,24.855185],[125.132089,24.854254],[125.131833,24.853467],[125.131683,24.852705],[125.131647,24.852003],[125.131885,24.851988],[125.132474,24.852081],[125.158724,24.856544],[125.161018,24.850081],[125.155849,24.846712],[125.130629,24.845579],[125.130526,24.845435],[125.1304,24.844795],[125.130298,24.844025],[125.130281,24.843103],[125.128933,24.842183],[125.127435,24.840816],[125.126956,24.840283],[125.126459,24.839556],[125.126088,24.838865],[125.125536,24.837297],[125.125365,24.836468],[125.125184,24.834879],[125.125127,24.8307],[125.125263,24.829003],[125.125226,24.828306],[125.124992,24.8268],[125.124892,24.825833],[125.124884,24.824884],[125.125075,24.822918],[125.125319,24.821933],[125.126163,24.819695],[125.127321,24.817414],[125.128084,24.815622],[125.12847,24.814658],[125.128777,24.813499],[125.129644,24.811377],[125.130399,24.810232],[125.131683,24.808613],[125.13337,24.806843],[125.13389,24.80621],[125.134576,24.805008],[125.135213,24.80341],[125.135978,24.802007],[125.137176,24.800539],[125.1385,24.799244],[125.139044,24.798863],[125.14079,24.798013],[125.143146,24.797308],[125.146527,24.796653],[125.14753,24.796372],[125.149847,24.795545],[125.152167,24.7952],[125.153207,24.794984],[125.154176,24.794689],[125.157653,24.793185],[125.158544,24.792883],[125.1596,24.792674],[125.160427,24.792595],[125.161373,24.79253],[125.162256,24.792537],[125.165072,24.792681],[125.167042,24.792998],[125.167869,24.793228],[125.173103,24.794401],[125.174064,24.794739],[125.162848,24.802595],[125.162919,24.802659],[125.163008,24.802603],[125.163453,24.802593],[125.163606,24.802488],[125.163669,24.80259],[125.163988,24.802746],[125.164056,24.802884],[125.164104,24.802841],[125.164115,24.802672],[125.164156,24.802728],[125.164334,24.80269],[125.164481,24.802491],[125.164564,24.802452],[125.164679,24.802529],[125.164612,24.802752],[125.164919,24.802821],[125.164973,24.802795],[125.16509,24.802872],[125.165166,24.803032],[125.165299,24.803023],[125.165486,24.802817],[125.165559,24.802953],[125.165622,24.802904],[125.165611,24.802826],[125.165729,24.802811],[125.165793,24.802987],[125.165798,24.80319],[125.165841,24.803217],[125.166252,24.803127],[125.166237,24.803032],[125.16629,24.802984],[125.166514,24.80308],[125.166779,24.803089],[125.166921,24.803207],[125.166959,24.803339],[125.167038,24.803394],[125.167042,24.803565],[125.167129,24.803523],[125.167152,24.803315],[125.167322,24.803222],[125.167307,24.803115],[125.167367,24.802989],[125.167586,24.803214],[125.167628,24.80352],[125.167751,24.803559],[125.167978,24.803561],[125.168129,24.803508],[125.168163,24.803436],[125.16807,24.803277],[125.168114,24.803128],[125.168225,24.80306],[125.168494,24.803028],[125.168759,24.803491],[125.168777,24.803671],[125.168843,24.803621],[125.168866,24.80374],[125.168954,24.803791],[125.169046,24.803596],[125.169297,24.803371],[125.169454,24.803303],[125.1695,24.80378],[125.169411,24.803969],[125.169458,24.804008],[125.169436,24.804123],[125.169491,24.804162],[125.169528,24.804327],[125.169423,24.804581],[125.169451,24.804615],[125.169494,24.804609],[125.169621,24.80425],[125.16974,24.8041],[125.169718,24.803978],[125.169782,24.803829],[125.169871,24.803762],[125.170065,24.803773],[125.170166,24.80355],[125.170245,24.803626],[125.170353,24.803623],[125.170419,24.803556],[125.170479,24.803678],[125.170429,24.80373],[125.170486,24.803775],[125.170483,24.803948],[125.170565,24.80407],[125.170913,24.804006],[125.170974,24.803932],[125.171019,24.803966],[125.171031,24.804108],[125.170937,24.804349],[125.17079,24.804504],[125.170783,24.804577],[125.170852,24.80457],[125.170843,24.804676],[125.170935,24.804638],[125.170988,24.804465],[125.171049,24.804438],[125.171203,24.804472],[125.171256,24.804607],[125.171466,24.804538],[125.171595,24.804709],[125.171664,24.804722],[125.171703,24.804689],[125.171645,24.804622],[125.171721,24.804552],[125.171705,24.804434],[125.171789,24.804392],[125.171849,24.804494],[125.171774,24.804596],[125.171752,24.804778],[125.171698,24.804819],[125.171714,24.80489],[125.171645,24.805001],[125.171688,24.80501],[125.171681,24.805146],[125.171767,24.805192],[125.17184,24.805143],[125.17191,24.805165],[125.172003,24.805009],[125.172193,24.804983],[125.172296,24.805073],[125.172267,24.805315],[125.172575,24.805391],[125.172504,24.805427],[125.172522,24.805458],[125.172622,24.805463],[125.172707,24.805393],[125.172788,24.80544],[125.172935,24.805365],[125.17301,24.805397],[125.173012,24.805497],[125.173113,24.805523],[125.173078,24.805662],[125.173132,24.80567],[125.173073,24.805842],[125.173116,24.805944],[125.172989,24.806155],[125.173015,24.806246],[125.173268,24.806384],[125.173455,24.806413],[125.173473,24.806223],[125.17355,24.806147],[125.173645,24.806135],[125.173693,24.806272],[125.17364,24.806344],[125.173741,24.806304],[125.173735,24.806343],[125.173825,24.806391],[125.173692,24.806596],[125.173848,24.806502],[125.173946,24.806624],[125.173885,24.806725],[125.173863,24.80697],[125.17377,24.807066],[125.173951,24.807186],[125.174192,24.806857],[125.174212,24.806938],[125.174319,24.806934],[125.174267,24.807187],[125.174373,24.807133],[125.174403,24.80722],[125.174457,24.807215],[125.174438,24.807393],[125.174471,24.807458],[125.174547,24.807441],[125.174486,24.807517],[125.174575,24.807541],[125.17456,24.807616],[125.174649,24.807584],[125.174674,24.807686],[125.174638,24.807757],[125.174752,24.807738],[125.174648,24.808017],[125.174685,24.808062],[125.174802,24.807993],[125.174713,24.80821],[125.174915,24.808298],[125.175271,24.808302],[125.175248,24.808482],[125.175119,24.808503],[125.174992,24.808431],[125.174904,24.808475],[125.174843,24.808618],[125.17497,24.809114],[125.17515,24.809288],[125.175161,24.809371],[125.175274,24.809317],[125.175347,24.809358],[125.175233,24.809553],[125.175076,24.809532],[125.174934,24.809421],[125.174811,24.80964],[125.174876,24.810238],[125.17498,24.810454],[125.175242,24.810703],[125.175696,24.810998],[125.176086,24.811165],[125.176399,24.811199],[125.176655,24.811156],[125.176618,24.811006],[125.176778,24.810974],[125.176781,24.810897],[125.176903,24.810869],[125.176999,24.810464],[125.177073,24.810378],[125.177259,24.810411],[125.17728,24.810658],[125.177183,24.810674],[125.177271,24.810911],[125.17733,24.810955],[125.177277,24.811225],[125.177164,24.811251],[125.177041,24.811373],[125.176861,24.811324],[125.176793,24.811356],[125.176563,24.812046],[125.175845,24.813228],[125.17565,24.813737],[125.174768,24.813783],[125.174551,24.813883],[125.173621,24.814517],[125.175308,24.816095],[125.175614,24.816297],[125.176285,24.816591],[125.176398,24.816527],[125.176497,24.815111],[125.176402,24.814618],[125.176166,24.814417],[125.176256,24.814309],[125.176148,24.814265],[125.176085,24.814304],[125.176053,24.814255],[125.176092,24.814119],[125.176032,24.814107],[125.176046,24.814041],[125.176134,24.81405],[125.176167,24.813645],[125.176222,24.813576],[125.17618,24.813498],[125.17654,24.812977],[125.176565,24.812824],[125.176718,24.812698],[125.176764,24.812795],[125.177109,24.812433],[125.177116,24.81235],[125.177504,24.811818],[125.177654,24.811175],[125.17774,24.810991],[125.177667,24.81098],[125.177673,24.810921],[125.177731,24.810884],[125.177726,24.810818],[125.177798,24.810832],[125.177806,24.810768],[125.177869,24.81079],[125.177923,24.810729],[125.178079,24.810789],[125.178317,24.81074],[125.1784,24.8108],[125.178466,24.810765],[125.178509,24.81078],[125.178481,24.810812],[125.178588,24.810815],[125.178589,24.810871],[125.178318,24.810849],[125.178012,24.810904],[125.178104,24.811296],[125.178202,24.811467],[125.178393,24.811645],[125.17864,24.811768],[125.179016,24.811866],[125.179763,24.811941],[125.181992,24.811938],[125.182392,24.81188],[125.182481,24.811647],[125.182602,24.811641],[125.18264,24.811682],[125.182751,24.811654],[125.182851,24.811494],[125.182925,24.811477],[125.182993,24.811488],[125.183078,24.811591],[125.183076,24.811673],[125.183232,24.811692],[125.183504,24.811503],[125.183612,24.811288],[125.183647,24.811399],[125.183728,24.811438],[125.183663,24.811371],[125.183706,24.811252],[125.183764,24.811226],[125.183776,24.81127],[125.183817,24.811244],[125.183882,24.811403],[125.184146,24.811433],[125.184288,24.811306],[125.184321,24.811211],[125.184733,24.811057],[125.184732,24.810962],[125.184625,24.81087],[125.184629,24.810805],[125.184755,24.810849],[125.184752,24.810933],[125.184813,24.810866],[125.184903,24.810932],[125.185068,24.810816],[125.185158,24.810881],[125.185306,24.810821],[125.185341,24.810712],[125.185268,24.810614],[125.185268,24.810522],[125.185377,24.810508],[125.185407,24.810443],[125.185489,24.810484],[125.185491,24.81043],[125.18553,24.810464],[125.185641,24.810443],[125.185695,24.810375],[125.186014,24.810254],[125.186,24.81016],[125.18607,24.810138],[125.186135,24.809927],[125.186382,24.809911],[125.186702,24.809772],[125.186735,24.80972],[125.18667,24.809671],[125.186647,24.809538],[125.186735,24.80942],[125.186863,24.809486],[125.186849,24.809408],[125.186961,24.809387],[125.187045,24.809464],[125.187133,24.809465],[125.187211,24.809385],[125.187162,24.809247],[125.187415,24.808928],[125.187485,24.808908],[125.187546,24.809022],[125.187791,24.809156],[125.187855,24.809265],[125.188203,24.80912],[125.188171,24.809022],[125.18813,24.809016],[125.188155,24.808824],[125.188079,24.808819],[125.1881,24.808707],[125.18819,24.808645],[125.188359,24.808629],[125.188382,24.808585],[125.188599,24.808763],[125.188524,24.808562],[125.18865,24.808385],[125.188666,24.808234],[125.188724,24.808175],[125.188912,24.80835],[125.188939,24.80859],[125.189024,24.808602],[125.189388,24.808499],[125.189494,24.808394],[125.189657,24.808344],[125.189915,24.808176],[125.189833,24.808033],[125.189647,24.807897],[125.189626,24.80779],[125.18969,24.807759],[125.18977,24.807813],[125.190026,24.807818],[125.190138,24.80776],[125.190283,24.807475],[125.19037,24.807849],[125.190357,24.808024],[125.190515,24.808075],[125.191305,24.807958],[125.191526,24.807868],[125.191565,24.807765],[125.191697,24.807772],[125.192191,24.807551],[125.192279,24.807468],[125.192287,24.807374],[125.192062,24.807178],[125.192156,24.80709],[125.192269,24.807116],[125.192269,24.807166],[125.192374,24.807213],[125.192431,24.807163],[125.192407,24.807082],[125.19254,24.80699],[125.192251,24.806768],[125.192291,24.806658],[125.192148,24.80643],[125.192185,24.806336],[125.192499,24.806573],[125.192571,24.806541],[125.192578,24.80645],[125.192699,24.806346],[125.192918,24.806219],[125.193072,24.80633],[125.19306,24.806383],[125.193185,24.806589],[125.193186,24.806768],[125.193393,24.806742],[125.193607,24.806633],[125.19352,24.806453],[125.193516,24.806126],[125.193613,24.806075],[125.193593,24.805953],[125.193641,24.805851],[125.193723,24.806024],[125.193811,24.806025],[125.193885,24.806137],[125.19389,24.80647],[125.19393,24.806551],[125.194209,24.806508],[125.194275,24.806437],[125.194382,24.806448],[125.194433,24.806344],[125.194334,24.806239],[125.194257,24.806032],[125.194269,24.805892],[125.194339,24.80588],[125.194339,24.805722],[125.194495,24.805788],[125.194568,24.805893],[125.194559,24.806024],[125.194613,24.805898],[125.194663,24.80591],[125.194812,24.806226],[125.194921,24.806212],[125.194997,24.806288],[125.195082,24.806256],[125.195294,24.806034],[125.194962,24.805762],[125.194968,24.805558],[125.195078,24.805563],[125.194927,24.805348],[125.194933,24.805199],[125.195201,24.80546],[125.195136,24.805493],[125.195243,24.805518],[125.195261,24.805586],[125.195388,24.8056],[125.195415,24.805674],[125.195501,24.805582],[125.195751,24.805548],[125.195824,24.805614],[125.195916,24.805569],[125.195975,24.80562],[125.195966,24.805696],[125.196107,24.805685],[125.19612,24.805592],[125.196232,24.805552],[125.196249,24.805409],[125.196565,24.805513],[125.196609,24.805646],[125.196726,24.805765],[125.196792,24.805717],[125.196767,24.805623],[125.196822,24.80555],[125.196863,24.805545],[125.196938,24.805659],[125.196916,24.805493],[125.197083,24.805542],[125.19714,24.805675],[125.197478,24.805658],[125.197738,24.805574],[125.197938,24.805426],[125.197826,24.805298],[125.197947,24.805301],[125.197968,24.805374],[125.198084,24.805415],[125.198111,24.80535],[125.198168,24.805363],[125.198271,24.805286],[125.198358,24.805024],[125.198414,24.805008],[125.198584,24.805141],[125.198899,24.806301],[125.199497,24.806306],[125.199981,24.806189],[125.200337,24.805973],[125.200842,24.805412],[125.200976,24.805353],[125.201129,24.805359],[125.201432,24.805743],[125.201777,24.806017],[125.203457,24.805807],[125.203725,24.805727],[125.204079,24.805538],[125.204254,24.805872],[125.204701,24.805742],[125.205438,24.805623],[125.205315,24.804847],[125.205308,24.804291],[125.205327,24.804208],[125.205439,24.804185],[125.205618,24.804233],[125.20578,24.80446],[125.205735,24.804582],[125.205783,24.804572],[125.205808,24.804636],[125.205695,24.804756],[125.205755,24.804789],[125.205761,24.804897],[125.205817,24.804919],[125.205866,24.804864],[125.205912,24.804944],[125.206019,24.804955],[125.20606,24.80504],[125.206097,24.805003],[125.206195,24.805056],[125.206355,24.804984],[125.206419,24.805083],[125.206489,24.805096],[125.206704,24.804975],[125.20665,24.804903],[125.206752,24.804839],[125.206753,24.804744],[125.206941,24.804674],[125.207192,24.805015],[125.20719,24.805148],[125.207352,24.804974],[125.207429,24.804956],[125.207574,24.805163],[125.207716,24.805104],[125.207734,24.804988],[125.207823,24.805014],[125.207902,24.80495],[125.207884,24.804852],[125.207843,24.804872],[125.207851,24.804951],[125.207807,24.804948],[125.207836,24.804832],[125.207952,24.804828],[125.208004,24.804735],[125.208148,24.804686],[125.208194,24.804745],[125.20819,24.805019],[125.208316,24.805212],[125.208505,24.805214],[125.208556,24.80513],[125.208651,24.80511],[125.209173,24.805182],[125.209246,24.805277],[125.209241,24.805362],[125.209356,24.805488],[125.209528,24.805492],[125.209521,24.805384],[125.20956,24.805364],[125.209758,24.80543],[125.209821,24.805607],[125.210046,24.805634],[125.210241,24.805557],[125.210201,24.805446],[125.210309,24.805497],[125.210467,24.805484],[125.210557,24.805509],[125.210599,24.805647],[125.210662,24.805583],[125.210867,24.805605],[125.210947,24.805785],[125.211077,24.805766],[125.211112,24.805656],[125.21122,24.805622],[125.211275,24.805647],[125.21126,24.805746],[125.211305,24.805781],[125.211361,24.805669],[125.211528,24.805668],[125.211741,24.805793],[125.211753,24.805936],[125.212016,24.805916],[125.212124,24.805976],[125.212157,24.805904],[125.212342,24.805895],[125.212509,24.805977],[125.212508,24.80607],[125.212588,24.806108],[125.212573,24.806239],[125.213009,24.806348],[125.213058,24.80625],[125.213134,24.806257],[125.213246,24.806448],[125.213327,24.806498],[125.213787,24.806512],[125.21388,24.806444],[125.213841,24.806374],[125.214003,24.806394],[125.214069,24.80646],[125.214068,24.806665],[125.21413,24.806705],[125.214663,24.806752],[125.215031,24.806671],[125.215468,24.806748],[125.215808,24.806661],[125.216396,24.806798],[125.217034,24.807367],[125.217454,24.807936],[125.218066,24.80833],[125.218327,24.808613],[125.21879,24.808933],[125.219002,24.809272],[125.219163,24.80982],[125.219736,24.810176],[125.219939,24.810678],[125.220144,24.810683],[125.220182,24.811016],[125.220312,24.811234],[125.220385,24.811592],[125.220501,24.811832],[125.220902,24.812359],[125.220965,24.812649],[125.22105,24.812803],[125.221231,24.812927],[125.221287,24.812863],[125.221462,24.812845],[125.221465,24.812937],[125.221339,24.813044],[125.221248,24.813365],[125.221328,24.813813],[125.221507,24.814005],[125.221686,24.813929],[125.221725,24.81398],[125.221885,24.814011],[125.221799,24.814181],[125.221299,24.814581],[125.221268,24.815168],[125.221057,24.815618],[125.220776,24.815957],[125.220639,24.816671],[125.22065,24.816934],[125.220592,24.81705],[125.220588,24.817289],[125.220672,24.817377],[125.220719,24.817546],[125.220705,24.817885],[125.220769,24.818012],[125.220708,24.8182],[125.220771,24.818245],[125.220781,24.818376],[125.2209,24.818533],[125.220848,24.818718],[125.220941,24.818786],[125.220902,24.818859],[125.220909,24.818961],[125.220969,24.819024],[125.220925,24.819344],[125.221101,24.819457],[125.221083,24.819677],[125.22125,24.820037],[125.221152,24.820131],[125.221225,24.820164],[125.22128,24.820373],[125.221253,24.820415],[125.221325,24.820452],[125.221294,24.820682],[125.221141,24.820951],[125.221266,24.820929],[125.221294,24.821246],[125.221175,24.821391],[125.221255,24.821404],[125.221307,24.82149],[125.221226,24.821786],[125.221096,24.821956],[125.221184,24.822028],[125.221172,24.822114],[125.221015,24.82228],[125.221119,24.82233],[125.221172,24.822521],[125.221012,24.822584],[125.221122,24.82263],[125.221099,24.822682],[125.221169,24.822664],[125.221167,24.822747],[125.221036,24.822825],[125.221096,24.822989],[125.220856,24.823187],[125.220949,24.823358],[125.220758,24.823421],[125.220747,24.823516],[125.220673,24.823511],[125.220776,24.82371],[125.220904,24.823613],[125.221038,24.82362],[125.221114,24.82367],[125.221152,24.823799],[125.220987,24.823893],[125.220893,24.824055],[125.220748,24.824153],[125.220646,24.824412],[125.220562,24.824472],[125.220527,24.824618],[125.220458,24.824604],[125.22048,24.824559],[125.220421,24.824584],[125.220397,24.824655],[125.220501,24.824747],[125.220491,24.824859],[125.220373,24.824881],[125.220381,24.824998],[125.22032,24.825093],[125.219941,24.825428],[125.219986,24.825646],[125.219933,24.825753],[125.219906,24.825696],[125.2199,24.826134],[125.219298,24.827187],[125.219357,24.827324],[125.219543,24.827399],[125.219457,24.827598],[125.219274,24.827812],[125.219323,24.828063],[125.220085,24.827373],[125.229287,24.818478],[125.230131,24.819591],[125.230498,24.820159],[125.231,24.821264],[125.231196,24.821856],[125.231324,24.822828],[125.231315,24.824353],[125.231097,24.826167],[125.23085,24.827279],[125.230535,24.828057],[125.229617,24.829684],[125.228679,24.831482],[125.228143,24.832751],[125.227725,24.833536],[125.227051,24.83447],[125.226753,24.834805],[125.225924,24.836112],[125.225796,24.8364],[125.225591,24.837279],[125.224827,24.839575],[125.224307,24.840844],[125.223616,24.842813],[125.223113,24.843879],[125.221513,24.846821],[125.219972,24.849288],[125.219188,24.850167],[125.217556,24.851825],[125.216285,24.853334],[125.215748,24.853746],[125.213841,24.854844],[125.212758,24.855365],[125.21182,24.855684],[125.210311,24.856081],[125.209729,24.856331],[125.207648,24.857646],[125.206863,24.858066],[125.204749,24.858999],[125.202996,24.859537],[125.202322,24.859646],[125.199994,24.860315],[125.197155,24.861287],[125.196327,24.861724],[125.194365,24.862642],[125.193299,24.863467]],[[125.211869,24.843353],[125.212032,24.843949],[125.212176,24.844944],[125.212482,24.84622],[125.219045,24.847315],[125.221856,24.833672],[125.215455,24.832273],[125.211869,24.843353]],[[125.143786,24.841201],[125.143748,24.841194],[125.143968,24.840362],[125.146398,24.831484],[125.149382,24.832171],[125.150043,24.83196],[125.150916,24.831782],[125.153196,24.830722],[125.153514,24.830712],[125.155138,24.831211],[125.159731,24.813503],[125.159559,24.813411],[125.153181,24.811957],[125.152266,24.811647],[125.152136,24.811517],[125.151992,24.811218],[125.151986,24.811025],[125.152588,24.808957],[125.151132,24.808616],[125.150992,24.807484],[125.149148,24.807508],[125.148344,24.808501],[125.147539,24.80832],[125.147466,24.808338],[125.143961,24.821248],[125.143873,24.821401],[125.143445,24.821306],[125.143151,24.822355],[125.144452,24.822647],[125.140834,24.835997],[125.13996,24.83714],[125.138937,24.839137],[125.139848,24.841779],[125.139744,24.842132],[125.13981,24.842229],[125.140682,24.842423],[125.140675,24.842516],[125.140702,24.842428],[125.141615,24.842623],[125.141693,24.842568],[125.141783,24.842204],[125.14235,24.841542],[125.14355,24.841815],[125.14363,24.841733],[125.143725,24.841278],[125.143766,24.841288],[125.143786,24.841201]]]]}}]}
