{"type":"FeatureCollection","features":[{"type":"Feature","properties":{"potaRef":"JP-1063","nameJa":"Moriyoshi zan","nameEn":"Moriyoshizan Prefectural Nature Park","authority":"環境省 生物多様性「見える化」マップ","boundaryStatus":"全国GIS候補・公開前検証待ち","boundarySource":"環境省 生物多様性「見える化」マップの自然公園区域を、POTA代表座標で一意に空間照合して加工","boundaryScaleNote":"区域は概要データであり、正確性は保証されない。POTA運用可否は公式情報で最終確認すること。","candidateMethod":"POTA representative point inside one public natural-park area","sourceParkKind":"都道府県立自然公園","sourceName":"Moriyoshi zan","sourceFeatureCount":1,"cautionMeters":75},"geometry":{"type":"MultiPolygon","coordinates":[[[[140.648926,40.062324],[140.648551,40.062443],[140.647655,40.063103],[140.647311,40.06344],[140.647262,40.063577],[140.64729,40.063769],[140.647168,40.063943],[140.647046,40.063957],[140.646872,40.063895],[140.646616,40.063731],[140.64607,40.063054],[140.64523,40.062432],[140.644886,40.062055],[140.644651,40.061665],[140.64435,40.061357],[140.643428,40.060833],[140.642903,40.060429],[140.642551,40.060082],[140.641885,40.059254],[140.641492,40.058556],[140.641116,40.058127],[140.640868,40.058082],[140.640137,40.058404],[140.639629,40.058522],[140.639258,40.058515],[140.638759,40.058375],[140.638474,40.058167],[140.638358,40.057971],[140.638024,40.057102],[140.637865,40.056815],[140.637596,40.056719],[140.637339,40.056832],[140.637191,40.056987],[140.636462,40.058063],[140.636106,40.058161],[140.635923,40.058291],[140.635953,40.058354],[140.636349,40.058511],[140.637206,40.059026],[140.637241,40.059082],[140.637178,40.059162],[140.636803,40.059336],[140.636325,40.058871],[140.636075,40.058758],[140.635876,40.058791],[140.635557,40.05895],[140.63515,40.058942],[140.633625,40.05853],[140.633298,40.058512],[140.632895,40.058602],[140.632469,40.058815],[140.631971,40.059145],[140.631539,40.059642],[140.631462,40.059796],[140.631394,40.059989],[140.631358,40.060431],[140.63145,40.061378],[140.6314,40.061665],[140.631294,40.061863],[140.630976,40.062078],[140.629896,40.062618],[140.628842,40.063483],[140.628416,40.06354],[140.628159,40.06347],[140.627916,40.063341],[140.627608,40.062978],[140.627573,40.062827],[140.627648,40.062575],[140.627917,40.062357],[140.628195,40.062247],[140.628348,40.062096],[140.628258,40.061937],[140.627943,40.061759],[140.627874,40.061779],[140.626512,40.063571],[140.626287,40.063823],[140.626226,40.063838],[140.624585,40.063334],[140.62434,40.063175],[140.624427,40.063022],[140.625238,40.062238],[140.625548,40.061817],[140.625368,40.061412],[140.62537,40.0612],[140.625413,40.061005],[140.62567,40.060525],[140.625474,40.060138],[140.625282,40.060175],[140.62516,40.060065],[140.625538,40.059394],[140.625609,40.058893],[140.625573,40.058715],[140.625482,40.058591],[140.625362,40.058572],[140.625159,40.058675],[140.625079,40.058605],[140.624929,40.057661],[140.624917,40.057295],[140.624769,40.056486],[140.624625,40.056022],[140.624542,40.055833],[140.624262,40.055468],[140.624065,40.055074],[140.623934,40.054596],[140.62376,40.054438],[140.623507,40.054325],[140.623306,40.054326],[140.623164,40.054481],[140.623035,40.055327],[140.622898,40.055416],[140.622548,40.055497],[140.622452,40.055573],[140.622418,40.055804],[140.6225,40.056112],[140.622439,40.056304],[140.622295,40.056442],[140.622094,40.056529],[140.621566,40.056586],[140.620988,40.056461],[140.620717,40.056473],[140.618632,40.057445],[140.61848,40.057476],[140.618305,40.057442],[140.618039,40.05723],[140.617871,40.056957],[140.617623,40.056227],[140.617546,40.056075],[140.617416,40.055991],[140.61719,40.055948],[140.616908,40.055976],[140.616012,40.056154],[140.614582,40.056567],[140.614173,40.056833],[140.614092,40.056927],[140.614001,40.057181],[140.614033,40.057409],[140.614144,40.057683],[140.614663,40.058606],[140.614659,40.058815],[140.614344,40.059087],[140.614031,40.059448],[140.613893,40.059932],[140.613737,40.06007],[140.613388,40.060151],[140.612935,40.060169],[140.611056,40.059925],[140.610003,40.059698],[140.609453,40.059532],[140.60898,40.0593],[140.607885,40.059155],[140.607433,40.058945],[140.607112,40.058618],[140.607044,40.058464],[140.607039,40.058256],[140.607283,40.057887],[140.607939,40.057352],[140.60806,40.057195],[140.607971,40.05713],[140.607562,40.057125],[140.607364,40.057063],[140.607286,40.056968],[140.607199,40.056671],[140.60549,40.056959],[140.604859,40.057279],[140.604238,40.057693],[140.603509,40.057977],[140.603007,40.057988],[140.602703,40.057936],[140.602278,40.057799],[140.601654,40.05749],[140.601355,40.057537],[140.601187,40.057467],[140.600611,40.056365],[140.600436,40.056196],[140.600213,40.056113],[140.599659,40.056155],[140.598735,40.055881],[140.59791,40.055799],[140.597313,40.055505],[140.596961,40.055411],[140.59654,40.055211],[140.596421,40.05504],[140.596329,40.054749],[140.596139,40.054582],[140.595891,40.054463],[140.595436,40.054364],[140.594666,40.054308],[140.594289,40.054228],[140.593315,40.053839],[140.592962,40.053531],[140.592656,40.05309],[140.592636,40.05297],[140.592694,40.052814],[140.593021,40.052683],[140.593087,40.052587],[140.592831,40.052334],[140.592656,40.052027],[140.592633,40.051778],[140.59333,40.051522],[140.593831,40.051436],[140.594232,40.051479],[140.594429,40.051691],[140.59483,40.051845],[140.595076,40.051821],[140.595276,40.051742],[140.595349,40.051652],[140.595288,40.051516],[140.59491,40.051131],[140.594386,40.050783],[140.593933,40.050631],[140.592838,40.050446],[140.592488,40.050218],[140.591989,40.049659],[140.591639,40.0495],[140.591334,40.049426],[140.589462,40.049205],[140.588564,40.049268],[140.587664,40.049469],[140.587372,40.049719],[140.587372,40.049798],[140.587592,40.050063],[140.587881,40.050549],[140.58838,40.050993],[140.588546,40.051206],[140.588645,40.051457],[140.588647,40.052129],[140.589018,40.053169],[140.58898,40.054055],[140.58903,40.054689],[140.589134,40.054996],[140.589412,40.055323],[140.589409,40.055405],[140.589274,40.055514],[140.588272,40.055513],[140.586925,40.05565],[140.58642,40.055604],[140.586194,40.05547],[140.585773,40.055043],[140.585476,40.054845],[140.582653,40.053643],[140.581529,40.053218],[140.58148,40.053142],[140.58153,40.052836],[140.581429,40.052431],[140.581613,40.05199],[140.58153,40.051548],[140.581343,40.051065],[140.581347,40.050563],[140.581161,40.0502],[140.58058,40.049616],[140.580427,40.049309],[140.580276,40.048367],[140.580331,40.048176],[140.580706,40.047597],[140.580731,40.047198],[140.580493,40.045926],[140.579975,40.044768],[140.57992,40.044598],[140.579946,40.044477],[140.580155,40.044307],[140.581013,40.043954],[140.58156,40.043674],[140.581986,40.043292],[140.583523,40.042264],[140.584195,40.041986],[140.584802,40.041809],[140.585225,40.041608],[140.585954,40.041037],[140.586337,40.040462],[140.586609,40.040167],[140.587356,40.039828],[140.587403,40.0395],[140.587041,40.038639],[140.587002,40.038366],[140.587263,40.036521],[140.587244,40.035981],[140.58732,40.035387],[140.587409,40.035094],[140.587661,40.034834],[140.587736,40.034679],[140.587212,40.034074],[140.587092,40.033787],[140.58711,40.033612],[140.587836,40.033435],[140.588304,40.033249],[140.588958,40.032789],[140.589391,40.032592],[140.590363,40.032338],[140.59046,40.032202],[140.590971,40.0308],[140.5911,40.030684],[140.593754,40.030444],[140.594682,40.030428],[140.595731,40.030509],[140.596132,40.030469],[140.596281,40.030378],[140.595921,40.02945],[140.595817,40.029047],[140.595249,40.028198],[140.595033,40.02756],[140.59463,40.026118],[140.594625,40.025654],[140.594837,40.025468],[140.596318,40.025151],[140.597616,40.024659],[140.59837,40.024475],[140.599695,40.024603],[140.600073,40.024683],[140.600801,40.02447],[140.601528,40.02442],[140.602427,40.024677],[140.602926,40.024735],[140.6043,40.024764],[140.606372,40.025113],[140.606753,40.025104],[140.607151,40.02503],[140.607495,40.024852],[140.607632,40.024722],[140.607808,40.024241],[140.607768,40.023319],[140.608136,40.022585],[140.608339,40.02197],[140.608503,40.021666],[140.608677,40.021539],[140.609102,40.021403],[140.610025,40.020992],[140.610302,40.020956],[140.610883,40.021043],[140.611112,40.021028],[140.611223,40.020902],[140.611281,40.020732],[140.611274,40.020502],[140.611084,40.019654],[140.611106,40.019459],[140.611212,40.019307],[140.612416,40.01842],[140.612743,40.01825],[140.61307,40.018177],[140.614175,40.01815],[140.614422,40.018085],[140.614948,40.017817],[140.615553,40.017379],[140.61655,40.016378],[140.617087,40.01594],[140.617565,40.015655],[140.618418,40.01535],[140.618626,40.015179],[140.618763,40.014964],[140.618875,40.013984],[140.618955,40.013658],[140.620109,40.012102],[140.620322,40.011007],[140.620323,40.010791],[140.62023,40.010464],[140.61973,40.009713],[140.619639,40.009488],[140.619601,40.008947],[140.619536,40.008693],[140.619298,40.008351],[140.619081,40.008149],[140.618682,40.008329],[140.618151,40.008647],[140.617022,40.009104],[140.616323,40.009629],[140.615673,40.010035],[140.615169,40.010455],[140.614442,40.010587],[140.614086,40.010734],[140.613157,40.010959],[140.612963,40.010958],[140.612836,40.010757],[140.61261,40.010821],[140.612281,40.010836],[140.612161,40.010788],[140.611821,40.010399],[140.611459,40.009728],[140.611326,40.00921],[140.611398,40.008957],[140.611371,40.008611],[140.610733,40.007721],[140.610436,40.007374],[140.610108,40.007083],[140.609243,40.006557],[140.608982,40.006272],[140.608738,40.00577],[140.608334,40.005273],[140.606525,40.00374],[140.606172,40.003705],[140.605798,40.003783],[140.605661,40.003932],[140.605317,40.004684],[140.605136,40.00487],[140.604233,40.005269],[140.603858,40.005284],[140.603189,40.004887],[140.602932,40.004665],[140.602163,40.004294],[140.601466,40.003826],[140.601006,40.003396],[140.600818,40.00288],[140.60051,40.002566],[140.600449,40.002432],[140.599798,40.002492],[140.59971,40.002567],[140.599974,40.003549],[140.599917,40.003719],[140.598645,40.003935],[140.597939,40.00414],[140.597613,40.004139],[140.59734,40.004079],[140.596753,40.003688],[140.595794,40.002613],[140.595321,40.002189],[140.594897,40.001959],[140.594523,40.00181],[140.594075,40.001745],[140.593597,40.001829],[140.592773,40.00207],[140.592344,40.002071],[140.591993,40.001913],[140.591728,40.001703],[140.591644,40.001828],[140.591645,40.002],[140.591718,40.002274],[140.591942,40.002771],[140.592113,40.003521],[140.592137,40.003985],[140.592109,40.004312],[140.59205,40.004445],[140.592,40.005159],[140.592049,40.005486],[140.592177,40.00593],[140.592773,40.007043],[140.592438,40.007268],[140.59126,40.007807],[140.590564,40.008007],[140.589911,40.008125],[140.589602,40.008223],[140.589223,40.008435],[140.588834,40.008881],[140.588601,40.009399],[140.588574,40.009689],[140.588769,40.010341],[140.588768,40.010803],[140.588658,40.01105],[140.588375,40.011324],[140.588365,40.011996],[140.588285,40.012282],[140.587904,40.012879],[140.587817,40.013143],[140.587677,40.01332],[140.587379,40.013478],[140.58657,40.013696],[140.586224,40.013877],[140.583936,40.015365],[140.583431,40.015751],[140.583182,40.015732],[140.582884,40.015608],[140.58261,40.015454],[140.582433,40.015263],[140.582291,40.014933],[140.582176,40.014354],[140.581943,40.013683],[140.581746,40.013628],[140.581295,40.013663],[140.580769,40.013585],[140.580046,40.013345],[140.579949,40.01325],[140.579601,40.012328],[140.579246,40.011597],[140.57923,40.011172],[140.579365,40.010501],[140.579318,40.01021],[140.578996,40.009476],[140.578919,40.008709],[140.578687,40.008014],[140.577809,40.006589],[140.576501,40.005098],[140.576338,40.005034],[140.575137,40.005265],[140.573766,40.005415],[140.573093,40.005369],[140.572364,40.005246],[140.57189,40.005257],[140.571808,40.005201],[140.571715,40.004987],[140.57159,40.004909],[140.571116,40.00489],[140.57044,40.005104],[140.568853,40.00613],[140.5687,40.006284],[140.568636,40.006422],[140.566709,40.00847],[140.566255,40.009122],[140.565702,40.010161],[140.565549,40.010315],[140.565484,40.010312],[140.565078,40.009943],[140.563629,40.009692],[140.563285,40.009563],[140.562779,40.009455],[140.562359,40.009224],[140.561857,40.009153],[140.561125,40.009173],[140.560879,40.009373],[140.560769,40.009582],[140.560575,40.010393],[140.560039,40.010529],[140.559993,40.01093],[140.560044,40.011122],[140.559885,40.011366],[140.559565,40.011502],[140.559283,40.011473],[140.558415,40.011255],[140.557688,40.011365],[140.55748,40.011687],[140.557185,40.011884],[140.557032,40.012053],[140.55655,40.01278],[140.555288,40.014083],[140.554838,40.01466],[140.554232,40.015889],[140.553803,40.016351],[140.55329,40.016728],[140.553073,40.016864],[140.552871,40.016921],[140.552444,40.016874],[140.551946,40.016938],[140.551417,40.017201],[140.550538,40.017445],[140.54931,40.017944],[140.548684,40.018274],[140.548352,40.018558],[140.548024,40.018942],[140.547702,40.019194],[140.546075,40.019381],[140.545704,40.019306],[140.54536,40.019119],[140.545083,40.018872],[140.544527,40.018181],[140.544228,40.01768],[140.544093,40.017348],[140.543673,40.016845],[140.54314,40.016501],[140.542017,40.015881],[140.539236,40.013173],[140.539112,40.013197],[140.538484,40.013599],[140.537199,40.01428],[140.535471,40.014819],[140.535121,40.014833],[140.534092,40.014745],[140.532992,40.01502],[140.532741,40.014973],[140.532546,40.014855],[140.531892,40.013738],[140.531477,40.013278],[140.529046,40.011783],[140.52901,40.011615],[140.529008,40.011246],[140.529062,40.011094],[140.529036,40.01098],[140.529481,40.010348],[140.529606,40.009616],[140.529822,40.009],[140.529992,40.008708],[140.530241,40.008408],[140.530298,40.008254],[140.530245,40.00806],[140.529988,40.007638],[140.52989,40.007251],[140.529945,40.006847],[140.530232,40.006329],[140.530261,40.006097],[140.530221,40.005945],[140.530047,40.005693],[140.529206,40.005132],[140.528906,40.005088],[140.528478,40.005117],[140.528104,40.005044],[140.527255,40.005261],[140.526852,40.00547],[140.526097,40.005691],[140.52567,40.00588],[140.525126,40.006271],[140.524718,40.006691],[140.524705,40.006768],[140.524261,40.007342],[140.524096,40.007821],[140.524154,40.008266],[140.524439,40.008803],[140.524637,40.009304],[140.52465,40.00948],[140.524501,40.00979],[140.52452,40.010172],[140.52461,40.010522],[140.524802,40.010885],[140.524829,40.011383],[140.52468,40.011826],[140.524278,40.012209],[140.524106,40.012237],[140.523706,40.012138],[140.522957,40.012289],[140.522506,40.012254],[140.522526,40.01176],[140.522701,40.011644],[140.522687,40.01159],[140.521632,40.010896],[140.520517,40.010245],[140.519627,40.009832],[140.519565,40.009696],[140.519587,40.0094],[140.519831,40.009008],[140.519843,40.008767],[140.520135,40.008386],[140.52017,40.008153],[140.52013,40.007832],[140.519808,40.007727],[140.519238,40.007404],[140.51904,40.007395],[140.518341,40.007561],[140.518565,40.006817],[140.51845,40.006069],[140.518491,40.0058],[140.518418,40.005682],[140.518297,40.005644],[140.517916,40.005734],[140.517767,40.005819],[140.516789,40.006118],[140.516389,40.006386],[140.515659,40.006772],[140.515557,40.006738],[140.515278,40.0065],[140.515226,40.006385],[140.515135,40.005361],[140.51582,40.004425],[140.515621,40.003879],[140.515588,40.003207],[140.51588,40.002107],[140.515986,40.001998],[140.515984,40.001861],[140.516293,40.001116],[140.516288,40.001035],[140.515948,40.000384],[140.515017,39.999472],[140.514484,39.998762],[140.514171,39.998521],[140.513565,39.998184],[140.512889,39.998164],[140.511845,39.997851],[140.509775,39.997029],[140.509099,39.996679],[140.508075,39.997389],[140.506997,39.998363],[140.505941,39.997375],[140.505198,39.996759],[140.504176,39.996177],[140.503226,39.99583],[140.502537,39.995338],[140.501963,39.994852],[140.501385,39.99423],[140.500941,39.994212],[140.501123,39.994005],[140.500986,39.993785],[140.500624,39.993832],[140.500271,39.993809],[140.500287,39.993409],[140.50019,39.993381],[140.500032,39.993167],[140.499703,39.992616],[140.499757,39.992021],[140.499728,39.991895],[140.498772,39.990993],[140.498834,39.990941],[140.500746,39.99061],[140.500919,39.990478],[140.501517,39.990549],[140.503844,39.990382],[140.504343,39.990405],[140.504994,39.990344],[140.506223,39.990123],[140.508599,39.98959],[140.509806,39.98925],[140.512088,39.988341],[140.512916,39.988133],[140.513365,39.988088],[140.51414,39.987904],[140.516645,39.987181],[140.517297,39.986934],[140.51896,39.986175],[140.518842,39.985221],[140.518866,39.984714],[140.518924,39.984351],[140.519062,39.984154],[140.519826,39.983584],[140.520955,39.98299],[140.521442,39.982553],[140.522184,39.982087],[140.523113,39.981708],[140.523616,39.981444],[140.523678,39.98135],[140.523616,39.981236],[140.523335,39.981099],[140.522898,39.981081],[140.522556,39.980903],[140.522891,39.980537],[140.522871,39.980448],[140.522226,39.979996],[140.52195,39.979861],[140.521478,39.979835],[140.521147,39.979749],[140.52058,39.97941],[140.519789,39.97902],[140.519469,39.978763],[140.519232,39.978361],[140.519135,39.977943],[140.519014,39.977652],[140.518766,39.977519],[140.517913,39.977421],[140.51722,39.977196],[140.516263,39.977048],[140.515486,39.977009],[140.515437,39.976932],[140.515428,39.976658],[140.515469,39.976615],[140.516476,39.976435],[140.517421,39.976175],[140.518752,39.975685],[140.519107,39.97548],[140.519505,39.975152],[140.519789,39.974791],[140.520197,39.973171],[140.518706,39.970571],[140.517567,39.969773],[140.517038,39.969491],[140.516127,39.968822],[140.514617,39.967519],[140.513466,39.966897],[140.51257,39.966316],[140.511612,39.965594],[140.511376,39.965105],[140.511244,39.964704],[140.510455,39.963901],[140.509899,39.962876],[140.509603,39.96245],[140.509134,39.961928],[140.509028,39.961636],[140.508888,39.960874],[140.509406,39.961047],[140.511995,39.959273],[140.51272,39.958901],[140.512727,39.958849],[140.512616,39.958736],[140.512032,39.958301],[140.512046,39.958235],[140.513019,39.958096],[140.513928,39.957679],[140.514144,39.958013],[140.514463,39.958197],[140.514497,39.958357],[140.514454,39.958661],[140.514526,39.95878],[140.514676,39.958854],[140.514927,39.958766],[140.515257,39.958459],[140.515526,39.958319],[140.51568,39.958353],[140.515981,39.958569],[140.5162,39.958648],[140.516878,39.958409],[140.517351,39.958462],[140.51765,39.95858],[140.518333,39.9591],[140.518912,39.959895],[140.519066,39.960239],[140.519197,39.960394],[140.519294,39.960698],[140.519954,39.961189],[140.519598,39.961733],[140.518954,39.961504],[140.518505,39.961818],[140.518506,39.961874],[140.518862,39.96235],[140.518854,39.962661],[140.519026,39.963028],[140.519663,39.963458],[140.520063,39.964017],[140.52025,39.964422],[140.520458,39.964593],[140.520781,39.964697],[140.521483,39.964768],[140.521882,39.964888],[140.522579,39.965218],[140.523528,39.965776],[140.523922,39.965922],[140.52497,39.966128],[140.525798,39.96646],[140.526417,39.96659],[140.526949,39.966629],[140.528797,39.966608],[140.529062,39.966742],[140.529594,39.96654],[140.53065,39.966296],[140.530914,39.966193],[140.53089,39.966099],[140.531284,39.964851],[140.53124,39.963678],[140.53128,39.963522],[140.531564,39.9631],[140.532048,39.962622],[140.532207,39.962394],[140.532274,39.962161],[140.532279,39.96195],[140.532183,39.961701],[140.531682,39.960967],[140.531628,39.960725],[140.53307,39.960036],[140.533239,39.959895],[140.533614,39.959292],[140.534253,39.958926],[140.535158,39.958505],[140.535972,39.95771],[140.536973,39.956919],[140.538805,39.958416],[140.538857,39.958336],[140.539227,39.957338],[140.539492,39.956439],[140.539737,39.955918],[140.53994,39.95534],[140.540164,39.954634],[140.540206,39.954324],[140.539477,39.952882],[140.538708,39.951763],[140.538671,39.951682],[140.538717,39.951565],[140.538996,39.951331],[140.539145,39.951287],[140.539563,39.951785],[140.540226,39.952377],[140.541088,39.95262],[140.541765,39.952962],[140.543002,39.953212],[140.543294,39.952989],[140.543296,39.952913],[140.543117,39.95285],[140.541223,39.951634],[140.540961,39.951302],[140.541076,39.951172],[140.540929,39.951016],[140.53993,39.950553],[140.539508,39.950299],[140.539356,39.950149],[140.539312,39.95001],[140.539369,39.949664],[140.539517,39.949608],[140.540087,39.94968],[140.541435,39.950042],[140.542147,39.950412],[140.542758,39.95089],[140.542972,39.950974],[140.544228,39.951021],[140.544655,39.950678],[140.545548,39.951135],[140.545603,39.951129],[140.545928,39.950805],[140.546062,39.950596],[140.546074,39.950247],[140.546459,39.949884],[140.545138,39.948361],[140.545115,39.948263],[140.545448,39.948014],[140.545063,39.947766],[140.544989,39.947649],[140.545018,39.947453],[140.545147,39.947264],[140.545114,39.947086],[140.544974,39.946963],[140.544706,39.946938],[140.54447,39.947188],[140.544393,39.947191],[140.544345,39.94709],[140.544282,39.946756],[140.54438,39.946567],[140.544739,39.946267],[140.545936,39.945824],[140.546499,39.945689],[140.546545,39.945716],[140.546458,39.945903],[140.546473,39.946005],[140.546546,39.946016],[140.546683,39.946249],[140.547066,39.946531],[140.5475,39.946973],[140.547674,39.947334],[140.548203,39.948062],[140.548745,39.948662],[140.549224,39.94903],[140.549911,39.949148],[140.550613,39.949592],[140.551237,39.949825],[140.552186,39.949954],[140.552534,39.95006],[140.552733,39.950179],[140.553054,39.950502],[140.553292,39.950543],[140.553855,39.950549],[140.554055,39.950492],[140.554881,39.949913],[140.555284,39.949884],[140.556109,39.94936],[140.556909,39.948991],[140.557163,39.948964],[140.55749,39.949214],[140.557587,39.949225],[140.559169,39.948066],[140.559801,39.947666],[140.559819,39.947594],[140.559693,39.947515],[140.557881,39.946543],[140.557874,39.94629],[140.558052,39.946041],[140.558109,39.945851],[140.558057,39.945042],[140.558096,39.944853],[140.558216,39.944658],[140.558923,39.944046],[140.559099,39.943718],[140.559189,39.942697],[140.559109,39.941643],[140.558819,39.940545],[140.558599,39.940024],[140.558499,39.939849],[140.557878,39.939231],[140.557708,39.939],[140.557594,39.938606],[140.557356,39.93852],[140.55688,39.938522],[140.556652,39.938383],[140.556685,39.938227],[140.557607,39.937458],[140.55852,39.936367],[140.558666,39.936018],[140.558726,39.935739],[140.558772,39.935367],[140.5587,39.934946],[140.558631,39.934847],[140.558401,39.934719],[140.557779,39.934524],[140.556982,39.934398],[140.556258,39.934416],[140.555786,39.934276],[140.554686,39.933607],[140.553251,39.932959],[140.552449,39.932281],[140.552725,39.932075],[140.553125,39.931975],[140.553228,39.931807],[140.55308,39.931363],[140.553037,39.930709],[140.553221,39.930328],[140.55325,39.930153],[140.55314,39.928302],[140.553151,39.927921],[140.553193,39.92782],[140.553337,39.927656],[140.553671,39.927533],[140.553584,39.92727],[140.553679,39.927151],[140.554377,39.927056],[140.554556,39.926711],[140.555285,39.926385],[140.555464,39.926237],[140.555456,39.92568],[140.555412,39.925564],[140.555172,39.925327],[140.555171,39.925276],[140.55539,39.925247],[140.555614,39.925154],[140.556028,39.924623],[140.556446,39.92429],[140.556922,39.924139],[140.557564,39.924083],[140.558219,39.924102],[140.558853,39.924208],[140.559722,39.924272],[140.560098,39.924234],[140.560552,39.92426],[140.561417,39.924495],[140.562394,39.924901],[140.562531,39.925226],[140.562719,39.925492],[140.562777,39.925708],[140.562755,39.925857],[140.562476,39.926163],[140.562462,39.926259],[140.562968,39.926665],[140.563174,39.927017],[140.563774,39.927342],[140.563966,39.927561],[140.564031,39.927842],[140.563996,39.928253],[140.56412,39.928366],[140.564669,39.928447],[140.565517,39.928361],[140.566339,39.928349],[140.566739,39.928383],[140.567269,39.928509],[140.567838,39.92875],[140.568513,39.929189],[140.569215,39.92971],[140.570073,39.930537],[140.570206,39.93057],[140.570303,39.930542],[140.57111,39.929974],[140.571907,39.929571],[140.572383,39.929409],[140.573038,39.929348],[140.573234,39.92928],[140.573409,39.92913],[140.573548,39.928846],[140.573787,39.928697],[140.574686,39.929053],[140.57529,39.929141],[140.575882,39.929059],[140.576339,39.929139],[140.578055,39.929901],[140.579029,39.930138],[140.579751,39.930202],[140.580475,39.93013],[140.580906,39.930029],[140.581378,39.930057],[140.582475,39.930403],[140.583676,39.930538],[140.584693,39.930871],[140.585198,39.931481],[140.585848,39.932079],[140.586421,39.932736],[140.586465,39.933012],[140.586372,39.933372],[140.586381,39.933581],[140.58658,39.933811],[140.587127,39.933962],[140.588852,39.934182],[140.589478,39.93432],[140.589875,39.934467],[140.589997,39.934441],[140.590053,39.934368],[140.590192,39.933673],[140.590403,39.933326],[140.590506,39.933269],[140.591257,39.933219],[140.591477,39.933118],[140.591593,39.932988],[140.59164,39.932718],[140.59162,39.931392],[140.59174,39.930908],[140.591842,39.930735],[140.592094,39.930556],[140.592675,39.930301],[140.593196,39.930007],[140.593775,39.929222],[140.594101,39.929023],[140.594451,39.928933],[140.594884,39.928649],[140.59472,39.928499],[140.594341,39.927858],[140.59399,39.927531],[140.59329,39.92703],[140.593066,39.926796],[140.592968,39.926605],[140.592976,39.926181],[140.592915,39.925991],[140.592352,39.925544],[140.592213,39.925404],[140.592228,39.925356],[140.592879,39.925219],[140.59358,39.92495],[140.594008,39.924864],[140.594507,39.924873],[140.595407,39.925014],[140.595729,39.925018],[140.59645,39.924936],[140.597602,39.924596],[140.598305,39.924507],[140.599005,39.924526],[140.599878,39.924628],[140.600181,39.924613],[140.600905,39.924362],[140.602383,39.923674],[140.603337,39.923339],[140.603954,39.923256],[140.605108,39.923369],[140.60614,39.923102],[140.606141,39.923036],[140.604938,39.922379],[140.604264,39.921896],[140.603322,39.92131],[140.602992,39.921042],[140.602814,39.920773],[140.602752,39.920173],[140.602685,39.91994],[140.602222,39.919348],[140.601519,39.917975],[140.60092,39.917147],[140.6007,39.916913],[140.600372,39.916686],[140.59975,39.916392],[140.598386,39.915289],[140.598007,39.915065],[140.597239,39.914688],[140.596891,39.914589],[140.596245,39.914488],[140.59542,39.914518],[140.594415,39.914203],[140.593495,39.91398],[140.592871,39.913922],[140.591919,39.913946],[140.590949,39.913892],[140.589944,39.91352],[140.588347,39.912678],[140.588303,39.912635],[140.588325,39.912601],[140.589566,39.911817],[140.590015,39.910776],[140.589921,39.910603],[140.589406,39.910006],[140.589556,39.909722],[140.59008,39.90899],[140.590046,39.908664],[140.589853,39.907989],[140.58966,39.907793],[140.589164,39.907476],[140.58836,39.907767],[140.587582,39.907791],[140.587184,39.907731],[140.586532,39.907543],[140.58594,39.907284],[140.585529,39.907224],[140.585395,39.907008],[140.585339,39.906586],[140.585367,39.90647],[140.585826,39.905992],[140.585995,39.905683],[140.586001,39.905549],[140.586061,39.905451],[140.586447,39.90514],[140.586732,39.905042],[140.586922,39.904878],[140.586967,39.904338],[140.587312,39.903226],[140.587342,39.902957],[140.58731,39.902726],[140.5871,39.901954],[140.587025,39.90132],[140.586559,39.900469],[140.586563,39.90026],[140.586754,39.899376],[140.586705,39.899187],[140.586368,39.898869],[140.585609,39.898415],[140.585303,39.898061],[140.585093,39.897894],[140.584425,39.897538],[140.584057,39.897267],[140.583554,39.896671],[140.58316,39.896304],[140.582965,39.895974],[140.583064,39.895516],[140.583068,39.895277],[140.582997,39.895109],[140.582592,39.894738],[140.582739,39.894284],[140.582843,39.894038],[140.583422,39.893427],[140.583718,39.892798],[140.583805,39.892382],[140.584175,39.89181],[140.584563,39.891417],[140.585129,39.891252],[140.585233,39.891163],[140.585488,39.890649],[140.58561,39.890502],[140.586351,39.89011],[140.587012,39.88969],[140.587394,39.889578],[140.588107,39.889538],[140.588356,39.889417],[140.588824,39.889038],[140.589804,39.889109],[140.590225,39.889082],[140.590653,39.88898],[140.590706,39.888899],[140.590972,39.887032],[140.59103,39.886925],[140.59143,39.886782],[140.592536,39.886609],[140.592826,39.886488],[140.593133,39.886109],[140.59351,39.885394],[140.593823,39.884916],[140.594193,39.884626],[140.594697,39.884585],[140.596056,39.884599],[140.596219,39.884697],[140.596473,39.884961],[140.596838,39.885202],[140.597163,39.885336],[140.597446,39.88538],[140.59897,39.886064],[140.599249,39.886144],[140.601198,39.886283],[140.602351,39.886238],[140.603353,39.886082],[140.603793,39.886327],[140.604054,39.886359],[140.604662,39.886265],[140.605355,39.886082],[140.605784,39.885939],[140.606601,39.885537],[140.606833,39.8855],[140.607017,39.885547],[140.607278,39.885734],[140.607446,39.885742],[140.60784,39.885461],[140.608373,39.885247],[140.608738,39.885032],[140.609492,39.884483],[140.610585,39.88401],[140.610857,39.883831],[140.611239,39.883331],[140.611402,39.882862],[140.611251,39.88255],[140.611297,39.882358],[140.61146,39.882192],[140.611611,39.882117],[140.611784,39.882052],[140.612143,39.882135],[140.613341,39.882262],[140.613412,39.882322],[140.613412,39.882394],[140.613047,39.883291],[140.613024,39.88364],[140.613064,39.883921],[140.613192,39.884139],[140.613371,39.884259],[140.615605,39.884921],[140.615808,39.884925],[140.616034,39.884675],[140.616277,39.884585],[140.616822,39.884568],[140.6171,39.884675],[140.617662,39.885202],[140.618746,39.885765],[140.618108,39.885898],[140.617789,39.886041],[140.617673,39.886135],[140.617662,39.886407],[140.61776,39.886499],[140.6186,39.886823],[140.618826,39.886956],[140.618907,39.887224],[140.619197,39.887711],[140.619237,39.887902],[140.619144,39.888211],[140.619197,39.888608],[140.619346,39.888881],[140.619549,39.88905],[140.620288,39.889399],[140.621542,39.88977],[140.622486,39.890161],[140.622773,39.890331],[140.622966,39.890539],[140.623175,39.890644],[140.623909,39.89042],[140.62435,39.89046],[140.624516,39.890422],[140.625144,39.890004],[140.625355,39.889915],[140.625566,39.889951],[140.626197,39.890235],[140.626336,39.890408],[140.627012,39.891637],[140.627195,39.891874],[140.628027,39.892409],[140.628195,39.892544],[140.628339,39.892792],[140.628363,39.89291],[140.628159,39.893135],[140.627907,39.893241],[140.627344,39.893288],[140.627283,39.893501],[140.627282,39.893777],[140.627326,39.894244],[140.627428,39.894475],[140.628025,39.894677],[140.629341,39.894891],[140.629879,39.895152],[140.630277,39.89541],[140.630299,39.895506],[140.630248,39.895595],[140.629837,39.895779],[140.629598,39.895955],[140.629612,39.896001],[140.630474,39.896446],[140.630642,39.896604],[140.630671,39.896694],[140.630562,39.89684],[140.630169,39.896959],[140.629868,39.89711],[140.629596,39.89748],[140.629588,39.897594],[140.630517,39.897831],[140.631234,39.898074],[140.63184,39.898428],[140.632497,39.89867],[140.632957,39.898779],[140.633198,39.898957],[140.633987,39.899814],[140.634046,39.900061],[140.633987,39.900152],[140.633619,39.9004],[140.633586,39.900647],[140.633644,39.90085],[140.633892,39.901165],[140.633981,39.90149],[140.633943,39.901638],[140.633821,39.901765],[140.633511,39.901931],[140.63344,39.902065],[140.633652,39.902974],[140.633535,39.903249],[140.633374,39.903451],[140.632943,39.903618],[140.632667,39.903574],[140.632386,39.903629],[140.632278,39.903777],[140.632325,39.903922],[140.633015,39.904409],[140.633249,39.904684],[140.633468,39.904786],[140.634191,39.904859],[140.634696,39.904977],[140.635762,39.905377],[140.635974,39.905501],[140.636023,39.905577],[140.635974,39.905715],[140.635833,39.90581],[140.635148,39.90592],[140.635017,39.906008],[140.634955,39.906122],[140.635003,39.906256],[140.635201,39.906362],[140.635793,39.906514],[140.636009,39.906633],[140.636064,39.906784],[140.635981,39.906911],[140.635878,39.906995],[140.635638,39.907066],[140.634622,39.907244],[140.634487,39.907324],[140.634463,39.907416],[140.63536,39.907776],[140.635645,39.907945],[140.63574,39.908041],[140.635795,39.908222],[140.635667,39.908564],[140.635338,39.908874],[140.634637,39.9092],[140.634191,39.909189],[140.633512,39.909054],[140.633307,39.909094],[140.633352,39.909821],[140.633461,39.909955],[140.633724,39.910079],[140.634571,39.91031],[140.634871,39.91049],[140.634958,39.91062],[140.634966,39.910727],[140.634659,39.911245],[140.63433,39.912377],[140.634337,39.912478],[140.635309,39.912703],[140.635513,39.91281],[140.635513,39.912929],[140.635023,39.91327],[140.634885,39.913773],[140.634695,39.914032],[140.634081,39.914342],[140.633155,39.914997],[140.633154,39.915068],[140.633227,39.915153],[140.634019,39.915649],[140.634249,39.915969],[140.63498,39.916521],[140.635747,39.917794],[140.635784,39.917994],[140.635717,39.918599],[140.635615,39.918791],[140.635417,39.918899],[140.634716,39.919067],[140.634388,39.919095],[140.633263,39.918937],[140.632943,39.918957],[140.632861,39.919061],[140.632785,39.919433],[140.633046,39.920296],[140.633055,39.920577],[140.632927,39.920662],[140.632269,39.920626],[140.63184,39.920514],[140.63153,39.920717],[140.631238,39.921055],[140.631383,39.921379],[140.631693,39.921807],[140.631401,39.922504],[140.631438,39.922806],[140.631575,39.923066],[140.631556,39.923143],[140.631091,39.923319],[140.629813,39.923438],[140.629411,39.923312],[140.629128,39.923277],[140.629055,39.923326],[140.629009,39.923474],[140.629082,39.923888],[140.629091,39.924486],[140.629273,39.92507],[140.629538,39.925604],[140.629803,39.92585],[140.630141,39.926033],[140.629848,39.926588],[140.629748,39.927101],[140.629739,39.927439],[140.629784,39.927523],[140.630597,39.9276],[140.632432,39.928086],[140.632806,39.9281],[140.633145,39.928016],[140.633878,39.928182],[140.633942,39.928257],[140.634323,39.929302],[140.634374,39.929615],[140.634093,39.930588],[140.634061,39.931244],[140.63433,39.931617],[140.634373,39.9318],[140.634352,39.932065],[140.634406,39.932248],[140.634793,39.932513],[140.635041,39.932961],[140.6353,39.933226],[140.636022,39.933774],[140.636216,39.933865],[140.636831,39.933758],[140.637208,39.933749],[140.637811,39.933932],[140.637981,39.933878],[140.638479,39.932944],[140.638662,39.932737],[140.638975,39.932479],[140.639902,39.931973],[140.640494,39.931973],[140.640796,39.93204],[140.641389,39.932305],[140.641949,39.93267],[140.642545,39.932983],[140.643091,39.932405],[140.643382,39.932289],[140.643695,39.932347],[140.64405,39.93248],[140.64654,39.933011],[140.647014,39.93316],[140.647434,39.933525],[140.64765,39.933882],[140.647865,39.934032],[140.64863,39.934256],[140.648835,39.934422],[140.649341,39.935378],[140.649853,39.93581],[140.650596,39.935844],[140.651027,39.935968],[140.651243,39.936117],[140.651318,39.936317],[140.651286,39.936582],[140.651361,39.936748],[140.652697,39.937445],[140.653031,39.937436],[140.653333,39.93727],[140.653473,39.93727],[140.653666,39.937336],[140.654034,39.937785],[140.655467,39.938274],[140.656297,39.93844],[140.656394,39.938548],[140.656556,39.939154],[140.65677,39.939329],[140.657062,39.939453],[140.657956,39.939669],[140.658322,39.940307],[140.658462,39.940457],[140.65898,39.940548],[140.659174,39.940656],[140.659389,39.940805],[140.659535,39.941066],[140.659649,39.941639],[140.659391,39.942107],[140.65913,39.942871],[140.659465,39.94361],[140.659701,39.943983],[140.659481,39.944333],[140.659475,39.944481],[140.659539,39.944622],[140.65983,39.944821],[140.660764,39.945281],[140.660865,39.945427],[140.660758,39.94596],[140.661238,39.946383],[140.661296,39.946738],[140.661231,39.947178],[140.661275,39.947319],[140.661813,39.947792],[140.661953,39.948273],[140.662222,39.948497],[140.663214,39.948713],[140.663645,39.948945],[140.664,39.949302],[140.66413,39.949592],[140.66413,39.949874],[140.66399,39.950256],[140.664011,39.950414],[140.664485,39.950936],[140.664571,39.951111],[140.664587,39.952028],[140.664668,39.952389],[140.664938,39.952663],[140.665372,39.952773],[140.666192,39.952844],[140.666354,39.952902],[140.666677,39.953218],[140.667043,39.953483],[140.667809,39.953724],[140.667863,39.95384],[140.667528,39.955126],[140.667561,39.955217],[140.667722,39.955317],[140.668104,39.955397],[140.670524,39.955508],[140.671623,39.955466],[140.672928,39.95535],[140.673197,39.955383],[140.673391,39.955483],[140.673477,39.955607],[140.673423,39.956188],[140.673456,39.956362],[140.673553,39.95647],[140.674048,39.956719],[140.674124,39.956877],[140.674156,39.957424],[140.674296,39.957698],[140.674447,39.957814],[140.675633,39.957615],[140.675859,39.957649],[140.676075,39.957748],[140.676107,39.957989],[140.676226,39.958221],[140.67657,39.958412],[140.67698,39.958503],[140.677622,39.958563],[140.677305,39.959273],[140.676952,39.959437],[140.676376,39.959372],[140.675883,39.959375],[140.675419,39.959455],[140.675057,39.959662],[140.674592,39.959847],[140.673755,39.959976],[140.673615,39.960104],[140.673529,39.960306],[140.673209,39.960695],[140.67326,39.960969],[140.673613,39.961162],[140.673899,39.961496],[140.674078,39.961797],[140.674137,39.962242],[140.674035,39.962477],[140.6739,39.962563],[140.673544,39.962649],[140.67333,39.962756],[140.672874,39.962754],[140.673186,39.962776],[140.673061,39.96302],[140.672998,39.963316],[140.673021,39.96347],[140.674404,39.963996],[140.674544,39.964104],[140.67462,39.964419],[140.674576,39.96456],[140.674242,39.965075],[140.674253,39.965199],[140.674479,39.965374],[140.674894,39.965534],[140.67532,39.965622],[140.675773,39.965581],[140.676053,39.965457],[140.676355,39.965174],[140.676796,39.964975],[140.677238,39.964901],[140.67755,39.964917],[140.678531,39.965303],[140.679124,39.965386],[140.67948,39.965357],[140.679851,39.965208],[140.680094,39.96522],[140.680943,39.965557],[140.682689,39.96603],[140.682905,39.966013],[140.684123,39.96549],[140.6846,39.965457],[140.684844,39.96549],[140.685232,39.965707],[140.68561,39.96603],[140.685857,39.966553],[140.686094,39.966844],[140.686342,39.967009],[140.6866,39.967051],[140.687505,39.967042],[140.688583,39.967184],[140.689186,39.967059],[140.689466,39.967059],[140.690382,39.967316],[140.691244,39.967308],[140.691524,39.967366],[140.692753,39.969291],[140.693093,39.969722],[140.694278,39.970436],[140.694617,39.97083],[140.695075,39.971162],[140.695445,39.971289],[140.69575,39.971627],[140.695824,39.971839],[140.695852,39.972333],[140.695826,39.972933],[140.695718,39.973057],[140.695524,39.973182],[140.694242,39.973331],[140.694059,39.973472],[140.693865,39.973712],[140.693865,39.973937],[140.694059,39.974409],[140.694069,39.974542],[140.693962,39.974833],[140.694134,39.975048],[140.69408,39.975538],[140.695707,39.976484],[140.696267,39.976733],[140.696569,39.977189],[140.696699,39.977737],[140.696784,39.978417],[140.696687,39.978716],[140.696256,39.979388],[140.696289,39.979579],[140.696698,39.980176],[140.696795,39.980607],[140.697237,39.98162],[140.698088,39.982574],[140.699122,39.983595],[140.699531,39.984127],[140.699886,39.984452],[140.700555,39.984782],[140.701094,39.984956],[140.701987,39.985087],[140.702971,39.985344],[140.703294,39.985655],[140.70364,39.985744],[140.704151,39.985806],[140.706041,39.985779],[140.706671,39.98611],[140.707427,39.98667],[140.70783,39.98689],[140.708407,39.98705],[140.708627,39.987042],[140.709827,39.987433],[140.710289,39.987637],[140.711085,39.988286],[140.712008,39.988713],[140.713977,39.98933],[140.71442,39.989548],[140.714697,39.989984],[140.715367,39.991521],[140.715609,39.992614],[140.715643,39.99353],[140.715609,39.993708],[140.713993,39.995147],[140.713831,39.995405],[140.713817,39.995512],[140.712725,39.995627],[140.712167,39.995623],[140.711282,39.995516],[140.710528,39.995329],[140.709514,39.995002],[140.707793,39.994355],[140.707108,39.99421],[140.706508,39.994203],[140.705783,39.994271],[140.705138,39.994244],[140.703566,39.993944],[140.701256,39.993729],[140.699286,39.993459],[140.698435,39.993504],[140.697612,39.993639],[140.69706,39.993565],[140.696608,39.993399],[140.696032,39.993112],[140.694963,39.992448],[140.694645,39.992195],[140.694444,39.991984],[140.694234,39.991659],[140.693924,39.990695],[140.693489,39.990179],[140.692948,39.989769],[140.691651,39.989053],[140.690727,39.988669],[140.690177,39.988569],[140.689677,39.988544],[140.688852,39.988598],[140.688354,39.988723],[140.687606,39.989017],[140.687069,39.989087],[140.68689,39.988987],[140.686002,39.987961],[140.685323,39.98731],[140.684879,39.987039],[140.684656,39.98701],[140.681856,39.987316],[140.680577,39.987328],[140.680103,39.987386],[140.679599,39.987536],[140.679528,39.987598],[140.67945,39.987846],[140.679458,39.988158],[140.679373,39.988636],[140.679027,39.989176],[140.678418,39.989637],[140.676987,39.990225],[140.676585,39.990435],[140.676134,39.990762],[140.675976,39.990952],[140.675916,39.991225],[140.675772,39.991547],[140.675403,39.991855],[140.67473,39.992095],[140.673898,39.992249],[140.673275,39.992295],[140.672228,39.99219],[140.671948,39.992347],[140.671669,39.992884],[140.671287,39.993443],[140.670659,39.994054],[140.670624,39.994419],[140.670706,39.995002],[140.670709,39.995422],[140.670607,39.995638],[140.670513,39.995649],[140.670355,39.995582],[140.670056,39.995387],[140.669705,39.995236],[140.669283,39.995178],[140.667829,39.995312],[140.666182,39.995316],[140.662698,39.996008],[140.661675,39.996378],[140.661296,39.996587],[140.661024,39.996819],[140.660788,39.997123],[140.660539,39.997855],[140.660291,39.998029],[140.659788,39.998278],[140.659569,39.998471],[140.659389,39.998759],[140.658771,40.00035],[140.658245,40.001386],[140.658075,40.001948],[140.657933,40.002232],[140.657778,40.002769],[140.657618,40.003621],[140.657508,40.00389],[140.657385,40.003948],[140.656637,40.004],[140.655677,40.0043],[140.655421,40.004495],[140.655216,40.004724],[140.655101,40.004938],[140.655001,40.005424],[140.655052,40.005842],[140.655152,40.006034],[140.655489,40.006386],[140.656165,40.006852],[140.656404,40.007075],[140.656507,40.007447],[140.656442,40.007888],[140.656335,40.008097],[140.655586,40.008963],[140.655327,40.009459],[140.655259,40.009694],[140.654466,40.011188],[140.654295,40.011363],[140.653791,40.011649],[140.653616,40.011939],[140.653606,40.012247],[140.653684,40.012861],[140.653571,40.013146],[140.653318,40.013532],[140.653305,40.013746],[140.653632,40.014285],[140.653644,40.014611],[140.653465,40.015072],[140.65317,40.015496],[140.652873,40.016462],[140.65266,40.016937],[140.652264,40.017342],[140.651858,40.017627],[140.651113,40.018475],[140.650474,40.019066],[140.650349,40.019238],[140.650176,40.019664],[140.650072,40.020084],[140.649481,40.02058],[140.649311,40.021254],[140.648789,40.022525],[140.64871,40.023138],[140.648821,40.023486],[140.649256,40.024257],[140.649412,40.024646],[140.649472,40.025027],[140.649446,40.025816],[140.649488,40.026029],[140.649578,40.026212],[140.649845,40.026451],[140.65042,40.026837],[140.650515,40.026975],[140.650634,40.02736],[140.650706,40.027922],[140.650625,40.028938],[140.650515,40.02926],[140.650203,40.029592],[140.650077,40.029992],[140.650168,40.030186],[140.650565,40.030368],[140.651088,40.030437],[140.651741,40.030437],[140.652098,40.030389],[140.652872,40.030215],[140.653849,40.029731],[140.654076,40.029697],[140.654703,40.02972],[140.655048,40.029673],[140.655379,40.029549],[140.656035,40.029192],[140.656654,40.029068],[140.657083,40.028781],[140.657906,40.028681],[140.658734,40.028084],[140.65909,40.028096],[140.659689,40.028369],[140.660117,40.028396],[140.66074,40.028177],[140.66124,40.027724],[140.662499,40.027862],[140.663221,40.027856],[140.663443,40.027778],[140.664098,40.027338],[140.664528,40.027195],[140.66523,40.0272],[140.665596,40.027287],[140.6657,40.02752],[140.665827,40.028133],[140.665995,40.028443],[140.666325,40.028808],[140.666442,40.029005],[140.666448,40.029258],[140.665387,40.030367],[140.664656,40.03121],[140.663652,40.031978],[140.663522,40.032168],[140.663445,40.032398],[140.663405,40.032743],[140.663798,40.032899],[140.664171,40.033116],[140.664466,40.033385],[140.664674,40.033652],[140.664976,40.034171],[140.665008,40.034522],[140.664898,40.034851],[140.664587,40.035251],[140.664267,40.03556],[140.664054,40.035865],[140.663752,40.036479],[140.663431,40.037307],[140.662966,40.038072],[140.662454,40.038723],[140.661996,40.039692],[140.661936,40.04009],[140.662059,40.040824],[140.661955,40.041227],[140.661708,40.041672],[140.661658,40.041863],[140.661648,40.042496],[140.661565,40.042938],[140.661759,40.043555],[140.661758,40.043686],[140.661564,40.043879],[140.660836,40.044262],[140.660667,40.044399],[140.660437,40.044705],[140.660355,40.044992],[140.660454,40.045568],[140.660391,40.046028],[140.659895,40.046645],[140.659773,40.046935],[140.659765,40.047526],[140.659586,40.048434],[140.65968,40.048707],[140.659982,40.049091],[140.660021,40.049339],[140.659918,40.049863],[140.65976,40.050284],[140.659602,40.050531],[140.659311,40.050822],[140.65794,40.051852],[140.65719,40.052834],[140.656785,40.053216],[140.656256,40.053499],[140.655658,40.053657],[140.655359,40.053868],[140.655041,40.054247],[140.65467,40.054924],[140.654581,40.05523],[140.65461,40.055502],[140.655387,40.05687],[140.655573,40.057271],[140.655672,40.057637],[140.655636,40.058003],[140.655291,40.058755],[140.655293,40.059003],[140.654871,40.059386],[140.654791,40.059614],[140.654798,40.060079],[140.65474,40.060308],[140.654446,40.060695],[140.654426,40.060942],[140.654517,40.061195],[140.654706,40.061507],[140.655579,40.062793],[140.65418,40.063248],[140.653355,40.063676],[140.652852,40.063847],[140.651002,40.063282],[140.650526,40.062919],[140.649783,40.062634],[140.649483,40.062423],[140.649208,40.062326],[140.648926,40.062324]],[[140.635076,40.058365],[140.635159,40.058269],[140.635603,40.057115],[140.635912,40.056635],[140.63617,40.056118],[140.63639,40.055879],[140.636493,40.055828],[140.636723,40.055819],[140.638115,40.056286],[140.638294,40.056296],[140.638042,40.056145],[140.636793,40.055698],[140.636465,40.055675],[140.63634,40.055728],[140.636218,40.055829],[140.635795,40.056445],[140.635279,40.057072],[140.634938,40.058076],[140.63478,40.058236],[140.634704,40.058246],[140.634459,40.058131],[140.634411,40.058052],[140.634461,40.057401],[140.634384,40.057169],[140.634159,40.056957],[140.633781,40.056766],[140.633603,40.056515],[140.633411,40.056375],[140.633205,40.056374],[140.633086,40.056433],[140.632922,40.056661],[140.632781,40.056973],[140.632659,40.057035],[140.631059,40.056918],[140.630632,40.056711],[140.630449,40.056543],[140.630175,40.055888],[140.630184,40.055598],[140.630072,40.055286],[140.629478,40.054322],[140.62914,40.053922],[140.629038,40.05373],[140.628991,40.053497],[140.629049,40.053189],[140.628996,40.052823],[140.629127,40.052478],[140.629433,40.052115],[140.629677,40.051689],[140.629954,40.051402],[140.630541,40.050521],[140.630819,40.050337],[140.631266,40.050291],[140.631491,40.049906],[140.631995,40.049657],[140.63212,40.049543],[140.632178,40.049255],[140.632122,40.048639],[140.632153,40.048332],[140.632301,40.047426],[140.632386,40.047275],[140.632662,40.047068],[140.632858,40.047002],[140.633509,40.04699],[140.633583,40.046757],[140.634089,40.046336],[140.63452,40.046036],[140.634861,40.045913],[140.634902,40.04561],[140.634977,40.045456],[140.63533,40.045053],[140.636102,40.044417],[140.636275,40.044384],[140.636604,40.044478],[140.636728,40.044308],[140.636906,40.044363],[140.636507,40.043901],[140.636357,40.043631],[140.636561,40.043073],[140.636589,40.042804],[140.636483,40.042229],[140.636202,40.041648],[140.636339,40.041262],[140.636287,40.040974],[140.636113,40.040709],[140.635982,40.040357],[140.63599,40.040086],[140.636073,40.039992],[140.636378,40.03992],[140.637103,40.039936],[140.637333,40.039888],[140.637856,40.039672],[140.638052,40.039538],[140.638444,40.038898],[140.638417,40.038847],[140.638316,40.038831],[140.638092,40.038887],[140.63806,40.039113],[140.637918,40.039464],[140.637659,40.039639],[140.637425,40.039703],[140.635954,40.039827],[140.63555,40.040006],[140.635597,40.040397],[140.635942,40.041187],[140.635965,40.041841],[140.636041,40.04234],[140.636011,40.042783],[140.635409,40.043552],[140.635276,40.044011],[140.635055,40.04434],[140.634369,40.045182],[140.634067,40.045407],[140.633214,40.04579],[140.632842,40.045862],[140.632342,40.045855],[140.632217,40.045946],[140.631331,40.047309],[140.631356,40.047328],[140.631044,40.048018],[140.631025,40.048174],[140.631137,40.048671],[140.631115,40.048845],[140.630973,40.049],[140.63085,40.049014],[140.63074,40.048924],[140.630553,40.048346],[140.630478,40.048286],[140.629646,40.047965],[140.629306,40.047701],[140.628924,40.047594],[140.628401,40.047341],[140.626626,40.047061],[140.626425,40.04712],[140.625926,40.047412],[140.625216,40.047684],[140.62424,40.047975],[140.623819,40.048195],[140.623016,40.048503],[140.622434,40.048587],[140.622089,40.048546],[140.621638,40.048318],[140.621345,40.048045],[140.620626,40.047156],[140.620246,40.046829],[140.619412,40.046349],[140.619302,40.04619],[140.619302,40.046003],[140.619722,40.045596],[140.620681,40.044929],[140.621087,40.044506],[140.62143,40.04452],[140.62166,40.044412],[140.622423,40.043878],[140.622644,40.043569],[140.622487,40.043559],[140.621584,40.043809],[140.621212,40.043756],[140.620935,40.043544],[140.620721,40.043136],[140.620538,40.042908],[140.619871,40.042459],[140.619769,40.042326],[140.619841,40.042231],[140.619967,40.042189],[140.620796,40.042139],[140.621099,40.042067],[140.621781,40.041681],[140.622232,40.041278],[140.622397,40.041063],[140.622366,40.040872],[140.622747,40.040525],[140.622831,40.039682],[140.622982,40.039431],[140.623294,40.039092],[140.623958,40.038839],[140.6239,40.038588],[140.623672,40.038163],[140.623697,40.038087],[140.6243,40.0378],[140.624519,40.037756],[140.625026,40.037476],[140.625459,40.037114],[140.62559,40.036921],[140.625578,40.036863],[140.62548,40.036873],[140.625176,40.037188],[140.62493,40.037366],[140.624802,40.0374],[140.624478,40.037326],[140.624422,40.037397],[140.624441,40.037532],[140.624374,40.037584],[140.62362,40.037755],[140.623345,40.037873],[140.623139,40.038066],[140.623106,40.038338],[140.623028,40.038455],[140.622471,40.038759],[140.622211,40.039063],[140.62206,40.039391],[140.621966,40.039388],[140.621611,40.03916],[140.621279,40.038872],[140.621231,40.038693],[140.621635,40.038501],[140.621711,40.038291],[140.621721,40.038119],[140.62161,40.037717],[140.621742,40.037257],[140.621628,40.037112],[140.620906,40.036674],[140.620714,40.035709],[140.620588,40.035382],[140.620414,40.035094],[140.620369,40.034883],[140.620486,40.034556],[140.620741,40.034308],[140.62086,40.034088],[140.621031,40.033932],[140.62111,40.033751],[140.621029,40.033344],[140.621069,40.033192],[140.621225,40.032986],[140.621551,40.032792],[140.621599,40.032696],[140.621122,40.032446],[140.620601,40.032246],[140.620486,40.032148],[140.62032,40.031884],[140.620253,40.031669],[140.620252,40.03121],[140.620106,40.030765],[140.620138,40.030168],[140.620023,40.029319],[140.619311,40.028341],[140.619258,40.028066],[140.619371,40.027838],[140.619572,40.027626],[140.619726,40.027534],[140.619948,40.027478],[140.620348,40.027643],[140.620429,40.027643],[140.620425,40.027601],[140.620027,40.027376],[140.619648,40.027432],[140.619147,40.02774],[140.618858,40.028174],[140.619019,40.028282],[140.619771,40.029242],[140.619862,40.029419],[140.619836,40.029802],[140.619987,40.030264],[140.619922,40.030726],[140.620032,40.031188],[140.620032,40.032052],[140.620155,40.032283],[140.620339,40.032481],[140.620762,40.032755],[140.620478,40.033036],[140.620656,40.033439],[140.620553,40.033656],[140.619902,40.034359],[140.619898,40.034573],[140.619796,40.03484],[140.619788,40.035055],[140.619694,40.035249],[140.619922,40.035404],[140.620211,40.036169],[140.62019,40.036675],[140.620353,40.036959],[140.620555,40.037133],[140.620579,40.037226],[140.620533,40.037366],[140.620789,40.037426],[140.620842,40.037637],[140.621018,40.037887],[140.620989,40.038135],[140.620669,40.038214],[140.620293,40.038597],[140.620187,40.038848],[140.620555,40.039426],[140.620757,40.039657],[140.62139,40.040155],[140.621409,40.040216],[140.621218,40.040693],[140.621056,40.040852],[140.620624,40.041056],[140.619798,40.041306],[140.619351,40.04128],[140.619022,40.041036],[140.618923,40.041011],[140.618864,40.041049],[140.618792,40.041381],[140.61867,40.041455],[140.61772,40.041496],[140.617317,40.041379],[140.617063,40.041147],[140.616847,40.040817],[140.616595,40.040759],[140.616492,40.040591],[140.616405,40.040621],[140.616341,40.040794],[140.616332,40.041223],[140.616182,40.041472],[140.616273,40.041907],[140.616138,40.04204],[140.615811,40.042235],[140.615768,40.04237],[140.61591,40.042547],[140.61629,40.042584],[140.616408,40.042761],[140.616884,40.042709],[140.617134,40.043008],[140.617538,40.043084],[140.617624,40.043166],[140.617622,40.043222],[140.617278,40.043587],[140.616241,40.045142],[140.616072,40.045298],[140.615824,40.045413],[140.61562,40.045429],[140.615426,40.045217],[140.615165,40.044508],[140.61487,40.044237],[140.61458,40.043867],[140.614424,40.043779],[140.614258,40.04378],[140.614146,40.043886],[140.614083,40.044078],[140.613977,40.044164],[140.6139,40.044155],[140.613779,40.044019],[140.613506,40.043498],[140.613329,40.043327],[140.612504,40.0429],[140.612454,40.042669],[140.612207,40.042379],[140.61217,40.042208],[140.612204,40.042109],[140.612355,40.041967],[140.612939,40.041749],[140.613138,40.041705],[140.613318,40.041735],[140.613589,40.041581],[140.613939,40.041644],[140.613941,40.041579],[140.613725,40.041424],[140.613699,40.041353],[140.614216,40.041369],[140.614399,40.041311],[140.61449,40.041113],[140.614446,40.040715],[140.61454,40.04037],[140.614427,40.04021],[140.614172,40.04002],[140.614065,40.039849],[140.613998,40.039576],[140.614381,40.039135],[140.614422,40.039018],[140.61422,40.038651],[140.614224,40.038347],[140.614109,40.038291],[140.613687,40.03841],[140.613435,40.038414],[140.61291,40.038125],[140.612381,40.037978],[140.612108,40.0378],[140.611837,40.037529],[140.611695,40.03717],[140.611491,40.03693],[140.611296,40.036814],[140.61098,40.03626],[140.610748,40.036054],[140.610718,40.036118],[140.610894,40.036428],[140.611009,40.036509],[140.611203,40.036857],[140.611511,40.03718],[140.611673,40.037764],[140.61218,40.038242],[140.612808,40.03838],[140.612979,40.03859],[140.613504,40.038788],[140.613702,40.038941],[140.613699,40.03915],[140.613362,40.039582],[140.6134,40.040159],[140.612367,40.040298],[140.612061,40.040564],[140.611744,40.040695],[140.611515,40.04061],[140.61094,40.040227],[140.610746,40.040174],[140.610691,40.040262],[140.611234,40.040781],[140.611292,40.040916],[140.611161,40.041042],[140.610739,40.041186],[140.610569,40.041299],[140.61048,40.041506],[140.610164,40.041836],[140.61016,40.042065],[140.609709,40.042148],[140.609603,40.042235],[140.610184,40.042755],[140.610404,40.043276],[140.610666,40.04363],[140.61113,40.043893],[140.611176,40.04403],[140.611095,40.044241],[140.611105,40.044374],[140.611319,40.04455],[140.611495,40.044859],[140.611799,40.045068],[140.611811,40.045184],[140.611737,40.045417],[140.611934,40.046342],[140.611899,40.046955],[140.611805,40.047131],[140.611117,40.047583],[140.610843,40.047817],[140.610653,40.047869],[140.610502,40.047664],[140.610298,40.047069],[140.610005,40.046738],[140.609557,40.046543],[140.609157,40.046267],[140.60892,40.046425],[140.608753,40.046695],[140.608129,40.046832],[140.607901,40.046943],[140.607665,40.047135],[140.60767,40.047207],[140.607981,40.047345],[140.608021,40.047539],[140.607954,40.047624],[140.607746,40.047688],[140.607523,40.047688],[140.606901,40.047546],[140.606195,40.048015],[140.606145,40.048116],[140.606191,40.04827],[140.606364,40.04844],[140.606937,40.048772],[140.607264,40.04878],[140.60757,40.048721],[140.608294,40.048385],[140.608404,40.048422],[140.608198,40.049331],[140.608293,40.049732],[140.608415,40.050041],[140.608709,40.05039],[140.608936,40.050852],[140.609601,40.051544],[140.609954,40.051589],[140.610351,40.051729],[140.610501,40.051723],[140.61073,40.051611],[140.61098,40.051379],[140.611086,40.051208],[140.61116,40.050956],[140.611124,40.050798],[140.611175,40.050532],[140.61133,40.050434],[140.611444,40.05045],[140.611894,40.050803],[140.611969,40.051136],[140.612226,40.051307],[140.612328,40.051482],[140.612381,40.05173],[140.612311,40.051923],[140.61197,40.052424],[140.612124,40.052578],[140.612204,40.052579],[140.612609,40.052117],[140.612749,40.052053],[140.613004,40.052138],[140.613401,40.052488],[140.613525,40.052504],[140.613557,40.052447],[140.613372,40.051909],[140.612836,40.051058],[140.612593,40.050536],[140.61226,40.050174],[140.61227,40.050077],[140.612694,40.049913],[140.613192,40.049633],[140.613996,40.049653],[140.614,40.049582],[140.613714,40.049256],[140.613726,40.04912],[140.613892,40.048924],[140.614405,40.048505],[140.614804,40.048294],[140.614774,40.048083],[140.614827,40.047891],[140.615183,40.047584],[140.615433,40.04743],[140.615759,40.047393],[140.616533,40.047708],[140.617036,40.047786],[140.617584,40.047714],[140.617981,40.047945],[140.618634,40.048001],[140.619009,40.048099],[140.619185,40.048213],[140.619299,40.048388],[140.619136,40.048658],[140.619153,40.048705],[140.619584,40.048728],[140.620262,40.049368],[140.620577,40.04953],[140.620852,40.049601],[140.621479,40.049664],[140.621872,40.049877],[140.621933,40.050124],[140.621924,40.05107],[140.621813,40.051625],[140.621763,40.052416],[140.621881,40.052978],[140.621987,40.05313],[140.622058,40.053032],[140.622053,40.052244],[140.622163,40.051547],[140.622181,40.051029],[140.622369,40.050397],[140.622334,40.050207],[140.622888,40.049639],[140.623083,40.049553],[140.623786,40.049446],[140.624638,40.04917],[140.625487,40.049074],[140.625936,40.048972],[140.626412,40.048973],[140.626866,40.049102],[140.627322,40.049048],[140.627515,40.049073],[140.627967,40.049414],[140.628028,40.049611],[140.627927,40.049853],[140.627951,40.050219],[140.627287,40.051222],[140.62725,40.051607],[140.6273,40.05228],[140.627149,40.052568],[140.627244,40.052795],[140.627266,40.053031],[140.627516,40.053992],[140.627639,40.054147],[140.628067,40.054396],[140.628343,40.054667],[140.62841,40.054899],[140.628249,40.055169],[140.628332,40.055214],[140.628624,40.055152],[140.628676,40.055478],[140.628839,40.055784],[140.629071,40.056174],[140.629411,40.056593],[140.62945,40.057023],[140.629364,40.057349],[140.62945,40.057391],[140.629551,40.057349],[140.629901,40.057079],[140.630051,40.057039],[140.632329,40.057339],[140.632405,40.057373],[140.632486,40.057508],[140.632502,40.057817],[140.632339,40.058179],[140.632525,40.058226],[140.632678,40.058146],[140.632897,40.057431],[140.633358,40.057014],[140.633681,40.057014],[140.633907,40.057149],[140.6341,40.057436],[140.634052,40.057919],[140.63413,40.05813],[140.634299,40.058292],[140.634654,40.058458],[140.634901,40.058459],[140.635076,40.058365]]]]}}]}
