{"type":"FeatureCollection","features":[{"type":"Feature","properties":{"potaRef":"JP-1006","nameJa":"Matsumae yagoshi","nameEn":"Matsumae-Yagoshi Prefectural Nature Park","authority":"環境省 生物多様性「見える化」マップ","boundaryStatus":"全国GIS候補・公開前検証待ち","boundarySource":"環境省 生物多様性「見える化」マップの自然公園区域を、POTA代表座標で一意に空間照合して加工","boundaryScaleNote":"区域は概要データであり、正確性は保証されない。POTA運用可否は公式情報で最終確認すること。","candidateMethod":"POTA representative point inside one public natural-park area","sourceParkKind":"都道府県立自然公園","sourceName":"Matsumae yagoshi","sourceFeatureCount":1,"cautionMeters":75},"geometry":{"type":"MultiPolygon","coordinates":[[[[139.357519,41.527128],[139.356122,41.527203],[139.354286,41.527456],[139.352043,41.528008],[139.350204,41.528383],[139.347409,41.528694],[139.345557,41.529027],[139.343062,41.529649],[139.341579,41.529916],[139.340381,41.529863],[139.339012,41.52967],[139.338085,41.529381],[139.337455,41.529036],[139.336708,41.528388],[139.335125,41.526862],[139.333387,41.525479],[139.332306,41.524378],[139.331343,41.523176],[139.330552,41.522063],[139.329469,41.520018],[139.329039,41.519022],[139.328695,41.516992],[139.328747,41.515259],[139.328727,41.514403],[139.328796,41.513602],[139.32957,41.511714],[139.32957,41.511041],[139.32976,41.510148],[139.330018,41.509657],[139.33136,41.50817],[139.331756,41.507808],[139.332117,41.507239],[139.332336,41.50665],[139.332493,41.506029],[139.332493,41.505193],[139.332218,41.503701],[139.33217,41.502402],[139.332356,41.501298],[139.332651,41.50035],[139.333863,41.497671],[139.334321,41.495085],[139.334762,41.494249],[139.335375,41.493488],[139.336572,41.492599],[139.337755,41.491881],[139.338767,41.491559],[139.340021,41.491356],[139.341333,41.491361],[139.343056,41.491515],[139.343574,41.491509],[139.34536,41.491177],[139.346719,41.491015],[139.347845,41.491037],[139.348885,41.491133],[139.350011,41.491369],[139.351023,41.491701],[139.352491,41.492408],[139.355712,41.494254],[139.357208,41.49495],[139.358733,41.495465],[139.360358,41.495936],[139.361855,41.49629],[139.363294,41.496472],[139.367153,41.496634],[139.370854,41.496904],[139.37322,41.497225],[139.374702,41.497483],[139.376241,41.497975],[139.377581,41.498468],[139.378926,41.499168],[139.380309,41.500154],[139.382646,41.501665],[139.383662,41.502117],[139.38519,41.502985],[139.386073,41.50365],[139.386857,41.504325],[139.387556,41.505107],[139.388083,41.505814],[139.388785,41.506965],[139.389784,41.509312],[139.389982,41.510523],[139.39002,41.511406],[139.389963,41.512306],[139.389707,41.513356],[139.389023,41.514749],[139.387911,41.516753],[139.387097,41.518151],[139.386484,41.519083],[139.385115,41.52068],[139.382573,41.523221],[139.382131,41.524186],[139.381546,41.524968],[139.381076,41.525429],[139.379635,41.526393],[139.378682,41.527004],[139.375939,41.528056],[139.374485,41.528441],[139.371774,41.528764],[139.370605,41.52871],[139.36955,41.528592],[139.36348,41.527536],[139.360856,41.527236],[139.359302,41.527107],[139.357519,41.527128]]],[[[139.810681,41.368271],[139.810163,41.368401],[139.808469,41.36906],[139.806358,41.369761],[139.804609,41.370083],[139.80368,41.370159],[139.80277,41.370159],[139.801741,41.370083],[139.800958,41.369933],[139.799734,41.369553],[139.798523,41.36908],[139.79734,41.368511],[139.796247,41.367811],[139.793799,41.366069],[139.792586,41.364957],[139.791558,41.366185],[139.790766,41.366768],[139.789992,41.367131],[139.789127,41.367426],[139.788317,41.367584],[139.786653,41.367645],[139.785496,41.367563],[139.784268,41.367323],[139.783066,41.366863],[139.782037,41.366342],[139.781336,41.365842],[139.780535,41.365039],[139.780053,41.364257],[139.779646,41.363452],[139.779427,41.362513],[139.779427,41.361477],[139.779503,41.360137],[139.779685,41.359224],[139.780113,41.358388],[139.780768,41.357613],[139.781278,41.357167],[139.782251,41.356637],[139.783261,41.356294],[139.784563,41.356088],[139.786056,41.35593],[139.788249,41.35582],[139.789857,41.354007],[139.790389,41.353528],[139.791899,41.352641],[139.79345,41.352049],[139.793705,41.351452],[139.793929,41.350667],[139.794165,41.350312],[139.79474,41.349578],[139.795523,41.348879],[139.796267,41.348388],[139.797876,41.347984],[139.798642,41.347923],[139.799479,41.347875],[139.800325,41.34793],[139.801245,41.348067],[139.802491,41.348369],[139.803872,41.348987],[139.805242,41.349766],[139.806525,41.349348],[139.807681,41.349183],[139.809101,41.349094],[139.81083,41.349364],[139.811708,41.349747],[139.812719,41.350558],[139.813365,41.35136],[139.813802,41.352012],[139.81433,41.352019],[139.815158,41.352156],[139.81635,41.352477],[139.817251,41.352785],[139.818583,41.354043],[139.819321,41.354886],[139.819839,41.355764],[139.820239,41.356592],[139.82063,41.357648],[139.820858,41.358628],[139.820976,41.35976],[139.821113,41.360377],[139.822099,41.362177],[139.822454,41.363082],[139.822582,41.363816],[139.822589,41.364579],[139.822507,41.365224],[139.822234,41.365896],[139.821714,41.366632],[139.821168,41.367132],[139.820503,41.367571],[139.819575,41.368024],[139.818482,41.368415],[139.816754,41.368826],[139.815671,41.368881],[139.814715,41.368792],[139.811838,41.368285],[139.811209,41.368237],[139.810681,41.368271]]],[[[140.226778,41.425143],[140.226603,41.425878],[140.22628,41.426689],[140.225866,41.427438],[140.225515,41.427909],[140.224944,41.428471],[140.224244,41.428998],[140.223226,41.429506],[140.222966,41.429552],[140.222872,41.429235],[140.223007,41.428758],[140.222996,41.428244],[140.222864,41.427771],[140.222097,41.426566],[140.221753,41.426165],[140.220869,41.425331],[140.220755,41.425082],[140.219472,41.424925],[140.218956,41.424953],[140.218573,41.425092],[140.218124,41.423723],[140.217406,41.421886],[140.217037,41.421449],[140.216357,41.42085],[140.215583,41.420503],[140.214303,41.41983],[140.213446,41.419248],[140.212319,41.418012],[140.211426,41.417186],[140.211076,41.418192],[140.210891,41.418337],[140.210357,41.417533],[140.209187,41.416604],[140.208208,41.416001],[140.208193,41.415631],[140.208284,41.414998],[140.208422,41.414464],[140.208422,41.414246],[140.208364,41.414013],[140.208148,41.413875],[140.207109,41.413464],[140.2065,41.413099],[140.20637,41.412933],[140.205984,41.412758],[140.205128,41.412642],[140.202802,41.412446],[140.201531,41.41212],[140.199661,41.411864],[140.198095,41.411461],[140.197561,41.411052],[140.197229,41.410421],[140.197045,41.410227],[140.196428,41.410019],[140.194126,41.409054],[140.194052,41.409067],[140.193776,41.409317],[140.193306,41.409581],[140.192965,41.409657],[140.19221,41.409608],[140.190819,41.409248],[140.190027,41.408915],[140.189234,41.408208],[140.188474,41.407908],[140.187591,41.407258],[140.187319,41.407108],[140.187098,41.407058],[140.186015,41.407157],[140.185756,41.407141],[140.185486,41.406989],[140.185257,41.406715],[140.183684,41.406708],[140.183247,41.406797],[140.183972,41.404971],[140.18435,41.404521],[140.185133,41.403987],[140.186772,41.403273],[140.187905,41.404021],[140.188071,41.40407],[140.188374,41.404035],[140.188485,41.403904],[140.188514,41.402347],[140.191376,41.402327],[140.191975,41.402383],[140.193273,41.402847],[140.194774,41.402868],[140.196413,41.403339],[140.198651,41.402861],[140.198826,41.40128],[140.199231,41.400725],[140.199351,41.400497],[140.199406,41.40024],[140.199287,41.399907],[140.198964,41.399373],[140.198301,41.39929],[140.198089,41.399755],[140.196754,41.399706],[140.196349,41.399144],[140.196229,41.399103],[140.195235,41.399366],[140.194452,41.399824],[140.192032,41.400663],[140.18936,41.401478],[140.18924,41.401281],[140.189039,41.401101],[140.188723,41.400492],[140.188209,41.400817],[140.187217,41.40116],[140.18635,41.401636],[140.185744,41.401844],[140.185083,41.401802],[140.183624,41.401605],[140.1835,41.40173],[140.183624,41.402269],[140.183037,41.402691],[140.182937,41.402564],[140.182734,41.401898],[140.182642,41.401177],[140.182605,41.400213],[140.182697,41.399738],[140.182982,41.39894],[140.183563,41.398108],[140.184106,41.397526],[140.184833,41.397019],[140.185871,41.396476],[140.187694,41.3957],[140.189683,41.394951],[140.191921,41.394264],[140.194483,41.393758],[140.196168,41.393508],[140.197706,41.393432],[140.199206,41.393425],[140.200422,41.393592],[140.201518,41.393834],[140.202595,41.394237],[140.203451,41.394722],[140.20428,41.395401],[140.205023,41.396341],[140.205631,41.397166],[140.207289,41.399769],[140.20797,41.400525],[140.208698,41.401093],[140.209591,41.401724],[140.210503,41.402223],[140.211663,41.402771],[140.213165,41.403439],[140.215578,41.404403],[140.217411,41.405201],[140.218582,41.405827],[140.220618,41.407304],[140.221106,41.407949],[140.221484,41.408629],[140.221714,41.409225],[140.221851,41.410241],[140.222475,41.413774],[140.222705,41.414654],[140.222954,41.415154],[140.223294,41.41557],[140.224225,41.416166],[140.225109,41.416901],[140.226089,41.417862],[140.226586,41.418445],[140.226761,41.418874],[140.226835,41.41936],[140.226641,41.421489],[140.226883,41.42335],[140.226883,41.424168],[140.226778,41.425143]]],[[[140.053441,41.441837],[140.053069,41.442355],[140.0526,41.44277],[140.052035,41.443071],[140.050823,41.443517],[140.050396,41.443755],[140.049927,41.444159],[140.049473,41.44475],[140.049299,41.444716],[140.047734,41.442948],[140.047199,41.442199],[140.046905,41.441478],[140.046683,41.440313],[140.046712,41.439845],[140.046878,41.43929],[140.047219,41.438617],[140.04768,41.438091],[140.048389,41.437411],[140.049385,41.436681],[140.050343,41.436112],[140.051366,41.43562],[140.053448,41.435003],[140.05448,41.434809],[140.055374,41.434441],[140.056567,41.433752],[140.059719,41.431699],[140.060714,41.430767],[140.061359,41.430351],[140.0624,41.429852],[140.062879,41.42954],[140.06379,41.428082],[140.06415,41.427791],[140.064795,41.427465],[140.065394,41.427305],[140.06637,41.426341],[140.066886,41.425932],[140.067394,41.424889],[140.068297,41.423412],[140.069366,41.422018],[140.070173,41.421017],[140.07103,41.420296],[140.071804,41.419735],[140.072292,41.41945],[140.073535,41.418896],[140.076351,41.41795],[140.07741,41.417693],[140.078773,41.417541],[140.079925,41.417492],[140.080606,41.417513],[140.081389,41.417672],[140.082191,41.417991],[140.083084,41.418498],[140.084475,41.419753],[140.085652,41.419775],[140.087366,41.420101],[140.088139,41.420378],[140.088692,41.420753],[140.089028,41.421059],[140.087343,41.421432],[140.087061,41.420611],[140.086428,41.42094],[140.085554,41.421453],[140.08502,41.42203],[140.08491,41.422345],[140.084591,41.422851],[140.084143,41.423275],[140.083732,41.423482],[140.083731,41.423984],[140.08289,41.424193],[140.082372,41.424193],[140.079551,41.423915],[140.078699,41.423967],[140.077628,41.424149],[140.076419,41.42447],[140.075817,41.424704],[140.075531,41.424953],[140.074195,41.426715],[140.073956,41.427332],[140.073735,41.428212],[140.073265,41.428978],[140.074338,41.430698],[140.073947,41.431353],[140.073401,41.43187],[140.073059,41.432105],[140.072404,41.432401],[140.069046,41.433524],[140.068408,41.433814],[140.062949,41.437288],[140.057431,41.439832],[140.055522,41.440492],[140.055029,41.440901],[140.054491,41.441667],[140.053826,41.441174],[140.053441,41.441837]]],[[[140.03055,41.459778],[140.02983,41.460563],[140.029308,41.460972],[140.028328,41.461599],[140.027269,41.462711],[140.026824,41.46242],[140.026373,41.461997],[140.025764,41.461303],[140.025442,41.460832],[140.025174,41.460298],[140.024972,41.459605],[140.024935,41.458527],[140.025018,41.45782],[140.025276,41.457175],[140.026004,41.456003],[140.026798,41.455114],[140.027913,41.454205],[140.029111,41.453332],[140.02996,41.452878],[140.029831,41.451963],[140.029895,41.451284],[140.030284,41.450012],[140.030773,41.449159],[140.031445,41.448272],[140.032276,41.447514],[140.033815,41.446585],[140.034726,41.446245],[140.035749,41.446023],[140.037048,41.44585],[140.03809,41.445774],[140.039009,41.445789],[140.040345,41.445965],[140.041268,41.446141],[140.04277,41.446545],[140.043398,41.446821],[140.04446,41.447448],[140.043275,41.447604],[140.042628,41.447562],[140.041456,41.447386],[140.040023,41.44749],[140.040561,41.448288],[140.040616,41.448775],[140.040602,41.449273],[140.040437,41.449833],[140.04021,41.450249],[140.040775,41.450847],[140.040719,41.450985],[140.037457,41.451949],[140.037388,41.45219],[140.037408,41.452593],[140.037338,41.453153],[140.037122,41.453584],[140.037089,41.454503],[140.036997,41.454905],[140.036205,41.455231],[140.035877,41.456217],[140.035683,41.456412],[140.035041,41.456773],[140.034652,41.456744],[140.03231,41.457822],[140.031938,41.458143],[140.031716,41.458442],[140.031444,41.459362],[140.031294,41.459657],[140.030797,41.459308],[140.03055,41.459778]]],[[[140.014013,41.504957],[140.01399,41.507218],[140.013945,41.507927],[140.013836,41.508428],[140.013683,41.508744],[140.01207,41.50993],[140.011597,41.510324],[140.011295,41.510701],[140.010971,41.511657],[140.010575,41.512434],[140.010493,41.512807],[140.01054,41.513146],[140.010783,41.513525],[140.010784,41.513739],[140.010646,41.513993],[140.010022,41.514739],[140.009144,41.515577],[140.00885,41.516133],[140.008508,41.517416],[140.008446,41.51781],[140.008477,41.518137],[140.007123,41.518145],[140.006977,41.518756],[140.006773,41.519308],[140.006433,41.519972],[140.006186,41.52028],[140.005889,41.52055],[140.005423,41.520858],[140.004442,41.521368],[140.004026,41.522223],[140.002641,41.521312],[140.001967,41.520813],[140.001552,41.520397],[140.001146,41.519856],[140.000952,41.519433],[140.000823,41.518996],[140.00068,41.517551],[140.000819,41.516795],[140.000975,41.516365],[140.00128,41.515984],[140.001044,41.515287],[140.000878,41.514525],[140.000527,41.513498],[140.000417,41.512923],[140.000389,41.512091],[140.000581,41.511484],[140.00107,41.51077],[140.001374,41.509716],[140.001707,41.509015],[140.002071,41.508569],[140.002809,41.508001],[140.004571,41.50583],[140.005401,41.505172],[140.006139,41.504714],[140.00603,41.504052],[140.006131,41.503455],[140.006417,41.502963],[140.006399,41.501576],[140.006618,41.500555],[140.006987,41.499528],[140.007485,41.498641],[140.008112,41.497975],[140.008905,41.497469],[140.009874,41.497025],[140.012004,41.496533],[140.013046,41.496505],[140.01454,41.496554],[140.015696,41.496733],[140.01632,41.496898],[140.016882,41.496982],[140.01713,41.497562],[140.017227,41.498412],[140.01713,41.499086],[140.016913,41.499746],[140.016569,41.500244],[140.016137,41.500648],[140.015695,41.500847],[140.014301,41.500987],[140.013939,41.501113],[140.013624,41.501352],[140.014791,41.501919],[140.014334,41.502734],[140.014326,41.502928],[140.014655,41.503318],[140.014347,41.503739],[140.014197,41.504043],[140.014066,41.504492],[140.014013,41.504957]]],[[[140.44336,41.558411],[140.442584,41.559976],[140.441949,41.561125],[140.441502,41.561764],[140.44104,41.562262],[140.440507,41.562739],[140.439809,41.563142],[140.437241,41.5639],[140.436044,41.564128],[140.433635,41.56442],[140.43088,41.564672],[140.430914,41.563318],[140.430981,41.562901],[140.431273,41.561583],[140.431543,41.560893],[140.431099,41.560664],[140.430499,41.560213],[140.429604,41.559182],[140.429189,41.558447],[140.429143,41.558066],[140.429161,41.557497],[140.429032,41.557469],[140.428829,41.557511],[140.42882,41.557975],[140.427481,41.557989],[140.427453,41.556339],[140.427741,41.555368],[140.427962,41.555004],[140.429355,41.55429],[140.430509,41.553562],[140.431146,41.553277],[140.431783,41.553125],[140.43434,41.552931],[140.434598,41.552799],[140.434783,41.552452],[140.434894,41.551835],[140.435251,41.547755],[140.434283,41.547361],[140.43317,41.546638],[140.431966,41.545699],[140.431458,41.545206],[140.430886,41.544402],[140.430452,41.54409],[140.428149,41.543145],[140.426377,41.542514],[140.424928,41.54223],[140.425299,41.539807],[140.425567,41.538677],[140.425821,41.53803],[140.42631,41.53708],[140.426402,41.536546],[140.426402,41.535984],[140.425144,41.535879],[140.424572,41.535775],[140.423603,41.535304],[140.4228,41.534853],[140.422459,41.53461],[140.422274,41.534361],[140.422219,41.534104],[140.422663,41.533555],[140.421567,41.532986],[140.421281,41.532722],[140.420967,41.532559],[140.420395,41.532057],[140.420098,41.531713],[140.419993,41.531508],[140.419767,41.53067],[140.419522,41.530519],[140.419547,41.530443],[140.418957,41.530421],[140.418952,41.530103],[140.418641,41.529618],[140.417862,41.52932],[140.414805,41.528315],[140.413179,41.52809],[140.412164,41.526833],[140.411092,41.52614],[140.409119,41.525013],[140.408969,41.524716],[140.408961,41.524516],[140.408853,41.524228],[140.407839,41.523055],[140.407812,41.522826],[140.393704,41.52227],[140.390326,41.522333],[140.385796,41.522499],[140.384369,41.52111],[140.383123,41.520222],[140.380715,41.520021],[140.379626,41.520625],[140.371987,41.518794],[140.368681,41.518074],[140.36536,41.520854],[140.364806,41.520022],[140.364262,41.51937],[140.363708,41.518806],[140.360267,41.516615],[140.359491,41.515885],[140.35724,41.515323],[140.356077,41.514491],[140.354869,41.513791],[140.354203,41.513471],[140.352468,41.513944],[140.352385,41.514353],[140.351923,41.515178],[140.349755,41.515463],[140.348455,41.515373],[140.347071,41.51608],[140.346388,41.516205],[140.345936,41.515359],[140.345429,41.514943],[140.345299,41.513882],[140.344212,41.513823],[140.342957,41.513136],[140.342146,41.512824],[140.342053,41.510396],[140.342578,41.510632],[140.342975,41.510653],[140.343132,41.510618],[140.343314,41.509923],[140.343305,41.509397],[140.342954,41.50898],[140.343007,41.507897],[140.343275,41.50764],[140.34381,41.507446],[140.344003,41.506773],[140.344096,41.50617],[140.344066,41.505631],[140.343927,41.505774],[140.343868,41.505919],[140.343885,41.505998],[140.343783,41.50608],[140.343777,41.506223],[140.343831,41.506275],[140.343744,41.506375],[140.342878,41.506287],[140.342743,41.506167],[140.342842,41.506121],[140.342842,41.505915],[140.341917,41.506011],[140.341002,41.506963],[140.340497,41.507968],[140.338878,41.507865],[140.337753,41.507886],[140.335151,41.508156],[140.333823,41.508406],[140.332283,41.50878],[140.330779,41.509273],[140.330548,41.50781],[140.33029,41.507348],[140.329201,41.505968],[140.328832,41.505802],[140.321678,41.503706],[140.319391,41.502895],[140.31735,41.501762],[140.317009,41.501713],[140.314463,41.501991],[140.312969,41.501942],[140.312508,41.501831],[140.31378,41.500513],[140.314276,41.499872],[140.315314,41.498191],[140.31603,41.497199],[140.316015,41.497148],[140.315895,41.497114],[140.315858,41.497041],[140.315708,41.497046],[140.315596,41.496945],[140.315483,41.496958],[140.315463,41.497047],[140.314925,41.496904],[140.31434,41.496904],[140.313644,41.496833],[140.313788,41.496765],[140.31378,41.49668],[140.313713,41.496641],[140.313571,41.49668],[140.313601,41.496828],[140.313126,41.496676],[140.312401,41.496315],[140.310939,41.495457],[140.310542,41.495072],[140.310254,41.494583],[140.310899,41.494023],[140.312158,41.493242],[140.312822,41.492958],[140.313624,41.49275],[140.314491,41.492625],[140.316815,41.492646],[140.318697,41.49311],[140.319453,41.493429],[140.320458,41.494032],[140.320901,41.494199],[140.324036,41.494894],[140.325355,41.495304],[140.32755,41.496358],[140.328389,41.496954],[140.328952,41.497273],[140.332331,41.498627],[140.333124,41.499078],[140.333733,41.499605],[140.334176,41.500181],[140.334514,41.500959],[140.334662,41.501098],[140.33741,41.50184],[140.337862,41.501902],[140.33896,41.501659],[140.341506,41.5008],[140.342898,41.500508],[140.34461,41.500384],[140.346289,41.500391],[140.348881,41.500676],[140.350522,41.500995],[140.351885,41.501349],[140.35298,41.50173],[140.354041,41.502259],[140.354906,41.502857],[140.35569,41.503507],[140.356289,41.504105],[140.356889,41.504859],[140.357327,41.505535],[140.357788,41.506579],[140.360082,41.508018],[140.360762,41.508538],[140.3615,41.509223],[140.361996,41.509874],[140.36338,41.509917],[140.364141,41.509484],[140.364914,41.50918],[140.365848,41.508964],[140.366655,41.50886],[140.367785,41.508851],[140.369964,41.509267],[140.372547,41.510021],[140.373954,41.510508],[140.374519,41.510274],[140.375453,41.510031],[140.37671,41.509858],[140.378786,41.509997],[140.380181,41.510274],[140.381288,41.51056],[140.381968,41.510577],[140.38316,41.510457],[140.385109,41.510422],[140.388568,41.510726],[140.391728,41.511081],[140.395138,41.511741],[140.397006,41.512287],[140.399174,41.513171],[140.399566,41.513283],[140.402665,41.513388],[140.40368,41.512816],[140.405502,41.512166],[140.406482,41.511993],[140.408154,41.511967],[140.409584,41.512123],[140.410507,41.512305],[140.411314,41.512608],[140.412605,41.513458],[140.413113,41.513908],[140.413666,41.51455],[140.414162,41.515373],[140.414505,41.5162],[140.41537,41.517622],[140.416719,41.518844],[140.417803,41.519641],[140.420068,41.52117],[140.420656,41.521682],[140.421302,41.522358],[140.421879,41.523164],[140.422974,41.524875],[140.4234,41.525291],[140.424266,41.525855],[140.42505,41.526461],[140.42558,41.526938],[140.425973,41.527398],[140.426422,41.528299],[140.426607,41.528802],[140.42661,41.529827],[140.426818,41.530148],[140.426991,41.5302],[140.42871,41.530165],[140.43059,41.530425],[140.432181,41.53087],[140.433704,41.531728],[140.434177,41.532213],[140.434673,41.53295],[140.435376,41.534493],[140.435584,41.535134],[140.43623,41.536165],[140.436728,41.536611],[140.438101,41.537651],[140.438528,41.538179],[140.438759,41.538639],[140.438943,41.539376],[140.439072,41.541095],[140.439522,41.542135],[140.440076,41.542872],[140.441964,41.544808],[140.442576,41.545545],[140.443049,41.54655],[140.443171,41.547301],[140.443171,41.547875],[140.442883,41.548601],[140.442811,41.548882],[140.44284,41.549121],[140.443143,41.549597],[140.444543,41.551258],[140.444903,41.551811],[140.445105,41.552342],[140.445206,41.553024],[140.445163,41.55375],[140.444976,41.554444],[140.444658,41.555148],[140.44424,41.555887],[140.44336,41.558411]]],[[[140.300327,41.594707],[140.300168,41.59584],[140.299917,41.59626],[140.299437,41.5968],[140.299038,41.597718],[140.297886,41.597891],[140.296862,41.599158],[140.296708,41.599567],[140.296461,41.599889],[140.296178,41.600064],[140.295944,41.600129],[140.295373,41.60017],[140.294745,41.600113],[140.294723,41.599187],[140.294586,41.59905],[140.293958,41.598921],[140.293341,41.598433],[140.293078,41.598338],[140.29044,41.598038],[140.290189,41.59725],[140.290177,41.596272],[140.290634,41.595883],[140.29133,41.595095],[140.290931,41.594606],[140.288932,41.59458],[140.288464,41.594195],[140.288807,41.593269],[140.288558,41.592537],[140.28849,41.592135],[140.289472,41.590549],[140.291303,41.590091],[140.292897,41.590103],[140.293525,41.5909],[140.293856,41.591466],[140.294834,41.591998],[140.295451,41.592419],[140.295713,41.592847],[140.296969,41.593559],[140.296707,41.594039],[140.297951,41.594116],[140.299196,41.593824],[140.300327,41.594707]]]]}}]}
