{"type":"FeatureCollection","features":[{"type":"Feature","properties":{"potaRef":"JP-1089","nameJa":"Kasumigajo","nameEn":"Kasumigajo Prefectural Nature Park","authority":"環境省 生物多様性「見える化」マップ","boundaryStatus":"全国GIS候補・公開前検証待ち","boundarySource":"環境省 生物多様性「見える化」マップの自然公園区域を、POTA代表座標で一意に空間照合して加工","boundaryScaleNote":"区域は概要データであり、正確性は保証されない。POTA運用可否は公式情報で最終確認すること。","candidateMethod":"POTA representative point inside one public natural-park area","sourceParkKind":"都道府県立自然公園","sourceName":"Kasumigajo","sourceFeatureCount":1,"cautionMeters":75},"geometry":{"type":"MultiPolygon","coordinates":[[[[140.431006,37.604603],[140.430296,37.604674],[140.430125,37.604731],[140.429417,37.605138],[140.428824,37.605594],[140.427854,37.606641],[140.427706,37.606893],[140.427641,37.607187],[140.427568,37.6073],[140.426829,37.607081],[140.425667,37.606857],[140.424347,37.606045],[140.423962,37.60588],[140.423422,37.60575],[140.423238,37.605462],[140.422397,37.604614],[140.422402,37.604556],[140.42262,37.604505],[140.422978,37.604577],[140.422968,37.604215],[140.423043,37.604066],[140.423186,37.60402],[140.423528,37.604112],[140.423646,37.603932],[140.423948,37.603737],[140.424025,37.603431],[140.424306,37.603136],[140.424102,37.602937],[140.423498,37.602955],[140.423246,37.602879],[140.423216,37.602818],[140.423424,37.602361],[140.423402,37.60231],[140.423045,37.602111],[140.422941,37.601725],[140.423147,37.601454],[140.423165,37.601233],[140.423471,37.600907],[140.423486,37.60082],[140.421805,37.600356],[140.421633,37.600138],[140.421913,37.599995],[140.422053,37.599271],[140.421812,37.599311],[140.421308,37.59964],[140.421108,37.599494],[140.420153,37.598559],[140.419546,37.597865],[140.419145,37.597209],[140.418783,37.596456],[140.418665,37.595741],[140.418665,37.595164],[140.419137,37.592336],[140.419209,37.592071],[140.419394,37.592039],[140.419488,37.591961],[140.41991,37.591148],[140.420554,37.591347],[140.420867,37.591745],[140.421108,37.591968],[140.422047,37.591538],[140.422309,37.591299],[140.422442,37.591072],[140.422917,37.590652],[140.423304,37.590615],[140.424067,37.590667],[140.424206,37.590786],[140.42453,37.59091],[140.424278,37.59155],[140.424257,37.591823],[140.424516,37.593312],[140.424674,37.593504],[140.424795,37.593416],[140.425122,37.592958],[140.425085,37.592685],[140.425189,37.591711],[140.425888,37.59147],[140.426334,37.591927],[140.426437,37.592167],[140.426377,37.59244],[140.426549,37.592967],[140.42646,37.593194],[140.426507,37.594545],[140.426562,37.59474],[140.426817,37.594928],[140.426994,37.59515],[140.427276,37.595319],[140.427475,37.595357],[140.427701,37.594986],[140.427794,37.594709],[140.427689,37.594607],[140.427507,37.594036],[140.42782,37.593955],[140.428218,37.59397],[140.428666,37.594691],[140.428747,37.595013],[140.429197,37.595703],[140.42929,37.595781],[140.429474,37.596431],[140.429699,37.596582],[140.430258,37.596836],[140.430371,37.596827],[140.430734,37.59664],[140.430934,37.596714],[140.433579,37.598229],[140.433694,37.598366],[140.433713,37.598799],[140.434189,37.598884],[140.434163,37.599008],[140.433684,37.599566],[140.433443,37.599547],[140.433345,37.599658],[140.433365,37.599817],[140.433725,37.599978],[140.433818,37.600209],[140.433304,37.600605],[140.432898,37.600643],[140.432831,37.600704],[140.43283,37.600759],[140.433157,37.601143],[140.433387,37.601266],[140.433574,37.601262],[140.433963,37.601019],[140.434278,37.601147],[140.434883,37.601141],[140.434985,37.601231],[140.434966,37.60146],[140.435072,37.601549],[140.435133,37.601817],[140.435277,37.601899],[140.43568,37.601975],[140.436013,37.601924],[140.436501,37.601638],[140.43663,37.601318],[140.436753,37.601221],[140.436984,37.60118],[140.437272,37.601286],[140.437297,37.601391],[140.437222,37.60163],[140.437539,37.601836],[140.437879,37.601947],[140.438167,37.601932],[140.438529,37.601683],[140.438728,37.601901],[140.438916,37.602004],[140.438739,37.602153],[140.438743,37.602255],[140.438524,37.602392],[140.438296,37.602643],[140.438057,37.603502],[140.436934,37.603472],[140.436461,37.603206],[140.435383,37.603314],[140.434924,37.603224],[140.433988,37.603297],[140.433443,37.603155],[140.432924,37.60328],[140.432881,37.603373],[140.433095,37.60359],[140.433411,37.603796],[140.433664,37.604108],[140.43375,37.604474],[140.433733,37.604571],[140.432699,37.604675],[140.431678,37.604543],[140.431006,37.604603]]],[[[140.467335,37.593926],[140.467546,37.594189],[140.467666,37.59452],[140.467637,37.594545],[140.466627,37.59485],[140.465993,37.594925],[140.465231,37.594907],[140.464734,37.59481],[140.464495,37.594713],[140.464283,37.594242],[140.464287,37.594196],[140.46456,37.594093],[140.464621,37.59388],[140.465356,37.593484],[140.465496,37.593566],[140.465685,37.593562],[140.466278,37.593443],[140.466376,37.59355],[140.466676,37.593547],[140.466878,37.593626],[140.466776,37.593876],[140.467195,37.593862],[140.467335,37.593926]]]]}}]}
