{"type":"FeatureCollection","features":[{"type":"Feature","properties":{"potaRef":"JP-1457","nameJa":"Sakurabuchi","nameEn":"Sakurabuchi Prefectural Nature Park","authority":"環境省 生物多様性「見える化」マップ","boundaryStatus":"全国GIS候補・公開前検証待ち","boundarySource":"環境省 生物多様性「見える化」マップの自然公園区域を、POTA代表座標で一意に空間照合して加工","boundaryScaleNote":"区域は概要データであり、正確性は保証されない。POTA運用可否は公式情報で最終確認すること。","candidateMethod":"POTA representative point inside one public natural-park area","sourceParkKind":"都道府県立自然公園","sourceName":"Sakurabuchi","sourceFeatureCount":1,"cautionMeters":75},"geometry":{"type":"MultiPolygon","coordinates":[[[[137.577031,34.931809],[137.574575,34.931417],[137.572925,34.93084],[137.572232,34.930701],[137.571941,34.930572],[137.571648,34.930287],[137.571445,34.92994],[137.571294,34.929393],[137.571005,34.928738],[137.570517,34.927885],[137.569761,34.927007],[137.569331,34.926665],[137.568826,34.926359],[137.567256,34.925664],[137.565922,34.92521],[137.564674,34.924895],[137.563631,34.92469],[137.563007,34.924431],[137.562395,34.924045],[137.562326,34.924041],[137.561541,34.923258],[137.561053,34.922522],[137.560746,34.921558],[137.560368,34.920672],[137.556357,34.920454],[137.553464,34.920224],[137.553107,34.920249],[137.552758,34.920432],[137.551456,34.920425],[137.550041,34.920709],[137.548996,34.920656],[137.548665,34.920577],[137.548542,34.920502],[137.547538,34.919412],[137.546135,34.918383],[137.545842,34.918256],[137.545574,34.918218],[137.545013,34.918265],[137.544347,34.918169],[137.544005,34.91801],[137.543423,34.917551],[137.542806,34.917317],[137.542093,34.91738],[137.54152,34.917298],[137.540828,34.916991],[137.540293,34.916576],[137.53974,34.916235],[137.539466,34.91595],[137.539459,34.91511],[137.539553,34.914797],[137.539438,34.914509],[137.539221,34.914299],[137.537896,34.913466],[137.537365,34.913007],[137.53711,34.912603],[137.536661,34.911461],[137.536407,34.911249],[137.53626,34.9112],[137.535668,34.911167],[137.534138,34.911398],[137.533878,34.911483],[137.533742,34.911596],[137.533368,34.911714],[137.533227,34.911814],[137.532284,34.912095],[137.531203,34.91256],[137.530785,34.912556],[137.530626,34.912153],[137.530706,34.911645],[137.530606,34.911469],[137.530559,34.911213],[137.530734,34.910883],[137.531034,34.910582],[137.531223,34.909973],[137.531413,34.909819],[137.532193,34.909856],[137.532428,34.909791],[137.532713,34.909554],[137.532772,34.909336],[137.532737,34.909218],[137.532688,34.909168],[137.532595,34.909176],[137.532297,34.909475],[137.532132,34.90947],[137.53199,34.909213],[137.531951,34.908821],[137.531886,34.908654],[137.531726,34.908398],[137.53139,34.90811],[137.531402,34.907881],[137.531355,34.90782],[137.530319,34.907451],[137.529958,34.907217],[137.528679,34.906549],[137.527646,34.906165],[137.527219,34.906072],[137.525588,34.905906],[137.523816,34.905893],[137.521782,34.906006],[137.520358,34.906191],[137.519124,34.906146],[137.518186,34.905956],[137.517424,34.905599],[137.51698,34.905243],[137.516384,34.904225],[137.515935,34.903806],[137.515411,34.903489],[137.514975,34.903297],[137.514497,34.903185],[137.51409,34.902691],[137.513897,34.902262],[137.513801,34.901835],[137.513852,34.9014],[137.514155,34.901029],[137.514476,34.900822],[137.515099,34.900624],[137.514793,34.900461],[137.514561,34.900228],[137.514081,34.900058],[137.514218,34.898891],[137.513146,34.898882],[137.512281,34.899164],[137.511191,34.899176],[137.51055,34.899232],[137.50977,34.898497],[137.507475,34.897523],[137.505575,34.896901],[137.501424,34.896759],[137.499319,34.89638],[137.498392,34.896066],[137.498058,34.895866],[137.497311,34.895141],[137.495332,34.893477],[137.493724,34.892201],[137.488762,34.888908],[137.484673,34.886016],[137.482064,34.883713],[137.481506,34.883337],[137.480987,34.883072],[137.480894,34.882329],[137.479727,34.880269],[137.47841,34.878652],[137.477753,34.877961],[137.476895,34.87732],[137.476082,34.876939],[137.475245,34.876723],[137.474366,34.876665],[137.474177,34.876607],[137.474149,34.876477],[137.474238,34.875538],[137.474225,34.875166],[137.47427,34.875029],[137.474271,34.874345],[137.474412,34.873406],[137.474881,34.873421],[137.47717,34.873769],[137.479777,34.873151],[137.480299,34.873108],[137.480611,34.873203],[137.482983,34.874328],[137.483416,34.87467],[137.483712,34.875165],[137.483748,34.875404],[137.484287,34.877048],[137.484442,34.877711],[137.484388,34.878317],[137.484292,34.878729],[137.484287,34.878868],[137.484383,34.87894],[137.484855,34.87895],[137.485282,34.878863],[137.485897,34.878949],[137.48684,34.877721],[137.488008,34.87731],[137.488907,34.877286],[137.489455,34.877413],[137.489716,34.877427],[137.489904,34.877488],[137.490896,34.878089],[137.491502,34.877945],[137.49191,34.878612],[137.492005,34.878686],[137.492461,34.878463],[137.492654,34.877425],[137.493143,34.877232],[137.493239,34.877254],[137.493539,34.877674],[137.494028,34.877579],[137.49494,34.877868],[137.495251,34.87792],[137.495487,34.877801],[137.495806,34.877497],[137.49544,34.876669],[137.4954,34.87647],[137.496307,34.876117],[137.496421,34.875729],[137.496614,34.875525],[137.496901,34.875308],[137.497344,34.875097],[137.497161,34.874944],[137.49722,34.874838],[137.498228,34.874482],[137.498318,34.874486],[137.498695,34.875136],[137.498813,34.875208],[137.500671,34.874479],[137.501578,34.874197],[137.501835,34.874638],[137.501794,34.875542],[137.501679,34.875915],[137.501237,34.876525],[137.501844,34.878621],[137.50223,34.880428],[137.502613,34.881454],[137.502725,34.881518],[137.503421,34.881676],[137.504146,34.88381],[137.504197,34.883837],[137.504683,34.883487],[137.505224,34.883265],[137.505928,34.883074],[137.506586,34.882974],[137.506753,34.883037],[137.507418,34.883097],[137.508389,34.883002],[137.508692,34.882931],[137.50904,34.882763],[137.509607,34.882583],[137.510359,34.882489],[137.510678,34.882011],[137.511252,34.882215],[137.511512,34.882151],[137.512448,34.881725],[137.512777,34.881644],[137.51338,34.881402],[137.513622,34.881407],[137.513816,34.881555],[137.513959,34.881598],[137.51424,34.881488],[137.514642,34.881482],[137.515159,34.881372],[137.515437,34.881192],[137.515943,34.880539],[137.516253,34.879926],[137.516285,34.879627],[137.516361,34.879566],[137.517955,34.879858],[137.518786,34.879833],[137.519478,34.879912],[137.519907,34.880125],[137.520374,34.880537],[137.521111,34.880718],[137.521456,34.880849],[137.521747,34.881375],[137.521899,34.882038],[137.522105,34.882265],[137.522979,34.88295],[137.523852,34.883554],[137.524445,34.883664],[137.524945,34.883891],[137.525664,34.88459],[137.525694,34.884671],[137.525601,34.885298],[137.525436,34.885904],[137.525034,34.886298],[137.524524,34.88698],[137.524793,34.887202],[137.527234,34.888732],[137.528578,34.889455],[137.529535,34.889809],[137.529981,34.890162],[137.530394,34.891128],[137.531313,34.892475],[137.532063,34.893362],[137.532995,34.894298],[137.533185,34.89457],[137.533398,34.895149],[137.533447,34.89589],[137.533287,34.896773],[137.533096,34.89736],[137.53313,34.897444],[137.533731,34.897447],[137.5342,34.897391],[137.534755,34.896933],[137.535801,34.896386],[137.536023,34.896085],[137.53616,34.89554],[137.536245,34.894523],[137.536698,34.893811],[137.537035,34.893081],[137.537273,34.892902],[137.537226,34.893081],[137.537249,34.893247],[137.537372,34.893479],[137.538914,34.894856],[137.539454,34.89549],[137.539837,34.895802],[137.540204,34.895915],[137.541103,34.896023],[137.541196,34.896052],[137.541414,34.896301],[137.541667,34.896371],[137.542449,34.896245],[137.54355,34.89652],[137.544006,34.896576],[137.544309,34.896756],[137.54476,34.897217],[137.545204,34.897918],[137.545781,34.897937],[137.546164,34.898032],[137.546265,34.898014],[137.54666,34.897749],[137.547499,34.897681],[137.548054,34.897417],[137.548334,34.897476],[137.548668,34.8977],[137.54918,34.897836],[137.549439,34.898021],[137.549696,34.898094],[137.550426,34.897924],[137.551363,34.898004],[137.552025,34.897883],[137.55249,34.897926],[137.552792,34.898009],[137.55298,34.897884],[137.553285,34.897529],[137.553894,34.897287],[137.554489,34.897214],[137.554829,34.896915],[137.555153,34.896412],[137.555503,34.896361],[137.556101,34.896035],[137.556682,34.895893],[137.556796,34.895741],[137.556871,34.895513],[137.557037,34.895581],[137.55764,34.89562],[137.558007,34.895504],[137.558356,34.895335],[137.558696,34.895271],[137.559072,34.894995],[137.559308,34.894704],[137.559383,34.895717],[137.558774,34.896227],[137.558719,34.896304],[137.55885,34.896486],[137.558707,34.89663],[137.558548,34.896686],[137.558683,34.89689],[137.559038,34.897207],[137.559346,34.897364],[137.558926,34.897481],[137.55873,34.897594],[137.558676,34.897708],[137.559094,34.898067],[137.559779,34.898431],[137.560232,34.89876],[137.56076,34.899418],[137.560887,34.89945],[137.560979,34.89955],[137.561055,34.899846],[137.561229,34.9],[137.561618,34.90061],[137.561724,34.900989],[137.561724,34.901687],[137.561836,34.902246],[137.561735,34.902463],[137.561741,34.902505],[137.561879,34.902564],[137.56185,34.902711],[137.561499,34.903463],[137.561484,34.903731],[137.561352,34.903983],[137.561043,34.904352],[137.560992,34.904634],[137.560843,34.904887],[137.561058,34.905075],[137.56136,34.905201],[137.561424,34.905272],[137.561356,34.905406],[137.561238,34.905466],[137.561301,34.905626],[137.5617,34.905749],[137.56231,34.905776],[137.562356,34.905824],[137.562231,34.905999],[137.562189,34.906223],[137.562252,34.906337],[137.562452,34.906442],[137.562858,34.906449],[137.563278,34.906369],[137.563888,34.906794],[137.563894,34.906863],[137.563751,34.907104],[137.563607,34.90782],[137.563384,34.907918],[137.563165,34.907779],[137.562929,34.907906],[137.56325,34.90809],[137.563633,34.908048],[137.563785,34.907974],[137.563953,34.907714],[137.56404,34.907716],[137.563926,34.907876],[137.563867,34.908195],[137.563576,34.908411],[137.563288,34.90894],[137.563149,34.909036],[137.563075,34.909174],[137.563204,34.909213],[137.56358,34.908896],[137.564257,34.908576],[137.564523,34.908174],[137.564841,34.907915],[137.565315,34.907654],[137.566218,34.907768],[137.566341,34.907824],[137.566652,34.908116],[137.566827,34.908163],[137.566957,34.90814],[137.567493,34.90785],[137.567783,34.907793],[137.567959,34.907967],[137.568252,34.908612],[137.568405,34.908798],[137.569081,34.909082],[137.569177,34.909032],[137.569296,34.909219],[137.569083,34.909888],[137.569024,34.910386],[137.569045,34.910564],[137.569565,34.911918],[137.569778,34.912269],[137.570199,34.912648],[137.570817,34.912975],[137.571532,34.913553],[137.571887,34.913732],[137.572414,34.913895],[137.572513,34.913948],[137.572647,34.914136],[137.572666,34.914235],[137.572562,34.914804],[137.572607,34.915231],[137.573062,34.916139],[137.573182,34.916917],[137.573485,34.917437],[137.573536,34.91781],[137.573087,34.918505],[137.572671,34.91898],[137.572256,34.919341],[137.571512,34.919864],[137.571445,34.919964],[137.571454,34.92006],[137.571574,34.920194],[137.571956,34.920381],[137.572366,34.920725],[137.572489,34.921012],[137.57236,34.921172],[137.571865,34.921354],[137.571134,34.921374],[137.570609,34.921305],[137.570374,34.921415],[137.570337,34.921468],[137.570384,34.921839],[137.570346,34.922151],[137.570171,34.922319],[137.569887,34.922493],[137.569546,34.922835],[137.569179,34.923271],[137.569008,34.923648],[137.568889,34.92379],[137.569077,34.923943],[137.569398,34.92406],[137.569886,34.923862],[137.57017,34.923924],[137.570213,34.923878],[137.570185,34.923698],[137.570238,34.923505],[137.570296,34.92344],[137.570415,34.923421],[137.570583,34.923455],[137.570753,34.923578],[137.570962,34.923491],[137.571297,34.923532],[137.571753,34.923845],[137.573001,34.924099],[137.573382,34.924512],[137.573411,34.924588],[137.573348,34.924822],[137.573046,34.924928],[137.572738,34.924933],[137.572189,34.924839],[137.572066,34.924904],[137.572039,34.92524],[137.572352,34.925999],[137.572452,34.925996],[137.572661,34.92552],[137.572783,34.925391],[137.573228,34.925471],[137.573623,34.925302],[137.573863,34.925284],[137.573986,34.925353],[137.574158,34.925567],[137.574429,34.925734],[137.574531,34.926107],[137.574575,34.926162],[137.574647,34.926162],[137.575011,34.92604],[137.574766,34.925824],[137.574449,34.925171],[137.573643,34.924486],[137.573357,34.924059],[137.573144,34.923578],[137.573127,34.923262],[137.573291,34.922986],[137.573569,34.922866],[137.573666,34.922689],[137.573665,34.922549],[137.573709,34.922528],[137.574727,34.923289],[137.575186,34.923691],[137.575932,34.924591],[137.576205,34.925193],[137.576315,34.925658],[137.576307,34.926165],[137.576206,34.926752],[137.575791,34.926996],[137.575772,34.927329],[137.576023,34.928672],[137.576257,34.929371],[137.576912,34.93064],[137.576856,34.930738],[137.576294,34.931007],[137.577233,34.931482],[137.577248,34.931529],[137.577031,34.931809]],[[137.56587,34.910404],[137.566175,34.910159],[137.566425,34.909957],[137.56587,34.910404]]],[[[137.541974,34.856944],[137.541914,34.856998],[137.540877,34.857077],[137.540035,34.856644],[137.5397,34.856615],[137.539159,34.856686],[137.538863,34.856504],[137.538818,34.856441],[137.538816,34.855872],[137.538754,34.855851],[137.538522,34.855914],[137.53818,34.855691],[137.538359,34.855412],[137.538208,34.85489],[137.539065,34.854461],[137.53922,34.854301],[137.539214,34.854189],[137.539081,34.854068],[137.53881,34.853946],[137.538193,34.85386],[137.537785,34.853584],[137.537368,34.853949],[137.537181,34.854022],[137.536942,34.853862],[137.536645,34.853449],[137.536578,34.853519],[137.536484,34.853813],[137.536161,34.853895],[137.536006,34.854176],[137.535728,34.854534],[137.535707,34.85459],[137.535754,34.854629],[137.536468,34.854674],[137.536554,34.854713],[137.536515,34.855492],[137.53666,34.855858],[137.536652,34.855938],[137.536555,34.856033],[137.536212,34.85621],[137.535997,34.856238],[137.535631,34.856043],[137.535154,34.855872],[137.534556,34.855753],[137.534225,34.855758],[137.533944,34.855566],[137.533882,34.855372],[137.5339,34.855055],[137.533816,34.854847],[137.533495,34.854563],[137.533256,34.854143],[137.533936,34.854095],[137.534408,34.853862],[137.534758,34.853754],[137.535159,34.85365],[137.535441,34.853677],[137.535653,34.853519],[137.535649,34.853461],[137.535502,34.853349],[137.535245,34.853284],[137.53498,34.853276],[137.534563,34.853391],[137.534343,34.85335],[137.534311,34.853253],[137.534361,34.853136],[137.534547,34.852917],[137.534827,34.852717],[137.534905,34.852558],[137.534763,34.852473],[137.534294,34.852554],[137.534144,34.852518],[137.534129,34.852342],[137.534289,34.851846],[137.534249,34.851771],[137.533981,34.851659],[137.533862,34.851658],[137.533239,34.852037],[137.532416,34.852206],[137.532178,34.852393],[137.532039,34.852431],[137.531909,34.852311],[137.531885,34.852056],[137.531788,34.851817],[137.531671,34.851804],[137.53144,34.852105],[137.531202,34.85222],[137.531016,34.852151],[137.530891,34.851974],[137.530923,34.851818],[137.531097,34.851585],[137.531151,34.850979],[137.531368,34.850524],[137.531547,34.850393],[137.532159,34.850363],[137.532007,34.849847],[137.532058,34.849595],[137.532325,34.849295],[137.532883,34.848987],[137.532995,34.848849],[137.532981,34.848678],[137.532692,34.848172],[137.531947,34.847817],[137.531712,34.847786],[137.531268,34.848123],[137.531078,34.848138],[137.530706,34.848346],[137.530435,34.848611],[137.530355,34.848831],[137.530251,34.848922],[137.529565,34.84892],[137.529252,34.848868],[137.529186,34.848793],[137.529578,34.848477],[137.530117,34.848233],[137.530201,34.84807],[137.530077,34.84792],[137.529863,34.847842],[137.528945,34.847998],[137.528425,34.847989],[137.528189,34.848085],[137.528069,34.848035],[137.527814,34.848178],[137.527595,34.848071],[137.527221,34.84812],[137.526956,34.847929],[137.526408,34.847969],[137.525156,34.847298],[137.524895,34.847201],[137.523852,34.847101],[137.523518,34.846898],[137.523413,34.846687],[137.523497,34.846411],[137.523822,34.845978],[137.523835,34.845879],[137.523759,34.845762],[137.52352,34.845632],[137.522973,34.845541],[137.522419,34.845768],[137.522396,34.845282],[137.521987,34.845036],[137.521486,34.84464],[137.521143,34.844042],[137.520974,34.84388],[137.519437,34.844486],[137.518334,34.844859],[137.516734,34.845203],[137.513574,34.845584],[137.508838,34.845814],[137.508228,34.84579],[137.506136,34.845562],[137.504326,34.845146],[137.502506,34.844522],[137.499154,34.843128],[137.498897,34.842728],[137.497998,34.842414],[137.498098,34.842357],[137.498769,34.842371],[137.498926,34.842328],[137.498983,34.842229],[137.498897,34.842143],[137.498155,34.842],[137.497727,34.841814],[137.497427,34.841586],[137.497384,34.841372],[137.497555,34.84043],[137.497627,34.840301],[137.497984,34.840173],[137.498069,34.839873],[137.498241,34.839702],[137.498997,34.839573],[137.499097,34.839502],[137.498997,34.839159],[137.499154,34.838988],[137.49934,34.838902],[137.500139,34.838774],[137.500368,34.838631],[137.500325,34.838488],[137.499911,34.838402],[137.499026,34.838374],[137.498255,34.838045],[137.497413,34.838117],[137.495956,34.838417],[137.495742,34.83836],[137.495314,34.838017],[137.496385,34.837403],[137.49674,34.836757],[137.497311,34.835454],[137.497233,34.835341],[137.496988,34.835198],[137.496525,34.835353],[137.495998,34.835261],[137.495827,34.834995],[137.495826,34.834661],[137.495914,34.834231],[137.496108,34.833861],[137.496563,34.83361],[137.496678,34.833494],[137.496717,34.83291],[137.496855,34.832651],[137.496899,34.832376],[137.496574,34.832188],[137.49656,34.831995],[137.496482,34.831835],[137.4965,34.831428],[137.49643,34.830768],[137.495992,34.830469],[137.495518,34.830354],[137.49496,34.830605],[137.494683,34.830879],[137.494402,34.830912],[137.494118,34.831046],[137.493718,34.831097],[137.493143,34.830934],[137.492899,34.83119],[137.493249,34.831653],[137.493009,34.832048],[137.492594,34.831646],[137.492333,34.831535],[137.492177,34.831404],[137.492093,34.830621],[137.491991,34.830154],[137.492554,34.829952],[137.492921,34.829721],[137.493628,34.82892],[137.494366,34.828337],[137.494924,34.827661],[137.495126,34.82749],[137.495543,34.827342],[137.495893,34.827303],[137.496584,34.827133],[137.497114,34.826905],[137.498878,34.8268],[137.49892,34.827374],[137.498887,34.827742],[137.499013,34.828591],[137.499261,34.828945],[137.500262,34.829624],[137.500251,34.829914],[137.500297,34.830103],[137.500465,34.830335],[137.500402,34.830572],[137.500015,34.831097],[137.499967,34.831243],[137.499992,34.831336],[137.500383,34.831596],[137.50125,34.831985],[137.502169,34.832267],[137.502214,34.832351],[137.502135,34.832554],[137.502127,34.832732],[137.502393,34.833241],[137.502594,34.833454],[137.502828,34.833503],[137.50349,34.833291],[137.504757,34.833937],[137.505335,34.834152],[137.506361,34.834408],[137.506762,34.834566],[137.507132,34.834585],[137.507365,34.834658],[137.507602,34.834874],[137.507866,34.834976],[137.507949,34.834987],[137.508585,34.834692],[137.509273,34.834465],[137.509881,34.834438],[137.510766,34.834631],[137.511421,34.834861],[137.51159,34.834961],[137.511863,34.835018],[137.512122,34.835029],[137.512511,34.834803],[137.512668,34.83477],[137.512881,34.83487],[137.514207,34.835239],[137.515316,34.835791],[137.515999,34.835989],[137.516693,34.835981],[137.517503,34.835837],[137.517797,34.835847],[137.518339,34.835988],[137.519012,34.83639],[137.519167,34.83666],[137.519671,34.836887],[137.520113,34.836986],[137.520563,34.837159],[137.520649,34.837251],[137.520703,34.837429],[137.520658,34.837822],[137.520693,34.838018],[137.520976,34.838561],[137.521212,34.838782],[137.521975,34.839271],[137.522346,34.83962],[137.522814,34.83996],[137.523651,34.840481],[137.523734,34.840583],[137.523881,34.84098],[137.524412,34.841205],[137.524789,34.841209],[137.525307,34.841305],[137.525792,34.841498],[137.52717,34.841453],[137.527571,34.841488],[137.528732,34.841909],[137.52906,34.84218],[137.529259,34.842477],[137.529644,34.843469],[137.529793,34.843586],[137.53052,34.843597],[137.531367,34.84368],[137.533074,34.844056],[137.534379,34.844182],[137.534632,34.844152],[137.535072,34.843938],[137.536243,34.843499],[137.536547,34.843328],[137.536714,34.843115],[137.536878,34.8426],[137.537097,34.842282],[137.53741,34.842099],[137.537936,34.841935],[137.538838,34.841792],[137.539723,34.842071],[137.540625,34.842234],[137.541981,34.842019],[137.542341,34.842085],[137.542947,34.842615],[137.543435,34.842897],[137.543697,34.843196],[137.543827,34.844039],[137.543915,34.844287],[137.544123,34.844507],[137.544279,34.845001],[137.544663,34.845509],[137.545136,34.845883],[137.546456,34.846651],[137.54703,34.847195],[137.547758,34.847684],[137.547459,34.848838],[137.547347,34.849036],[137.544884,34.852334],[137.541874,34.854601],[137.541846,34.854796],[137.541885,34.855182],[137.542026,34.855943],[137.541941,34.856336],[137.541974,34.856944]]],[[[137.584292,34.860928],[137.584228,34.861092],[137.583615,34.861276],[137.583314,34.861554],[137.582916,34.861791],[137.581721,34.862169],[137.580371,34.86281],[137.579665,34.863035],[137.578773,34.863159],[137.577813,34.863364],[137.577676,34.862983],[137.577928,34.86237],[137.577791,34.861942],[137.577784,34.861732],[137.578079,34.861258],[137.578182,34.86098],[137.578156,34.860742],[137.578056,34.860664],[137.577957,34.86065],[137.57763,34.86074],[137.576322,34.861499],[137.575971,34.861576],[137.575298,34.861279],[137.574381,34.86071],[137.574113,34.860421],[137.573899,34.859881],[137.573743,34.859907],[137.573467,34.860144],[137.573321,34.860152],[137.572734,34.859557],[137.571723,34.859094],[137.571658,34.859143],[137.57166,34.859203],[137.571876,34.859574],[137.572816,34.860388],[137.572911,34.860605],[137.572806,34.860826],[137.572749,34.860826],[137.572572,34.860513],[137.572288,34.860402],[137.571177,34.860423],[137.57072,34.860301],[137.5706,34.860142],[137.570622,34.860068],[137.570757,34.859997],[137.571045,34.859947],[137.571127,34.859838],[137.571153,34.859646],[137.571004,34.859258],[137.571113,34.85904],[137.571113,34.858941],[137.570932,34.858515],[137.570688,34.858318],[137.570573,34.858349],[137.570415,34.858589],[137.570262,34.859272],[137.569888,34.859396],[137.569369,34.859407],[137.568417,34.859314],[137.567799,34.859186],[137.567124,34.858749],[137.566292,34.858606],[137.565786,34.858574],[137.565094,34.858394],[137.564909,34.858302],[137.564741,34.858295],[137.564017,34.857881],[137.563742,34.857565],[137.562462,34.857351],[137.561881,34.857691],[137.561599,34.857736],[137.559438,34.856864],[137.558609,34.856345],[137.558215,34.855879],[137.558076,34.855277],[137.557908,34.855003],[137.556611,34.853844],[137.556062,34.853226],[137.555757,34.852766],[137.555393,34.852501],[137.554943,34.852333],[137.554646,34.851752],[137.555898,34.85162],[137.556148,34.851538],[137.556934,34.851068],[137.55737,34.850954],[137.557829,34.850909],[137.5581,34.850991],[137.558449,34.851291],[137.558843,34.851482],[137.559747,34.851474],[137.561051,34.851591],[137.562323,34.851885],[137.56285,34.8518],[137.563222,34.851637],[137.563825,34.851656],[137.564231,34.85177],[137.564375,34.851896],[137.564483,34.852104],[137.564607,34.852191],[137.565292,34.852115],[137.56561,34.851977],[137.566065,34.85168],[137.566371,34.851573],[137.568375,34.851604],[137.56937,34.851501],[137.569909,34.851384],[137.570479,34.851109],[137.570806,34.851029],[137.571426,34.850763],[137.572195,34.850951],[137.572651,34.850918],[137.57312,34.850819],[137.574207,34.850449],[137.574995,34.850675],[137.575669,34.850735],[137.575788,34.850809],[137.575976,34.851112],[137.576516,34.851363],[137.576904,34.851428],[137.577427,34.851285],[137.577963,34.851014],[137.578717,34.85072],[137.579348,34.850625],[137.579701,34.850695],[137.580293,34.850685],[137.580975,34.85051],[137.581541,34.850488],[137.58224,34.850186],[137.582583,34.850162],[137.583601,34.850405],[137.584334,34.85025],[137.584739,34.850096],[137.585205,34.850081],[137.586135,34.850202],[137.586772,34.850038],[137.586919,34.849912],[137.58701,34.849747],[137.587252,34.849576],[137.587017,34.85004],[137.587118,34.850963],[137.588212,34.851611],[137.588583,34.851947],[137.589363,34.852379],[137.590117,34.853024],[137.590554,34.853632],[137.590825,34.854227],[137.591397,34.854754],[137.591548,34.85497],[137.591657,34.855345],[137.591974,34.855731],[137.592799,34.856271],[137.592367,34.856514],[137.592065,34.856626],[137.591639,34.856705],[137.591214,34.856698],[137.590623,34.856767],[137.590159,34.857187],[137.589813,34.857375],[137.589673,34.857354],[137.589582,34.85726],[137.58949,34.856904],[137.588877,34.856927],[137.588561,34.856698],[137.587952,34.856125],[137.58771,34.856013],[137.587478,34.856078],[137.587008,34.856316],[137.586705,34.856516],[137.586514,34.856743],[137.586619,34.857107],[137.586655,34.857441],[137.586567,34.858106],[137.586251,34.858815],[137.586191,34.858857],[137.586001,34.858839],[137.585598,34.858907],[137.585502,34.859026],[137.585434,34.859402],[137.585314,34.859516],[137.584718,34.859493],[137.584644,34.859509],[137.584505,34.859653],[137.584203,34.860248],[137.584191,34.860498],[137.584292,34.860928]]]]}}]}
