{"type":"FeatureCollection","features":[{"type":"Feature","properties":{"potaRef":"JP-1484","nameJa":"Kutsuki-katsura gawa","nameEn":"Kutsuki Katsuragawa Prefectural Nature Park","authority":"環境省 生物多様性「見える化」マップ","boundaryStatus":"全国GIS候補・公開前検証待ち","boundarySource":"環境省 生物多様性「見える化」マップの自然公園区域を、POTA代表座標で一意に空間照合して加工","boundaryScaleNote":"区域は概要データであり、正確性は保証されない。POTA運用可否は公式情報で最終確認すること。","candidateMethod":"POTA representative point inside one public natural-park area","sourceParkKind":"都道府県立自然公園","sourceName":"Kutsuki-katsura gawa","sourceFeatureCount":1,"cautionMeters":75},"geometry":{"type":"MultiPolygon","coordinates":[[[[135.825467,35.414378],[135.825059,35.414644],[135.824872,35.414695],[135.824518,35.414678],[135.823782,35.414422],[135.822881,35.413952],[135.821759,35.413526],[135.820814,35.413042],[135.819234,35.412549],[135.818985,35.412521],[135.818448,35.412616],[135.817201,35.412735],[135.81648,35.412679],[135.815469,35.413161],[135.815247,35.413189],[135.814651,35.413098],[135.814274,35.413148],[135.813796,35.413312],[135.813499,35.413222],[135.813214,35.412978],[135.812771,35.412377],[135.812266,35.41152],[135.812091,35.41129],[135.811474,35.410689],[135.81076,35.409467],[135.81067,35.409234],[135.810566,35.408482],[135.810725,35.406209],[135.810386,35.404326],[135.810559,35.403261],[135.810545,35.403012],[135.810317,35.402448],[135.81031,35.401863],[135.810074,35.401103],[135.810039,35.400867],[135.810067,35.400351],[135.810033,35.400221],[135.809437,35.399637],[135.809375,35.399495],[135.809548,35.398312],[135.809402,35.397909],[135.808778,35.396963],[135.808376,35.395982],[135.808092,35.395241],[135.807974,35.394436],[135.807974,35.394033],[135.8081,35.393571],[135.808342,35.39314],[135.809188,35.392304],[135.810075,35.391771],[135.81015,35.391652],[135.809971,35.391091],[135.809304,35.390054],[135.808944,35.389147],[135.808769,35.388246],[135.807918,35.387044],[135.807772,35.385884],[135.807723,35.38568],[135.807529,35.385362],[135.807148,35.385045],[135.806843,35.384897],[135.805178,35.384392],[135.80495,35.384386],[135.804728,35.38442],[135.803592,35.384942],[135.802723,35.385135],[135.801144,35.384999],[135.800212,35.38509],[135.799893,35.385056],[135.799235,35.384851],[135.799104,35.38492],[135.798598,35.385668],[135.798388,35.385898],[135.797764,35.386409],[135.796604,35.386988],[135.79524,35.387385],[135.794055,35.387419],[135.792584,35.387024],[135.790894,35.386639],[135.790769,35.386457],[135.79063,35.384175],[135.790707,35.383951],[135.791359,35.382825],[135.791864,35.381731],[135.791982,35.381266],[135.79196,35.381116],[135.791662,35.380429],[135.790886,35.379025],[135.790734,35.378838],[135.790332,35.37852],[135.789979,35.378367],[135.78915,35.378332],[135.786788,35.377878],[135.786113,35.377558],[135.78569,35.377394],[135.785399,35.377337],[135.78454,35.377473],[135.784367,35.377439],[135.784187,35.377314],[135.783924,35.377014],[135.783118,35.375541],[135.782924,35.375331],[135.782605,35.375093],[135.781968,35.374736],[135.780915,35.374429],[135.779146,35.373525],[135.778959,35.373366],[135.778896,35.373116],[135.779,35.372736],[135.77952,35.372217],[135.779777,35.371888],[135.779797,35.371701],[135.779354,35.370569],[135.779264,35.369594],[135.779194,35.369336],[135.778674,35.368247],[135.777776,35.366785],[135.777735,35.366581],[135.777749,35.365939],[135.777462,35.365752],[135.776905,35.365569],[135.77577,35.365306],[135.774877,35.365342],[135.774537,35.365197],[135.77409,35.364741],[135.773952,35.3645],[135.773834,35.364081],[135.773872,35.363599],[135.773744,35.363376],[135.773179,35.362849],[135.772233,35.362152],[135.77216,35.362064],[135.772007,35.361652],[135.771789,35.361357],[135.770069,35.359976],[135.769944,35.359811],[135.769542,35.357942],[135.768983,35.356545],[135.768332,35.355884],[135.768562,35.355352],[135.768596,35.354773],[135.768495,35.354501],[135.767962,35.354086],[135.767922,35.354006],[135.76688,35.353787],[135.766643,35.35366],[135.766642,35.353484],[135.766913,35.35316],[135.7676,35.352853],[135.767642,35.352144],[135.767392,35.351013],[135.767205,35.350746],[135.766374,35.35044],[135.766082,35.350234],[135.765978,35.350075],[135.765916,35.349627],[135.765951,35.349417],[135.766276,35.34882],[135.766304,35.348684],[135.766249,35.348502],[135.765264,35.34782],[135.764411,35.346921],[135.764009,35.346303],[135.76376,35.34562],[135.763739,35.345229],[135.764073,35.344558],[135.764488,35.344279],[135.765022,35.344104],[135.765382,35.344053],[135.766757,35.344029],[135.767588,35.343888],[135.768788,35.343938],[135.769162,35.343824],[135.769599,35.343467],[135.769931,35.343348],[135.77007,35.343331],[135.77061,35.343478],[135.771081,35.343484],[135.771511,35.343376],[135.772522,35.342888],[135.77385,35.342916],[135.774314,35.34282],[135.775852,35.342004],[135.777906,35.341064],[135.778282,35.340755],[135.77869,35.340098],[135.77905,35.339928],[135.779232,35.339921],[135.779468,35.339989],[135.780188,35.340341],[135.780819,35.340562],[135.781497,35.339864],[135.781913,35.339535],[135.782509,35.338438],[135.78255,35.337772],[135.782259,35.336888],[135.782197,35.336523],[135.782257,35.336269],[135.783661,35.334908],[135.784,35.334371],[135.784223,35.333391],[135.784656,35.332663],[135.784714,35.332365],[135.784843,35.332154],[135.785065,35.331972],[135.785613,35.331786],[135.785836,35.331642],[135.785894,35.331334],[135.785789,35.331066],[135.785733,35.330719],[135.785909,35.330483],[135.786729,35.330145],[135.787605,35.329324],[135.788759,35.328662],[135.789582,35.328464],[135.789928,35.328329],[135.790034,35.328219],[135.790423,35.327012],[135.790335,35.326476],[135.790376,35.326303],[135.79073,35.325622],[135.790829,35.325164],[135.790845,35.323903],[135.790871,35.323803],[135.791136,35.323528],[135.791733,35.323091],[135.792676,35.322956],[135.794853,35.322066],[135.795101,35.321804],[135.795154,35.321669],[135.795137,35.32135],[135.79519,35.321239],[135.797059,35.320624],[135.798316,35.31968],[135.801326,35.318576],[135.801891,35.318136],[135.802724,35.317764],[135.803172,35.317517],[135.803414,35.317323],[135.803644,35.317251],[135.804782,35.317092],[135.805863,35.316816],[135.807024,35.317072],[135.808481,35.316941],[135.808782,35.316878],[135.80929,35.316433],[135.809373,35.316133],[135.809373,35.315834],[135.80925,35.315266],[135.810175,35.315121],[135.81034,35.315043],[135.810417,35.314913],[135.810512,35.314332],[135.810606,35.314221],[135.811037,35.313994],[135.811249,35.31353],[135.81119,35.312634],[135.811433,35.311918],[135.81138,35.310538],[135.811274,35.310069],[135.81115,35.309876],[135.810919,35.30971],[135.810259,35.309391],[135.810159,35.309276],[135.810159,35.309184],[135.810672,35.308317],[135.811426,35.30809],[135.812913,35.307509],[135.814364,35.307112],[135.814511,35.30701],[135.814623,35.306822],[135.815085,35.305497],[135.815392,35.304103],[135.815592,35.303468],[135.815746,35.303241],[135.815769,35.303116],[135.815604,35.302559],[135.815646,35.302182],[135.815522,35.301849],[135.81515,35.301576],[135.815044,35.301461],[135.814967,35.301258],[135.814973,35.301132],[135.815062,35.300968],[135.815357,35.300826],[135.816153,35.300169],[135.816624,35.299956],[135.817715,35.29984],[135.81841,35.299835],[135.819072,35.29965],[135.819679,35.299307],[135.819844,35.29908],[135.81994,35.298634],[135.820134,35.298324],[135.82122,35.297265],[135.821367,35.297057],[135.821403,35.296835],[135.821332,35.295977],[135.821374,35.294995],[135.821315,35.294681],[135.820661,35.294493],[135.820531,35.294403],[135.82049,35.294273],[135.820625,35.293592],[135.820437,35.292967],[135.820248,35.292547],[135.820224,35.292333],[135.820413,35.29155],[135.820166,35.291278],[135.820053,35.29107],[135.820095,35.290795],[135.82055,35.290096],[135.82092,35.289648],[135.821281,35.289279],[135.821864,35.288893],[135.822076,35.288632],[135.822489,35.287828],[135.822902,35.287451],[135.823492,35.28673],[135.823787,35.286221],[135.824165,35.285839],[135.824343,35.285383],[135.824926,35.285074],[135.825097,35.284905],[135.825186,35.28476],[135.825535,35.283512],[135.825517,35.282703],[135.825269,35.282271],[135.825193,35.28204],[135.825222,35.281861],[135.825334,35.281697],[135.826289,35.281072],[135.827169,35.280321],[135.827682,35.279445],[135.828159,35.278943],[135.828325,35.27869],[135.828543,35.278091],[135.829623,35.276735],[135.829824,35.276629],[135.830743,35.276504],[135.831416,35.276209],[135.831817,35.275948],[135.832555,35.275256],[135.833203,35.274922],[135.834024,35.274288],[135.834371,35.274134],[135.834609,35.274079],[135.835504,35.2742],[135.836678,35.274611],[135.837161,35.274717],[135.837552,35.274722],[135.837964,35.274616],[135.838053,35.275196],[135.838241,35.2755],[135.838519,35.275688],[135.838862,35.275694],[135.839304,35.275545],[135.83974,35.275496],[135.840082,35.275554],[135.840288,35.275675],[135.840376,35.275873],[135.840307,35.276541],[135.840348,35.277145],[135.840522,35.277455],[135.84077,35.277702],[135.840999,35.277814],[135.841951,35.278161],[135.844188,35.278245],[135.845019,35.278356],[135.846076,35.278709],[135.846276,35.27884],[135.846577,35.279245],[135.847926,35.279096],[135.848436,35.279386],[135.849203,35.279694],[135.849391,35.279869],[135.849616,35.280282],[135.850324,35.282566],[135.850649,35.283157],[135.850955,35.283389],[135.851097,35.283563],[135.851557,35.285533],[135.851681,35.285968],[135.851823,35.286123],[135.852335,35.286344],[135.853481,35.286718],[135.85371,35.286868],[135.854029,35.287269],[135.854265,35.287677],[135.854742,35.288169],[135.855073,35.288338],[135.857084,35.289041],[135.858431,35.289229],[135.858413,35.288109],[135.858443,35.287556],[135.858537,35.287097],[135.858691,35.286802],[135.859499,35.285959],[135.85967,35.285592],[135.859965,35.284213],[135.860054,35.283515],[135.860231,35.283293],[135.860755,35.28296],[135.859187,35.282019],[135.858822,35.281575],[135.858617,35.281244],[135.858621,35.280085],[135.858545,35.279679],[135.858492,35.278373],[135.858362,35.27817],[135.857642,35.277714],[135.856562,35.27721],[135.855642,35.276571],[135.85461,35.27558],[135.854532,35.275328],[135.855051,35.272153],[135.855045,35.271687],[135.854933,35.271422],[135.854762,35.271272],[135.853683,35.270594],[135.8533,35.270261],[135.852673,35.269181],[135.852479,35.268959],[135.852214,35.268809],[135.851766,35.268649],[135.850709,35.268373],[135.849896,35.267784],[135.849329,35.267653],[135.848514,35.267343],[135.847535,35.266665],[135.847074,35.265919],[135.847021,35.265601],[135.846591,35.265108],[135.846355,35.264637],[135.846148,35.263636],[135.845977,35.263356],[135.845682,35.26304],[135.844874,35.262338],[135.844673,35.261985],[135.844638,35.261636],[135.844667,35.261308],[135.844773,35.260999],[135.845263,35.260152],[135.84603,35.258424],[135.846113,35.257954],[135.846024,35.257393],[135.846089,35.257112],[135.845789,35.256919],[135.845535,35.256871],[135.845223,35.256653],[135.844974,35.256323],[135.844615,35.256024],[135.843506,35.255491],[135.84327,35.255279],[135.843152,35.255119],[135.843057,35.25447],[135.842898,35.2542],[135.842533,35.253852],[135.842354,35.253386],[135.84236,35.253199],[135.842464,35.253017],[135.842644,35.252789],[135.843994,35.251727],[135.843978,35.251492],[135.842815,35.250093],[135.842741,35.249507],[135.842258,35.249346],[135.842021,35.249191],[135.840735,35.248674],[135.840571,35.248237],[135.840325,35.248129],[135.840153,35.247933],[135.840006,35.247422],[135.83967,35.245229],[135.839703,35.245088],[135.839916,35.244706],[135.839924,35.243851],[135.839711,35.243663],[135.83899,35.2434],[135.838875,35.243306],[135.838547,35.242828],[135.838359,35.24264],[135.837638,35.242081],[135.83708,35.241395],[135.836744,35.241221],[135.836344,35.241126],[135.834763,35.241254],[135.834624,35.241213],[135.834526,35.241119],[135.834551,35.240817],[135.834723,35.240546],[135.835026,35.240291],[135.8351,35.240163],[135.835149,35.239774],[135.835223,35.23964],[135.835558,35.239431],[135.836557,35.239054],[135.837532,35.237547],[135.837688,35.237204],[135.837876,35.236153],[135.837925,35.23528],[135.837884,35.235105],[135.837638,35.234654],[135.837311,35.234258],[135.837303,35.234184],[135.837491,35.233732],[135.837425,35.23349],[135.837081,35.232764],[135.837057,35.232461],[135.837131,35.232092],[135.83695,35.231662],[135.837196,35.231015],[135.837253,35.230653],[135.837328,35.230523],[135.837516,35.230362],[135.837573,35.23016],[135.837729,35.228929],[135.837614,35.228358],[135.837671,35.227879],[135.837622,35.227107],[135.837688,35.226864],[135.838032,35.226253],[135.838056,35.226105],[135.837352,35.225957],[135.834648,35.224],[135.833993,35.223912],[135.832984,35.223662],[135.832714,35.223548],[135.832183,35.222876],[135.831871,35.222667],[135.831437,35.222614],[135.830864,35.222761],[135.830668,35.222667],[135.830151,35.222074],[135.829906,35.221705],[135.829816,35.221551],[135.829751,35.221114],[135.82948,35.220791],[135.829324,35.220481],[135.829308,35.220151],[135.829382,35.219997],[135.830479,35.219002],[135.830749,35.218408],[135.830749,35.218226],[135.830651,35.217978],[135.83052,35.217817],[135.830094,35.217474],[135.829914,35.217172],[135.829783,35.216371],[135.829816,35.21613],[135.829964,35.215778],[135.830267,35.215294],[135.830791,35.214865],[135.832478,35.214279],[135.832544,35.214245],[135.832568,35.214138],[135.832495,35.213916],[135.831971,35.212979],[135.83166,35.212033],[135.831341,35.211209],[135.831046,35.210619],[135.831046,35.210504],[135.831087,35.210417],[135.831701,35.210155],[135.833036,35.209309],[135.833585,35.209046],[135.833748,35.208918],[135.834462,35.208096],[135.835601,35.206509],[135.835625,35.206057],[135.835412,35.205264],[135.835584,35.204316],[135.835904,35.203716],[135.836002,35.203414],[135.835994,35.203293],[135.835601,35.202721],[135.83529,35.202405],[135.835241,35.20221],[135.835454,35.201808],[135.835552,35.201267],[135.835708,35.200945],[135.836002,35.200535],[135.836224,35.200313],[135.836969,35.19976],[135.837019,35.199478],[135.836937,35.199022],[135.837199,35.198033],[135.837117,35.197352],[135.837134,35.197164],[135.837338,35.196741],[135.83733,35.196262],[135.837437,35.196034],[135.837977,35.195428],[135.838133,35.194924],[135.838779,35.194117],[135.83896,35.193276],[135.839377,35.192617],[135.839821,35.191439],[135.840189,35.191083],[135.841466,35.190525],[135.841704,35.190323],[135.841908,35.18984],[135.842211,35.188016],[135.842344,35.18778],[135.842334,35.187654],[135.841367,35.187068],[135.841171,35.186866],[135.841007,35.186555],[135.840794,35.185924],[135.840794,35.185749],[135.840974,35.184875],[135.84104,35.184249],[135.841015,35.184014],[135.840246,35.18223],[135.840213,35.181914],[135.840254,35.181733],[135.84063,35.181161],[135.840639,35.18094],[135.840573,35.180617],[135.840581,35.180247],[135.84063,35.180066],[135.840917,35.17973],[135.841113,35.179562],[135.841375,35.179427],[135.843136,35.178889],[135.843349,35.178701],[135.846129,35.181037],[135.847425,35.183192],[135.847656,35.184236],[135.847882,35.184884],[135.848371,35.185385],[135.849383,35.185594],[135.850786,35.185368],[135.85162,35.185326],[135.853654,35.186574],[135.855772,35.187533],[135.85714,35.188064],[135.860088,35.188548],[135.862722,35.188457],[135.863686,35.188162],[135.864652,35.188155],[135.8661,35.188],[135.86642,35.188544],[135.866392,35.188665],[135.866727,35.18881],[135.867163,35.189395],[135.868929,35.190616],[135.870508,35.190987],[135.871869,35.191094],[135.872055,35.19171],[135.872309,35.192119],[135.872635,35.192411],[135.873174,35.192613],[135.874033,35.192695],[135.875507,35.193242],[135.876511,35.193411],[135.8773,35.193611],[135.877592,35.194108],[135.877392,35.19552],[135.877475,35.196548],[135.877947,35.197132],[135.87824,35.197806],[135.87807,35.198629],[135.877691,35.200013],[135.877991,35.201304],[135.878016,35.202027],[135.878705,35.203441],[135.878973,35.203847],[135.879209,35.204014],[135.880675,35.204099],[135.88343,35.206988],[135.884709,35.20883],[135.884718,35.209671],[135.885137,35.210438],[135.885345,35.210701],[135.885816,35.210938],[135.887164,35.210976],[135.888286,35.211809],[135.888728,35.212046],[135.889324,35.213003],[135.890209,35.213574],[135.891032,35.213832],[135.892207,35.214088],[135.893057,35.214178],[135.891892,35.215891],[135.891618,35.21701],[135.891672,35.218684],[135.892073,35.219327],[135.892368,35.220089],[135.892017,35.220767],[135.891811,35.221503],[135.891892,35.222384],[135.892224,35.223322],[135.89224,35.224703],[135.891823,35.225881],[135.890954,35.226778],[135.891345,35.226839],[135.891546,35.227382],[135.892215,35.227794],[135.893018,35.228028],[135.893787,35.228664],[135.894537,35.22938],[135.895755,35.231791],[135.896804,35.233033],[135.897532,35.23354],[135.898415,35.233838],[135.900778,35.233789],[135.901916,35.234229],[135.903742,35.235113],[135.905026,35.236369],[135.905611,35.238032],[135.905133,35.240712],[135.90449,35.242672],[135.90344,35.244892],[135.902481,35.246392],[135.901242,35.247472],[135.899941,35.248251],[135.898596,35.248502],[135.89759,35.249407],[135.893892,35.252287],[135.890176,35.254782],[135.88756,35.256722],[135.887868,35.256835],[135.889199,35.257621],[135.889677,35.258341],[135.890276,35.259349],[135.891312,35.262668],[135.891613,35.263341],[135.892117,35.263747],[135.893211,35.264294],[135.894686,35.264765],[135.89528,35.265315],[135.896128,35.267575],[135.898575,35.27086],[135.898933,35.271412],[135.899289,35.274407],[135.899562,35.275433],[135.899945,35.275795],[135.900511,35.276198],[135.901556,35.27657],[135.902537,35.276128],[135.90306,35.276029],[135.904333,35.276284],[135.904653,35.276204],[135.90481,35.278336],[135.905453,35.280573],[135.905462,35.281405],[135.905289,35.281768],[135.905471,35.282273],[135.906008,35.28292],[135.906325,35.283677],[135.906243,35.284256],[135.906558,35.284796],[135.906869,35.284975],[135.908236,35.285],[135.908464,35.285614],[135.908558,35.286155],[135.909316,35.286873],[135.910027,35.287374],[135.912006,35.286853],[135.912977,35.286954],[135.91334,35.287819],[135.912903,35.28822],[135.912692,35.289017],[135.912746,35.289957],[135.91246,35.291984],[135.912688,35.292634],[135.913889,35.293529],[135.914424,35.294031],[135.914476,35.294681],[135.914442,35.295622],[135.914719,35.296705],[135.915033,35.297209],[135.917255,35.298638],[135.919648,35.299597],[135.919741,35.299994],[135.919849,35.301801],[135.920127,35.30292],[135.920444,35.303677],[135.921648,35.304825],[135.923171,35.306839],[135.924327,35.307661],[135.925531,35.308737],[135.928062,35.3102],[135.929525,35.310804],[135.930646,35.312387],[135.930933,35.314373],[135.931402,35.31672],[135.93115,35.317879],[135.929469,35.317495],[135.929075,35.317751],[135.928778,35.318766],[135.9288,35.320754],[135.93027,35.321936],[135.931338,35.322724],[135.932265,35.322789],[135.933585,35.322453],[135.935886,35.323014],[135.937564,35.323146],[135.939507,35.323203],[135.939997,35.323633],[135.94041,35.325004],[135.941634,35.327815],[135.942188,35.329909],[135.9421,35.333743],[135.941762,35.335047],[135.941412,35.335339],[135.940401,35.335636],[135.940094,35.335819],[135.939441,35.33662],[135.939317,35.337308],[135.939515,35.339151],[135.939225,35.339761],[135.938704,35.340342],[135.937221,35.340722],[135.935375,35.343461],[135.935078,35.344857],[135.934977,35.34622],[135.93435,35.347562],[135.933185,35.349626],[135.932897,35.351287],[135.933269,35.353051],[135.932881,35.353739],[135.911675,35.339321],[135.909765,35.338214],[135.908616,35.338114],[135.907191,35.336895],[135.904639,35.333696],[135.903595,35.3311],[135.903234,35.330379],[135.902431,35.32959],[135.901139,35.328442],[135.899989,35.328234],[135.897975,35.327274],[135.898068,35.327683],[135.898107,35.328575],[135.898818,35.329028],[135.899028,35.329364],[135.898648,35.329632],[135.896912,35.329572],[135.892441,35.329678],[135.89136,35.330313],[135.89007,35.330708],[135.888834,35.330741],[135.887654,35.330412],[135.886087,35.3297],[135.884516,35.328627],[135.883978,35.327811],[135.883206,35.327214],[135.881666,35.326189],[135.880975,35.324892],[135.880256,35.323668],[135.879125,35.322446],[135.877914,35.322021],[135.876002,35.322059],[135.875151,35.322234],[135.874032,35.322122],[135.872702,35.321528],[135.871631,35.320403],[135.870416,35.319544],[135.868758,35.318591],[135.868399,35.318015],[135.867433,35.31566],[135.864657,35.31187],[135.8637,35.310431],[135.86383,35.308814],[135.863762,35.307971],[135.862918,35.306272],[135.859032,35.30589],[135.856268,35.305982],[135.855595,35.306276],[135.854612,35.30785],[135.853354,35.308534],[135.851006,35.309033],[135.847923,35.309489],[135.845864,35.309479],[135.844696,35.310259],[135.843969,35.311132],[135.843986,35.312674],[135.842729,35.313479],[135.840564,35.314555],[135.838491,35.316064],[135.838084,35.316525],[135.838004,35.317321],[135.837432,35.318916],[135.836825,35.319981],[135.835983,35.320999],[135.835796,35.322905],[135.835243,35.323464],[135.834988,35.324357],[135.834795,35.325636],[135.834054,35.328004],[135.8331,35.329578],[135.831765,35.331395],[135.829603,35.332905],[135.827494,35.333811],[135.825319,35.333947],[135.823464,35.333839],[135.821229,35.333926],[135.817705,35.334577],[135.817611,35.336892],[135.816461,35.339624],[135.81647,35.34054],[135.816856,35.340827],[135.81763,35.341762],[135.817921,35.344388],[135.816967,35.346034],[135.815568,35.347369],[135.813871,35.351238],[135.812918,35.353029],[135.811551,35.354653],[135.810684,35.356274],[135.810346,35.357819],[135.810704,35.358251],[135.811797,35.358702],[135.813298,35.358692],[135.817352,35.357917],[135.818705,35.357884],[135.819796,35.358093],[135.822365,35.358896],[135.824128,35.358691],[135.825361,35.358369],[135.826651,35.357854],[135.827183,35.358067],[135.829358,35.360002],[135.830269,35.359508],[135.832165,35.359278],[135.833094,35.359452],[135.833279,35.360246],[135.833376,35.361078],[135.835324,35.364348],[135.835464,35.364423],[135.836229,35.365828],[135.835966,35.365938],[135.835575,35.366592],[135.832942,35.368093],[135.831946,35.370053],[135.831622,35.372839],[135.830585,35.375125],[135.828547,35.378683],[135.827676,35.379918],[135.828168,35.380566],[135.829274,35.380775],[135.832273,35.380357],[135.834696,35.37987],[135.836812,35.37953],[135.838537,35.379735],[135.839697,35.38092],[135.840419,35.38247],[135.841444,35.383367],[135.841624,35.383655],[135.842651,35.384733],[135.842579,35.386288],[135.842106,35.387521],[135.842169,35.389329],[135.841938,35.392658],[135.841204,35.394218],[135.841129,35.395556],[135.840742,35.396499],[135.840172,35.396901],[135.839696,35.397844],[135.839354,35.398968],[135.838772,35.402516],[135.837359,35.406757],[135.836752,35.407882],[135.836238,35.409441],[135.83566,35.412004],[135.833942,35.412031],[135.833319,35.412178],[135.832965,35.412405],[135.832709,35.412473],[135.832037,35.412241],[135.831892,35.412252],[135.831767,35.412309],[135.831267,35.412726],[135.830394,35.413168],[135.829227,35.413544],[135.828687,35.413788],[135.8277,35.414338],[135.827007,35.41461],[135.826695,35.41465],[135.825939,35.414406],[135.825467,35.414378]]],[[[135.923654,35.377707],[135.923544,35.377754],[135.923363,35.377613],[135.923229,35.37712],[135.923242,35.376732],[135.923074,35.376634],[135.922471,35.376683],[135.921485,35.377242],[135.920886,35.377419],[135.920193,35.377454],[135.920003,35.377428],[135.919897,35.377346],[135.919613,35.376899],[135.91935,35.376279],[135.919337,35.375313],[135.919114,35.374243],[135.918708,35.373633],[135.916756,35.372097],[135.915095,35.370545],[135.914499,35.37027],[135.913603,35.370002],[135.913314,35.369803],[135.913143,35.369605],[135.91278,35.368839],[135.911733,35.367256],[135.910927,35.366618],[135.910195,35.365911],[135.909679,35.365278],[135.909179,35.364475],[135.909108,35.36443],[135.908947,35.36447],[135.908543,35.364815],[135.907949,35.365456],[135.907828,35.365497],[135.907744,35.365449],[135.907695,35.365307],[135.907711,35.364675],[135.907894,35.364048],[135.907924,35.363509],[135.907816,35.363364],[135.907331,35.363282],[135.906908,35.363038],[135.906447,35.362359],[135.906184,35.361491],[135.906433,35.361058],[135.906593,35.360329],[135.906508,35.359466],[135.906392,35.359175],[135.905501,35.357922],[135.90485,35.3572],[135.904373,35.35677],[135.903833,35.356393],[135.903482,35.356242],[135.902811,35.355674],[135.902777,35.355192],[135.903145,35.354114],[135.903148,35.353533],[135.903222,35.353411],[135.904978,35.353136],[135.90569,35.353131],[135.906149,35.353202],[135.906742,35.353571],[135.907701,35.354439],[135.908237,35.354673],[135.909064,35.35491],[135.910031,35.355303],[135.910197,35.355324],[135.911041,35.355895],[135.911449,35.356377],[135.911693,35.356958],[135.911762,35.357533],[135.912301,35.358254],[135.913005,35.358795],[135.914381,35.359538],[135.914734,35.359793],[135.915462,35.360583],[135.915618,35.360598],[135.91657,35.360357],[135.917096,35.360295],[135.918325,35.360332],[135.918932,35.360154],[135.919577,35.360062],[135.919712,35.360121],[135.919874,35.360306],[135.920185,35.360239],[135.920322,35.360269],[135.921054,35.360899],[135.922298,35.36128],[135.922838,35.361556],[135.923607,35.362232],[135.925037,35.363336],[135.925227,35.363457],[135.925636,35.363566],[135.926168,35.363481],[135.927395,35.362879],[135.928621,35.362467],[135.931228,35.362177],[135.931637,35.362327],[135.932043,35.362161],[135.932695,35.362145],[135.932851,35.362012],[135.933043,35.361674],[135.933091,35.361242],[135.932453,35.360467],[135.932111,35.359952],[135.931907,35.359554],[135.93185,35.359212],[135.932003,35.359066],[135.932718,35.358962],[135.933251,35.358728],[135.933816,35.35836],[135.934931,35.358616],[135.936796,35.358601],[135.937661,35.358977],[135.938025,35.358813],[135.93855,35.358828],[135.938745,35.359115],[135.939152,35.359503],[135.939687,35.359792],[135.940868,35.360184],[135.941237,35.3606],[135.941597,35.360776],[135.94201,35.360789],[135.942178,35.360736],[135.942245,35.360635],[135.942654,35.360393],[135.942852,35.360178],[135.943191,35.360036],[135.943873,35.359551],[135.945066,35.359425],[135.946236,35.359],[135.946405,35.359053],[135.946766,35.359298],[135.947406,35.359828],[135.94796,35.360194],[135.948674,35.36038],[135.9499,35.360341],[135.950326,35.360466],[135.950876,35.360854],[135.951305,35.361258],[135.951659,35.361814],[135.952332,35.362643],[135.952642,35.363315],[135.953008,35.364667],[135.953101,35.365907],[135.953684,35.365713],[135.954218,35.365389],[135.954787,35.364981],[135.955025,35.364694],[135.956237,35.363564],[135.957184,35.362774],[135.958899,35.361682],[135.959419,35.361419],[135.959838,35.361324],[135.960591,35.361378],[135.96114,35.36153],[135.961487,35.361695],[135.962434,35.361929],[135.963182,35.361909],[135.96361,35.362076],[135.964074,35.362134],[135.964495,35.362276],[135.965513,35.362478],[135.966867,35.362621],[135.968115,35.36264],[135.968692,35.362592],[135.969342,35.36242],[135.970586,35.361928],[135.971708,35.361535],[135.972234,35.361425],[135.973704,35.360892],[135.974042,35.360717],[135.975392,35.36022],[135.97628,35.359746],[135.976806,35.359399],[135.977616,35.358661],[135.978092,35.358326],[135.979558,35.356768],[135.981135,35.355272],[135.982055,35.354755],[135.98346,35.354104],[135.983745,35.354051],[135.984513,35.353756],[135.985633,35.353083],[135.986346,35.352749],[135.986747,35.352633],[135.988104,35.351969],[135.988216,35.351998],[135.988356,35.35214],[135.989057,35.353301],[135.989011,35.353448],[135.988492,35.353956],[135.988289,35.354001],[135.98783,35.353934],[135.987004,35.35409],[135.986353,35.354328],[135.985002,35.354963],[135.983378,35.356007],[135.982901,35.356395],[135.982597,35.356548],[135.980044,35.358644],[135.979011,35.360012],[135.978799,35.360532],[135.978776,35.361122],[135.978711,35.361267],[135.978603,35.361365],[135.977772,35.361708],[135.977366,35.361951],[135.976013,35.362221],[135.974135,35.362813],[135.973728,35.362875],[135.971432,35.363801],[135.970711,35.364018],[135.970315,35.364195],[135.968961,35.36459],[135.968488,35.364638],[135.967894,35.364643],[135.966768,35.364414],[135.966236,35.364223],[135.965167,35.363949],[135.962926,35.363171],[135.961621,35.3629],[135.960507,35.362972],[135.960142,35.363048],[135.959441,35.363333],[135.957615,35.364364],[135.956754,35.364936],[135.955975,35.365346],[135.954804,35.365844],[135.953812,35.366346],[135.953336,35.366458],[135.953187,35.366546],[135.953165,35.367219],[135.952967,35.367522],[135.952882,35.367807],[135.952956,35.368578],[135.952768,35.369009],[135.952716,35.369304],[135.952908,35.370271],[135.952903,35.370651],[135.952746,35.370851],[135.952058,35.371394],[135.951348,35.372225],[135.951226,35.372272],[135.951101,35.372245],[135.950688,35.371786],[135.950525,35.371394],[135.950484,35.371015],[135.95033,35.37092],[135.94932,35.370929],[135.947252,35.370744],[135.94695,35.37078],[135.946248,35.370987],[135.945431,35.371389],[135.945008,35.371563],[135.944737,35.37161],[135.943797,35.372004],[135.943267,35.372291],[135.942396,35.373061],[135.94143,35.374076],[135.941094,35.374243],[135.940213,35.37485],[135.939271,35.375287],[135.938994,35.375324],[135.938585,35.375476],[135.937931,35.375587],[135.936812,35.375505],[135.93592,35.375277],[135.935034,35.374841],[135.933435,35.373925],[135.932712,35.373664],[135.93218,35.373391],[135.931585,35.373239],[135.930878,35.373246],[135.930001,35.373377],[135.929521,35.37335],[135.928757,35.373251],[135.928106,35.373062],[135.927629,35.372987],[135.92751,35.373026],[135.927253,35.373264],[135.926466,35.37415],[135.924904,35.376243],[135.924553,35.376584],[135.923654,35.377707]]]]}}]}
