{"type":"FeatureCollection","features":[{"type":"Feature","properties":{"potaRef":"JP-1150","nameJa":"Jobu","nameEn":"Jobu Prefectural Nature Park","authority":"環境省 生物多様性「見える化」マップ","boundaryStatus":"全国GIS候補・公開前検証待ち","boundarySource":"環境省 生物多様性「見える化」マップの自然公園区域を、POTA代表座標で一意に空間照合して加工","boundaryScaleNote":"区域は概要データであり、正確性は保証されない。POTA運用可否は公式情報で最終確認すること。","candidateMethod":"POTA representative point inside one public natural-park area","sourceParkKind":"都道府県立自然公園","sourceName":"Jobu","sourceFeatureCount":1,"cautionMeters":75},"geometry":{"type":"MultiPolygon","coordinates":[[[[139.114293,36.204299],[139.113638,36.204233],[139.112635,36.204263],[139.111245,36.204139],[139.110644,36.203815],[139.109801,36.203918],[139.108376,36.203773],[139.102988,36.203447],[139.10175,36.203467],[139.100812,36.203372],[139.098863,36.204144],[139.098318,36.204175],[139.097676,36.204085],[139.097333,36.203959],[139.096148,36.203819],[139.095751,36.203853],[139.094929,36.203038],[139.094211,36.202023],[139.093833,36.201295],[139.09076,36.199441],[139.090782,36.198518],[139.09056,36.197472],[139.090035,36.196661],[139.089062,36.196146],[139.088137,36.196715],[139.087494,36.196924],[139.087488,36.196179],[139.086717,36.19449],[139.086374,36.194539],[139.08583,36.194197],[139.084795,36.19405],[139.082147,36.193181],[139.081756,36.193125],[139.080881,36.193387],[139.080178,36.192658],[139.078737,36.192012],[139.078172,36.191984],[139.075204,36.192525],[139.074506,36.192782],[139.073966,36.192532],[139.072181,36.191953],[139.071057,36.191226],[139.069952,36.190918],[139.069395,36.190654],[139.067534,36.189103],[139.06558,36.186539],[139.063339,36.184876],[139.06291,36.184438],[139.061782,36.182024],[139.061206,36.17976],[139.0612,36.179495],[139.060922,36.17906],[139.060075,36.176114],[139.059869,36.173418],[139.057805,36.173402],[139.057805,36.172505],[139.057716,36.171423],[139.057447,36.170551],[139.057465,36.169824],[139.057664,36.169283],[139.057849,36.169085],[139.058275,36.168858],[139.058346,36.168673],[139.058431,36.16819],[139.058233,36.167268],[139.058275,36.167154],[139.058403,36.167026],[139.059256,36.166685],[139.059412,36.166458],[139.059384,36.165649],[139.059256,36.165465],[139.058531,36.165303],[139.058361,36.165176],[139.058304,36.165076],[139.058332,36.164735],[139.058432,36.164537],[139.058716,36.164281],[139.059824,36.163827],[139.061032,36.163245],[139.062083,36.162507],[139.062566,36.161811],[139.062765,36.161669],[139.062978,36.161286],[139.06365,36.159576],[139.063764,36.15908],[139.063764,36.158852],[139.063636,36.158572],[139.063451,36.158373],[139.062897,36.158061],[139.062684,36.157891],[139.062144,36.157252],[139.061831,36.156712],[139.061561,36.156017],[139.061419,36.155477],[139.061377,36.155123],[139.061462,36.154796],[139.061732,36.154398],[139.06213,36.153475],[139.062187,36.153092],[139.062158,36.152936],[139.061754,36.152518],[139.061157,36.152305],[139.060561,36.152263],[139.058841,36.152348],[139.057634,36.152504],[139.056028,36.152589],[139.05421,36.152447],[139.051212,36.152305],[139.050337,36.152428],[139.049016,36.152428],[139.048177,36.152286],[139.047453,36.151903],[139.047183,36.151562],[139.047098,36.151278],[139.047098,36.15108],[139.047396,36.149972],[139.047325,36.149603],[139.047169,36.149333],[139.046771,36.149007],[139.046473,36.148851],[139.045492,36.148553],[139.044001,36.148325],[139.043205,36.14834],[139.043006,36.148297],[139.042722,36.148027],[139.042276,36.145647],[139.042134,36.145335],[139.041977,36.144668],[139.041764,36.142581],[139.041693,36.142453],[139.04128,36.140865],[139.04128,36.140184],[139.041095,36.139559],[139.041138,36.139332],[139.041209,36.139233],[139.04138,36.139133],[139.041522,36.13892],[139.041692,36.138324],[139.041707,36.137898],[139.041678,36.137515],[139.041224,36.136876],[139.041025,36.135982],[139.041011,36.135541],[139.041238,36.134406],[139.04158,36.133428],[139.04175,36.133087],[139.042745,36.132093],[139.043029,36.131682],[139.043214,36.131199],[139.0432,36.130915],[139.04256,36.128743],[139.042404,36.128459],[139.04186,36.127937],[139.041263,36.127625],[139.04024,36.127199],[139.038578,36.126716],[139.037882,36.126446],[139.03683,36.12619],[139.0333,36.126847],[139.033125,36.126948],[139.032292,36.127188],[139.031823,36.127372],[139.031198,36.127727],[139.030203,36.128607],[139.029933,36.128934],[139.029066,36.129657],[139.028526,36.129956],[139.028053,36.129991],[139.026959,36.12992],[139.026248,36.130062],[139.02605,36.130147],[139.025737,36.130545],[139.025751,36.130829],[139.025992,36.131396],[139.026376,36.132021],[139.026589,36.132788],[139.026575,36.132973],[139.026447,36.13327],[139.026078,36.133569],[139.025477,36.133886],[139.02471,36.134099],[139.024284,36.134057],[139.023758,36.133901],[139.023261,36.133361],[139.022409,36.132254],[139.022181,36.132041],[139.021585,36.131643],[139.021088,36.131331],[139.020533,36.131132],[139.019856,36.131045],[139.019074,36.131173],[139.01754,36.131869],[139.01673,36.132295],[139.016361,36.132692],[139.016105,36.133402],[139.015849,36.133785],[139.015622,36.134069],[139.015408,36.134112],[139.015082,36.134012],[139.013533,36.133217],[139.011075,36.132181],[139.010735,36.132053],[139.010166,36.131996],[139.009527,36.132067],[139.008735,36.132304],[139.007883,36.132631],[139.00659,36.133227],[139.005325,36.133469],[139.004856,36.133412],[139.004458,36.133114],[139.004032,36.132702],[139.003777,36.132361],[139.003748,36.132134],[139.004047,36.131694],[139.004856,36.13114],[139.005766,36.130714],[139.006561,36.130232],[139.006746,36.130019],[139.006789,36.129749],[139.006732,36.12955],[139.006434,36.129238],[139.004686,36.127814],[139.003378,36.126563],[139.001958,36.125329],[139.001385,36.125026],[139.000959,36.124984],[139.000007,36.125097],[138.996827,36.125665],[138.995247,36.125466],[138.994607,36.125317],[138.993539,36.124878],[138.993042,36.124465],[138.992353,36.123577],[138.992196,36.123295],[138.991102,36.12182],[138.990572,36.120353],[138.990373,36.120038],[138.989802,36.119418],[138.989711,36.119244],[138.989693,36.118611],[138.989519,36.118223],[138.989296,36.117916],[138.988832,36.11766],[138.988071,36.117602],[138.987557,36.117635],[138.987174,36.117468],[138.986586,36.1165],[138.986179,36.116059],[138.985691,36.115571],[138.985326,36.115488],[138.984383,36.115629],[138.982368,36.116879],[138.981772,36.117077],[138.981507,36.117085],[138.981217,36.117019],[138.97984,36.116234],[138.979053,36.116002],[138.978722,36.116002],[138.977845,36.1163],[138.977379,36.116573],[138.976493,36.11721],[138.976269,36.11745],[138.975622,36.118421],[138.974254,36.1194],[138.974088,36.119599],[138.973956,36.119772],[138.973882,36.120136],[138.974039,36.120897],[138.973783,36.121306],[138.97307,36.121836],[138.972151,36.122224],[138.971181,36.122838],[138.970758,36.123177],[138.970419,36.123599],[138.970012,36.124239],[138.969871,36.124371],[138.969457,36.124503],[138.967922,36.124248],[138.966945,36.124305],[138.966639,36.12443],[138.966101,36.124752],[138.965712,36.125091],[138.965339,36.12553],[138.964857,36.125822],[138.964634,36.125871],[138.964245,36.125905],[138.963696,36.125846],[138.962438,36.125515],[138.961858,36.125226],[138.961519,36.124878],[138.960497,36.124297],[138.959618,36.123992],[138.958651,36.124165],[138.958452,36.12409],[138.95837,36.123801],[138.958261,36.123276],[138.958493,36.122813],[138.958617,36.122449],[138.958559,36.121878],[138.958741,36.121138],[138.958659,36.120592],[138.958361,36.119897],[138.958243,36.118901],[138.958186,36.118744],[138.957987,36.118595],[138.957606,36.118446],[138.957283,36.118082],[138.9572,36.117867],[138.957183,36.117491],[138.956951,36.116673],[138.957009,36.116416],[138.956852,36.115638],[138.95686,36.115411],[138.956596,36.11465],[138.956538,36.113558],[138.956454,36.113174],[138.956471,36.112876],[138.956297,36.112405],[138.956264,36.112148],[138.956272,36.111916],[138.95643,36.111445],[138.957177,36.110556],[138.95788,36.11006],[138.958013,36.109894],[138.958029,36.109621],[138.957789,36.108906],[138.957905,36.107641],[138.957789,36.107483],[138.957326,36.107293],[138.956876,36.106736],[138.956719,36.10643],[138.956553,36.105702],[138.95633,36.105743],[138.955543,36.105735],[138.955237,36.105702],[138.954989,36.105602],[138.954757,36.105354],[138.954656,36.105086],[138.954366,36.104622],[138.953132,36.103869],[138.951996,36.10338],[138.951533,36.103065],[138.951118,36.102676],[138.950895,36.102436],[138.950647,36.102031],[138.950546,36.101524],[138.950289,36.100837],[138.950365,36.100106],[138.950472,36.099841],[138.950439,36.099593],[138.950141,36.099172],[138.949868,36.099015],[138.951682,36.097992],[138.953018,36.097934],[138.953506,36.098183],[138.954601,36.097921],[138.955207,36.09741],[138.955808,36.097099],[138.957342,36.097045],[138.958142,36.096698],[138.958946,36.09619],[138.959904,36.095484],[138.961043,36.095383],[138.961483,36.095591],[138.96168,36.095635],[138.962076,36.095601],[138.963035,36.094815],[138.963585,36.094584],[138.964278,36.094555],[138.964578,36.0944],[138.965092,36.093646],[138.965347,36.09337],[138.966292,36.093145],[138.966688,36.093112],[138.967372,36.093404],[138.96781,36.093693],[138.968453,36.093663],[138.968851,36.09359],[138.969374,36.094361],[138.969997,36.095134],[138.970435,36.095422],[138.971177,36.095395],[138.971568,36.095562],[138.972138,36.096454],[138.972618,36.097024],[138.973162,36.097033],[138.973916,36.096524],[138.975701,36.096314],[138.977602,36.095423],[138.979087,36.095368],[138.981456,36.095528],[138.984816,36.095585],[138.986188,36.096049],[138.986624,36.096377],[138.987657,36.096595],[138.989432,36.096786],[138.98992,36.096756],[138.990734,36.096396],[138.991614,36.095879],[138.992136,36.095441],[138.992755,36.094725],[138.993055,36.095107],[138.99334,36.095344],[138.993751,36.09549],[138.995375,36.095866],[138.99557,36.09595],[138.996829,36.097042],[138.996988,36.097097],[138.998538,36.097082],[138.999149,36.097238],[139.000289,36.097417],[139.001697,36.097335],[139.002633,36.097462],[139.003587,36.097492],[139.00393,36.097536],[139.004838,36.09814],[139.005002,36.098326],[139.005129,36.098378],[139.005375,36.098437],[139.00574,36.098437],[139.006522,36.098259],[139.006828,36.098117],[139.007328,36.09772],[139.007761,36.09746],[139.007599,36.097133],[139.007607,36.096537],[139.007562,36.096172],[139.007428,36.095778],[139.00678,36.095234],[139.00654,36.094574],[139.006279,36.094335],[139.005914,36.093576],[139.005869,36.093442],[139.005862,36.092899],[139.005795,36.092742],[139.005452,36.092296],[139.005138,36.091761],[139.004355,36.090942],[139.004355,36.090831],[139.004504,36.090681],[139.004631,36.090257],[139.004631,36.090049],[139.004393,36.089207],[139.004199,36.088649],[139.003915,36.088108],[139.0039,36.087937],[139.004295,36.086501],[139.004277,36.0859],[139.004493,36.085526],[139.004683,36.085326],[139.004789,36.08522],[139.004978,36.085148],[139.005912,36.085626],[139.006323,36.085758],[139.007781,36.085943],[139.008209,36.08589],[139.00891,36.085716],[139.010738,36.085669],[139.010896,36.085637],[139.011592,36.085226],[139.011774,36.085186],[139.012299,36.085258],[139.012619,36.085252],[139.014275,36.085105],[139.01458,36.08501],[139.015443,36.084369],[139.01559,36.08412],[139.01592,36.083192],[139.016033,36.082993],[139.016206,36.082855],[139.016471,36.082678],[139.017055,36.082464],[139.01816,36.082237],[139.01831,36.08217],[139.018341,36.082121],[139.018166,36.081315],[139.018193,36.081018],[139.018415,36.080804],[139.018645,36.080674],[139.018836,36.080443],[139.018939,36.08013],[139.019208,36.079724],[139.019556,36.07894],[139.01991,36.078015],[139.020085,36.077784],[139.02042,36.077673],[139.021104,36.077579],[139.021231,36.077515],[139.021357,36.077382],[139.02138,36.07706],[139.021467,36.076877],[139.021633,36.076763],[139.022408,36.076455],[139.022521,36.076366],[139.02282,36.075953],[139.023129,36.075739],[139.0236,36.075583],[139.024418,36.075571],[139.025083,36.075243],[139.02527,36.075343],[139.025844,36.075121],[139.026964,36.074339],[139.027631,36.074211],[139.028415,36.073863],[139.029193,36.073742],[139.029651,36.073616],[139.030285,36.073627],[139.030419,36.073573],[139.030467,36.07371],[139.030234,36.074791],[139.029855,36.075055],[139.027506,36.075996],[139.027003,36.076295],[139.026251,36.076351],[139.025841,36.076508],[139.023027,36.078598],[139.022487,36.079124],[139.021984,36.079464],[139.0218,36.080236],[139.021557,36.08074],[139.0207,36.082064],[139.02059,36.082516],[139.02061,36.083025],[139.01987,36.083628],[139.018802,36.084172],[139.018598,36.084409],[139.018474,36.085424],[139.018571,36.086789],[139.017948,36.088009],[139.017694,36.088941],[139.017682,36.089396],[139.01803,36.08999],[139.018435,36.090906],[139.01848,36.091736],[139.017661,36.092872],[139.017701,36.093889],[139.017853,36.0944],[139.018336,36.094836],[139.018486,36.095454],[139.018399,36.096281],[139.017926,36.096728],[139.018006,36.097505],[139.017739,36.098223],[139.017836,36.098476],[139.018177,36.099036],[139.018416,36.099193],[139.019965,36.099572],[139.020576,36.099848],[139.022625,36.100428],[139.023146,36.100406],[139.024426,36.100511],[139.025082,36.100422],[139.025805,36.10049],[139.026043,36.100467],[139.026498,36.100288],[139.026743,36.100288],[139.027116,36.100534],[139.027943,36.100891],[139.02909,36.101048],[139.030132,36.100966],[139.030616,36.100847],[139.032166,36.100274],[139.032397,36.100251],[139.033313,36.100341],[139.033678,36.100497],[139.034341,36.100542],[139.034766,36.100765],[139.035233,36.101268],[139.035889,36.101588],[139.036328,36.102049],[139.036708,36.102205],[139.03755,36.102362],[139.037818,36.102555],[139.0379,36.102697],[139.037938,36.103166],[139.037885,36.103374],[139.037982,36.103791],[139.038161,36.103985],[139.038466,36.104193],[139.038779,36.10435],[139.038965,36.104357],[139.039192,36.104303],[139.03946,36.104168],[139.039818,36.104146],[139.040175,36.10428],[139.04098,36.104362],[139.04104,36.104436],[139.041085,36.104771],[139.041233,36.105285],[139.041405,36.105695],[139.04177,36.106179],[139.041949,36.106729],[139.042026,36.106808],[139.042637,36.107054],[139.043293,36.107456],[139.043457,36.107791],[139.043315,36.108506],[139.043315,36.108706],[139.043405,36.109019],[139.043718,36.109596],[139.044001,36.109797],[139.04453,36.110058],[139.044575,36.110155],[139.044359,36.111048],[139.044366,36.111204],[139.044403,36.11136],[139.044725,36.111768],[139.044881,36.112215],[139.04471,36.112594],[139.04468,36.112989],[139.044881,36.113473],[139.044978,36.114116],[139.044911,36.114325],[139.044911,36.114593],[139.04503,36.114958],[139.045023,36.115709],[139.044935,36.116191],[139.045159,36.116421],[139.045732,36.116541],[139.045844,36.116652],[139.046224,36.11727],[139.046448,36.117494],[139.046745,36.117695],[139.047677,36.118119],[139.047885,36.118253],[139.048116,36.118491],[139.048425,36.118646],[139.0492,36.118921],[139.04958,36.119211],[139.049655,36.119331],[139.049677,36.119941],[139.049744,36.120202],[139.049915,36.120448],[139.050966,36.121281],[139.051281,36.121883],[139.051526,36.122046],[139.051817,36.122061],[139.051884,36.122113],[139.052219,36.122575],[139.052659,36.123059],[139.052882,36.123401],[139.053404,36.123915],[139.053545,36.124123],[139.053635,36.124845],[139.053743,36.124998],[139.053899,36.125028],[139.055523,36.124931],[139.055791,36.12514],[139.056082,36.125803],[139.056373,36.125988],[139.056715,36.1261],[139.056843,36.126196],[139.056916,36.126374],[139.057125,36.126603],[139.057563,36.127708],[139.057731,36.128383],[139.058169,36.129321],[139.058294,36.129874],[139.05844,36.130072],[139.059076,36.130572],[139.059055,36.130666],[139.058336,36.131343],[139.058221,36.131552],[139.05819,36.131729],[139.058306,36.132285],[139.058264,36.132556],[139.057909,36.133046],[139.05792,36.133191],[139.058181,36.133515],[139.0584,36.133598],[139.058588,36.133577],[139.059172,36.133348],[139.059933,36.133327],[139.060768,36.133317],[139.061028,36.1334],[139.061185,36.133536],[139.06172,36.13494],[139.06197,36.136263],[139.062064,36.136482],[139.062564,36.137139],[139.062648,36.137326],[139.062783,36.138004],[139.063346,36.138546],[139.06343,36.13888],[139.064007,36.139523],[139.064528,36.140283],[139.064747,36.140648],[139.064747,36.141065],[139.0648,36.14117],[139.065008,36.141274],[139.065248,36.141492],[139.065404,36.14169],[139.065582,36.141816],[139.065825,36.142143],[139.066889,36.143112],[139.067546,36.143529],[139.068231,36.143753],[139.068798,36.143727],[139.069011,36.143645],[139.069117,36.14352],[139.069185,36.143298],[139.069397,36.142925],[139.070116,36.1428],[139.070669,36.142571],[139.071973,36.14229],[139.072318,36.142446],[139.07237,36.143405],[139.072588,36.143697],[139.073308,36.144103],[139.073423,36.144259],[139.07358,36.144749],[139.073571,36.145205],[139.073685,36.145465],[139.074895,36.146643],[139.075219,36.147425],[139.07548,36.147768],[139.075625,36.148102],[139.076505,36.14736],[139.077555,36.146895],[139.078064,36.146302],[139.078176,36.145782],[139.078729,36.14543],[139.079579,36.145042],[139.080924,36.144662],[139.081766,36.144596],[139.083877,36.143225],[139.085228,36.142605],[139.086268,36.142541],[139.089182,36.142748],[139.090567,36.14273],[139.092518,36.141839],[139.094429,36.140545],[139.095729,36.13791],[139.096322,36.137931],[139.097553,36.1378],[139.098663,36.137767],[139.099201,36.13769],[139.099421,36.137514],[139.099597,36.137174],[139.100081,36.136482],[139.100211,36.136396],[139.100496,36.136375],[139.101277,36.136495],[139.101409,36.136682],[139.101562,36.137044],[139.10232,36.138241],[139.102628,36.138944],[139.102617,36.13935],[139.102683,36.139581],[139.103255,36.140283],[139.103419,36.14058],[139.103474,36.140865],[139.103639,36.141096],[139.103903,36.14126],[139.104509,36.141401],[139.104806,36.141566],[139.104971,36.141741],[139.1053,36.142488],[139.105971,36.143707],[139.106223,36.143948],[139.106311,36.14397],[139.106663,36.143839],[139.10752,36.143377],[139.108015,36.143213],[139.111068,36.142598],[139.111398,36.142422],[139.11176,36.142038],[139.112299,36.142378],[139.112925,36.142576],[139.11364,36.142993],[139.114167,36.143158],[139.114464,36.143191],[139.115068,36.143092],[139.115255,36.143125],[139.116453,36.143926],[139.116939,36.144128],[139.117071,36.144249],[139.117225,36.144688],[139.117477,36.144974],[139.117544,36.145128],[139.117774,36.145281],[139.117939,36.145622],[139.118368,36.145995],[139.118994,36.146358],[139.119302,36.146709],[139.119675,36.146961],[139.119961,36.147016],[139.120269,36.146983],[139.121192,36.146555],[139.121587,36.146731],[139.121814,36.146775],[139.122403,36.147205],[139.122714,36.147331],[139.123448,36.14783],[139.124065,36.147926],[139.124563,36.14816],[139.124846,36.148237],[139.125946,36.14839],[139.126533,36.148348],[139.126873,36.14809],[139.128224,36.147303],[139.128548,36.146823],[139.129239,36.145999],[139.130057,36.146042],[139.130637,36.146028],[139.13102,36.145965],[139.131484,36.145693],[139.131774,36.145319],[139.132022,36.145238],[139.132572,36.145181],[139.133487,36.145238],[139.134118,36.145028],[139.134513,36.144961],[139.135402,36.145067],[139.135579,36.145138],[139.135962,36.145528],[139.13614,36.14563],[139.136662,36.145659],[139.136931,36.146378],[139.137084,36.146547],[139.137106,36.146756],[139.137042,36.147222],[139.136933,36.147469],[139.13677,36.147677],[139.136785,36.147763],[139.138138,36.148075],[139.138742,36.14829],[139.138867,36.148391],[139.139076,36.1487],[139.139658,36.149072],[139.139877,36.149323],[139.14051,36.149853],[139.141085,36.15026],[139.141151,36.150417],[139.141172,36.150717],[139.141318,36.151054],[139.141506,36.151417],[139.141671,36.151567],[139.142109,36.151818],[139.142485,36.151947],[139.143485,36.151864],[139.143776,36.151903],[139.144165,36.152069],[139.14464,36.152065],[139.144824,36.152108],[139.145405,36.152411],[139.145937,36.152571],[139.146344,36.1528],[139.146483,36.152932],[139.146467,36.153233],[139.14633,36.153558],[139.146172,36.153721],[139.146151,36.153813],[139.146185,36.154152],[139.14641,36.155128],[139.146352,36.15548],[139.146228,36.155839],[139.145935,36.156149],[139.144939,36.157666],[139.144815,36.158162],[139.144768,36.159025],[139.144677,36.159311],[139.14458,36.159354],[139.144101,36.159362],[139.143614,36.159499],[139.142906,36.160031],[139.142632,36.160462],[139.140892,36.162236],[139.140521,36.163274],[139.140239,36.164714],[139.140237,36.165242],[139.140365,36.165624],[139.140888,36.165985],[139.141412,36.166808],[139.141549,36.167509],[139.142302,36.168109],[139.142482,36.168394],[139.14201,36.168744],[139.141684,36.169431],[139.141676,36.170251],[139.141537,36.170703],[139.140537,36.170491],[139.140168,36.170293],[139.139547,36.170246],[139.138519,36.170871],[139.138022,36.170788],[139.13659,36.172118],[139.135836,36.172333],[139.135167,36.173083],[139.133734,36.174947],[139.125206,36.172704],[139.119375,36.170285],[139.118486,36.170191],[139.117443,36.170375],[139.116455,36.17032],[139.115913,36.170191],[139.114527,36.170209],[139.113738,36.170116],[139.113225,36.169777],[139.112886,36.16967],[139.112684,36.170742],[139.112957,36.171749],[139.113195,36.172114],[139.114776,36.172219],[139.117727,36.172988],[139.118536,36.174324],[139.118719,36.174969],[139.117059,36.176066],[139.116743,36.176864],[139.117716,36.177468],[139.118684,36.177808],[139.119592,36.178517],[139.121031,36.179123],[139.122189,36.179455],[139.122662,36.180315],[139.123905,36.18184],[139.124118,36.182441],[139.123273,36.182858],[139.12281,36.183469],[139.122487,36.184206],[139.121816,36.18416],[139.12047,36.184382],[139.119887,36.184209],[139.119997,36.183841],[139.118694,36.183035],[139.11704,36.182945],[139.115729,36.183841],[139.114932,36.184591],[139.114038,36.184335],[139.113565,36.185178],[139.112897,36.185644],[139.112065,36.186783],[139.111834,36.187249],[139.10893,36.186931],[139.108716,36.185824],[139.108106,36.18415],[139.107687,36.183473],[139.106667,36.182667],[139.104442,36.182166],[139.101172,36.182315],[139.099661,36.182472],[139.098662,36.183599],[139.098319,36.184635],[139.098278,36.18511],[139.098423,36.185569],[139.097479,36.185625],[139.096451,36.185917],[139.096325,36.186843],[139.093349,36.18691],[139.090538,36.18682],[139.088056,36.187746],[139.087482,36.188538],[139.08725,36.189434],[139.088911,36.189577],[139.090313,36.190132],[139.090297,36.190642],[139.095474,36.197515],[139.095818,36.197784],[139.095938,36.198493],[139.09557,36.19909],[139.096292,36.200462],[139.096267,36.202831],[139.098712,36.202791],[139.101833,36.202589],[139.103921,36.20268],[139.107516,36.202332],[139.109237,36.201936],[139.109469,36.202283],[139.11124,36.202207],[139.112423,36.202387],[139.113162,36.202318],[139.114097,36.202513],[139.117037,36.202457],[139.117405,36.202311],[139.117311,36.203145],[139.118145,36.203069],[139.119156,36.202218],[139.119274,36.201417],[139.119245,36.200534],[139.119368,36.199533],[139.119773,36.199178],[139.121952,36.199132],[139.12338,36.197349],[139.124475,36.197126],[139.126619,36.196477],[139.127071,36.196203],[139.126289,36.19579],[139.12561,36.195177],[139.126331,36.194025],[139.128982,36.19126],[139.12869,36.192117],[139.128851,36.192744],[139.128791,36.19469],[139.131433,36.194735],[139.131399,36.195617],[139.130242,36.195575],[139.129797,36.196045],[139.129694,36.196536],[139.127446,36.196466],[139.123923,36.198092],[139.123711,36.19845],[139.123277,36.198666],[139.12288,36.199668],[139.122016,36.200312],[139.121526,36.20038],[139.120468,36.201095],[139.119442,36.202027],[139.121028,36.203576],[139.120526,36.203964],[139.119956,36.203955],[139.117227,36.204193],[139.115592,36.204284],[139.115306,36.204175],[139.114293,36.204299]]]]}}]}
