{"type":"FeatureCollection","features":[{"type":"Feature","properties":{"potaRef":"JP-1597","nameJa":"Hamada kaigan","nameEn":"Hamada Kaigan Prefectural Nature Park","authority":"環境省 生物多様性「見える化」マップ","boundaryStatus":"全国GIS候補・公開前検証待ち","boundarySource":"環境省 生物多様性「見える化」マップの自然公園区域を、POTA代表座標で一意に空間照合して加工","boundaryScaleNote":"区域は概要データであり、正確性は保証されない。POTA運用可否は公式情報で最終確認すること。","candidateMethod":"POTA representative point inside one public natural-park area","sourceParkKind":"都道府県立自然公園","sourceName":"Hamada kaigan","sourceFeatureCount":1,"cautionMeters":75},"geometry":{"type":"MultiPolygon","coordinates":[[[[132.08538,34.930897],[132.085048,34.930943],[132.084591,34.930848],[132.084527,34.930776],[132.08457,34.930731],[132.084506,34.93067],[132.084546,34.930418],[132.084503,34.930453],[132.084449,34.930356],[132.084469,34.93031],[132.084951,34.930086],[132.084759,34.930073],[132.08444,34.93016],[132.084191,34.930141],[132.084193,34.93005],[132.084058,34.929971],[132.084102,34.929875],[132.08405,34.929652],[132.08415,34.929441],[132.084045,34.929473],[132.084038,34.929427],[132.084109,34.929425],[132.084039,34.929297],[132.084085,34.929271],[132.084061,34.929139],[132.083947,34.929068],[132.083979,34.928886],[132.083825,34.928839],[132.083813,34.928963],[132.083744,34.928975],[132.083685,34.928915],[132.08364,34.928986],[132.083487,34.929015],[132.083413,34.928935],[132.083432,34.92881],[132.083615,34.928738],[132.083813,34.928728],[132.083799,34.928631],[132.083723,34.928567],[132.083861,34.928426],[132.083914,34.928494],[132.083966,34.928482],[132.084187,34.92829],[132.084169,34.928195],[132.084332,34.928166],[132.084559,34.927997],[132.08462,34.927893],[132.084785,34.927845],[132.084783,34.92776],[132.08509,34.927674],[132.085061,34.927644],[132.085145,34.927505],[132.085119,34.927463],[132.085327,34.927287],[132.085227,34.927192],[132.085369,34.927185],[132.085691,34.926907],[132.085702,34.926503],[132.085498,34.926356],[132.085464,34.926053],[132.085503,34.925898],[132.085464,34.925817],[132.085296,34.925663],[132.085121,34.925761],[132.084953,34.925749],[132.084923,34.925718],[132.084967,34.925646],[132.084925,34.925617],[132.084666,34.925726],[132.084566,34.925678],[132.084598,34.925619],[132.084549,34.925615],[132.084565,34.925579],[132.084344,34.925667],[132.084248,34.925603],[132.084089,34.925638],[132.08386,34.92549],[132.083681,34.925216],[132.083686,34.925136],[132.083642,34.925157],[132.083642,34.925297],[132.083734,34.925638],[132.083342,34.925871],[132.082857,34.925832],[132.082834,34.925802],[132.082879,34.925758],[132.082793,34.925726],[132.082843,34.925656],[132.083083,34.925535],[132.083179,34.925402],[132.083125,34.92536],[132.082879,34.925387],[132.082828,34.925275],[132.083063,34.925143],[132.082971,34.925108],[132.083112,34.925054],[132.08306,34.924812],[132.08315,34.92469],[132.083077,34.924609],[132.083254,34.924423],[132.08277,34.924509],[132.082788,34.924402],[132.082585,34.924414],[132.082627,34.924353],[132.082539,34.924016],[132.082411,34.924208],[132.082285,34.924216],[132.082177,34.924156],[132.081873,34.924229],[132.081767,34.924154],[132.081737,34.924098],[132.081821,34.923993],[132.082036,34.924157],[132.082033,34.924035],[132.081964,34.923994],[132.08196,34.923913],[132.082035,34.923846],[132.082164,34.92382],[132.08212,34.923724],[132.082322,34.923569],[132.082343,34.923493],[132.082125,34.923475],[132.082181,34.923379],[132.082138,34.923302],[132.082216,34.923264],[132.082501,34.923267],[132.082557,34.9232],[132.082579,34.92302],[132.082218,34.922601],[132.081974,34.922727],[132.081791,34.922681],[132.081573,34.922708],[132.081775,34.9226],[132.081548,34.922631],[132.081532,34.922505],[132.081593,34.922456],[132.081159,34.922023],[132.080853,34.922074],[132.080677,34.922195],[132.080623,34.922154],[132.080709,34.922118],[132.080498,34.922117],[132.080437,34.921968],[132.080312,34.921862],[132.080244,34.921941],[132.080162,34.921906],[132.080102,34.921959],[132.080179,34.922093],[132.080123,34.922152],[132.08007,34.922119],[132.080117,34.922208],[132.080027,34.922271],[132.079839,34.922312],[132.079761,34.922275],[132.079693,34.922161],[132.079639,34.922389],[132.079573,34.922365],[132.0795,34.922408],[132.079398,34.922294],[132.079449,34.922547],[132.079334,34.922604],[132.079194,34.922536],[132.07907,34.922382],[132.079055,34.922471],[132.078935,34.922511],[132.078914,34.92257],[132.078348,34.922716],[132.07822,34.922797],[132.077877,34.922621],[132.077821,34.922488],[132.077833,34.922367],[132.077907,34.922276],[132.078531,34.922241],[132.078568,34.922063],[132.078415,34.921979],[132.078413,34.921903],[132.078252,34.921871],[132.078346,34.921752],[132.078451,34.921688],[132.078824,34.921744],[132.078967,34.921655],[132.07893,34.921562],[132.079081,34.921449],[132.078962,34.921308],[132.079196,34.921306],[132.079173,34.921249],[132.079225,34.921215],[132.079242,34.92104],[132.078957,34.920667],[132.078985,34.920575],[132.0781,34.920553],[132.078001,34.920509],[132.078057,34.920422],[132.078339,34.920387],[132.078392,34.920284],[132.078162,34.920152],[132.078096,34.920179],[132.077917,34.920142],[132.077889,34.920092],[132.077935,34.920024],[132.078041,34.919972],[132.07791,34.919857],[132.077605,34.919952],[132.077522,34.919938],[132.07749,34.919795],[132.077393,34.91979],[132.077289,34.91988],[132.077144,34.91977],[132.077128,34.91972],[132.077164,34.919709],[132.077509,34.919718],[132.077515,34.919657],[132.077636,34.919662],[132.077445,34.919501],[132.077514,34.919423],[132.077426,34.919371],[132.077242,34.919448],[132.07715,34.919326],[132.077061,34.91929],[132.077115,34.919205],[132.077057,34.919153],[132.077094,34.919044],[132.077403,34.919054],[132.0775,34.919035],[132.077553,34.918954],[132.077149,34.918681],[132.077079,34.918547],[132.076756,34.918454],[132.076857,34.918444],[132.076808,34.918354],[132.076881,34.918343],[132.076835,34.918244],[132.076699,34.918244],[132.076685,34.918333],[132.076537,34.918387],[132.076204,34.918092],[132.076148,34.918281],[132.076193,34.918355],[132.076125,34.918469],[132.076023,34.91847],[132.075972,34.918526],[132.075725,34.918504],[132.075391,34.918665],[132.075176,34.918634],[132.074799,34.918811],[132.074283,34.918796],[132.074253,34.918745],[132.074082,34.918708],[132.07394,34.918871],[132.073765,34.918863],[132.073494,34.918705],[132.073421,34.918563],[132.073372,34.918557],[132.073484,34.918353],[132.073084,34.918297],[132.072951,34.918227],[132.072923,34.918319],[132.07288,34.918318],[132.072848,34.918224],[132.072946,34.918193],[132.072995,34.91807],[132.072742,34.917986],[132.072787,34.917839],[132.072732,34.917813],[132.072734,34.917708],[132.072779,34.917666],[132.07302,34.917634],[132.073112,34.917679],[132.07337,34.917602],[132.073477,34.917633],[132.073425,34.91767],[132.073626,34.917638],[132.073635,34.917601],[132.073743,34.917632],[132.073584,34.917589],[132.073509,34.917485],[132.07362,34.917404],[132.073854,34.91748],[132.073837,34.917372],[132.073773,34.917309],[132.073998,34.917221],[132.073745,34.917201],[132.073717,34.917108],[132.073944,34.917003],[132.073604,34.916978],[132.073556,34.916882],[132.073757,34.916773],[132.073652,34.916705],[132.073474,34.916708],[132.073431,34.916603],[132.073522,34.916531],[132.073598,34.916539],[132.073637,34.916415],[132.073554,34.916269],[132.073476,34.916225],[132.073139,34.916344],[132.072943,34.916226],[132.072988,34.916167],[132.072945,34.916127],[132.073048,34.916092],[132.072969,34.915994],[132.073133,34.915919],[132.073139,34.915966],[132.073212,34.915995],[132.073186,34.915914],[132.073224,34.915882],[132.073117,34.915696],[132.073142,34.915595],[132.073391,34.915531],[132.073441,34.91545],[132.073695,34.915462],[132.073682,34.915384],[132.073547,34.915259],[132.073652,34.915252],[132.073661,34.915205],[132.073699,34.91524],[132.0737,34.915165],[132.073883,34.915011],[132.074053,34.915015],[132.074022,34.914964],[132.07406,34.914908],[132.074222,34.914829],[132.074191,34.914717],[132.074149,34.91468],[132.073689,34.914702],[132.073468,34.914776],[132.073404,34.914772],[132.073399,34.914706],[132.073274,34.914781],[132.0731,34.914749],[132.073046,34.914695],[132.073154,34.914656],[132.073268,34.91472],[132.073307,34.91461],[132.0734,34.914564],[132.073383,34.914461],[132.073315,34.914428],[132.073388,34.914417],[132.0733,34.914379],[132.07277,34.914485],[132.07275,34.914537],[132.072169,34.914686],[132.071736,34.914695],[132.07161,34.914561],[132.071661,34.91454],[132.071637,34.914456],[132.071674,34.914404],[132.071671,34.914314],[132.071604,34.91429],[132.071725,34.914283],[132.071691,34.914239],[132.071547,34.914257],[132.071546,34.914403],[132.071465,34.914513],[132.07137,34.914435],[132.071266,34.914491],[132.071217,34.914405],[132.071348,34.914316],[132.071524,34.914316],[132.071482,34.914272],[132.071534,34.914208],[132.071723,34.914129],[132.071398,34.91409],[132.071212,34.914198],[132.071164,34.914102],[132.071006,34.914067],[132.070996,34.914019],[132.070976,34.914093],[132.070933,34.914091],[132.070924,34.914025],[132.070873,34.914024],[132.070865,34.913917],[132.071038,34.913942],[132.071041,34.913807],[132.070905,34.913837],[132.070889,34.91373],[132.070945,34.913642],[132.071024,34.913693],[132.071005,34.913579],[132.071072,34.913473],[132.071054,34.913427],[132.071132,34.913356],[132.071287,34.913351],[132.071371,34.913293],[132.071327,34.913247],[132.071073,34.913236],[132.071061,34.913184],[132.071189,34.913077],[132.071167,34.912978],[132.07145,34.91284],[132.071863,34.912912],[132.071914,34.912872],[132.071631,34.912756],[132.071628,34.912682],[132.071696,34.91268],[132.07165,34.912629],[132.071705,34.912555],[132.071819,34.912515],[132.072124,34.912535],[132.072093,34.912351],[132.07198,34.91226],[132.072156,34.912127],[132.072109,34.912007],[132.072334,34.911836],[132.072146,34.911697],[132.072145,34.911628],[132.072536,34.911797],[132.072651,34.911681],[132.07244,34.911523],[132.072475,34.911474],[132.072374,34.91135],[132.071984,34.911217],[132.072149,34.911206],[132.072544,34.911283],[132.072578,34.911249],[132.072934,34.91133],[132.072955,34.91118],[132.072889,34.911097],[132.072968,34.911042],[132.072781,34.910979],[132.073044,34.910981],[132.073172,34.910848],[132.072968,34.910777],[132.073012,34.910753],[132.073236,34.910782],[132.073184,34.910695],[132.072984,34.910592],[132.073071,34.910564],[132.073458,34.910645],[132.07347,34.910589],[132.073429,34.910524],[132.073254,34.910518],[132.072933,34.910369],[132.073142,34.910262],[132.07327,34.910296],[132.073424,34.910258],[132.073569,34.910301],[132.073523,34.910369],[132.073652,34.910381],[132.073619,34.910407],[132.073674,34.910444],[132.073812,34.910383],[132.073908,34.910246],[132.073923,34.910106],[132.073802,34.909805],[132.073653,34.909818],[132.073695,34.909756],[132.073636,34.909667],[132.073767,34.909538],[132.073797,34.909346],[132.074008,34.909284],[132.074002,34.90916],[132.07396,34.90914],[132.074082,34.90898],[132.074217,34.908943],[132.074348,34.908982],[132.074694,34.908873],[132.074628,34.908843],[132.074663,34.908741],[132.074533,34.908587],[132.074586,34.908486],[132.074716,34.908437],[132.074903,34.908452],[132.074802,34.908391],[132.075152,34.908282],[132.075064,34.908258],[132.075061,34.908205],[132.075214,34.908187],[132.075398,34.908236],[132.075505,34.908197],[132.075707,34.9083],[132.075785,34.908254],[132.075839,34.90832],[132.075838,34.908444],[132.075768,34.908459],[132.075685,34.908578],[132.075847,34.908692],[132.075835,34.908878],[132.076097,34.909105],[132.076144,34.909285],[132.076106,34.909284],[132.076094,34.909408],[132.075914,34.909712],[132.075721,34.909783],[132.075648,34.909862],[132.075029,34.90996],[132.074916,34.910047],[132.074854,34.910323],[132.074908,34.910629],[132.07488,34.910706],[132.075327,34.910707],[132.075497,34.910795],[132.075657,34.910812],[132.075756,34.910888],[132.075976,34.910904],[132.075431,34.911009],[132.074993,34.911008],[132.074476,34.910963],[132.07376,34.910809],[132.073548,34.911255],[132.073648,34.91152],[132.073366,34.911813],[132.073463,34.912164],[132.073635,34.912388],[132.07354,34.912767],[132.073422,34.912998],[132.073511,34.913253],[132.073683,34.913476],[132.073841,34.913585],[132.074025,34.913628],[132.07461,34.913623],[132.0751,34.913854],[132.075357,34.914113],[132.075493,34.914369],[132.075857,34.914751],[132.0763,34.915102],[132.076566,34.915168],[132.07726,34.915184],[132.077876,34.915372],[132.07833,34.915419],[132.079032,34.915644],[132.079708,34.915744],[132.080119,34.915599],[132.080262,34.915614],[132.080435,34.915714],[132.080566,34.915858],[132.080657,34.916153],[132.080644,34.916341],[132.080775,34.916495],[132.081236,34.916769],[132.081398,34.916765],[132.081746,34.916888],[132.081945,34.917012],[132.082172,34.917268],[132.082545,34.917858],[132.082728,34.918018],[132.08289,34.918042],[132.083478,34.917895],[132.083644,34.917897],[132.083822,34.917969],[132.083929,34.918133],[132.083925,34.918674],[132.084501,34.918975],[132.083483,34.920536],[132.083448,34.920717],[132.083518,34.920935],[132.084139,34.921487],[132.084195,34.921654],[132.084176,34.921847],[132.084046,34.922065],[132.084068,34.92238],[132.084305,34.922775],[132.084471,34.922926],[132.083855,34.923465],[132.083716,34.923727],[132.083663,34.924105],[132.083691,34.924216],[132.083779,34.924412],[132.084267,34.924564],[132.084421,34.92469],[132.084641,34.924996],[132.085072,34.925089],[132.085228,34.925209],[132.085302,34.925618],[132.085613,34.925917],[132.085818,34.926697],[132.086252,34.927021],[132.086575,34.927402],[132.087011,34.927465],[132.087177,34.927533],[132.087316,34.927694],[132.087368,34.92787],[132.08735,34.927985],[132.087254,34.928115],[132.087016,34.928221],[132.08651,34.928331],[132.08634,34.928439],[132.086152,34.928643],[132.086069,34.928984],[132.086082,34.929205],[132.086317,34.929873],[132.086643,34.930214],[132.086775,34.930246],[132.086887,34.930149],[132.087018,34.929914],[132.08721,34.929818],[132.08745,34.929803],[132.087613,34.929843],[132.08774,34.929944],[132.087694,34.930034],[132.08736,34.930069],[132.086948,34.930466],[132.086802,34.930538],[132.086499,34.930572],[132.086371,34.930498],[132.086258,34.930286],[132.086214,34.930281],[132.086234,34.930461],[132.086137,34.930537],[132.086154,34.930606],[132.086064,34.930722],[132.08538,34.930897]]],[[[132.048745,34.896914],[132.048661,34.896935],[132.048513,34.896884],[132.048501,34.896818],[132.048597,34.89681],[132.048453,34.896711],[132.04865,34.89671],[132.048785,34.896762],[132.048803,34.89683],[132.048745,34.896914]]],[[[132.059634,34.898367],[132.059641,34.898415],[132.059557,34.898389],[132.059634,34.898367]]],[[[132.059308,34.89839],[132.059382,34.898451],[132.059204,34.898512],[132.05898,34.898382],[132.059137,34.898338],[132.059308,34.89839]]],[[[132.049685,34.898435],[132.049841,34.898567],[132.049909,34.8987],[132.049739,34.89867],[132.049591,34.898535],[132.04958,34.89847],[132.049685,34.898435]]],[[[132.040267,34.899804],[132.040204,34.899845],[132.040158,34.899772],[132.040082,34.899787],[132.03995,34.899708],[132.039739,34.899783],[132.039667,34.899766],[132.039631,34.899699],[132.03948,34.899751],[132.039439,34.899716],[132.039453,34.899619],[132.039322,34.899512],[132.039423,34.899434],[132.039517,34.899531],[132.039675,34.899558],[132.039884,34.899514],[132.04017,34.899661],[132.040276,34.899582],[132.040396,34.899594],[132.040399,34.899686],[132.040253,34.899713],[132.040267,34.899804]]],[[[132.05202,34.899823],[132.051944,34.899924],[132.051838,34.89996],[132.051509,34.899813],[132.051394,34.899889],[132.051299,34.899876],[132.051138,34.899522],[132.051053,34.899461],[132.051,34.899446],[132.050956,34.899546],[132.050847,34.899596],[132.050628,34.899504],[132.0505,34.899386],[132.050483,34.899249],[132.050553,34.899233],[132.05076,34.899321],[132.050821,34.899283],[132.050807,34.899235],[132.050469,34.899007],[132.050288,34.8988],[132.050229,34.898811],[132.05014,34.898696],[132.04999,34.898656],[132.049806,34.89837],[132.049573,34.898214],[132.049586,34.898157],[132.049742,34.898122],[132.049983,34.898167],[132.049967,34.898099],[132.049776,34.898055],[132.049772,34.897994],[132.049899,34.897972],[132.049989,34.898011],[132.050014,34.897972],[132.050132,34.897971],[132.050127,34.897728],[132.049965,34.897316],[132.049918,34.897261],[132.049538,34.897182],[132.049369,34.897268],[132.049381,34.897355],[132.049072,34.89736],[132.048965,34.897305],[132.048961,34.897192],[132.048838,34.897156],[132.048776,34.897082],[132.04903,34.897069],[132.048939,34.897003],[132.0489,34.896844],[132.049016,34.896571],[132.049017,34.896481],[132.048926,34.896449],[132.04893,34.896286],[132.049132,34.896248],[132.049622,34.896414],[132.049703,34.896516],[132.049817,34.896457],[132.049899,34.896583],[132.049961,34.896601],[132.050188,34.896564],[132.050423,34.896633],[132.050973,34.896622],[132.051029,34.896595],[132.051024,34.89651],[132.051133,34.896477],[132.05132,34.896529],[132.051543,34.896676],[132.051793,34.896683],[132.051994,34.896777],[132.052193,34.896959],[132.052381,34.897004],[132.052364,34.897123],[132.052588,34.897384],[132.052757,34.897479],[132.052924,34.897483],[132.052919,34.897583],[132.052864,34.897628],[132.052891,34.897689],[132.053027,34.897713],[132.053281,34.897648],[132.053493,34.897861],[132.053498,34.897938],[132.053353,34.898071],[132.053411,34.89816],[132.053267,34.898334],[132.053215,34.898344],[132.053034,34.89822],[132.052859,34.898304],[132.052799,34.898381],[132.052553,34.898411],[132.052598,34.898519],[132.052583,34.898667],[132.052289,34.898712],[132.052416,34.898859],[132.052281,34.898943],[132.052281,34.899231],[132.052245,34.899269],[132.052103,34.899309],[132.051937,34.899219],[132.051743,34.899367],[132.051735,34.899492],[132.05196,34.899628],[132.052026,34.899723],[132.05202,34.899823]]],[[[132.038962,34.899978],[132.03885,34.899989],[132.038832,34.899913],[132.038984,34.899777],[132.039158,34.899777],[132.039131,34.899946],[132.038962,34.899978]]],[[[132.038651,34.899997],[132.038779,34.900067],[132.038748,34.900129],[132.038606,34.900131],[132.038575,34.900018],[132.038651,34.899997]]],[[[132.05828,34.900956],[132.058123,34.900956],[132.058052,34.900911],[132.058207,34.900833],[132.05828,34.900956]]],[[[132.058,34.90103],[132.057962,34.901117],[132.057937,34.90104],[132.058,34.90103]]],[[[132.058133,34.901087],[132.05814,34.901131],[132.058088,34.90109],[132.058133,34.901087]]],[[[132.058252,34.901085],[132.058276,34.901119],[132.058195,34.901144],[132.058252,34.901085]]],[[[132.046431,34.901204],[132.046181,34.901101],[132.04619,34.901067],[132.04635,34.901121],[132.046388,34.901087],[132.046206,34.900989],[132.04617,34.900877],[132.0462,34.900837],[132.046321,34.900829],[132.046577,34.900982],[132.046605,34.901072],[132.046431,34.901204]]],[[[132.04676,34.90112],[132.046792,34.90118],[132.046711,34.901225],[132.046608,34.901182],[132.046654,34.901111],[132.04676,34.90112]]],[[[132.058871,34.901251],[132.058867,34.901317],[132.058775,34.901311],[132.058871,34.901251]]],[[[132.046734,34.901427],[132.046627,34.90145],[132.046454,34.901363],[132.046446,34.901317],[132.046569,34.901217],[132.046834,34.901358],[132.046822,34.901414],[132.046734,34.901427]]],[[[132.045359,34.901684],[132.045415,34.901749],[132.04511,34.901665],[132.04495,34.901553],[132.044904,34.901449],[132.044989,34.901392],[132.045063,34.901415],[132.045211,34.9016],[132.045359,34.901684]]],[[[132.049884,34.902088],[132.049901,34.902196],[132.049823,34.902246],[132.049739,34.902229],[132.04944,34.902036],[132.049389,34.901804],[132.049609,34.901859],[132.049691,34.901817],[132.04974,34.901867],[132.049784,34.901809],[132.049632,34.90176],[132.049638,34.901721],[132.049904,34.901752],[132.049948,34.901846],[132.049917,34.901936],[132.049983,34.902027],[132.049955,34.902087],[132.049884,34.902088]]],[[[132.044368,34.901978],[132.044846,34.902175],[132.04487,34.902233],[132.044737,34.902306],[132.044484,34.902232],[132.044296,34.902063],[132.044295,34.901995],[132.044368,34.901978]]],[[[132.058558,34.902324],[132.058476,34.902363],[132.058488,34.902318],[132.058558,34.902324]]],[[[132.058698,34.902362],[132.058672,34.902417],[132.058591,34.902394],[132.058698,34.902362]]],[[[132.049007,34.902311],[132.049098,34.90236],[132.04911,34.902416],[132.049009,34.902391],[132.048975,34.902328],[132.049007,34.902311]]],[[[132.060025,34.90237],[132.060078,34.902406],[132.06005,34.902483],[132.059963,34.902401],[132.060025,34.90237]]],[[[132.051448,34.902627],[132.051406,34.902607],[132.051486,34.902593],[132.051448,34.902627]]],[[[132.059947,34.902692],[132.059901,34.902721],[132.059876,34.902663],[132.059947,34.902692]]],[[[132.051388,34.902672],[132.051424,34.902722],[132.051329,34.902721],[132.051388,34.902672]]],[[[132.051769,34.902775],[132.051834,34.902846],[132.051727,34.902914],[132.051548,34.902813],[132.051678,34.90275],[132.051769,34.902775]]],[[[132.051796,34.903797],[132.051894,34.903868],[132.05165,34.903799],[132.051655,34.903656],[132.051712,34.903714],[132.051681,34.903775],[132.051796,34.903797]]],[[[132.052273,34.903986],[132.052357,34.904003],[132.052394,34.904061],[132.052273,34.903986]]],[[[132.063481,34.904693],[132.06341,34.904706],[132.063424,34.904657],[132.063538,34.904628],[132.063544,34.904573],[132.06352,34.904529],[132.063433,34.904568],[132.063409,34.904516],[132.063489,34.904459],[132.063611,34.904555],[132.063727,34.904501],[132.063942,34.904568],[132.063663,34.904693],[132.063481,34.904693]]],[[[132.061516,34.904747],[132.06145,34.904746],[132.061424,34.904644],[132.061369,34.904636],[132.061356,34.904711],[132.061277,34.904718],[132.060706,34.904592],[132.060558,34.904475],[132.060708,34.904321],[132.060929,34.904248],[132.061137,34.904257],[132.061204,34.904163],[132.061167,34.904068],[132.060982,34.90405],[132.060951,34.903997],[132.060917,34.903827],[132.061001,34.903809],[132.061096,34.903631],[132.061069,34.903493],[132.060912,34.903442],[132.060889,34.903383],[132.061056,34.903276],[132.06106,34.903188],[132.061276,34.903033],[132.061135,34.902966],[132.060877,34.903105],[132.060879,34.903183],[132.060688,34.903295],[132.060433,34.903274],[132.060369,34.903235],[132.06032,34.903099],[132.060507,34.902996],[132.06098,34.902866],[132.061393,34.902595],[132.061451,34.902472],[132.061322,34.901806],[132.060862,34.901515],[132.060758,34.901516],[132.060518,34.901622],[132.060477,34.901696],[132.060308,34.901787],[132.060033,34.901868],[132.059959,34.902079],[132.059684,34.902096],[132.059596,34.902148],[132.059831,34.902221],[132.059826,34.902269],[132.059668,34.902325],[132.059679,34.902504],[132.059597,34.902498],[132.059584,34.902448],[132.059334,34.902454],[132.059277,34.902528],[132.059021,34.90256],[132.058969,34.902488],[132.059039,34.902437],[132.059019,34.902374],[132.058836,34.902174],[132.058854,34.902118],[132.058979,34.902096],[132.059255,34.902144],[132.059353,34.902105],[132.059388,34.901889],[132.059303,34.901805],[132.059373,34.901778],[132.059345,34.901542],[132.059167,34.901343],[132.058927,34.901329],[132.058886,34.901294],[132.058937,34.901248],[132.058888,34.901199],[132.058512,34.901064],[132.058347,34.900887],[132.058504,34.900814],[132.058435,34.900552],[132.058314,34.900521],[132.058363,34.900477],[132.058348,34.900429],[132.058148,34.900402],[132.058085,34.900223],[132.057998,34.900127],[132.057831,34.900198],[132.057723,34.900099],[132.057719,34.900003],[132.057805,34.899928],[132.057784,34.899856],[132.057953,34.899729],[132.058061,34.899707],[132.058116,34.899595],[132.058119,34.899472],[132.058053,34.899439],[132.058103,34.899383],[132.057904,34.899347],[132.05808,34.899244],[132.058504,34.89926],[132.058521,34.899314],[132.058416,34.899434],[132.058803,34.899383],[132.058835,34.899455],[132.059279,34.899605],[132.059546,34.899459],[132.059765,34.899481],[132.059837,34.899424],[132.059971,34.899481],[132.060067,34.899436],[132.060212,34.899025],[132.059865,34.898886],[132.059927,34.898835],[132.060105,34.898855],[132.060117,34.898761],[132.059975,34.898681],[132.059848,34.8987],[132.059638,34.898619],[132.059619,34.898555],[132.059745,34.898508],[132.059755,34.898409],[132.059705,34.898347],[132.059514,34.898318],[132.059508,34.89824],[132.059555,34.89821],[132.059452,34.898188],[132.05948,34.898114],[132.059448,34.898084],[132.059568,34.898059],[132.059795,34.898126],[132.059793,34.898037],[132.059897,34.897995],[132.060003,34.89782],[132.059807,34.897776],[132.059896,34.897706],[132.060048,34.897714],[132.060484,34.897542],[132.060696,34.897612],[132.060829,34.897514],[132.06091,34.897511],[132.060965,34.897595],[132.061138,34.897683],[132.061217,34.897846],[132.061598,34.898052],[132.06181,34.898107],[132.062159,34.898317],[132.062434,34.89874],[132.062555,34.899295],[132.062523,34.899432],[132.062171,34.899495],[132.061745,34.899707],[132.061278,34.899862],[132.060926,34.899863],[132.060746,34.899785],[132.060552,34.899543],[132.060484,34.899547],[132.060356,34.899604],[132.06018,34.899831],[132.059724,34.90021],[132.059501,34.900617],[132.059496,34.90092],[132.060816,34.901326],[132.061413,34.901637],[132.061526,34.90282],[132.061468,34.903441],[132.061664,34.903711],[132.061773,34.903774],[132.062893,34.903558],[132.063026,34.903595],[132.063009,34.903672],[132.063074,34.903748],[132.063037,34.903807],[132.062895,34.903902],[132.062649,34.903945],[132.062609,34.903999],[132.062663,34.904067],[132.062895,34.904037],[132.062961,34.904104],[132.062958,34.904232],[132.062806,34.904394],[132.062646,34.904371],[132.06262,34.904325],[132.062544,34.904346],[132.062486,34.904443],[132.062339,34.904463],[132.062289,34.904414],[132.062155,34.904482],[132.062013,34.904428],[132.062002,34.904373],[132.061952,34.904404],[132.061973,34.904247],[132.061755,34.904378],[132.061504,34.904351],[132.061487,34.904402],[132.061779,34.904592],[132.061817,34.904674],[132.061747,34.904707],[132.061592,34.904609],[132.061514,34.90461],[132.061613,34.904699],[132.061516,34.904747]]],[[[132.072131,34.904783],[132.071829,34.904693],[132.071818,34.904599],[132.072059,34.904397],[132.072142,34.904206],[132.071848,34.903003],[132.0728,34.902075],[132.073052,34.901533],[132.073368,34.9015],[132.073832,34.901685],[132.074282,34.901669],[132.074598,34.901431],[132.074733,34.901115],[132.075108,34.900674],[132.075702,34.900758],[132.075852,34.900825],[132.076045,34.901024],[132.076062,34.901217],[132.075855,34.901694],[132.075514,34.90184],[132.075461,34.901917],[132.076104,34.902527],[132.076128,34.90276],[132.076006,34.903019],[132.07585,34.903178],[132.075121,34.903552],[132.074866,34.903612],[132.074621,34.903798],[132.074484,34.904083],[132.074218,34.904319],[132.073902,34.904449],[132.072601,34.904753],[132.072131,34.904783]]],[[[132.060734,34.904861],[132.060452,34.904832],[132.06045,34.904766],[132.060518,34.904754],[132.060734,34.904861]]],[[[132.060861,34.904806],[132.060879,34.904856],[132.060802,34.904835],[132.060861,34.904806]]],[[[132.064415,34.905631],[132.064383,34.905671],[132.064325,34.905631],[132.064415,34.905631]]],[[[132.06444,34.905814],[132.064043,34.905779],[132.064015,34.905635],[132.064051,34.905597],[132.064199,34.905618],[132.064282,34.905699],[132.064473,34.90572],[132.064488,34.905791],[132.06444,34.905814]]],[[[132.064918,34.905807],[132.064811,34.905814],[132.064781,34.905737],[132.065074,34.905767],[132.065007,34.905824],[132.064918,34.905807]]],[[[132.064956,34.905847],[132.064971,34.905905],[132.0649,34.905889],[132.064956,34.905847]]],[[[132.050787,34.906077],[132.050477,34.906203],[132.050439,34.906089],[132.050286,34.906075],[132.050252,34.905888],[132.050218,34.905986],[132.050147,34.906025],[132.050188,34.906083],[132.050154,34.906174],[132.049945,34.906122],[132.049884,34.906193],[132.049783,34.906085],[132.049403,34.906065],[132.049058,34.905855],[132.048982,34.9059],[132.048858,34.905871],[132.048744,34.905733],[132.048582,34.905656],[132.048333,34.905438],[132.048324,34.905301],[132.048175,34.905321],[132.047948,34.905203],[132.047899,34.905126],[132.047954,34.905092],[132.047945,34.905021],[132.047839,34.905028],[132.047783,34.904983],[132.047758,34.904741],[132.047602,34.90478],[132.047517,34.904753],[132.047543,34.904423],[132.047475,34.90436],[132.047386,34.904375],[132.047456,34.904445],[132.047433,34.904788],[132.047167,34.904753],[132.047423,34.904862],[132.04741,34.904904],[132.047072,34.904832],[132.046956,34.904689],[132.046718,34.904755],[132.046321,34.904573],[132.046241,34.904579],[132.046322,34.904661],[132.046294,34.90469],[132.045907,34.904601],[132.045809,34.904457],[132.04594,34.904369],[132.045814,34.904211],[132.045438,34.904136],[132.045367,34.903965],[132.045193,34.90386],[132.045186,34.903814],[132.045305,34.903774],[132.045303,34.903732],[132.044886,34.903696],[132.04475,34.90361],[132.044633,34.903601],[132.044695,34.903509],[132.044649,34.903433],[132.044723,34.903332],[132.044631,34.903285],[132.044676,34.903259],[132.045235,34.903429],[132.045003,34.903168],[132.045093,34.903157],[132.045083,34.903118],[132.045142,34.90308],[132.045325,34.903119],[132.0453,34.903008],[132.04537,34.902982],[132.045422,34.902885],[132.045311,34.902774],[132.044897,34.9027],[132.044859,34.902554],[132.044955,34.90251],[132.045289,34.902493],[132.044957,34.902442],[132.045114,34.902347],[132.04544,34.902379],[132.045352,34.902204],[132.045485,34.902122],[132.045457,34.90209],[132.045261,34.902177],[132.044858,34.90207],[132.044594,34.901948],[132.044536,34.901724],[132.04465,34.901608],[132.045409,34.901867],[132.045665,34.901915],[132.045729,34.901872],[132.045371,34.90163],[132.045364,34.901567],[132.04556,34.901605],[132.045623,34.901691],[132.045735,34.901654],[132.045739,34.90178],[132.045815,34.901849],[132.045895,34.901854],[132.04596,34.901767],[132.04608,34.901782],[132.046063,34.901685],[132.046213,34.901686],[132.046134,34.901775],[132.046161,34.901806],[132.046407,34.901819],[132.046541,34.901744],[132.046484,34.90166],[132.04659,34.901682],[132.046592,34.901548],[132.046502,34.901473],[132.046533,34.901435],[132.047088,34.901764],[132.047191,34.901729],[132.047253,34.901617],[132.047297,34.901649],[132.047408,34.901583],[132.047483,34.901617],[132.047499,34.901688],[132.047644,34.901657],[132.047715,34.901809],[132.047811,34.901769],[132.047934,34.901824],[132.047906,34.901696],[132.048052,34.901723],[132.048358,34.901933],[132.048355,34.902028],[132.048192,34.902013],[132.048343,34.902109],[132.048371,34.902222],[132.048505,34.902209],[132.048614,34.902128],[132.048647,34.902241],[132.048766,34.9023],[132.048743,34.902331],[132.049096,34.902574],[132.049314,34.902562],[132.049452,34.902497],[132.049464,34.902461],[132.04932,34.902343],[132.049402,34.902347],[132.049491,34.902227],[132.049679,34.902353],[132.049923,34.902722],[132.050061,34.902771],[132.050194,34.902765],[132.050211,34.902635],[132.050315,34.902519],[132.050451,34.902429],[132.050521,34.902493],[132.050521,34.902388],[132.050596,34.902355],[132.050719,34.902369],[132.050863,34.90254],[132.051107,34.902554],[132.05116,34.902645],[132.051087,34.90269],[132.051136,34.902791],[132.051366,34.902855],[132.051486,34.902955],[132.051535,34.903051],[132.051489,34.903075],[132.051636,34.903164],[132.051745,34.90331],[132.051735,34.903357],[132.051485,34.903402],[132.051429,34.90331],[132.051193,34.903363],[132.051064,34.90316],[132.050671,34.902933],[132.050534,34.90302],[132.050739,34.903209],[132.050432,34.903173],[132.050384,34.903223],[132.050697,34.903365],[132.050787,34.903448],[132.050783,34.903498],[132.051163,34.903688],[132.051286,34.903799],[132.051305,34.903909],[132.051489,34.904118],[132.051439,34.904138],[132.051196,34.904041],[132.050879,34.90376],[132.051102,34.904059],[132.051467,34.904303],[132.051566,34.904434],[132.051562,34.904519],[132.051482,34.904561],[132.051084,34.904391],[132.051122,34.904492],[132.050943,34.904476],[132.05093,34.904583],[132.051009,34.90471],[132.051249,34.904866],[132.051043,34.904957],[132.051158,34.905078],[132.051355,34.904979],[132.05146,34.904991],[132.051758,34.905233],[132.05168,34.905266],[132.051599,34.905205],[132.051317,34.905155],[132.051223,34.905191],[132.051068,34.905097],[132.05079,34.905051],[132.05091,34.905162],[132.051239,34.905288],[132.051339,34.905436],[132.051303,34.905455],[132.051186,34.905409],[132.051125,34.905279],[132.051017,34.905264],[132.050727,34.905101],[132.050661,34.905116],[132.050805,34.905269],[132.050644,34.905231],[132.050618,34.905291],[132.050773,34.905524],[132.050971,34.905721],[132.050991,34.905656],[132.051032,34.905656],[132.051271,34.905863],[132.051133,34.905905],[132.050973,34.905826],[132.050919,34.905903],[132.050816,34.905874],[132.050926,34.905964],[132.050707,34.906047],[132.050787,34.906077]]],[[[132.064304,34.906049],[132.064243,34.90618],[132.064135,34.906215],[132.064014,34.906185],[132.063951,34.906091],[132.064077,34.906017],[132.064304,34.906049]]],[[[132.065151,34.906939],[132.065041,34.906939],[132.064968,34.90688],[132.065105,34.906828],[132.065178,34.906887],[132.065151,34.906939]]],[[[132.066725,34.907278],[132.066693,34.907314],[132.066662,34.90729],[132.066725,34.907278]]],[[[132.065788,34.907358],[132.06574,34.907328],[132.065811,34.907272],[132.065849,34.907348],[132.065788,34.907358]]],[[[132.067124,34.907404],[132.067127,34.907447],[132.067062,34.907466],[132.06696,34.907426],[132.067078,34.90735],[132.067124,34.907404]]],[[[132.066995,34.907569],[132.066952,34.907584],[132.066951,34.907538],[132.066995,34.907525],[132.066995,34.907569]]],[[[132.067496,34.907793],[132.067333,34.907719],[132.067302,34.907596],[132.067456,34.907543],[132.067482,34.907616],[132.067447,34.907685],[132.067485,34.90765],[132.067496,34.907793]]],[[[132.065627,34.907784],[132.065522,34.907829],[132.065426,34.907752],[132.065447,34.907666],[132.065529,34.907676],[132.0657,34.90755],[132.065462,34.907364],[132.065689,34.907305],[132.065778,34.907427],[132.065732,34.907603],[132.065796,34.907539],[132.065856,34.90768],[132.06581,34.907758],[132.065715,34.90765],[132.065627,34.907784]]],[[[132.069071,34.907955],[132.069027,34.907993],[132.068896,34.907913],[132.068928,34.907792],[132.069005,34.907772],[132.069102,34.907822],[132.069124,34.907921],[132.069071,34.907955]]],[[[132.068824,34.908152],[132.068788,34.908208],[132.068785,34.90815],[132.068824,34.908152]]],[[[132.075819,34.908198],[132.075739,34.908248],[132.075658,34.908174],[132.075819,34.908198]]],[[[132.069694,34.90837],[132.069613,34.908262],[132.069541,34.908244],[132.069533,34.908085],[132.069414,34.907875],[132.069464,34.907723],[132.069432,34.907643],[132.069325,34.907568],[132.069295,34.907444],[132.069212,34.907449],[132.069107,34.907363],[132.069012,34.907351],[132.06875,34.907539],[132.068728,34.907613],[132.068815,34.907685],[132.0688,34.907832],[132.068686,34.907911],[132.068479,34.907923],[132.068513,34.907948],[132.068481,34.90797],[132.068277,34.908028],[132.06828,34.907967],[132.068151,34.908007],[132.067965,34.907922],[132.067948,34.907828],[132.067861,34.907766],[132.067956,34.907696],[132.068048,34.907718],[132.067989,34.907667],[132.067766,34.907639],[132.067663,34.90768],[132.067657,34.907737],[132.067589,34.907739],[132.06754,34.907535],[132.067582,34.907466],[132.067742,34.907437],[132.067352,34.907336],[132.067325,34.907249],[132.067262,34.90732],[132.067201,34.907297],[132.067117,34.907216],[132.067161,34.907181],[132.067033,34.907071],[132.066831,34.907022],[132.066553,34.907173],[132.066542,34.90729],[132.06671,34.907539],[132.066567,34.907736],[132.066394,34.907779],[132.066357,34.907691],[132.066163,34.907724],[132.0661,34.907686],[132.066099,34.907634],[132.066049,34.907647],[132.066061,34.907453],[132.066002,34.907352],[132.065973,34.907338],[132.065925,34.907444],[132.065877,34.90744],[132.065876,34.907291],[132.06572,34.907258],[132.065782,34.907239],[132.065736,34.907127],[132.065639,34.907169],[132.065572,34.907092],[132.065465,34.907099],[132.065449,34.907012],[132.065374,34.907029],[132.065364,34.906957],[132.065453,34.906966],[132.065464,34.906816],[132.065425,34.906755],[132.065236,34.90668],[132.065276,34.906648],[132.065217,34.906577],[132.065322,34.906525],[132.065385,34.906452],[132.065392,34.906353],[132.065565,34.906281],[132.065555,34.906242],[132.065514,34.906209],[132.065233,34.906316],[132.065029,34.906266],[132.065034,34.906141],[132.065095,34.906094],[132.065361,34.906123],[132.065402,34.90608],[132.065295,34.905902],[132.065241,34.905895],[132.065335,34.905862],[132.065358,34.905771],[132.065223,34.905772],[132.065048,34.905671],[132.064993,34.905696],[132.064522,34.905563],[132.064536,34.905499],[132.064784,34.905512],[132.064756,34.905425],[132.064618,34.905408],[132.064457,34.905456],[132.064403,34.90542],[132.06443,34.90534],[132.064377,34.905294],[132.064142,34.905365],[132.06407,34.90532],[132.063956,34.905333],[132.063855,34.905117],[132.06375,34.9052],[132.063614,34.905228],[132.063466,34.905072],[132.063565,34.904972],[132.063717,34.904959],[132.063846,34.904865],[132.063732,34.904843],[132.064125,34.904678],[132.063904,34.904479],[132.063652,34.904409],[132.063532,34.904249],[132.063491,34.903913],[132.063555,34.903769],[132.063685,34.903731],[132.063999,34.903968],[132.06423,34.904258],[132.064542,34.904479],[132.0649,34.904817],[132.065376,34.90511],[132.065798,34.905297],[132.066657,34.9062],[132.06694,34.906393],[132.067441,34.906615],[132.067668,34.90667],[132.068267,34.906319],[132.068749,34.906305],[132.069315,34.9058],[132.069467,34.905783],[132.070267,34.906234],[132.070516,34.906479],[132.071639,34.90703],[132.072942,34.906986],[132.073244,34.906915],[132.073268,34.907004],[132.073094,34.907266],[132.07287,34.907336],[132.072675,34.907469],[132.072437,34.907467],[132.072361,34.907545],[132.07217,34.907607],[132.071555,34.907663],[132.071139,34.907523],[132.070879,34.907495],[132.070791,34.907777],[132.070408,34.90799],[132.070082,34.908275],[132.069961,34.908337],[132.069694,34.90837]]],[[[132.074553,34.908734],[132.074378,34.908698],[132.074351,34.908574],[132.07439,34.908539],[132.074446,34.908569],[132.074553,34.908734]]],[[[132.07361,34.909574],[132.073536,34.909617],[132.073537,34.909564],[132.07361,34.909574]]],[[[132.073478,34.909591],[132.073518,34.909633],[132.07343,34.909657],[132.073438,34.909586],[132.073478,34.909591]]],[[[132.072994,34.910293],[132.072712,34.910198],[132.072773,34.910123],[132.072933,34.910122],[132.073158,34.910235],[132.072994,34.910293]]],[[[132.072496,34.910325],[132.072433,34.910284],[132.072521,34.910278],[132.072496,34.910325]]],[[[132.072789,34.910871],[132.072711,34.910911],[132.072595,34.910866],[132.072648,34.910776],[132.07272,34.910788],[132.072789,34.910871]]],[[[132.072709,34.911093],[132.072649,34.911076],[132.072677,34.911045],[132.072776,34.911075],[132.072709,34.911093]]],[[[132.072052,34.911375],[132.07203,34.911424],[132.071959,34.911353],[132.072052,34.911375]]],[[[132.071868,34.911878],[132.071808,34.911841],[132.071955,34.911842],[132.071868,34.911878]]],[[[132.072195,34.911915],[132.07215,34.911899],[132.07221,34.911889],[132.072195,34.911915]]],[[[132.072121,34.911963],[132.071953,34.911928],[132.072037,34.911913],[132.072121,34.911963]]],[[[132.072011,34.912067],[132.072092,34.912106],[132.071936,34.912076],[132.072011,34.912067]]],[[[132.071151,34.913023],[132.07106,34.913115],[132.071091,34.913031],[132.071151,34.913023]]],[[[132.070998,34.913109],[132.07099,34.913167],[132.070943,34.913121],[132.070998,34.913109]]],[[[132.070704,34.913169],[132.070681,34.91321],[132.070629,34.913203],[132.070704,34.913169]]],[[[132.070777,34.913229],[132.070706,34.913267],[132.070729,34.913218],[132.070777,34.913229]]],[[[132.070719,34.914145],[132.070764,34.914146],[132.070751,34.914174],[132.070719,34.914145]]],[[[132.070847,34.914144],[132.070832,34.914183],[132.070803,34.914139],[132.070847,34.914144]]],[[[132.07081,34.914165],[132.070772,34.914198],[132.070763,34.91417],[132.07081,34.914165]]],[[[132.070857,34.914295],[132.070849,34.914357],[132.070767,34.914278],[132.070861,34.914259],[132.070857,34.914295]]],[[[132.070719,34.914316],[132.07069,34.914438],[132.07063,34.914484],[132.070601,34.914405],[132.070715,34.914273],[132.070719,34.914316]]],[[[132.073492,34.915381],[132.073495,34.915416],[132.073417,34.915435],[132.073384,34.915379],[132.073492,34.915381]]],[[[132.072893,34.915766],[132.072888,34.91582],[132.072821,34.915825],[132.072767,34.915735],[132.072855,34.91572],[132.072893,34.915766]]],[[[132.073099,34.915784],[132.073117,34.915835],[132.073061,34.915899],[132.072905,34.915748],[132.072955,34.915726],[132.073049,34.915776],[132.07308,34.915721],[132.073099,34.915784]]],[[[132.07345,34.916819],[132.07351,34.916828],[132.073514,34.916874],[132.07343,34.916919],[132.073356,34.916852],[132.07345,34.916819]]],[[[132.073755,34.917046],[132.073645,34.917142],[132.073566,34.917116],[132.073572,34.917077],[132.073755,34.917046]]],[[[132.07668,34.918573],[132.076626,34.918571],[132.076677,34.918492],[132.076777,34.918544],[132.07668,34.918573]]],[[[132.076789,34.918579],[132.076776,34.918616],[132.076695,34.918586],[132.076789,34.918579]]],[[[132.074817,34.919136],[132.074822,34.91925],[132.074647,34.919327],[132.074525,34.919163],[132.074742,34.919106],[132.074817,34.919136]]],[[[132.077118,34.919382],[132.077062,34.919381],[132.077091,34.919351],[132.077118,34.919382]]],[[[132.077187,34.91942],[132.077157,34.919412],[132.07718,34.9194],[132.077187,34.91942]]],[[[132.07737,34.919894],[132.077327,34.91989],[132.077355,34.919863],[132.07737,34.919894]]],[[[132.077314,34.919917],[132.077279,34.919908],[132.077303,34.919892],[132.077314,34.919917]]],[[[132.077412,34.919921],[132.077381,34.919935],[132.077375,34.919908],[132.077412,34.919921]]],[[[132.073608,34.920001],[132.073282,34.919942],[132.07297,34.919968],[132.072841,34.919687],[132.072777,34.919654],[132.072762,34.919846],[132.072599,34.919795],[132.072668,34.919739],[132.072515,34.919618],[132.072543,34.919585],[132.072499,34.919542],[132.07236,34.919545],[132.072276,34.919311],[132.072372,34.919197],[132.072441,34.919221],[132.072472,34.919089],[132.072714,34.919008],[132.07286,34.919057],[132.073039,34.918995],[132.073053,34.919059],[132.073186,34.919081],[132.073214,34.919034],[132.073509,34.919084],[132.073531,34.919005],[132.073995,34.918946],[132.074043,34.918991],[132.074164,34.918966],[132.074191,34.919007],[132.074361,34.918972],[132.074318,34.919082],[132.074585,34.919054],[132.074493,34.919157],[132.07449,34.919281],[132.074444,34.919306],[132.07449,34.919322],[132.074426,34.919381],[132.074589,34.919466],[132.074547,34.919611],[132.074446,34.919637],[132.074269,34.919519],[132.074144,34.919499],[132.074109,34.919563],[132.074205,34.919635],[132.07408,34.919802],[132.073883,34.91995],[132.073608,34.920001]]],[[[132.078851,34.920739],[132.078802,34.920735],[132.078825,34.920712],[132.078851,34.920739]]],[[[132.078789,34.920771],[132.078723,34.92076],[132.078754,34.920735],[132.078789,34.920771]]],[[[132.073766,34.920861],[132.073542,34.920907],[132.073489,34.920847],[132.073341,34.920879],[132.073304,34.920767],[132.073351,34.920762],[132.073365,34.920638],[132.073222,34.920392],[132.073141,34.92041],[132.073163,34.920459],[132.073045,34.920484],[132.073011,34.920372],[132.073364,34.920251],[132.073754,34.920201],[132.073822,34.920226],[132.073835,34.920266],[132.073753,34.920284],[132.073793,34.920321],[132.074051,34.92033],[132.074038,34.920361],[132.074134,34.920412],[132.074092,34.920579],[132.073986,34.920718],[132.073912,34.920733],[132.073878,34.920817],[132.073766,34.920861]]],[[[132.073463,34.921852],[132.073406,34.921849],[132.07332,34.921724],[132.073403,34.92172],[132.073332,34.921581],[132.073194,34.921669],[132.073146,34.9216],[132.073191,34.921548],[132.073072,34.921562],[132.073002,34.921488],[132.072923,34.9215],[132.072895,34.921461],[132.072967,34.921296],[132.073392,34.921238],[132.073496,34.921281],[132.073495,34.921322],[132.073558,34.921299],[132.07354,34.921371],[132.073611,34.921347],[132.07372,34.921442],[132.073666,34.921498],[132.073679,34.921595],[132.073614,34.921722],[132.073463,34.921852]]],[[[132.078284,34.922261],[132.078104,34.922234],[132.078204,34.922193],[132.078341,34.922236],[132.078284,34.922261]]],[[[132.081447,34.922381],[132.081366,34.922395],[132.081351,34.922354],[132.081438,34.92234],[132.081447,34.922381]]],[[[132.08149,34.922611],[132.081493,34.922665],[132.081421,34.922721],[132.081096,34.922771],[132.081059,34.922739],[132.081505,34.922549],[132.08149,34.922611]]],[[[132.079553,34.922788],[132.07952,34.922744],[132.079629,34.922622],[132.079818,34.922536],[132.079825,34.922607],[132.079735,34.922635],[132.079653,34.922777],[132.079553,34.922788]]],[[[132.079669,34.922927],[132.079812,34.922978],[132.079657,34.923019],[132.079586,34.922982],[132.079604,34.922913],[132.079669,34.922927]]],[[[132.07876,34.922873],[132.078892,34.922988],[132.078507,34.923043],[132.078264,34.923142],[132.078003,34.923111],[132.078089,34.922997],[132.078475,34.922845],[132.078645,34.922826],[132.07876,34.922873]]],[[[132.076943,34.923411],[132.07664,34.923421],[132.076659,34.923361],[132.076782,34.923315],[132.076502,34.923338],[132.076682,34.923243],[132.076965,34.923227],[132.077029,34.923262],[132.076952,34.923332],[132.076943,34.923411]]],[[[132.078252,34.923536],[132.07809,34.923556],[132.078008,34.923482],[132.078313,34.923279],[132.078524,34.923247],[132.07894,34.923029],[132.079015,34.923043],[132.07906,34.923177],[132.078996,34.923261],[132.078766,34.92337],[132.07869,34.923458],[132.078252,34.923536]]],[[[132.077064,34.923435],[132.077085,34.923517],[132.07695,34.92359],[132.076854,34.923553],[132.076824,34.923465],[132.077064,34.923435]]],[[[132.082231,34.924222],[132.082229,34.924257],[132.08215,34.924241],[132.082231,34.924222]]],[[[132.082248,34.9243],[132.082194,34.924302],[132.082193,34.924273],[132.082248,34.9243]]],[[[132.082194,34.924324],[132.082174,34.924346],[132.082134,34.924319],[132.082194,34.924324]]],[[[132.082511,34.924475],[132.082401,34.92452],[132.08203,34.924448],[132.082036,34.924407],[132.082192,34.924397],[132.082285,34.924337],[132.08226,34.924291],[132.082494,34.924275],[132.082571,34.92434],[132.08257,34.924454],[132.082511,34.924475]]],[[[132.081944,34.924489],[132.081867,34.924514],[132.081938,34.924449],[132.081944,34.924489]]],[[[132.08205,34.924481],[132.082068,34.924523],[132.081952,34.924566],[132.081979,34.92445],[132.08205,34.924481]]],[[[132.081905,34.924905],[132.08186,34.924851],[132.081993,34.924747],[132.082187,34.924715],[132.082457,34.924568],[132.082542,34.924594],[132.082545,34.924663],[132.082247,34.924852],[132.081905,34.924905]]],[[[132.082291,34.926064],[132.082217,34.926046],[132.082298,34.926042],[132.082291,34.926064]]],[[[132.082299,34.926097],[132.082251,34.926093],[132.082293,34.926079],[132.082299,34.926097]]],[[[132.082277,34.926127],[132.082267,34.926148],[132.082248,34.926137],[132.082277,34.926127]]],[[[132.082215,34.926115],[132.082168,34.926154],[132.082103,34.926116],[132.082156,34.926082],[132.082215,34.926115]]],[[[132.082229,34.926159],[132.082204,34.926171],[132.082197,34.926152],[132.082229,34.926159]]],[[[132.083206,34.926644],[132.083116,34.926655],[132.082982,34.926573],[132.083079,34.926517],[132.08308,34.926562],[132.083166,34.926545],[132.083206,34.926644]]],[[[132.081883,34.926683],[132.081672,34.92678],[132.08153,34.926915],[132.081366,34.926929],[132.081258,34.926835],[132.081525,34.926659],[132.081591,34.926665],[132.081529,34.926615],[132.081574,34.926524],[132.081511,34.926487],[132.081755,34.926177],[132.082035,34.92612],[132.082169,34.926192],[132.082096,34.926268],[132.082106,34.926341],[132.081881,34.926577],[132.081959,34.926633],[132.081883,34.926683]]],[[[132.083012,34.926919],[132.082972,34.926956],[132.082937,34.926922],[132.083018,34.926856],[132.082866,34.926881],[132.082739,34.926689],[132.082926,34.92664],[132.083277,34.926705],[132.083218,34.926875],[132.083012,34.926919]]],[[[132.082905,34.928431],[132.082856,34.928365],[132.083039,34.928304],[132.083071,34.928393],[132.082905,34.928431]]],[[[132.082791,34.928396],[132.082584,34.928452],[132.082682,34.928404],[132.082791,34.928396]]],[[[132.083643,34.92859],[132.083423,34.928518],[132.083453,34.928462],[132.083664,34.928452],[132.083696,34.928555],[132.083643,34.92859]]],[[[132.083285,34.928584],[132.08326,34.928669],[132.083172,34.928679],[132.083224,34.92857],[132.083285,34.928584]]],[[[132.083141,34.928942],[132.083165,34.929079],[132.083108,34.929108],[132.083121,34.929143],[132.083025,34.929154],[132.083075,34.929112],[132.082972,34.929077],[132.083005,34.92892],[132.083076,34.928865],[132.083141,34.928942]]],[[[132.083412,34.929154],[132.083298,34.929089],[132.083262,34.928955],[132.083345,34.928861],[132.083468,34.929078],[132.083477,34.929124],[132.083438,34.929123],[132.083363,34.929025],[132.083412,34.929154]]],[[[132.083773,34.92915],[132.083641,34.929149],[132.08375,34.929055],[132.083773,34.92915]]],[[[132.082796,34.929066],[132.082694,34.929178],[132.082613,34.929155],[132.082607,34.929108],[132.082797,34.929024],[132.082796,34.929066]]],[[[132.083167,34.929211],[132.083197,34.929328],[132.083033,34.929348],[132.083008,34.929299],[132.083047,34.929219],[132.083167,34.929211]]],[[[132.082858,34.929466],[132.082858,34.92936],[132.082978,34.929309],[132.083012,34.929408],[132.082858,34.929466]]],[[[132.0836,34.929718],[132.083507,34.929743],[132.083455,34.929655],[132.083715,34.92951],[132.083771,34.929549],[132.083779,34.929645],[132.0836,34.929718]]],[[[132.083578,34.92986],[132.083563,34.929924],[132.083478,34.929913],[132.08349,34.929832],[132.083578,34.92986]]],[[[132.083538,34.929971],[132.083597,34.930007],[132.083567,34.930065],[132.083434,34.930002],[132.083446,34.929963],[132.083538,34.929971]]],[[[132.087374,34.930664],[132.087406,34.930751],[132.087352,34.930733],[132.087374,34.930664]]],[[[132.087368,34.930772],[132.087399,34.930838],[132.0873,34.930905],[132.087285,34.93078],[132.087368,34.930772]]],[[[132.086606,34.931115],[132.086605,34.931178],[132.086475,34.931265],[132.086477,34.931314],[132.086386,34.93134],[132.086431,34.931182],[132.086384,34.931064],[132.086457,34.930999],[132.086982,34.930876],[132.087071,34.93095],[132.087045,34.931016],[132.08676,34.93115],[132.086606,34.931115]]],[[[132.087222,34.931228],[132.087254,34.931325],[132.087125,34.931371],[132.087132,34.931196],[132.087176,34.931168],[132.087222,34.931228]]],[[[132.090882,34.931357],[132.090937,34.931463],[132.090815,34.931411],[132.090815,34.931354],[132.090882,34.931357]]],[[[132.090707,34.931316],[132.090768,34.931488],[132.090705,34.931529],[132.090588,34.931452],[132.0906,34.931353],[132.090707,34.931316]]],[[[132.087841,34.931723],[132.087799,34.931701],[132.087838,34.931693],[132.087841,34.931723]]],[[[132.085428,34.931683],[132.085435,34.931874],[132.085319,34.931879],[132.084409,34.931402],[132.084644,34.931192],[132.085087,34.931018],[132.085431,34.930962],[132.085771,34.93101],[132.085758,34.931291],[132.085507,34.931476],[132.085469,34.931592],[132.085398,34.931611],[132.085428,34.931683]]],[[[132.089851,34.931838],[132.089749,34.931941],[132.08979,34.931819],[132.089851,34.931838]]],[[[132.090639,34.932083],[132.09062,34.932209],[132.090457,34.932317],[132.090386,34.93231],[132.090481,34.93223],[132.09051,34.932077],[132.090639,34.932083]]],[[[132.087534,34.932324],[132.087402,34.932361],[132.087333,34.93234],[132.087351,34.93229],[132.087268,34.932327],[132.087206,34.932231],[132.087245,34.932155],[132.087601,34.932072],[132.087639,34.932092],[132.087567,34.9322],[132.087603,34.932284],[132.087534,34.932324]]],[[[132.100957,34.93259],[132.100857,34.932688],[132.100801,34.932548],[132.10097,34.932492],[132.100957,34.93259]]],[[[132.092611,34.932741],[132.092539,34.932883],[132.092389,34.932944],[132.092511,34.932782],[132.092593,34.932713],[132.092611,34.932741]]],[[[132.089963,34.932921],[132.089957,34.932985],[132.089884,34.932985],[132.089816,34.932955],[132.089784,34.932859],[132.089845,34.932834],[132.089963,34.932921]]],[[[132.090442,34.933286],[132.090463,34.933346],[132.090354,34.933317],[132.090368,34.933278],[132.090442,34.933286]]],[[[132.099263,34.933656],[132.099215,34.933742],[132.099071,34.933808],[132.099044,34.933738],[132.098752,34.933593],[132.098942,34.933475],[132.099037,34.933349],[132.098929,34.933379],[132.098941,34.93335],[132.099217,34.933251],[132.099096,34.93324],[132.099128,34.933194],[132.099395,34.933001],[132.099464,34.933011],[132.099443,34.933168],[132.099285,34.933365],[132.099364,34.933401],[132.099266,34.933472],[132.099268,34.933582],[132.09918,34.933628],[132.099263,34.933656]]],[[[132.099663,34.933787],[132.099605,34.933823],[132.099503,34.933771],[132.099383,34.933778],[132.099481,34.933525],[132.099556,34.933507],[132.099745,34.933634],[132.099663,34.933787]]],[[[132.091566,34.933639],[132.091396,34.933894],[132.091025,34.933784],[132.09113,34.933618],[132.091434,34.933474],[132.091566,34.933639]]],[[[132.102004,34.933813],[132.102061,34.933827],[132.102007,34.933915],[132.101898,34.933885],[132.101924,34.933796],[132.102004,34.933813]]],[[[132.098765,34.933974],[132.098681,34.934005],[132.098502,34.933938],[132.098371,34.933951],[132.098386,34.933889],[132.098636,34.933707],[132.098823,34.933821],[132.098765,34.933974]]],[[[132.101506,34.934123],[132.101352,34.934113],[132.10124,34.934013],[132.100969,34.93408],[132.100797,34.933986],[132.101124,34.93384],[132.101444,34.933767],[132.101595,34.933836],[132.101603,34.934],[132.101506,34.934123]]],[[[132.100622,34.934172],[132.100606,34.93423],[132.100545,34.93422],[132.100548,34.934175],[132.100622,34.934172]]],[[[132.095209,34.934348],[132.095082,34.934494],[132.094753,34.934669],[132.094589,34.9347],[132.094262,34.934713],[132.094195,34.934676],[132.094167,34.934595],[132.094372,34.934348],[132.094084,34.934472],[132.094032,34.934683],[132.093524,34.934641],[132.093799,34.934487],[132.09378,34.934463],[132.093306,34.934626],[132.093193,34.934609],[132.093586,34.93417],[132.094399,34.933791],[132.094114,34.933798],[132.093435,34.934073],[132.093221,34.934114],[132.093095,34.934027],[132.093125,34.933937],[132.093742,34.93343],[132.093616,34.933459],[132.093271,34.933688],[132.093096,34.933714],[132.093224,34.93355],[132.093463,34.933374],[132.09343,34.933363],[132.092847,34.933747],[132.092739,34.933709],[132.092676,34.933459],[132.092636,34.933452],[132.092643,34.933408],[132.092774,34.933374],[132.092663,34.933288],[132.092772,34.933241],[132.092735,34.933192],[132.09264,34.933199],[132.092733,34.933054],[132.092629,34.933055],[132.092592,34.932974],[132.092772,34.932686],[132.093105,34.932518],[132.093038,34.932461],[132.092561,34.932482],[132.092522,34.932649],[132.092395,34.932791],[132.091847,34.933164],[132.091976,34.933173],[132.091998,34.933214],[132.091821,34.933336],[132.091888,34.93338],[132.091769,34.933478],[132.091687,34.933497],[132.091706,34.933452],[132.091629,34.933377],[132.091222,34.933527],[132.09133,34.933452],[132.091353,34.933363],[132.091502,34.93334],[132.091515,34.933238],[132.091587,34.933201],[132.091557,34.933163],[132.091137,34.933359],[132.091094,34.93335],[132.09112,34.9333],[132.09134,34.933177],[132.091122,34.933096],[132.090716,34.933279],[132.090687,34.933211],[132.09063,34.933263],[132.090481,34.933223],[132.090401,34.933261],[132.090414,34.933124],[132.090172,34.93317],[132.090099,34.933101],[132.090119,34.933066],[132.090411,34.932931],[132.090313,34.932878],[132.090252,34.932939],[132.090063,34.932939],[132.089874,34.932816],[132.090281,34.93265],[132.090237,34.93258],[132.090364,34.932464],[132.090804,34.932257],[132.090853,34.932186],[132.090822,34.932118],[132.090709,34.932104],[132.090583,34.931903],[132.090768,34.931813],[132.09118,34.931732],[132.091174,34.931535],[132.090986,34.931355],[132.090759,34.931017],[132.090324,34.930849],[132.090127,34.930826],[132.089916,34.931137],[132.089414,34.931423],[132.089416,34.931481],[132.089321,34.931549],[132.089273,34.931512],[132.089008,34.931685],[132.088565,34.931859],[132.088357,34.931823],[132.088358,34.931542],[132.088163,34.931379],[132.087987,34.931376],[132.087969,34.931572],[132.087887,34.931536],[132.087832,34.931383],[132.087784,34.931383],[132.087835,34.931542],[132.087732,34.931601],[132.087685,34.931799],[132.087615,34.931735],[132.087597,34.931794],[132.087448,34.931829],[132.087476,34.931739],[132.087417,34.931483],[132.087455,34.931286],[132.087601,34.931185],[132.087465,34.931054],[132.08744,34.930596],[132.087518,34.930582],[132.087506,34.930505],[132.087643,34.93029],[132.087789,34.930314],[132.087854,34.930033],[132.088287,34.930389],[132.087937,34.930545],[132.087836,34.930695],[132.087856,34.930832],[132.088117,34.93113],[132.088307,34.931195],[132.088493,34.931361],[132.088729,34.931389],[132.089155,34.931282],[132.089376,34.930963],[132.089473,34.930553],[132.089564,34.93046],[132.089754,34.930316],[132.089956,34.930254],[132.090072,34.930287],[132.09027,34.930219],[132.090377,34.930118],[132.091161,34.93031],[132.09146,34.930242],[132.091719,34.930032],[132.092414,34.930213],[132.092757,34.930083],[132.092866,34.929736],[132.093248,34.929805],[132.094017,34.929809],[132.094674,34.929731],[132.095193,34.92957],[132.095548,34.929555],[132.096026,34.92967],[132.096518,34.93007],[132.097234,34.930467],[132.097528,34.930856],[132.097642,34.931137],[132.09783,34.931344],[132.097971,34.931487],[132.098363,34.931706],[132.098681,34.931678],[132.099411,34.931446],[132.099721,34.931567],[132.100077,34.931492],[132.100304,34.931211],[132.100611,34.931048],[132.101048,34.931478],[132.101581,34.931907],[132.101593,34.931943],[132.101056,34.932204],[132.100995,34.932261],[132.100997,34.932392],[132.100885,34.932345],[132.100855,34.932502],[132.100791,34.932517],[132.100767,34.932593],[132.100764,34.932778],[132.100639,34.932919],[132.100158,34.932927],[132.100055,34.932975],[132.099973,34.933131],[132.100087,34.933198],[132.100018,34.933219],[132.099943,34.93343],[132.099509,34.933358],[132.099521,34.933104],[132.099717,34.933024],[132.099642,34.932882],[132.099485,34.932814],[132.099374,34.932894],[132.099261,34.932877],[132.09924,34.932972],[132.09909,34.933111],[132.098067,34.9337],[132.097651,34.933834],[132.097364,34.933996],[132.097311,34.933942],[132.097629,34.933749],[132.097565,34.933724],[132.097589,34.933677],[132.097258,34.933784],[132.097242,34.933476],[132.096878,34.933738],[132.096665,34.933789],[132.09641,34.933798],[132.095901,34.933606],[132.095597,34.933599],[132.095937,34.93377],[132.095966,34.933801],[132.095847,34.933845],[132.095981,34.93396],[132.095729,34.934008],[132.095468,34.934201],[132.095186,34.934305],[132.095209,34.934348]]],[[[132.110182,34.938559],[132.110118,34.938656],[132.109669,34.938445],[132.109368,34.938547],[132.108721,34.938418],[132.10828,34.938211],[132.108221,34.93787],[132.10815,34.937813],[132.108098,34.938165],[132.108151,34.938381],[132.108055,34.938391],[132.107961,34.938116],[132.107564,34.937388],[132.106916,34.936524],[132.106612,34.935918],[132.106297,34.935537],[132.105626,34.934932],[132.104972,34.934423],[132.10382,34.933679],[132.103329,34.933284],[132.103088,34.933244],[132.102942,34.933277],[132.102841,34.933215],[132.102476,34.933506],[132.102249,34.932979],[132.102046,34.932668],[132.101842,34.932456],[132.102186,34.932268],[132.103263,34.932705],[132.104295,34.932887],[132.104657,34.933012],[132.106846,34.933997],[132.108562,34.935114],[132.109153,34.935351],[132.109251,34.93549],[132.109423,34.936001],[132.109387,34.936274],[132.109209,34.93663],[132.109232,34.93674],[132.109497,34.937009],[132.110052,34.938039],[132.110146,34.938261],[132.110182,34.938559]]],[[[132.106922,34.941966],[132.106882,34.942038],[132.106726,34.942022],[132.106654,34.941978],[132.106649,34.94191],[132.106799,34.941871],[132.106922,34.941966]]],[[[132.10617,34.941991],[132.106197,34.942077],[132.106099,34.942118],[132.105959,34.942072],[132.105917,34.941997],[132.10609,34.94194],[132.10617,34.941991]]],[[[132.107146,34.947154],[132.107217,34.947213],[132.107192,34.947249],[132.107054,34.947165],[132.107146,34.947154]]],[[[132.107361,34.947231],[132.107336,34.947366],[132.107264,34.94738],[132.107274,34.947266],[132.107361,34.947231]]],[[[132.107884,34.947562],[132.107885,34.947643],[132.107815,34.947579],[132.107884,34.947562]]],[[[132.107323,34.947703],[132.107321,34.947762],[132.107244,34.947796],[132.10726,34.947702],[132.107316,34.947663],[132.107323,34.947703]]],[[[132.108014,34.947648],[132.10788,34.9478],[132.107772,34.947751],[132.107765,34.9477],[132.107823,34.947674],[132.108014,34.947648]]],[[[132.110305,34.94837],[132.110336,34.94841],[132.110282,34.948471],[132.1102,34.948498],[132.110168,34.948466],[132.110186,34.948406],[132.110305,34.94837]]],[[[132.108432,34.948104],[132.108533,34.948247],[132.108554,34.948411],[132.108273,34.948523],[132.108186,34.948243],[132.108212,34.94813],[132.108027,34.948066],[132.107976,34.947951],[132.108038,34.947966],[132.108061,34.947921],[132.108012,34.947834],[132.108101,34.947809],[132.108432,34.948104]]],[[[132.110192,34.948539],[132.109885,34.948579],[132.109921,34.948502],[132.110062,34.94848],[132.110096,34.948506],[132.110051,34.948537],[132.110192,34.948539]]],[[[132.110128,34.948689],[132.109876,34.948688],[132.109857,34.94861],[132.110234,34.948568],[132.110281,34.948673],[132.110128,34.948689]]],[[[132.110317,34.948705],[132.109994,34.948752],[132.110193,34.948689],[132.110317,34.948705]]],[[[132.108718,34.94883],[132.108154,34.948803],[132.108212,34.948654],[132.108384,34.948598],[132.108336,34.94858],[132.108416,34.948527],[132.108511,34.948547],[132.108654,34.948677],[132.108741,34.948764],[132.108666,34.948776],[132.108718,34.94883]]],[[[132.110356,34.948442],[132.110568,34.948745],[132.110569,34.948836],[132.110529,34.948856],[132.110378,34.948765],[132.110258,34.948575],[132.110265,34.948493],[132.110356,34.948442]]],[[[132.110419,34.948827],[132.110462,34.948862],[132.110391,34.94889],[132.110315,34.948853],[132.110419,34.948827]]],[[[132.111193,34.94918],[132.111228,34.94921],[132.111194,34.949245],[132.111088,34.949193],[132.111193,34.94918]]],[[[132.110682,34.949371],[132.110652,34.949431],[132.110589,34.949427],[132.110682,34.949371]]],[[[132.110455,34.949412],[132.110453,34.949439],[132.110375,34.949456],[132.110455,34.949412]]],[[[132.108724,34.949324],[132.108558,34.949481],[132.108462,34.94949],[132.108372,34.949386],[132.108442,34.949311],[132.108194,34.949248],[132.108101,34.94908],[132.108315,34.948975],[132.108978,34.948994],[132.108977,34.949041],[132.108812,34.949041],[132.108801,34.949218],[132.108724,34.949324]]],[[[132.111011,34.949292],[132.110958,34.949427],[132.110831,34.949509],[132.110778,34.949488],[132.110889,34.94931],[132.110943,34.949267],[132.111011,34.949292]]],[[[132.109051,34.949188],[132.109013,34.949438],[132.10891,34.94955],[132.108841,34.94955],[132.10883,34.949493],[132.108975,34.949227],[132.109051,34.949188]]],[[[132.111406,34.952583],[132.111492,34.952623],[132.111496,34.952886],[132.1112,34.952725],[132.111264,34.952584],[132.111406,34.952583]]],[[[132.112848,34.953111],[132.112832,34.953218],[132.112657,34.953102],[132.112478,34.953157],[132.112344,34.953036],[132.112383,34.952994],[132.112304,34.952844],[132.112087,34.952658],[132.112011,34.952421],[132.111857,34.952535],[132.111794,34.952344],[132.11164,34.952171],[132.111691,34.95199],[132.111622,34.952062],[132.11157,34.95203],[132.111704,34.951646],[132.111487,34.951663],[132.111652,34.95136],[132.111618,34.951315],[132.111562,34.951329],[132.111358,34.951543],[132.111282,34.951525],[132.111368,34.951395],[132.111347,34.951299],[132.111539,34.951281],[132.111571,34.95124],[132.111424,34.951187],[132.110931,34.951221],[132.110996,34.951106],[132.110911,34.951074],[132.111014,34.950991],[132.111011,34.950883],[132.110561,34.950886],[132.11052,34.95085],[132.110715,34.950687],[132.110778,34.950545],[132.110965,34.950463],[132.111316,34.950479],[132.111035,34.950152],[132.110931,34.94994],[132.111091,34.949733],[132.111354,34.949687],[132.111376,34.949649],[132.111274,34.949551],[132.111292,34.949338],[132.111175,34.948868],[132.110923,34.948707],[132.110735,34.948677],[132.110563,34.948539],[132.110336,34.94816],[132.110397,34.948144],[132.110274,34.94783],[132.110132,34.947672],[132.109612,34.947572],[132.109553,34.947883],[132.109307,34.948012],[132.108922,34.948011],[132.108754,34.948084],[132.1088,34.948243],[132.108685,34.948329],[132.108595,34.948268],[132.1084,34.947952],[132.108197,34.947779],[132.108089,34.947635],[132.108072,34.947525],[132.107964,34.947454],[132.107964,34.947227],[132.107797,34.947058],[132.107647,34.947],[132.107488,34.946818],[132.107368,34.946844],[132.107179,34.946698],[132.107105,34.946727],[132.106931,34.946936],[132.106726,34.947074],[132.106604,34.947091],[132.106379,34.946833],[132.106247,34.946804],[132.106079,34.94664],[132.105847,34.946253],[132.105822,34.946287],[132.105777,34.946261],[132.105733,34.946082],[132.105644,34.945994],[132.105426,34.945964],[132.10528,34.94604],[132.105239,34.946133],[132.1048,34.945997],[132.104717,34.94592],[132.104527,34.945301],[132.104615,34.945207],[132.104786,34.945223],[132.105123,34.945456],[132.10544,34.945392],[132.106227,34.945921],[132.105367,34.94525],[132.105396,34.945208],[132.105632,34.945179],[132.105835,34.945234],[132.106049,34.94536],[132.106133,34.945115],[132.106542,34.944796],[132.106387,34.944741],[132.106056,34.944735],[132.105836,34.944589],[132.105817,34.944496],[132.105956,34.944373],[132.10587,34.944352],[132.10593,34.944235],[132.105768,34.944202],[132.105678,34.94397],[132.10571,34.943522],[132.10588,34.943647],[132.105791,34.943512],[132.105792,34.943454],[132.105845,34.943427],[132.105956,34.943542],[132.106386,34.943614],[132.106458,34.943748],[132.106497,34.9436],[132.106746,34.943766],[132.107,34.9436],[132.10675,34.943243],[132.10665,34.943001],[132.106627,34.942798],[132.106871,34.942639],[132.106737,34.942229],[132.106527,34.942213],[132.1065,34.942132],[132.106761,34.942188],[132.107127,34.942191],[132.10714,34.942108],[132.107184,34.942092],[132.107274,34.942147],[132.107564,34.942181],[132.108337,34.942655],[132.108364,34.942717],[132.108209,34.942903],[132.108387,34.943773],[132.108601,34.944105],[132.108827,34.944677],[132.10912,34.945081],[132.109827,34.94587],[132.109861,34.946338],[132.110092,34.947322],[132.110242,34.947577],[132.110362,34.947686],[132.110641,34.947816],[132.110752,34.948041],[132.110731,34.948086],[132.111742,34.947937],[132.11207,34.948021],[132.112387,34.948201],[132.112765,34.948758],[132.113464,34.948412],[132.114182,34.948397],[132.115045,34.948161],[132.116843,34.947911],[132.116875,34.947965],[132.116842,34.948049],[132.116585,34.948361],[132.116595,34.948513],[132.11684,34.948984],[132.117292,34.94937],[132.117343,34.949393],[132.118123,34.949084],[132.11843,34.948936],[132.118616,34.948789],[132.118886,34.948696],[132.119152,34.948781],[132.119899,34.949218],[132.120262,34.949209],[132.120734,34.948991],[132.121051,34.94903],[132.122095,34.949393],[132.12232,34.949556],[132.123763,34.951046],[132.122979,34.952033],[132.122296,34.952778],[132.122045,34.953172],[132.121604,34.952983],[132.121271,34.952721],[132.120502,34.952523],[132.120052,34.952567],[132.119229,34.952085],[132.118979,34.95202],[132.118518,34.95202],[132.118308,34.951855],[132.118038,34.951515],[132.117598,34.951275],[132.117377,34.951298],[132.11743,34.951376],[132.117342,34.951505],[132.116895,34.951607],[132.116777,34.95156],[132.116687,34.951437],[132.11672,34.95121],[132.116671,34.951173],[132.116305,34.95102],[132.116137,34.951024],[132.116095,34.950938],[132.116041,34.951057],[132.115907,34.951046],[132.115639,34.950805],[132.115561,34.95088],[132.115815,34.95108],[132.115847,34.951174],[132.115795,34.951207],[132.11581,34.951296],[132.115693,34.951347],[132.115612,34.951214],[132.115528,34.951218],[132.115251,34.951401],[132.115087,34.951329],[132.114928,34.951105],[132.114829,34.951056],[132.114724,34.95108],[132.114607,34.950911],[132.114135,34.950978],[132.113856,34.951065],[132.113585,34.951236],[132.113711,34.951524],[132.113706,34.951655],[132.113668,34.951701],[132.113451,34.951651],[132.113636,34.951806],[132.11363,34.951944],[132.113576,34.952067],[132.113347,34.952082],[132.11311,34.952247],[132.11308,34.952423],[132.113103,34.952483],[132.113282,34.952564],[132.113267,34.952752],[132.11293,34.95295],[132.112841,34.953055],[132.112848,34.953111]]]]}}]}
