{"type":"FeatureCollection","features":[{"type":"Feature","properties":{"potaRef":"JP-1384","nameJa":"Shishiku tedori","nameEn":"Shishiku Tedori Prefectural Nature Park","authority":"環境省 生物多様性「見える化」マップ","boundaryStatus":"全国GIS候補・公開前検証待ち","boundarySource":"環境省 生物多様性「見える化」マップの自然公園区域を、POTA代表座標で一意に空間照合して加工","boundaryScaleNote":"区域は概要データであり、正確性は保証されない。POTA運用可否は公式情報で最終確認すること。","candidateMethod":"POTA representative point inside one public natural-park area","sourceParkKind":"都道府県立自然公園","sourceName":"Shishiku tedori","sourceFeatureCount":1,"cautionMeters":75},"geometry":{"type":"MultiPolygon","coordinates":[[[[136.56912,36.333943],[136.568633,36.334029],[136.568227,36.334041],[136.567683,36.334376],[136.567186,36.3346],[136.566903,36.334513],[136.566558,36.334215],[136.566505,36.334041],[136.566551,36.333836],[136.566306,36.333383],[136.565992,36.333054],[136.565226,36.3327],[136.564997,36.332693],[136.564691,36.332787],[136.563481,36.333507],[136.562854,36.333725],[136.562356,36.334184],[136.561981,36.334445],[136.561721,36.334563],[136.5613,36.334451],[136.560795,36.334594],[136.560473,36.334575],[136.560091,36.33442],[136.559593,36.333935],[136.558973,36.33301],[136.558881,36.332811],[136.558828,36.332352],[136.558621,36.332023],[136.558414,36.331383],[136.558238,36.33101],[136.558483,36.330421],[136.558759,36.328769],[136.559463,36.327278],[136.559402,36.327148],[136.55892,36.326931],[136.557144,36.325621],[136.555567,36.325347],[136.5551,36.325006],[136.554687,36.324863],[136.554542,36.32477],[136.554488,36.32426],[136.553899,36.324142],[136.552659,36.323447],[136.55148,36.323372],[136.55112,36.323273],[136.550117,36.322913],[136.549839,36.32266],[136.549138,36.321453],[136.548962,36.321062],[136.54903,36.320649],[136.549184,36.32033],[136.54975,36.319615],[136.550569,36.318876],[136.55069,36.318688],[136.549432,36.317974],[136.548618,36.317667],[136.548132,36.317563],[136.547796,36.317571],[136.547368,36.317705],[136.546559,36.317863],[136.545175,36.317887],[136.544843,36.317836],[136.544504,36.317866],[136.544113,36.317836],[136.542204,36.31749],[136.541671,36.317562],[136.541017,36.317752],[136.540624,36.317764],[136.539627,36.318054],[136.538775,36.31819],[136.537824,36.318472],[136.537213,36.318838],[136.537057,36.319012],[136.536845,36.319076],[136.536572,36.319427],[136.535894,36.319932],[136.535103,36.320682],[136.534532,36.321142],[136.534102,36.321411],[136.533269,36.321769],[136.53263,36.321842],[136.532461,36.321756],[136.5322,36.320869],[136.53224,36.320758],[136.532377,36.320644],[136.532803,36.320441],[136.532901,36.320278],[136.532968,36.319966],[136.532853,36.319583],[136.532488,36.318778],[136.532326,36.3182],[136.53234,36.318091],[136.53267,36.317461],[136.532218,36.317435],[136.531401,36.317167],[136.530304,36.31706],[136.529431,36.316767],[136.528905,36.316734],[136.527531,36.316939],[136.527381,36.316871],[136.526594,36.316229],[136.526069,36.315613],[136.525487,36.315039],[136.525274,36.314619],[136.525229,36.314154],[136.525062,36.313852],[136.524484,36.313318],[136.523216,36.312366],[136.523198,36.312216],[136.523423,36.3119],[136.523541,36.311512],[136.523258,36.311008],[136.522883,36.310598],[136.52281,36.310436],[136.522777,36.308768],[136.522578,36.30859],[136.52245,36.308231],[136.522434,36.30769],[136.522279,36.30685],[136.522438,36.305647],[136.522546,36.305254],[136.522851,36.304448],[136.522954,36.303931],[136.523276,36.303307],[136.523294,36.302694],[136.523151,36.302381],[136.522685,36.300696],[136.523021,36.300262],[136.522946,36.299912],[136.522936,36.299377],[136.523261,36.298984],[136.52353,36.298745],[136.52367,36.29851],[136.523663,36.298367],[136.523378,36.297937],[136.523271,36.297595],[136.523262,36.297323],[136.52304,36.296819],[136.522673,36.296443],[136.522285,36.295864],[136.521978,36.295644],[136.521831,36.295452],[136.521679,36.294756],[136.521269,36.294054],[136.521143,36.29356],[136.52116,36.292856],[136.521403,36.292124],[136.52171,36.291666],[136.521879,36.291311],[136.522244,36.290878],[136.522935,36.290285],[136.523554,36.289359],[136.52365,36.288966],[136.523829,36.288577],[136.524048,36.288377],[136.524344,36.287952],[136.524567,36.287758],[136.524879,36.287218],[136.524935,36.286899],[136.525168,36.286357],[136.525092,36.285505],[136.525131,36.285384],[136.525523,36.285046],[136.525939,36.284864],[136.526278,36.284608],[136.526848,36.284335],[136.527746,36.283783],[136.528394,36.283102],[136.528664,36.282896],[136.529095,36.282208],[136.529583,36.281628],[136.529803,36.281234],[136.530403,36.280565],[136.530915,36.279634],[136.530956,36.279395],[136.530891,36.279298],[136.529934,36.278791],[136.52911,36.278263],[136.528435,36.278004],[136.527278,36.277719],[136.525845,36.277095],[136.524735,36.276733],[136.524305,36.276466],[136.524336,36.276354],[136.525762,36.275444],[136.526135,36.275128],[136.526757,36.274348],[136.527108,36.273608],[136.527773,36.27175],[136.527751,36.271354],[136.527512,36.270392],[136.527295,36.268542],[136.527518,36.268034],[136.527816,36.267609],[136.528076,36.267021],[136.528313,36.266633],[136.528556,36.266454],[136.530778,36.26579],[136.531387,36.2655],[136.531922,36.26512],[136.532141,36.264727],[136.532261,36.264142],[136.532466,36.26376],[136.532534,36.263519],[136.53251,36.26287],[136.532641,36.262331],[136.532711,36.261319],[136.532883,36.26093],[136.533253,36.260422],[136.533374,36.259952],[136.533782,36.259057],[136.533706,36.25871],[136.533296,36.258141],[136.533159,36.257867],[136.532908,36.257732],[136.532252,36.25775],[136.532047,36.257651],[136.531883,36.257468],[136.531829,36.257145],[136.531938,36.256572],[136.531962,36.25626],[136.531918,36.256068],[136.531536,36.25549],[136.531314,36.25527],[136.531271,36.255108],[136.531417,36.254991],[136.531862,36.254886],[136.532325,36.254704],[136.532625,36.254403],[136.532724,36.25421],[136.532788,36.253892],[136.532828,36.253507],[136.532798,36.253125],[136.53323,36.252223],[136.533416,36.251989],[136.533983,36.251665],[136.534389,36.251312],[136.534362,36.251207],[136.533829,36.250774],[136.533496,36.250661],[136.533253,36.250475],[136.532093,36.249913],[136.531508,36.249705],[136.530642,36.249605],[136.530472,36.249472],[136.530322,36.249203],[136.530021,36.24886],[136.52925,36.248519],[136.528955,36.2483],[136.528625,36.248134],[136.528234,36.248135],[136.527864,36.248245],[136.527141,36.248326],[136.527001,36.248283],[136.526591,36.247825],[136.526355,36.247354],[136.526346,36.247164],[136.526204,36.246784],[136.525973,36.246395],[136.52582,36.246015],[136.525816,36.245592],[136.525889,36.245398],[136.526123,36.24512],[136.526548,36.244844],[136.527495,36.244519],[136.527917,36.244282],[136.528107,36.244012],[136.528244,36.243363],[136.528509,36.242809],[136.528802,36.242466],[136.529427,36.242035],[136.529523,36.24149],[136.52962,36.241249],[136.529635,36.240865],[136.529756,36.240517],[136.529509,36.239781],[136.529002,36.238949],[136.528986,36.238585],[136.529103,36.238061],[136.529618,36.237072],[136.530515,36.236106],[136.530625,36.235622],[136.530818,36.235285],[136.530986,36.235119],[136.53227,36.23468],[136.53274,36.234396],[136.533082,36.234015],[136.533258,36.233586],[136.533309,36.233245],[136.533267,36.233071],[136.533104,36.232933],[136.532711,36.232864],[136.532471,36.232887],[136.532283,36.232976],[136.531724,36.233343],[136.531337,36.233419],[136.531145,36.233347],[136.531062,36.233223],[136.531042,36.233075],[136.531116,36.232415],[136.530814,36.231455],[136.530827,36.231336],[136.53101,36.231284],[136.532254,36.231543],[136.533069,36.231562],[136.534266,36.231408],[136.535544,36.231155],[136.536077,36.231094],[136.537019,36.230725],[136.537485,36.23047],[136.537953,36.230007],[136.539042,36.2293],[136.539498,36.2289],[136.539702,36.228596],[136.540396,36.227933],[136.540867,36.227718],[136.541431,36.22755],[136.542907,36.227225],[136.543241,36.227229],[136.54372,36.227146],[136.544196,36.227158],[136.546731,36.227548],[136.546848,36.227641],[136.547087,36.22811],[136.54746,36.228647],[136.547517,36.228959],[136.547824,36.229424],[136.548011,36.229493],[136.548583,36.22929],[136.548919,36.229103],[136.549104,36.229084],[136.549249,36.229128],[136.550211,36.230357],[136.550665,36.230849],[136.551407,36.231401],[136.551628,36.23146],[136.551927,36.231635],[136.552448,36.231795],[136.552928,36.231836],[136.554216,36.231794],[136.555693,36.23148],[136.556119,36.231436],[136.557349,36.231459],[136.558174,36.231562],[136.560236,36.23163],[136.561387,36.231974],[136.561635,36.232169],[136.562027,36.232668],[136.562244,36.232868],[136.562296,36.232972],[136.562313,36.233365],[136.562517,36.23363],[136.562895,36.233739],[136.563466,36.233559],[136.563932,36.23359],[136.564299,36.233837],[136.564358,36.233959],[136.564366,36.234193],[136.564635,36.234573],[136.565352,36.234727],[136.56563,36.234732],[136.566025,36.23485],[136.567376,36.235693],[136.567659,36.235936],[136.568442,36.236248],[136.568781,36.236556],[136.568931,36.236603],[136.569013,36.23676],[136.569254,36.236953],[136.569377,36.23712],[136.569657,36.237237],[136.570021,36.23752],[136.570346,36.237966],[136.57056,36.238131],[136.571007,36.238629],[136.571933,36.239181],[136.5723,36.239518],[136.572375,36.239686],[136.572332,36.240466],[136.572418,36.240854],[136.572693,36.241386],[136.573012,36.241664],[136.573335,36.242034],[136.574476,36.24281],[136.574714,36.242888],[136.575435,36.242947],[136.575539,36.24298],[136.575674,36.243124],[136.575318,36.244253],[136.575675,36.244982],[136.575682,36.245524],[136.5755,36.246263],[136.575479,36.247305],[136.575295,36.248283],[136.575222,36.24833],[136.574692,36.248336],[136.573878,36.248476],[136.573502,36.248609],[136.573075,36.248842],[136.572707,36.249161],[136.572498,36.249504],[136.57196,36.250904],[136.571785,36.251181],[136.571497,36.251489],[136.571017,36.251766],[136.571015,36.25185],[136.571224,36.252282],[136.571456,36.252405],[136.572041,36.252885],[136.572365,36.253259],[136.572487,36.253503],[136.572598,36.253567],[136.573123,36.253681],[136.573285,36.25378],[136.574195,36.25467],[136.57564,36.255931],[136.575807,36.256234],[136.575531,36.257048],[136.575573,36.257476],[136.575645,36.257665],[136.575972,36.257943],[136.57632,36.258112],[136.576895,36.25854],[136.577202,36.25892],[136.577502,36.259143],[136.578108,36.259764],[136.578402,36.260147],[136.578567,36.260565],[136.578667,36.261029],[136.578674,36.26142],[136.578599,36.261581],[136.577436,36.261537],[136.576585,36.261632],[136.575631,36.261557],[136.575147,36.261579],[136.57433,36.261728],[136.574239,36.261782],[136.574178,36.261981],[136.574746,36.262936],[136.574991,36.263631],[136.575638,36.264703],[136.575701,36.265012],[136.575685,36.265324],[136.575901,36.265938],[136.575964,36.266399],[136.575931,36.266863],[136.576018,36.267214],[136.576322,36.267634],[136.576844,36.268132],[136.577237,36.268589],[136.577215,36.268744],[136.577303,36.268973],[136.577261,36.269594],[136.577329,36.27025],[136.57722,36.271145],[136.577243,36.271454],[136.577433,36.272525],[136.577696,36.273331],[136.577839,36.274032],[136.577795,36.274459],[136.577663,36.274887],[136.577675,36.275228],[136.577868,36.275496],[136.578344,36.275767],[136.579203,36.275998],[136.579453,36.276135],[136.580135,36.277096],[136.580648,36.277534],[136.581005,36.27819],[136.580913,36.278333],[136.581035,36.279066],[136.581012,36.279525],[136.581104,36.280115],[136.581391,36.280708],[136.581954,36.28127],[136.582679,36.281886],[136.583042,36.282438],[136.583072,36.282779],[136.582987,36.283009],[136.583036,36.283514],[136.583455,36.284354],[136.583831,36.284733],[136.584213,36.284888],[136.58489,36.285383],[136.585176,36.285653],[136.585287,36.28588],[136.585586,36.286183],[136.585855,36.286872],[136.586033,36.287151],[136.586212,36.287262],[136.586535,36.287641],[136.586787,36.287802],[136.586904,36.287986],[136.587085,36.288137],[136.587139,36.288332],[136.587742,36.289214],[136.588004,36.289861],[136.588011,36.29009],[136.587955,36.29022],[136.587381,36.290604],[136.587108,36.290728],[136.586873,36.291006],[136.586943,36.291381],[136.587414,36.292001],[136.587544,36.292315],[136.587558,36.292732],[136.587115,36.293325],[136.586442,36.294022],[136.586205,36.29441],[136.586,36.294994],[136.586003,36.295616],[136.585811,36.296577],[136.585697,36.29663],[136.58464,36.296719],[136.583651,36.297088],[136.582746,36.297628],[136.582138,36.298218],[136.581831,36.298616],[136.581589,36.299273],[136.58146,36.30066],[136.581225,36.301442],[136.581523,36.302476],[136.581845,36.303059],[136.581796,36.303247],[136.581677,36.303369],[136.579021,36.30453],[136.578877,36.304679],[136.578141,36.306082],[136.57781,36.306557],[136.57772,36.306598],[136.577578,36.30657],[136.576609,36.306114],[136.575995,36.305908],[136.575518,36.305826],[136.574843,36.305931],[136.573943,36.306375],[136.573364,36.306151],[136.573134,36.306164],[136.572838,36.306459],[136.572401,36.307246],[136.572198,36.307468],[136.571158,36.307656],[136.569777,36.308128],[136.56949,36.30832],[136.569228,36.308718],[136.569175,36.308871],[136.569176,36.309217],[136.569327,36.309563],[136.569461,36.30972],[136.569501,36.310032],[136.569219,36.310808],[136.569222,36.31095],[136.569658,36.311646],[136.570107,36.312178],[136.570249,36.312713],[136.570053,36.313452],[136.569463,36.314386],[136.56921,36.315368],[136.569274,36.316293],[136.569186,36.316757],[136.569188,36.317067],[136.569453,36.317874],[136.569246,36.318761],[136.569228,36.319152],[136.569446,36.319924],[136.569455,36.320154],[136.569819,36.32115],[136.56998,36.321858],[136.570344,36.322505],[136.570378,36.322688],[136.57081,36.323151],[136.570859,36.323269],[136.570331,36.324585],[136.57017,36.325328],[136.570176,36.325753],[136.56999,36.326602],[136.569666,36.327454],[136.569684,36.32793],[136.56975,36.328196],[136.569718,36.328551],[136.569204,36.329402],[136.569082,36.329759],[136.569071,36.329988],[136.568991,36.330143],[136.56903,36.330797],[136.569175,36.331261],[136.56925,36.331757],[136.569345,36.333973],[136.56912,36.333943]]],[[[136.599232,36.358962],[136.599084,36.358936],[136.59876,36.358627],[136.597904,36.357484],[136.597637,36.357207],[136.597288,36.356947],[136.596784,36.356456],[136.596276,36.3561],[136.596006,36.355849],[136.594959,36.35516],[136.594728,36.354886],[136.594608,36.354585],[136.594298,36.354126],[136.594269,36.354011],[136.594353,36.353893],[136.595639,36.353153],[136.596044,36.352858],[136.596193,36.352668],[136.596418,36.35212],[136.596842,36.351729],[136.597265,36.351506],[136.599702,36.351867],[136.599791,36.351991],[136.59989,36.352497],[136.600643,36.353309],[136.601041,36.353843],[136.601215,36.355074],[136.601234,36.355728],[136.601332,36.356082],[136.601481,36.356387],[136.601859,36.356826],[136.602272,36.357497],[136.602327,36.35769],[136.602232,36.357843],[136.601748,36.358069],[136.601331,36.358137],[136.600799,36.358433],[136.600424,36.358451],[136.600188,36.358715],[136.59996,36.35885],[136.599622,36.358844],[136.599232,36.358962]]],[[[136.617794,36.370552],[136.617775,36.370823],[136.617599,36.371015],[136.61752,36.371328],[136.617496,36.371711],[136.617665,36.373255],[136.61797,36.373752],[136.618051,36.374266],[136.617961,36.374916],[136.617671,36.375702],[136.617477,36.375863],[136.617042,36.375938],[136.616561,36.375945],[136.615265,36.375846],[136.615134,36.375766],[136.615077,36.375652],[136.614915,36.374647],[136.614902,36.374107],[136.614744,36.373252],[136.613946,36.371411],[136.613772,36.371146],[136.613979,36.370079],[136.613106,36.370146],[136.612728,36.369512],[136.606608,36.370529],[136.606725,36.369425],[136.606715,36.368924],[136.606793,36.368494],[136.606809,36.367871],[136.607124,36.366897],[136.60737,36.366436],[136.60877,36.364293],[136.609527,36.363244],[136.609871,36.362879],[136.610692,36.3623],[136.610912,36.362224],[136.611962,36.361624],[136.611812,36.361519],[136.611524,36.361445],[136.610671,36.361449],[136.610144,36.361565],[136.609486,36.36178],[136.608819,36.362088],[136.608018,36.36261],[136.607575,36.363103],[136.607333,36.363544],[136.607314,36.363763],[136.607041,36.364162],[136.606759,36.364354],[136.606099,36.364565],[136.605729,36.364806],[136.604934,36.365586],[136.604394,36.366354],[136.603988,36.366603],[136.603609,36.366913],[136.60295,36.367657],[136.602897,36.367812],[136.602873,36.368313],[136.602386,36.36901],[136.602092,36.369565],[136.601099,36.37089],[136.60082,36.371079],[136.599773,36.371201],[136.599632,36.371151],[136.598859,36.370612],[136.597441,36.36924],[136.597232,36.368826],[136.597181,36.368542],[136.59733,36.368275],[136.597719,36.367963],[136.598007,36.367616],[136.598667,36.366167],[136.599321,36.365001],[136.599647,36.364656],[136.600213,36.364332],[136.601964,36.363682],[136.602397,36.36342],[136.602801,36.363054],[136.603057,36.362585],[136.603563,36.362311],[136.604235,36.362047],[136.604699,36.361752],[136.605109,36.361361],[136.605372,36.361176],[136.605868,36.360617],[136.606646,36.360076],[136.606898,36.359638],[136.607431,36.35835],[136.607539,36.357853],[136.607477,36.357048],[136.607729,36.35634],[136.607752,36.356039],[136.607655,36.355522],[136.607433,36.355069],[136.606047,36.353351],[136.605904,36.352964],[136.605938,36.352539],[136.605883,36.352387],[136.604957,36.351432],[136.604662,36.350972],[136.604493,36.350554],[136.603966,36.349745],[136.604024,36.348865],[136.604464,36.348033],[136.604602,36.347492],[136.60512,36.347098],[136.605304,36.347039],[136.605974,36.346984],[136.606836,36.34704],[136.607885,36.346982],[136.608507,36.347014],[136.610468,36.347307],[136.612627,36.347751],[136.61426,36.347865],[136.614975,36.347849],[136.616548,36.347633],[136.618462,36.347689],[136.620565,36.34753],[136.620998,36.347733],[136.621585,36.348139],[136.622368,36.348432],[136.622424,36.34907],[136.622742,36.350076],[136.621855,36.350301],[136.621246,36.350587],[136.620955,36.350618],[136.619861,36.350562],[136.619294,36.350626],[136.618815,36.350855],[136.618579,36.351054],[136.618484,36.351245],[136.618486,36.351561],[136.618873,36.352588],[136.619375,36.353585],[136.619547,36.353784],[136.620315,36.355047],[136.621323,36.353955],[136.622311,36.352401],[136.622986,36.351185],[136.623036,36.350765],[136.62267,36.348452],[136.622808,36.348148],[136.623505,36.347599],[136.624661,36.346821],[136.628289,36.344437],[136.628571,36.344305],[136.629095,36.343917],[136.632684,36.34163],[136.633572,36.34099],[136.634409,36.340278],[136.634669,36.339898],[136.634836,36.339544],[136.634876,36.339304],[136.635098,36.338841],[136.635113,36.338657],[136.635792,36.337129],[136.635919,36.336703],[136.636126,36.336321],[136.636778,36.334525],[136.63797,36.331497],[136.638115,36.330996],[136.638418,36.330364],[136.63911,36.329313],[136.639815,36.328377],[136.640794,36.327205],[136.641393,36.326341],[136.641561,36.32595],[136.64166,36.325374],[136.641777,36.325018],[136.641874,36.324211],[136.642017,36.323787],[136.642908,36.321948],[136.645714,36.315303],[136.644737,36.315041],[136.643878,36.315137],[136.643073,36.315157],[136.642536,36.315258],[136.642116,36.315467],[136.641785,36.315739],[136.640991,36.316267],[136.640077,36.316675],[136.639371,36.316848],[136.639276,36.31679],[136.639183,36.316589],[136.639022,36.315935],[136.639006,36.315518],[136.6389,36.315011],[136.638548,36.314243],[136.637786,36.313435],[136.637418,36.312789],[136.636785,36.312148],[136.63625,36.311814],[136.635109,36.311455],[136.634762,36.311407],[136.633993,36.311144],[136.633148,36.311033],[136.631467,36.311047],[136.631219,36.310912],[136.630349,36.310175],[136.629617,36.309732],[136.62875,36.309437],[136.627789,36.308979],[136.627273,36.308846],[136.626833,36.308791],[136.626305,36.307944],[136.6254,36.307309],[136.624866,36.306659],[136.624494,36.30596],[136.624472,36.305539],[136.624377,36.305423],[136.624353,36.305162],[136.624471,36.304845],[136.624597,36.304728],[136.625018,36.30448],[136.625535,36.304269],[136.62579,36.30398],[136.625949,36.303278],[136.626238,36.302696],[136.626278,36.30246],[136.626252,36.302311],[136.625973,36.301845],[136.625905,36.301624],[136.625916,36.301462],[136.626091,36.30103],[136.626087,36.300763],[136.625834,36.300224],[136.625931,36.30007],[136.626221,36.299944],[136.626361,36.299831],[136.626582,36.299322],[136.626577,36.298782],[136.626278,36.298012],[136.626272,36.297668],[136.62649,36.297197],[136.627659,36.296032],[136.627871,36.295988],[136.629298,36.296074],[136.62978,36.296208],[136.631171,36.296863],[136.631804,36.297076],[136.633038,36.297189],[136.636056,36.297306],[136.636532,36.297481],[136.637441,36.298034],[136.638126,36.298235],[136.638357,36.298391],[136.63869,36.299424],[136.639043,36.30004],[136.639083,36.300275],[136.639043,36.300473],[136.638882,36.300778],[136.638243,36.301216],[136.638145,36.301373],[136.638137,36.3016],[136.638349,36.302024],[136.638391,36.303027],[136.638281,36.303226],[136.638301,36.303272],[136.637342,36.303677],[136.637108,36.303865],[136.637062,36.304867],[136.637124,36.305017],[136.63799,36.306016],[136.638818,36.306854],[136.639774,36.307565],[136.640105,36.30798],[136.64057,36.308296],[136.640667,36.308474],[136.641119,36.308577],[136.642511,36.307768],[136.642309,36.306645],[136.642585,36.306476],[136.643738,36.308809],[136.647701,36.313652],[136.648104,36.314244],[136.648301,36.314756],[136.648335,36.315175],[136.648192,36.315623],[136.648021,36.315955],[136.647984,36.316643],[136.648075,36.317301],[136.648314,36.317772],[136.648062,36.320408],[136.64843,36.321377],[136.648685,36.321881],[136.648888,36.322641],[136.648795,36.323193],[136.648326,36.324008],[136.647839,36.324587],[136.647192,36.325217],[136.646857,36.32548],[136.646126,36.325936],[136.644623,36.326733],[136.64419,36.327123],[136.64395,36.327431],[136.643392,36.328825],[136.643205,36.329534],[136.643115,36.330529],[136.643049,36.332902],[136.642935,36.334471],[136.642737,36.335552],[136.642401,36.3361],[136.642259,36.336239],[136.642149,36.337044],[136.641824,36.337316],[136.640305,36.338189],[136.638773,36.339185],[136.6379,36.339706],[136.637211,36.340017],[136.636617,36.340424],[136.636378,36.340716],[136.636017,36.341763],[136.63453,36.343221],[136.633946,36.343608],[136.633499,36.343834],[136.631877,36.344412],[136.630071,36.344985],[136.629529,36.345325],[136.628893,36.345852],[136.628507,36.346076],[136.627396,36.347063],[136.626144,36.350324],[136.626042,36.350492],[136.625695,36.351491],[136.624093,36.355466],[136.624071,36.355613],[136.622655,36.358228],[136.622374,36.358542],[136.62184,36.35931],[136.621449,36.359679],[136.620448,36.360816],[136.621953,36.361764],[136.623755,36.360592],[136.626604,36.362003],[136.626667,36.362618],[136.626781,36.362919],[136.626819,36.363382],[136.626788,36.364011],[136.626661,36.364402],[136.626388,36.364831],[136.626322,36.365056],[136.62611,36.365413],[136.625674,36.365687],[136.625322,36.366075],[136.625079,36.366821],[136.62498,36.367397],[136.624893,36.367521],[136.624711,36.36752],[136.624155,36.367072],[136.623895,36.366973],[136.623627,36.366802],[136.623351,36.366569],[136.623011,36.366066],[136.622894,36.365976],[136.622484,36.365929],[136.621712,36.366173],[136.620714,36.366112],[136.620093,36.366381],[136.619195,36.366561],[136.618639,36.366884],[136.618155,36.36734],[136.617775,36.36757],[136.617501,36.367891],[136.617402,36.368391],[136.617478,36.369117],[136.617794,36.370552]]],[[[136.591114,36.36577],[136.591022,36.36658],[136.591244,36.367231],[136.591398,36.3675],[136.591433,36.367696],[136.591392,36.368118],[136.591258,36.368547],[136.591324,36.369592],[136.591686,36.370436],[136.591875,36.371213],[136.592341,36.37174],[136.592484,36.371975],[136.592556,36.372123],[136.592615,36.372558],[136.592981,36.373282],[136.592982,36.373512],[136.592802,36.374096],[136.592864,36.37475],[136.59274,36.3751],[136.592421,36.375536],[136.592331,36.375764],[136.592419,36.376034],[136.592769,36.376571],[136.592786,36.376989],[136.592927,36.37738],[136.592915,36.37824],[136.592808,36.378365],[136.592272,36.378576],[136.591757,36.378941],[136.591565,36.379136],[136.591285,36.379565],[136.590814,36.379962],[136.590156,36.380235],[136.589831,36.380289],[136.589306,36.380487],[136.588786,36.380517],[136.587323,36.379789],[136.586305,36.379066],[136.585622,36.378897],[136.584627,36.378213],[136.583559,36.377817],[136.582831,36.377361],[136.58247,36.376986],[136.581626,36.375707],[136.581486,36.374789],[136.581237,36.374099],[136.581528,36.373209],[136.58154,36.372739],[136.581392,36.372356],[136.581187,36.372088],[136.580962,36.37189],[136.580912,36.371779],[136.58104,36.371581],[136.581563,36.371231],[136.58209,36.370696],[136.582327,36.37053],[136.583003,36.37037],[136.583715,36.370292],[136.58516,36.369543],[136.58596,36.369037],[136.587895,36.367997],[136.588463,36.367647],[136.588802,36.367346],[136.589315,36.366451],[136.589584,36.366171],[136.590017,36.365869],[136.591056,36.3654],[136.591114,36.36577]]],[[[136.636509,36.464687],[136.635673,36.464795],[136.635054,36.464815],[136.63416,36.46467],[136.633274,36.464419],[136.632622,36.46418],[136.631827,36.463761],[136.631363,36.463421],[136.630715,36.463214],[136.629371,36.46326],[136.628944,36.463221],[136.627759,36.462937],[136.627261,36.462722],[136.627106,36.462556],[136.626788,36.461746],[136.626534,36.461422],[136.626265,36.461175],[136.625924,36.461069],[136.624795,36.460972],[136.624419,36.460891],[136.624072,36.460741],[136.62416,36.460024],[136.624344,36.459596],[136.624332,36.45921],[136.624111,36.458572],[136.624121,36.458188],[136.624338,36.457429],[136.624893,36.456225],[136.625155,36.455913],[136.625847,36.455378],[136.626341,36.454715],[136.626515,36.454389],[136.62676,36.453666],[136.627066,36.45233],[136.627464,36.451609],[136.628219,36.450707],[136.629609,36.449298],[136.630451,36.448531],[136.630784,36.448317],[136.631014,36.448022],[136.631282,36.446935],[136.631424,36.445638],[136.631378,36.444905],[136.631002,36.443884],[136.631049,36.443596],[136.631403,36.442545],[136.631519,36.441709],[136.631729,36.441028],[136.631647,36.440551],[136.631677,36.440025],[136.631875,36.439679],[136.632882,36.4387],[136.633136,36.438521],[136.633638,36.438343],[136.634268,36.43794],[136.634965,36.437228],[136.634991,36.437121],[136.63517,36.436868],[136.635249,36.436579],[136.63519,36.435958],[136.635119,36.435706],[136.635173,36.435209],[136.635312,36.434856],[136.635748,36.434268],[136.636022,36.433781],[136.63612,36.433259],[136.636012,36.43179],[136.635844,36.430885],[136.635838,36.430537],[136.635886,36.430421],[136.637309,36.42997],[136.638017,36.429551],[136.638513,36.429162],[136.638772,36.429021],[136.640057,36.428656],[136.641105,36.42817],[136.641788,36.42775],[136.642351,36.427259],[136.642777,36.427094],[136.64328,36.42711],[136.643763,36.427195],[136.644486,36.427576],[136.644916,36.427692],[136.645543,36.427775],[136.645998,36.427776],[136.646505,36.427764],[136.646955,36.427666],[136.647379,36.427438],[136.648449,36.427061],[136.649356,36.42704],[136.649787,36.427138],[136.650077,36.427271],[136.650952,36.427852],[136.651531,36.427952],[136.65247,36.428203],[136.652869,36.42822],[136.653519,36.428058],[136.65387,36.427907],[136.65467,36.427432],[136.65536,36.426927],[136.65665,36.426111],[136.656634,36.426475],[136.656823,36.426733],[136.657066,36.427551],[136.657285,36.429527],[136.65752,36.430295],[136.657577,36.431101],[136.658244,36.432238],[136.658251,36.432324],[136.658168,36.432908],[136.657721,36.433642],[136.657649,36.433916],[136.658062,36.434758],[136.658046,36.435148],[136.65813,36.435529],[136.657933,36.435978],[136.65791,36.436313],[136.657387,36.436863],[136.656925,36.438145],[136.657005,36.438627],[136.657001,36.43959],[136.657126,36.439986],[136.657126,36.440228],[136.656955,36.440499],[136.656518,36.440933],[136.655969,36.44186],[136.655763,36.442425],[136.655692,36.442962],[136.655701,36.443197],[136.655806,36.443602],[136.656282,36.444483],[136.656669,36.445463],[136.656704,36.446006],[136.656557,36.446278],[136.656276,36.446366],[136.655843,36.446288],[136.655597,36.446118],[136.654523,36.445049],[136.65418,36.444807],[136.653964,36.444779],[136.653753,36.444867],[136.653617,36.444986],[136.653415,36.445353],[136.653127,36.446322],[136.653103,36.44671],[136.653186,36.446907],[136.653422,36.447229],[136.65393,36.447688],[136.654321,36.447951],[136.65616,36.449013],[136.657006,36.449246],[136.657246,36.449361],[136.657897,36.449857],[136.65854,36.450524],[136.658959,36.451136],[136.659397,36.451594],[136.659739,36.452186],[136.660066,36.452551],[136.660968,36.453233],[136.661241,36.453519],[136.66143,36.453906],[136.661497,36.454234],[136.66189,36.455194],[136.662352,36.455827],[136.662908,36.456297],[136.663137,36.456667],[136.66349,36.456987],[136.663929,36.457678],[136.664012,36.457986],[136.663999,36.458434],[136.663934,36.458742],[136.663799,36.458996],[136.663468,36.459295],[136.663013,36.459438],[136.662823,36.459403],[136.66225,36.4595],[136.660309,36.459149],[136.659793,36.458919],[136.659126,36.458856],[136.658764,36.458733],[136.658201,36.458341],[136.657965,36.458238],[136.657117,36.458009],[136.656585,36.457786],[136.655673,36.457542],[136.65526,36.457356],[136.655018,36.457147],[136.654653,36.456942],[136.654215,36.456738],[136.653439,36.456507],[136.653009,36.456104],[136.652143,36.45569],[136.651207,36.455324],[136.650545,36.455313],[136.650435,36.455362],[136.650344,36.455485],[136.650348,36.456109],[136.650242,36.456413],[136.649693,36.456976],[136.649318,36.457556],[136.649196,36.457947],[136.649314,36.458457],[136.649299,36.458823],[136.648719,36.459465],[136.648621,36.46004],[136.648344,36.46044],[136.648007,36.461066],[136.647799,36.461331],[136.647681,36.461294],[136.647189,36.460855],[136.646901,36.460682],[136.646223,36.460344],[136.645264,36.459991],[136.644582,36.460166],[136.643007,36.461158],[136.642321,36.461453],[136.642294,36.461595],[136.642408,36.461758],[136.642605,36.461945],[136.643166,36.46229],[136.643469,36.46241],[136.644386,36.46256],[136.645105,36.462849],[136.645506,36.463123],[136.644211,36.463402],[136.643782,36.463564],[136.642782,36.463709],[136.642093,36.464006],[136.641812,36.464051],[136.641285,36.464028],[136.64052,36.464264],[136.639996,36.464312],[136.639496,36.46451],[136.638684,36.464633],[136.638155,36.464619],[136.637517,36.464715],[136.636509,36.464687]]]]}}]}
