{"type":"FeatureCollection","features":[{"type":"Feature","properties":{"potaRef":"JP-1658","nameJa":"Hijikawa","nameEn":"Hijikawa Prefectural Nature Park","authority":"環境省 生物多様性「見える化」マップ","boundaryStatus":"全国GIS候補・公開前検証待ち","boundarySource":"環境省 生物多様性「見える化」マップの自然公園区域を、POTA代表座標で一意に空間照合して加工","boundaryScaleNote":"区域は概要データであり、正確性は保証されない。POTA運用可否は公式情報で最終確認すること。","candidateMethod":"POTA representative point inside one public natural-park area","sourceParkKind":"都道府県立自然公園","sourceName":"Hijikawa","sourceFeatureCount":1,"cautionMeters":75},"geometry":{"type":"MultiPolygon","coordinates":[[[[132.687178,33.455131],[132.686838,33.45517],[132.686132,33.455428],[132.68569,33.455477],[132.685123,33.455358],[132.68498,33.455246],[132.684589,33.454603],[132.68398,33.45403],[132.683398,33.453618],[132.682955,33.4536],[132.682328,33.45379],[132.682026,33.453765],[132.681868,33.453668],[132.681818,33.45352],[132.681711,33.453448],[132.678487,33.452037],[132.678449,33.451935],[132.679358,33.450112],[132.67979,33.448491],[132.680099,33.448021],[132.680355,33.447915],[132.683697,33.44792],[132.68377,33.447863],[132.683869,33.447045],[132.684017,33.446935],[132.684605,33.446828],[132.684811,33.446677],[132.684873,33.44654],[132.684873,33.446194],[132.684809,33.445884],[132.684556,33.445285],[132.684504,33.44484],[132.684322,33.444186],[132.684334,33.443956],[132.684411,33.443766],[132.68459,33.443616],[132.684859,33.443516],[132.685122,33.44348],[132.685771,33.443594],[132.686976,33.443908],[132.687106,33.443901],[132.687339,33.443722],[132.687634,33.443155],[132.6881,33.443101],[132.688191,33.443027],[132.688264,33.442742],[132.68821,33.441803],[132.688269,33.441255],[132.688443,33.441081],[132.688792,33.441022],[132.689536,33.440991],[132.689646,33.440856],[132.689582,33.440048],[132.689592,33.439457],[132.6899,33.438225],[132.689914,33.437813],[132.689843,33.437701],[132.689724,33.437635],[132.689499,33.437608],[132.689075,33.437666],[132.68877,33.437871],[132.688322,33.43851],[132.688132,33.438613],[132.687741,33.438518],[132.686932,33.438079],[132.686233,33.437604],[132.685731,33.436995],[132.68486,33.43663],[132.684456,33.436394],[132.684447,33.436309],[132.684614,33.435966],[132.684627,33.435714],[132.684501,33.43541],[132.684386,33.435259],[132.683699,33.434686],[132.682777,33.434069],[132.682425,33.433854],[132.681823,33.433585],[132.68167,33.433462],[132.681149,33.432929],[132.680458,33.43196],[132.679717,33.431574],[132.679307,33.43145],[132.678876,33.431208],[132.678285,33.431006],[132.678076,33.431026],[132.677664,33.431249],[132.677472,33.431254],[132.677236,33.430319],[132.678095,33.430248],[132.678696,33.43028],[132.679389,33.430576],[132.6801,33.430672],[132.680501,33.430876],[132.681475,33.430952],[132.681618,33.431036],[132.681695,33.431176],[132.68176,33.431505],[132.682003,33.431805],[132.682476,33.432157],[132.682915,33.432406],[132.683121,33.432494],[132.683598,33.432594],[132.684695,33.432678],[132.685316,33.43267],[132.685919,33.432586],[132.686072,33.432626],[132.686234,33.432698],[132.686335,33.432802],[132.686511,33.433162],[132.686769,33.433511],[132.687318,33.433863],[132.6876,33.434003],[132.688488,33.434223],[132.689333,33.434543],[132.689663,33.434599],[132.690259,33.434527],[132.690953,33.434243],[132.69133,33.434019],[132.691545,33.43375],[132.691683,33.43345],[132.691884,33.432621],[132.692132,33.432305],[132.692663,33.432161],[132.693446,33.43213],[132.693775,33.432043],[132.693984,33.431917],[132.694148,33.431705],[132.694192,33.431386],[132.694058,33.430179],[132.69376,33.429834],[132.693088,33.429578],[132.692197,33.429394],[132.6918,33.42909],[132.690565,33.427508],[132.689768,33.425858],[132.68956,33.42557],[132.689339,33.425329],[132.688999,33.425121],[132.688502,33.425182],[132.68838,33.425105],[132.688338,33.424071],[132.688178,33.423516],[132.688048,33.423369],[132.687502,33.42301],[132.687311,33.422834],[132.686983,33.422309],[132.686929,33.421947],[132.686971,33.421806],[132.687105,33.421684],[132.687479,33.421518],[132.687555,33.421431],[132.687575,33.421252],[132.687259,33.420054],[132.687213,33.419548],[132.687281,33.419311],[132.687396,33.419176],[132.688271,33.418766],[132.688458,33.418593],[132.688546,33.41843],[132.688557,33.418196],[132.688443,33.4172],[132.688473,33.417043],[132.688577,33.416896],[132.688802,33.416742],[132.689335,33.416559],[132.691286,33.416306],[132.691817,33.416194],[132.692665,33.415845],[132.6937,33.415195],[132.694048,33.41508],[132.694346,33.415035],[132.695033,33.415086],[132.695381,33.415237],[132.69577,33.415618],[132.69582,33.415739],[132.695751,33.416063],[132.695392,33.416732],[132.695337,33.417011],[132.695389,33.417546],[132.695536,33.417889],[132.695716,33.418123],[132.697082,33.419546],[132.6973,33.41963],[132.69754,33.41963],[132.69819,33.419507],[132.698324,33.419533],[132.698405,33.41963],[132.698471,33.419837],[132.698525,33.420536],[132.698698,33.420718],[132.699053,33.420821],[132.699255,33.420827],[132.699955,33.420741],[132.70018,33.420546],[132.700219,33.420171],[132.699848,33.419335],[132.699808,33.418652],[132.699886,33.418326],[132.700144,33.417726],[132.699754,33.416807],[132.699711,33.416561],[132.699851,33.415784],[132.699971,33.415612],[132.700185,33.415063],[132.700439,33.414897],[132.700683,33.414822],[132.701495,33.414687],[132.703569,33.414041],[132.703838,33.413866],[132.704463,33.41328],[132.70463,33.413175],[132.705567,33.41289],[132.706116,33.412595],[132.70636,33.412379],[132.70676,33.411904],[132.707142,33.411314],[132.707345,33.410753],[132.70753,33.409867],[132.70753,33.409657],[132.707428,33.409241],[132.707303,33.409076],[132.706002,33.408155],[132.705447,33.407485],[132.705209,33.407375],[132.704657,33.407269],[132.704371,33.407139],[132.703965,33.406759],[132.703136,33.406113],[132.702975,33.405943],[132.70248,33.405183],[132.702295,33.405043],[132.701859,33.404937],[132.701561,33.404932],[132.700428,33.405042],[132.699401,33.405012],[132.698739,33.404857],[132.697085,33.404257],[132.696422,33.404177],[132.696041,33.404187],[132.695372,33.404297],[132.694152,33.404775],[132.69387,33.404842],[132.69306,33.404903],[132.692594,33.404855],[132.691731,33.404547],[132.691016,33.404105],[132.690848,33.403855],[132.690689,33.402877],[132.69064,33.402757],[132.690517,33.402665],[132.690151,33.402722],[132.689223,33.403141],[132.688707,33.403217],[132.687859,33.403194],[132.686647,33.402857],[132.682707,33.40138],[132.683234,33.400298],[132.683793,33.400523],[132.684191,33.400625],[132.684604,33.400965],[132.686426,33.401622],[132.68661,33.401296],[132.685658,33.400985],[132.685569,33.401053],[132.685334,33.400985],[132.684969,33.400713],[132.68458,33.400604],[132.683996,33.400312],[132.683323,33.400074],[132.683526,33.399679],[132.68776,33.401355],[132.688187,33.401476],[132.68863,33.401547],[132.689617,33.401546],[132.690086,33.401501],[132.691639,33.401173],[132.691836,33.401239],[132.69213,33.401235],[132.692273,33.40139],[132.692401,33.401786],[132.692291,33.402668],[132.692423,33.402267],[132.692568,33.402071],[132.692942,33.401809],[132.693358,33.401754],[132.69402,33.40179],[132.695123,33.401457],[132.695418,33.401408],[132.696091,33.401409],[132.697207,33.401824],[132.697559,33.401894],[132.699205,33.401999],[132.700156,33.402165],[132.700394,33.402165],[132.701474,33.401914],[132.702244,33.401919],[132.703538,33.402105],[132.704541,33.40236],[132.704869,33.40254],[132.705125,33.40283],[132.70534,33.403231],[132.705657,33.404057],[132.705819,33.404287],[132.706051,33.404502],[132.706314,33.404677],[132.706564,33.404752],[132.707394,33.404863],[132.707746,33.404983],[132.708062,33.405198],[132.709213,33.406459],[132.710816,33.407736],[132.711031,33.408011],[132.71121,33.408381],[132.711329,33.408801],[132.711371,33.409237],[132.711341,33.409742],[132.711251,33.410224],[132.710929,33.410983],[132.710688,33.4113],[132.711153,33.411608],[132.711577,33.41178],[132.71249,33.411828],[132.712703,33.411889],[132.712872,33.412082],[132.713201,33.412626],[132.713494,33.412799],[132.713882,33.412792],[132.714332,33.412597],[132.714548,33.412565],[132.71463,33.411859],[132.714744,33.411642],[132.714832,33.411052],[132.714889,33.410967],[132.715154,33.410842],[132.715168,33.410776],[132.715429,33.410577],[132.715499,33.410442],[132.715535,33.41015],[132.715369,33.409826],[132.715985,33.40979],[132.716198,33.409715],[132.716483,33.409436],[132.716516,33.409333],[132.716468,33.409184],[132.716553,33.409102],[132.716981,33.409113],[132.717134,33.408995],[132.717336,33.409057],[132.71746,33.409184],[132.717485,33.409278],[132.717417,33.409565],[132.717248,33.409926],[132.717259,33.410013],[132.717862,33.410164],[132.718215,33.410355],[132.718484,33.410284],[132.718814,33.409878],[132.71904,33.409763],[132.720153,33.409707],[132.720719,33.409566],[132.721094,33.409327],[132.721366,33.409045],[132.721565,33.408951],[132.722274,33.408997],[132.722817,33.408958],[132.723012,33.409043],[132.723436,33.409384],[132.72369,33.40944],[132.724874,33.409355],[132.725564,33.40913],[132.725713,33.409027],[132.72609,33.408531],[132.726155,33.408361],[132.726133,33.408023],[132.726055,33.407842],[132.725635,33.407323],[132.725664,33.407141],[132.725878,33.406713],[132.726109,33.406534],[132.726341,33.406499],[132.726967,33.406863],[132.727672,33.407538],[132.728271,33.408333],[132.729335,33.409465],[132.729338,33.409564],[132.729115,33.409749],[132.729061,33.409931],[132.729108,33.410026],[132.729458,33.410301],[132.729512,33.41056],[132.729669,33.410726],[132.729691,33.410812],[132.729622,33.410892],[132.729121,33.410897],[132.7284,33.410807],[132.728374,33.41093],[132.728812,33.411719],[132.728844,33.412062],[132.728793,33.412143],[132.728525,33.412316],[132.727862,33.412465],[132.727679,33.412597],[132.727488,33.41314],[132.727065,33.413883],[132.72687,33.414109],[132.726796,33.414114],[132.726555,33.41399],[132.72636,33.413968],[132.726018,33.414064],[132.725716,33.414298],[132.724966,33.415377],[132.724783,33.415558],[132.724569,33.415612],[132.724287,33.415612],[132.723692,33.415469],[132.72355,33.416302],[132.723264,33.416911],[132.723293,33.417154],[132.723365,33.417335],[132.723482,33.417465],[132.723714,33.417612],[132.72423,33.417802],[132.724165,33.418197],[132.724383,33.418906],[132.724212,33.419271],[132.724231,33.419669],[132.723842,33.420198],[132.722089,33.424911],[132.721259,33.424212],[132.721127,33.423521],[132.720933,33.423017],[132.720864,33.422524],[132.72019,33.421768],[132.72016,33.421472],[132.720022,33.421159],[132.719847,33.421025],[132.719604,33.42093],[132.719569,33.420853],[132.719623,33.420623],[132.719886,33.420307],[132.72002,33.42006],[132.720075,33.419839],[132.720022,33.419625],[132.719885,33.419492],[132.71972,33.419459],[132.718841,33.419542],[132.718617,33.419531],[132.718407,33.419399],[132.718237,33.419179],[132.717711,33.418149],[132.717383,33.417736],[132.717068,33.417433],[132.716779,33.417252],[132.716425,33.417169],[132.716057,33.417191],[132.715676,33.417279],[132.714875,33.417571],[132.713755,33.417643],[132.711903,33.417907],[132.709108,33.418011],[132.708241,33.417957],[132.707806,33.417836],[132.707541,33.417913],[132.707268,33.4181],[132.706827,33.419411],[132.706319,33.420525],[132.706268,33.420733],[132.706236,33.423217],[132.706196,33.423408],[132.706102,33.423569],[132.7058,33.423756],[132.705069,33.42383],[132.704986,33.424282],[132.704874,33.424493],[132.704674,33.424574],[132.70438,33.424568],[132.704232,33.424613],[132.704159,33.425098],[132.703814,33.425497],[132.70366,33.425548],[132.70318,33.42549],[132.70256,33.425541],[132.702103,33.425669],[132.701836,33.425806],[132.701657,33.425942],[132.701615,33.426092],[132.701856,33.427167],[132.701972,33.428964],[132.701909,33.42944],[132.701795,33.42982],[132.701399,33.43023],[132.700906,33.430868],[132.700713,33.431267],[132.700511,33.432017],[132.700557,33.432718],[132.700836,33.433938],[132.700892,33.434597],[132.700855,33.434942],[132.700754,33.435249],[132.700354,33.435964],[132.699496,33.437244],[132.699239,33.437765],[132.699075,33.438322],[132.699092,33.438548],[132.699361,33.439129],[132.699483,33.439566],[132.699423,33.440602],[132.699482,33.440662],[132.699944,33.440645],[132.700125,33.440715],[132.700217,33.441342],[132.700284,33.441476],[132.700814,33.442026],[132.70089,33.442297],[132.700688,33.442502],[132.70015,33.442667],[132.699856,33.442688],[132.699267,33.442628],[132.698385,33.442343],[132.698166,33.442311],[132.697679,33.442385],[132.697153,33.442579],[132.69693,33.442607],[132.696737,33.442565],[132.696456,33.442396],[132.695888,33.441772],[132.695389,33.441782],[132.695816,33.442252],[132.695941,33.443325],[132.695796,33.44397],[132.695486,33.444686],[132.695433,33.444934],[132.695282,33.446949],[132.695152,33.447467],[132.694984,33.447717],[132.694716,33.447894],[132.693194,33.448342],[132.692643,33.448595],[132.69173,33.449212],[132.690897,33.45011],[132.690687,33.450262],[132.689426,33.450833],[132.689161,33.451002],[132.689193,33.451053],[132.689884,33.451025],[132.689974,33.451085],[132.690099,33.451324],[132.690233,33.451865],[132.690512,33.452297],[132.690603,33.452235],[132.690647,33.451612],[132.690839,33.451355],[132.691198,33.451262],[132.692216,33.451296],[132.691654,33.451708],[132.691432,33.452055],[132.691385,33.452305],[132.691446,33.452889],[132.691567,33.453148],[132.691942,33.453655],[132.690282,33.453514],[132.689462,33.453497],[132.688199,33.453626],[132.687917,33.45379],[132.687822,33.453919],[132.687822,33.454094],[132.687957,33.454494],[132.687957,33.45468],[132.687845,33.455172],[132.687178,33.455131]]],[[[132.676542,33.455221],[132.676061,33.455134],[132.675554,33.454808],[132.675426,33.45477],[132.674632,33.454651],[132.67379,33.454702],[132.673202,33.454479],[132.672808,33.454583],[132.672359,33.45451],[132.671723,33.454562],[132.67142,33.454668],[132.671108,33.454663],[132.670824,33.454574],[132.6709,33.454259],[132.670822,33.45415],[132.670128,33.453894],[132.669575,33.453828],[132.669112,33.453941],[132.668922,33.453941],[132.668698,33.453875],[132.668575,33.453751],[132.668024,33.452472],[132.667869,33.451844],[132.667692,33.450696],[132.667596,33.450498],[132.667108,33.449903],[132.667119,33.44979],[132.667456,33.449822],[132.667853,33.449705],[132.668139,33.449825],[132.668382,33.45],[132.668489,33.450144],[132.668987,33.450158],[132.669264,33.450241],[132.669576,33.450387],[132.669941,33.450655],[132.671189,33.451728],[132.671504,33.451921],[132.671846,33.452026],[132.672779,33.452168],[132.673357,33.452444],[132.673606,33.452708],[132.67379,33.453033],[132.674088,33.453848],[132.674337,33.454045],[132.674569,33.454141],[132.67579,33.454344],[132.676271,33.454515],[132.676946,33.454512],[132.676542,33.455221]]]]}}]}
