{"type":"FeatureCollection","features":[{"type":"Feature","properties":{"potaRef":"JP-1577","nameJa":"Koza gawa","nameEn":"Kozagawa Prefectural Nature Park","authority":"環境省 生物多様性「見える化」マップ","boundaryStatus":"全国GIS候補・公開前検証待ち","boundarySource":"環境省 生物多様性「見える化」マップの自然公園区域を、POTA代表座標で一意に空間照合して加工","boundaryScaleNote":"区域は概要データであり、正確性は保証されない。POTA運用可否は公式情報で最終確認すること。","candidateMethod":"POTA representative point inside one public natural-park area","sourceParkKind":"都道府県立自然公園","sourceName":"Koza gawa","sourceFeatureCount":1,"cautionMeters":75},"geometry":{"type":"MultiPolygon","coordinates":[[[[135.735441,33.692787],[135.735371,33.693413],[135.735974,33.694255],[135.736119,33.694811],[135.736122,33.695111],[135.734718,33.694541],[135.733876,33.694084],[135.730521,33.692585],[135.729007,33.693132],[135.729101,33.692861],[135.729242,33.692729],[135.729386,33.692483],[135.728714,33.691961],[135.728248,33.691338],[135.728081,33.690931],[135.728049,33.69063],[135.72784,33.690139],[135.727713,33.689409],[135.727736,33.688998],[135.727821,33.688613],[135.728003,33.688238],[135.7287,33.68752],[135.729253,33.687182],[135.729256,33.687084],[135.728663,33.686952],[135.727975,33.68671],[135.727254,33.686253],[135.726603,33.686199],[135.726305,33.686128],[135.725623,33.686253],[135.72475,33.6863],[135.723673,33.686125],[135.722685,33.685754],[135.722426,33.685591],[135.722318,33.685405],[135.721389,33.684547],[135.720813,33.683938],[135.720457,33.683475],[135.720146,33.682882],[135.719556,33.682674],[135.719073,33.682442],[135.718585,33.682068],[135.71802,33.681282],[135.717819,33.680711],[135.717778,33.680357],[135.717481,33.680143],[135.717137,33.679783],[135.717081,33.679752],[135.716504,33.679849],[135.715784,33.679854],[135.714845,33.679796],[135.714289,33.679654],[135.713859,33.679673],[135.713309,33.679612],[135.712714,33.679497],[135.711895,33.679227],[135.710827,33.679079],[135.710489,33.678967],[135.709938,33.678686],[135.709544,33.678416],[135.709102,33.677959],[135.708861,33.67757],[135.708592,33.677028],[135.708516,33.676594],[135.708504,33.676014],[135.708576,33.675691],[135.708583,33.675093],[135.70865,33.674543],[135.708782,33.674028],[135.709108,33.673284],[135.709558,33.672741],[135.70959,33.672305],[135.709741,33.67176],[135.710048,33.671216],[135.710493,33.670747],[135.711209,33.670227],[135.711238,33.67014],[135.711207,33.670033],[135.710953,33.669779],[135.710673,33.669351],[135.710538,33.669031],[135.710521,33.667968],[135.710683,33.667416],[135.711101,33.66665],[135.711072,33.666135],[135.711154,33.665585],[135.711454,33.664825],[135.712387,33.663941],[135.71282,33.663459],[135.713132,33.663222],[135.713561,33.663],[135.713588,33.662932],[135.712838,33.662389],[135.712403,33.661931],[135.711951,33.661328],[135.711817,33.661274],[135.711623,33.6613],[135.710933,33.661218],[135.710278,33.661027],[135.709134,33.660286],[135.708751,33.659928],[135.708513,33.659578],[135.7083,33.658847],[135.708255,33.65762],[135.708073,33.657289],[135.707605,33.656748],[135.707408,33.656394],[135.707302,33.65607],[135.707237,33.655579],[135.707307,33.655035],[135.707416,33.654648],[135.707807,33.653909],[135.708204,33.65339],[135.708417,33.65325],[135.708749,33.652898],[135.709103,33.652649],[135.709166,33.652483],[135.709629,33.651942],[135.710355,33.651406],[135.711071,33.650414],[135.711226,33.650027],[135.710857,33.649297],[135.710757,33.648432],[135.710878,33.647552],[135.711088,33.646847],[135.710926,33.646296],[135.710522,33.645877],[135.710299,33.645532],[135.709729,33.644108],[135.709584,33.642969],[135.709761,33.64103],[135.709756,33.640429],[135.709713,33.640269],[135.709461,33.639959],[135.709,33.639667],[135.707819,33.639301],[135.707173,33.638807],[135.707067,33.638645],[135.706631,33.637257],[135.706257,33.63628],[135.706223,33.636062],[135.705912,33.635273],[135.7059,33.634973],[135.706102,33.634065],[135.706449,33.633309],[135.706705,33.6329],[135.70683,33.632549],[135.706867,33.632292],[135.706736,33.631313],[135.706733,33.630957],[135.707126,33.630046],[135.708718,33.629418],[135.71035,33.629406],[135.711591,33.629866],[135.712905,33.630948],[135.713165,33.631112],[135.713527,33.631237],[135.713619,33.631213],[135.714076,33.630971],[135.714114,33.63076],[135.71421,33.630698],[135.714421,33.630363],[135.714597,33.629525],[135.714839,33.628838],[135.715072,33.628376],[135.715539,33.627713],[135.715784,33.627446],[135.716038,33.627256],[135.716685,33.626878],[135.716536,33.626566],[135.716041,33.626071],[135.714704,33.626064],[135.714095,33.625955],[135.713188,33.625725],[135.712209,33.625306],[135.711486,33.624729],[135.710815,33.624097],[135.710594,33.623561],[135.71011,33.622909],[135.709592,33.622453],[135.709261,33.621985],[135.709069,33.621395],[135.709012,33.620741],[135.708139,33.620418],[135.707563,33.620729],[135.707097,33.620913],[135.706246,33.621094],[135.703266,33.621013],[135.702565,33.621686],[135.700233,33.622232],[135.697933,33.622179],[135.696165,33.621096],[135.695346,33.620912],[135.694891,33.62086],[135.694409,33.620688],[135.693456,33.61925],[135.69249,33.616583],[135.692459,33.616364],[135.691853,33.614351],[135.691832,33.614139],[135.691714,33.613835],[135.690848,33.612729],[135.689157,33.611586],[135.688266,33.61005],[135.688505,33.608944],[135.688492,33.608812],[135.68865,33.608348],[135.688691,33.60802],[135.689788,33.60613],[135.689714,33.605096],[135.689751,33.604658],[135.689708,33.60409],[135.689618,33.603812],[135.689243,33.603092],[135.687955,33.603906],[135.687174,33.604891],[135.685965,33.605922],[135.684623,33.607252],[135.684567,33.607355],[135.684588,33.607741],[135.68437,33.608806],[135.684316,33.610469],[135.684267,33.610801],[135.684098,33.611153],[135.684094,33.611371],[135.684212,33.611774],[135.684251,33.612111],[135.68457,33.612811],[135.684698,33.613467],[135.684773,33.614176],[135.684667,33.615023],[135.684255,33.616142],[135.684261,33.616416],[135.684557,33.61691],[135.684628,33.616951],[135.685478,33.616715],[135.686679,33.61667],[135.687169,33.61653],[135.688046,33.616505],[135.688668,33.616599],[135.689358,33.616813],[135.689878,33.617118],[135.690392,33.617611],[135.690548,33.617847],[135.690869,33.618507],[135.690968,33.618967],[135.690962,33.619383],[135.691046,33.620111],[135.691561,33.620629],[135.692031,33.621244],[135.692329,33.621767],[135.692397,33.622094],[135.692364,33.62297],[135.693225,33.623388],[135.693732,33.623762],[135.694103,33.624213],[135.694296,33.624541],[135.694438,33.625029],[135.694517,33.625602],[135.694443,33.626145],[135.694521,33.626718],[135.694523,33.627128],[135.694425,33.627511],[135.694576,33.628193],[135.694572,33.628521],[135.694502,33.628818],[135.694419,33.628954],[135.694535,33.629394],[135.694618,33.630835],[135.694624,33.6322],[135.694742,33.634024],[135.694718,33.634872],[135.694598,33.635366],[135.6944,33.635869],[135.694292,33.635961],[135.693966,33.636511],[135.693987,33.636668],[135.693853,33.636812],[135.693654,33.637411],[135.693314,33.637882],[135.692563,33.63862],[135.692554,33.63884],[135.692725,33.639409],[135.692766,33.639762],[135.692738,33.640281],[135.692608,33.640908],[135.692256,33.641755],[135.691624,33.642555],[135.691044,33.643075],[135.690782,33.643676],[135.690391,33.644168],[135.690034,33.644477],[135.689397,33.644888],[135.688868,33.645729],[135.688071,33.646719],[135.687416,33.648407],[135.687325,33.648545],[135.687094,33.649226],[135.68684,33.650399],[135.686662,33.650896],[135.686624,33.651248],[135.686504,33.651578],[135.686504,33.651956],[135.686573,33.65206],[135.687027,33.652344],[135.687976,33.653125],[135.688701,33.65413],[135.689328,33.655436],[135.689654,33.655981],[135.689886,33.656553],[135.690039,33.657227],[135.690084,33.657826],[135.68997,33.658535],[135.689886,33.658785],[135.68964,33.659335],[135.6893,33.659849],[135.690106,33.660852],[135.690573,33.661777],[135.690756,33.662326],[135.691089,33.662759],[135.691428,33.663328],[135.691811,33.663738],[135.692314,33.664714],[135.692582,33.665476],[135.692911,33.666183],[135.693765,33.666471],[135.694183,33.666702],[135.694805,33.667191],[135.69537,33.667834],[135.695659,33.667868],[135.69642,33.668119],[135.697334,33.668694],[135.698148,33.669426],[135.699267,33.670294],[135.699755,33.670784],[135.699979,33.67106],[135.700226,33.671531],[135.700307,33.671789],[135.700519,33.672074],[135.700821,33.672754],[135.700943,33.673248],[135.701225,33.673988],[135.701137,33.675259],[135.701147,33.676545],[135.701504,33.677521],[135.701577,33.67845],[135.702012,33.679415],[135.702054,33.679635],[135.702056,33.679915],[135.701615,33.680971],[135.701221,33.681435],[135.700768,33.681815],[135.700772,33.68187],[135.701317,33.681933],[135.701704,33.682119],[135.701787,33.682389],[135.701913,33.682545],[135.702277,33.682844],[135.702508,33.683145],[135.702764,33.683333],[135.702762,33.683389],[135.702127,33.684039],[135.701856,33.683975],[135.701632,33.683852],[135.701359,33.683597],[135.701207,33.683641],[135.700855,33.684219],[135.700889,33.685033],[135.700695,33.68528],[135.70061,33.685477],[135.700634,33.686041],[135.699821,33.686451],[135.699498,33.686564],[135.69915,33.686512],[135.69913,33.686463],[135.69921,33.686273],[135.699156,33.686032],[135.698768,33.685565],[135.698644,33.685486],[135.698379,33.685506],[135.697801,33.685712],[135.697241,33.685654],[135.696327,33.685775],[135.695616,33.685175],[135.695614,33.684796],[135.6957,33.684627],[135.696125,33.684197],[135.696441,33.684043],[135.696799,33.683779],[135.696808,33.683695],[135.696712,33.683455],[135.696697,33.683095],[135.696726,33.682931],[135.696843,33.682719],[135.696844,33.682557],[135.696733,33.682487],[135.696568,33.682474],[135.696136,33.68276],[135.695758,33.682757],[135.695564,33.682969],[135.695455,33.683239],[135.695364,33.683322],[135.695264,33.683332],[135.694684,33.683099],[135.694481,33.682616],[135.693854,33.682103],[135.694177,33.681881],[135.69486,33.68174],[135.695509,33.68147],[135.695618,33.681274],[135.695231,33.681388],[135.694565,33.681355],[135.693197,33.680973],[135.69345,33.680721],[135.69343,33.679645],[135.693877,33.677986],[135.695863,33.67781],[135.695881,33.677579],[135.695601,33.676176],[135.695587,33.675706],[135.69567,33.675169],[135.695776,33.67489],[135.69578,33.674677],[135.695638,33.674162],[135.695441,33.67389],[135.695156,33.673287],[135.693775,33.672201],[135.692631,33.671887],[135.692135,33.671659],[135.691622,33.671233],[135.690882,33.670349],[135.690303,33.670121],[135.689581,33.669718],[135.689053,33.669316],[135.688439,33.668715],[135.688059,33.668177],[135.68743,33.666845],[135.687218,33.666183],[135.686832,33.665758],[135.68664,33.665456],[135.686139,33.665107],[135.686159,33.666038],[135.686392,33.666438],[135.686548,33.666905],[135.686696,33.667663],[135.686689,33.668261],[135.686555,33.6687],[135.686615,33.669025],[135.686606,33.669707],[135.687072,33.670033],[135.687432,33.670387],[135.687777,33.670954],[135.687971,33.671417],[135.688103,33.671934],[135.688985,33.672503],[135.689302,33.672806],[135.689667,33.673294],[135.690067,33.673726],[135.690397,33.674461],[135.69044,33.675088],[135.69027,33.675714],[135.690067,33.676075],[135.689652,33.676626],[135.689348,33.676926],[135.688927,33.677204],[135.6886,33.677367],[135.688029,33.677542],[135.687656,33.678157],[135.687336,33.678461],[135.686453,33.679001],[135.685982,33.679353],[135.685813,33.679696],[135.685856,33.679934],[135.685831,33.68023],[135.685491,33.68054],[135.684982,33.680735],[135.684881,33.681062],[135.68537,33.68207],[135.685694,33.68259],[135.685802,33.683049],[135.6859,33.683158],[135.686523,33.683621],[135.687056,33.683719],[135.687898,33.683967],[135.688913,33.684341],[135.68924,33.684532],[135.689725,33.684916],[135.690102,33.685773],[135.690185,33.686455],[135.690078,33.686846],[135.689789,33.687465],[135.688717,33.686984],[135.688208,33.686859],[135.687705,33.686846],[135.687383,33.686592],[135.686827,33.686875],[135.686757,33.68728],[135.687049,33.687892],[135.686768,33.688118],[135.686497,33.688497],[135.686113,33.688856],[135.685433,33.689387],[135.685265,33.689463],[135.684885,33.689523],[135.684101,33.689585],[135.683445,33.690017],[135.682563,33.690142],[135.682172,33.690285],[135.680683,33.691229],[135.679286,33.691839],[135.678305,33.692107],[135.678092,33.692121],[135.677606,33.692064],[135.676927,33.691831],[135.675405,33.691538],[135.674591,33.690503],[135.674147,33.690194],[135.673698,33.690019],[135.672693,33.690024],[135.671555,33.689896],[135.669906,33.689818],[135.669819,33.689486],[135.669821,33.688993],[135.670179,33.688256],[135.670222,33.68777],[135.670373,33.687465],[135.670275,33.686924],[135.670322,33.686454],[135.67039,33.686319],[135.670858,33.685918],[135.67093,33.685805],[135.671108,33.685256],[135.671344,33.684875],[135.671431,33.684517],[135.671405,33.684297],[135.671078,33.68378],[135.671014,33.682895],[135.670535,33.682655],[135.669175,33.682799],[135.668522,33.682452],[135.667987,33.682001],[135.667552,33.681515],[135.667231,33.681243],[135.66651,33.680838],[135.665695,33.680808],[135.665111,33.68059],[135.664677,33.68033],[135.664407,33.679951],[135.664185,33.679511],[135.663499,33.678971],[135.663453,33.678724],[135.663489,33.678182],[135.663154,33.677583],[135.662991,33.67712],[135.662794,33.676802],[135.662201,33.676754],[135.66172,33.676628],[135.661289,33.676232],[135.661028,33.676062],[135.659072,33.675465],[135.658179,33.674856],[135.657726,33.674466],[135.656645,33.673956],[135.655748,33.673678],[135.654843,33.673763],[135.654761,33.673362],[135.6543,33.6731],[135.653191,33.67224],[135.652835,33.671733],[135.652103,33.671244],[135.651706,33.670825],[135.651455,33.670388],[135.651352,33.67004],[135.650924,33.669172],[135.650785,33.668643],[135.650848,33.667104],[135.650772,33.666829],[135.65045,33.666328],[135.650146,33.665629],[135.650108,33.66546],[135.650209,33.664677],[135.650108,33.664518],[135.649975,33.664118],[135.650002,33.663696],[135.650135,33.663429],[135.650443,33.663401],[135.650815,33.663123],[135.65132,33.662879],[135.65192,33.662689],[135.652637,33.662622],[135.653009,33.662722],[135.653341,33.662711],[135.653806,33.662577],[135.653959,33.662392],[135.654298,33.661542],[135.654459,33.661353],[135.654878,33.66103],[135.655201,33.660881],[135.65649,33.659987],[135.657018,33.659791],[135.657625,33.65966],[135.657742,33.659546],[135.657762,33.659431],[135.657645,33.659104],[135.657625,33.658858],[135.657949,33.658134],[135.657949,33.657871],[135.657661,33.657105],[135.657635,33.656645],[135.657287,33.656534],[135.655968,33.656271],[135.655155,33.656055],[135.654563,33.655838],[135.654375,33.655735],[135.654181,33.655465],[135.653721,33.655196],[135.653629,33.655057],[135.653568,33.654831],[135.653531,33.654492],[135.653559,33.653944],[135.653517,33.65368],[135.653056,33.652955],[135.653047,33.65253],[135.652982,33.65236],[135.652659,33.651692],[135.652051,33.651206],[135.651579,33.650742],[135.651126,33.650199],[135.650849,33.648912],[135.650757,33.648827],[135.65061,33.648796],[135.650048,33.648881],[135.649722,33.648862],[135.649262,33.649109],[135.648782,33.649286],[135.647935,33.649417],[135.647025,33.649336],[135.646536,33.649159],[135.646149,33.649143],[135.645133,33.649273],[135.644301,33.649185],[135.643997,33.6493],[135.643766,33.649323],[135.643232,33.649138],[135.642817,33.648892],[135.6427,33.648714],[135.642672,33.648497],[135.642544,33.648336],[135.641585,33.648058],[135.640874,33.648058],[135.640303,33.648135],[135.639757,33.648131],[135.639499,33.648077],[135.638844,33.64746],[135.638371,33.647172],[135.638261,33.647026],[135.638049,33.646324],[135.637937,33.646153],[135.637614,33.64586],[135.637504,33.645659],[135.637449,33.645312],[135.637347,33.645127],[135.637645,33.644836],[135.637826,33.644576],[135.637977,33.64401],[135.63782,33.642459],[135.637634,33.642048],[135.636931,33.6417],[135.636796,33.641565],[135.636523,33.640882],[135.636361,33.639848],[135.636417,33.639217],[135.636619,33.639026],[135.636778,33.638988],[135.637537,33.638971],[135.637573,33.638998],[135.637466,33.639158],[135.636881,33.639434],[135.636871,33.639547],[135.636951,33.639624],[135.637249,33.639726],[135.63816,33.639836],[135.639108,33.640157],[135.639861,33.640138],[135.64057,33.639793],[135.640738,33.639788],[135.640926,33.639989],[135.640933,33.640179],[135.640838,33.64037],[135.640832,33.640535],[135.640941,33.640783],[135.641004,33.640823],[135.64113,33.640803],[135.641548,33.640545],[135.641748,33.640501],[135.642298,33.64063],[135.642929,33.640678],[135.643713,33.641036],[135.644007,33.640993],[135.644361,33.640713],[135.644555,33.640641],[135.645041,33.640792],[135.645406,33.641053],[135.645896,33.641084],[135.64658,33.640815],[135.647296,33.640935],[135.647848,33.64093],[135.648596,33.640816],[135.648797,33.640718],[135.649281,33.640595],[135.650552,33.640649],[135.651075,33.640808],[135.651628,33.640827],[135.652052,33.64069],[135.65264,33.640689],[135.65281,33.640795],[135.653,33.64107],[135.653925,33.641801],[135.653982,33.641903],[135.654025,33.642537],[135.654087,33.642617],[135.65429,33.642717],[135.654713,33.64277],[135.655066,33.642946],[135.655462,33.643046],[135.656277,33.643513],[135.656775,33.643602],[135.65697,33.643687],[135.657561,33.644282],[135.6584,33.644782],[135.658673,33.645178],[135.659129,33.645379],[135.659419,33.645681],[135.659937,33.646055],[135.660013,33.646488],[135.660586,33.647135],[135.660709,33.647437],[135.661144,33.648143],[135.661528,33.648444],[135.661972,33.648899],[135.662494,33.649497],[135.662817,33.649989],[135.66388,33.650851],[135.664083,33.651503],[135.664625,33.651969],[135.66487,33.652263],[135.664922,33.652869],[135.665387,33.65341],[135.666717,33.653284],[135.667246,33.653536],[135.667773,33.653689],[135.668356,33.653688],[135.669502,33.653789],[135.670217,33.654205],[135.671004,33.654354],[135.671691,33.654352],[135.672589,33.654466],[135.672641,33.655002],[135.672878,33.655878],[135.672978,33.656613],[135.672967,33.656972],[135.673496,33.658143],[135.673835,33.658711],[135.67396,33.659122],[135.674136,33.659472],[135.674247,33.660369],[135.674205,33.660749],[135.673519,33.661797],[135.673313,33.662284],[135.673255,33.663429],[135.673269,33.66463],[135.67315,33.665015],[135.671848,33.66654],[135.671463,33.666884],[135.671022,33.667172],[135.671365,33.667364],[135.671545,33.667629],[135.671663,33.6676],[135.672415,33.667009],[135.672635,33.666572],[135.673086,33.66608],[135.674509,33.665085],[135.675253,33.664801],[135.676228,33.664636],[135.676524,33.664629],[135.676841,33.664198],[135.6772,33.663834],[135.677491,33.663638],[135.678503,33.663176],[135.679255,33.663091],[135.680392,33.663161],[135.680821,33.663056],[135.681047,33.662815],[135.682143,33.661309],[135.683209,33.660429],[135.68343,33.660182],[135.68366,33.659772],[135.683688,33.658954],[135.683774,33.658545],[135.683937,33.65816],[135.684453,33.65737],[135.684125,33.656689],[135.683836,33.656308],[135.683527,33.655774],[135.682911,33.655471],[135.68245,33.655172],[135.682063,33.654709],[135.681502,33.653839],[135.681251,33.653043],[135.681021,33.651445],[135.681093,33.650956],[135.681574,33.6494],[135.68181,33.64833],[135.683244,33.64464],[135.684221,33.643437],[135.68499,33.642177],[135.685345,33.641792],[135.685927,33.641355],[135.686325,33.640647],[135.686632,33.64023],[135.687197,33.639791],[135.687033,33.639355],[135.686852,33.638542],[135.687016,33.63759],[135.687403,33.636796],[135.688079,33.63611],[135.68824,33.635863],[135.68865,33.635475],[135.689279,33.634194],[135.689252,33.632255],[135.689212,33.632039],[135.68921,33.631301],[135.689161,33.631065],[135.689203,33.630896],[135.689129,33.630288],[135.689168,33.630156],[135.689066,33.629201],[135.689084,33.628361],[135.68895,33.627787],[135.688949,33.627622],[135.689016,33.627432],[135.689009,33.627105],[135.688358,33.626779],[135.687799,33.626375],[135.687564,33.626133],[135.687132,33.625482],[135.686913,33.624961],[135.686771,33.624363],[135.686748,33.623956],[135.686865,33.62308],[135.686502,33.622536],[135.686401,33.622439],[135.686301,33.622447],[135.685657,33.622825],[135.685294,33.622949],[135.684839,33.623061],[135.684354,33.623101],[135.683664,33.622974],[135.682586,33.622616],[135.68187,33.622259],[135.681439,33.621858],[135.680553,33.620715],[135.680085,33.620202],[135.679632,33.61952],[135.679488,33.618733],[135.679228,33.618296],[135.678823,33.617017],[135.678861,33.616799],[135.678876,33.615488],[135.679096,33.614749],[135.67929,33.614367],[135.679356,33.614099],[135.67907,33.613385],[135.679013,33.612683],[135.67888,33.612275],[135.678234,33.611292],[135.678141,33.611044],[135.678183,33.610909],[135.678495,33.610451],[135.678765,33.609818],[135.679101,33.609328],[135.679442,33.60845],[135.679478,33.608206],[135.679507,33.607714],[135.679468,33.607279],[135.679315,33.606734],[135.679513,33.606381],[135.678892,33.605596],[135.67877,33.605668],[135.678461,33.606306],[135.67819,33.606684],[135.677711,33.607102],[135.676845,33.607542],[135.676545,33.607975],[135.676733,33.608277],[135.676892,33.608741],[135.676957,33.609415],[135.677358,33.60994],[135.677585,33.610474],[135.67764,33.610723],[135.677646,33.611298],[135.677478,33.612005],[135.677462,33.612766],[135.677519,33.612935],[135.677371,33.613699],[135.677251,33.613974],[135.677312,33.614572],[135.677248,33.614901],[135.676955,33.615635],[135.676537,33.616183],[135.676181,33.616511],[135.67619,33.617005],[135.676136,33.617326],[135.676744,33.618394],[135.676917,33.618888],[135.676941,33.619286],[135.676892,33.619889],[135.676705,33.62041],[135.676309,33.620954],[135.675896,33.62132],[135.675632,33.621469],[135.674864,33.621766],[135.674372,33.62225],[135.673624,33.622742],[135.67323,33.622927],[135.672587,33.623458],[135.672137,33.624007],[135.671517,33.62445],[135.67141,33.624807],[135.671188,33.62526],[135.670806,33.625785],[135.670459,33.626114],[135.669632,33.627134],[135.669173,33.62783],[135.668686,33.628205],[135.668357,33.628391],[135.667437,33.628744],[135.667415,33.628451],[135.667658,33.628008],[135.66766,33.62774],[135.667401,33.627413],[135.66692,33.627004],[135.666756,33.626721],[135.666839,33.62636],[135.666807,33.625996],[135.666513,33.62578],[135.665463,33.625298],[135.664785,33.625234],[135.664418,33.624943],[135.664675,33.62475],[135.665158,33.624527],[135.665756,33.623935],[135.666208,33.62336],[135.6664,33.622569],[135.666817,33.621857],[135.667294,33.621363],[135.66791,33.62095],[135.668291,33.620372],[135.668497,33.620164],[135.668914,33.619861],[135.670428,33.61907],[135.67058,33.618837],[135.670574,33.618696],[135.670432,33.618453],[135.670315,33.618077],[135.670234,33.61747],[135.669816,33.616924],[135.669499,33.61625],[135.669397,33.615622],[135.669413,33.615351],[135.669738,33.614499],[135.670075,33.614066],[135.670716,33.613434],[135.671394,33.612962],[135.671577,33.61247],[135.67186,33.612006],[135.671493,33.611382],[135.671403,33.611145],[135.671202,33.610375],[135.671166,33.609619],[135.67082,33.608877],[135.670813,33.608116],[135.670737,33.607817],[135.670831,33.607597],[135.670831,33.607161],[135.670994,33.606617],[135.671251,33.606087],[135.671675,33.605524],[135.672371,33.605023],[135.672846,33.604402],[135.6729,33.604206],[135.672816,33.603765],[135.672919,33.603088],[135.673196,33.602428],[135.673505,33.602051],[135.673917,33.601689],[135.674272,33.601466],[135.675086,33.601114],[135.675589,33.600206],[135.67609,33.59961],[135.676795,33.599161],[135.677288,33.598977],[135.678947,33.598911],[135.679274,33.598961],[135.679951,33.599181],[135.681007,33.599382],[135.682109,33.59919],[135.682788,33.599172],[135.683505,33.599265],[135.683705,33.599077],[135.683998,33.598611],[135.685157,33.597694],[135.687464,33.596498],[135.690384,33.595711],[135.690422,33.595626],[135.69042,33.595114],[135.690358,33.594998],[135.689009,33.594445],[135.686597,33.594211],[135.685225,33.59345],[135.684485,33.593013],[135.683449,33.591139],[135.683436,33.59103],[135.683957,33.589828],[135.686281,33.588042],[135.686737,33.587331],[135.686981,33.586809],[135.686856,33.58649],[135.686879,33.58643],[135.686547,33.585184],[135.686545,33.584984],[135.686137,33.58335],[135.686033,33.58319],[135.686024,33.583054],[135.685847,33.582596],[135.685667,33.582236],[135.68554,33.582108],[135.685544,33.581966],[135.685065,33.581014],[135.684223,33.57906],[135.684103,33.57892],[135.683056,33.578341],[135.681585,33.578983],[135.679936,33.579353],[135.678403,33.579203],[135.676207,33.578039],[135.674986,33.5766],[135.674858,33.576501],[135.674475,33.576547],[135.673536,33.576893],[135.672873,33.576993],[135.673212,33.577699],[135.673374,33.578245],[135.673424,33.578811],[135.673398,33.57925],[135.67426,33.57972],[135.674497,33.579929],[135.674879,33.580367],[135.675319,33.581209],[135.675366,33.582215],[135.675346,33.582491],[135.675251,33.58279],[135.675042,33.583169],[135.674567,33.583722],[135.674005,33.584176],[135.67313,33.584579],[135.671375,33.585066],[135.67066,33.585449],[135.669428,33.586225],[135.669257,33.586904],[135.669033,33.587462],[135.668589,33.588028],[135.668346,33.58877],[135.668126,33.589155],[135.667695,33.589642],[135.667298,33.589978],[135.667502,33.590571],[135.667596,33.59121],[135.667306,33.592418],[135.666654,33.59328],[135.665553,33.593974],[135.665056,33.594155],[135.663987,33.5943],[135.663429,33.594317],[135.663172,33.5944],[135.662849,33.594418],[135.662294,33.594395],[135.661255,33.594108],[135.660593,33.593753],[135.660166,33.593424],[135.658995,33.592225],[135.658682,33.591795],[135.656939,33.59425],[135.656594,33.594534],[135.656305,33.594704],[135.655785,33.594924],[135.654578,33.595117],[135.653891,33.595072],[135.653333,33.594912],[135.652946,33.594712],[135.652425,33.59441],[135.651905,33.593981],[135.651644,33.593653],[135.651179,33.592753],[135.651225,33.592492],[135.650532,33.590994],[135.650498,33.590336],[135.65062,33.590142],[135.650659,33.589982],[135.650535,33.589248],[135.650637,33.588979],[135.650902,33.587583],[135.651075,33.587392],[135.651139,33.587145],[135.651155,33.586735],[135.651082,33.586465],[135.650981,33.586303],[135.6517,33.585874],[135.652847,33.585506],[135.653784,33.585474],[135.654929,33.585704],[135.655387,33.585355],[135.656287,33.58487],[135.657108,33.584611],[135.658143,33.5845],[135.658608,33.584612],[135.659194,33.584831],[135.659743,33.58506],[135.660436,33.585456],[135.661154,33.586136],[135.66211,33.587358],[135.662208,33.587336],[135.662498,33.587083],[135.662728,33.586981],[135.663502,33.586423],[135.663599,33.586151],[135.66392,33.585603],[135.664176,33.5853],[135.664253,33.584865],[135.664471,33.58432],[135.664607,33.58405],[135.664905,33.583657],[135.665724,33.58292],[135.666401,33.582421],[135.66718,33.582006],[135.668459,33.581184],[135.668139,33.580649],[135.668055,33.580426],[135.66798,33.57991],[135.667972,33.578956],[135.667445,33.578305],[135.667045,33.577706],[135.666751,33.576671],[135.666716,33.576128],[135.666876,33.575716],[135.666928,33.574433],[135.667031,33.573591],[135.667185,33.573125],[135.667662,33.572439],[135.668181,33.571972],[135.668663,33.571688],[135.669219,33.571502],[135.669742,33.5714],[135.670262,33.571336],[135.671498,33.571355],[135.672054,33.571406],[135.672602,33.571559],[135.672761,33.571155],[135.673061,33.570719],[135.673022,33.570502],[135.673048,33.569792],[135.673492,33.56886],[135.674234,33.567484],[135.674328,33.567412],[135.674398,33.567233],[135.674972,33.566507],[135.675501,33.565691],[135.676177,33.565142],[135.676724,33.564618],[135.677052,33.564433],[135.677767,33.564185],[135.678934,33.56409],[135.679651,33.564224],[135.6803,33.564447],[135.680732,33.564623],[135.681388,33.565063],[135.682131,33.564949],[135.683196,33.564879],[135.683197,33.563928],[135.683388,33.562973],[135.684041,33.561475],[135.684568,33.5607],[135.685093,33.560074],[135.685486,33.559424],[135.685581,33.559068],[135.685601,33.55849],[135.685685,33.558088],[135.685758,33.557944],[135.685794,33.557128],[135.68591,33.556742],[135.686281,33.555956],[135.686807,33.555276],[135.687666,33.554612],[135.689387,33.553675],[135.690161,33.553448],[135.692465,33.553361],[135.692579,33.552751],[135.692756,33.552344],[135.693579,33.551026],[135.694595,33.549907],[135.695332,33.54892],[135.696295,33.547876],[135.69666,33.547583],[135.697399,33.547138],[135.698143,33.546828],[135.698502,33.546721],[135.699283,33.546658],[135.699711,33.546731],[135.700721,33.547027],[135.701441,33.547464],[135.702106,33.54814],[135.702789,33.549052],[135.70331,33.548694],[135.704318,33.548245],[135.70506,33.548125],[135.706165,33.548055],[135.706911,33.54749],[135.707755,33.54646],[135.70879,33.546385],[135.709668,33.546467],[135.710348,33.546451],[135.710448,33.545752],[135.7107,33.544985],[135.710893,33.54406],[135.711539,33.542969],[135.712762,33.542363],[135.7138,33.542075],[135.714645,33.542106],[135.715426,33.542427],[135.715828,33.542522],[135.716441,33.54253],[135.719362,33.541816],[135.719823,33.541744],[135.721157,33.541705],[135.722134,33.541831],[135.722781,33.541717],[135.723439,33.541539],[135.723697,33.541528],[135.724084,33.541615],[135.72451,33.541858],[135.724837,33.541972],[135.72503,33.541977],[135.72531,33.541707],[135.725386,33.541464],[135.7251,33.540755],[135.725052,33.540487],[135.72509,33.540158],[135.72502,33.539938],[135.725085,33.539805],[135.725103,33.539122],[135.725484,33.538216],[135.725364,33.537673],[135.725167,33.53713],[135.72509,33.536446],[135.725187,33.535599],[135.725308,33.535196],[135.72575,33.534509],[135.72656,33.533686],[135.72692,33.533419],[135.728115,33.532695],[135.728694,33.532437],[135.729219,33.532354],[135.729836,33.532347],[135.730649,33.532389],[135.731374,33.532529],[135.732086,33.532731],[135.733165,33.53316],[135.73366,33.53348],[135.734485,33.534347],[135.734654,33.53459],[135.734845,33.535001],[135.734957,33.535323],[135.735118,33.536198],[135.735158,33.536574],[135.735136,33.537235],[135.735161,33.53732],[135.735211,33.537328],[135.735813,33.536827],[135.736471,33.535889],[135.736895,33.53537],[135.737563,33.534572],[135.738179,33.534024],[135.738403,33.533615],[135.738868,33.533043],[135.739316,33.532629],[135.739869,33.532332],[135.741298,33.531753],[135.742269,33.531596],[135.743381,33.531588],[135.744123,33.531736],[135.744557,33.531907],[135.744944,33.532134],[135.745459,33.532597],[135.746178,33.533699],[135.746257,33.53376],[135.747403,33.534137],[135.748185,33.534326],[135.749105,33.534775],[135.749694,33.534986],[135.750409,33.534969],[135.752616,33.534325],[135.75365,33.534115],[135.754791,33.533736],[135.755763,33.533615],[135.75707,33.533612],[135.758314,33.534036],[135.759158,33.534507],[135.760078,33.534874],[135.76093,33.535355],[135.762003,33.53588],[135.763207,33.536329],[135.763683,33.536648],[135.764333,33.53665],[135.76474,33.536753],[135.764909,33.536745],[135.765145,33.536626],[135.765521,33.536581],[135.765965,33.536671],[135.766288,33.536465],[135.766826,33.53635],[135.767196,33.536453],[135.767419,33.536631],[135.768145,33.536781],[135.768921,33.537441],[135.769704,33.537252],[135.770345,33.537216],[135.771425,33.537296],[135.772115,33.537527],[135.772572,33.5378],[135.773962,33.538973],[135.775868,33.538488],[135.778823,33.537569],[135.779824,33.537332],[135.780613,33.537069],[135.780668,33.537033],[135.782025,33.53447],[135.782226,33.534144],[135.782573,33.533757],[135.783404,33.533144],[135.784055,33.532765],[135.784643,33.532552],[135.78518,33.532439],[135.786121,33.532424],[135.787527,33.532257],[135.789178,33.532302],[135.792311,33.533293],[135.793844,33.533849],[135.796066,33.533085],[135.79682,33.533009],[135.797959,33.53303],[135.80057,33.533361],[135.801941,33.533679],[135.802918,33.534062],[135.805888,33.534916],[135.806378,33.534969],[135.807542,33.534851],[135.807819,33.535118],[135.808238,33.535648],[135.808378,33.536464],[135.808491,33.536599],[135.80855,33.536999],[135.808674,33.537062],[135.809732,33.536819],[135.809925,33.536608],[135.810151,33.536005],[135.810445,33.535589],[135.81193,33.536457],[135.812029,33.536564],[135.812238,33.537217],[135.812192,33.537846],[135.81213,33.538034],[135.812073,33.53812],[135.811197,33.538772],[135.810742,33.538965],[135.808831,33.539398],[135.808696,33.539367],[135.807365,33.539402],[135.806226,33.539494],[135.805121,33.539438],[135.804466,33.539283],[135.802141,33.538575],[135.80088,33.538268],[135.800056,33.537925],[135.799209,33.537737],[135.797579,33.537529],[135.797286,33.537536],[135.796897,33.537648],[135.796248,33.53787],[135.79543,33.538243],[135.794912,33.538385],[135.793938,33.538436],[135.79332,33.538376],[135.791786,33.538033],[135.788489,33.536904],[135.788196,33.536767],[135.787632,33.536739],[135.786696,33.536866],[135.786542,33.537059],[135.785087,33.539871],[135.784839,33.540203],[135.78445,33.540532],[135.784002,33.540818],[135.782076,33.541437],[135.779742,33.542088],[135.778672,33.542452],[135.775485,33.543399],[135.776043,33.543423],[135.776235,33.543379],[135.77647,33.543465],[135.776961,33.543511],[135.777418,33.543673],[135.777909,33.543916],[135.778455,33.544252],[135.779413,33.545283],[135.779838,33.545633],[135.780514,33.546508],[135.781118,33.547565],[135.781483,33.548736],[135.781763,33.549275],[135.781997,33.549873],[135.782175,33.550714],[135.782169,33.551397],[135.782079,33.551756],[135.781953,33.55203],[135.781638,33.55247],[135.781209,33.552856],[135.780522,33.553175],[135.779338,33.553503],[135.779602,33.554497],[135.779601,33.555071],[135.77954,33.555529],[135.779385,33.55582],[135.779055,33.556191],[135.778278,33.556899],[135.777309,33.55754],[135.775914,33.558283],[135.775072,33.558587],[135.774289,33.55897],[135.773311,33.559282],[135.772847,33.559355],[135.771691,33.559327],[135.770459,33.559029],[135.769798,33.558588],[135.769502,33.558909],[135.76885,33.559456],[135.768389,33.559946],[135.768863,33.560924],[135.769618,33.560968],[135.770566,33.561153],[135.771319,33.56145],[135.772229,33.561203],[135.773269,33.561207],[135.7737,33.561285],[135.774644,33.56164],[135.775069,33.561883],[135.775663,33.5624],[135.775953,33.56281],[135.776547,33.563488],[135.776982,33.564194],[135.777167,33.564657],[135.777216,33.565146],[135.777188,33.565829],[135.776933,33.566753],[135.776708,33.567276],[135.775986,33.568619],[135.775222,33.569266],[135.77403,33.569802],[135.773159,33.570118],[135.77156,33.570213],[135.77015,33.569946],[135.769113,33.569671],[135.768462,33.569872],[135.767263,33.570048],[135.76684,33.57091],[135.766393,33.571514],[135.766112,33.57182],[135.765517,33.572253],[135.764706,33.572614],[135.763869,33.572763],[135.763281,33.572729],[135.762027,33.572353],[135.761846,33.573178],[135.761845,33.573369],[135.762053,33.573749],[135.763459,33.574638],[135.764199,33.574145],[135.764654,33.573978],[135.765341,33.573849],[135.765801,33.573931],[135.766067,33.574128],[135.766691,33.574804],[135.767164,33.575137],[135.767546,33.575924],[135.767596,33.576416],[135.767774,33.577095],[135.768,33.577532],[135.768256,33.577852],[135.768166,33.578479],[135.767897,33.578652],[135.767569,33.579169],[135.76754,33.579334],[135.767767,33.579461],[135.768349,33.579561],[135.768705,33.579567],[135.769008,33.579914],[135.769332,33.579947],[135.769537,33.580108],[135.769598,33.580218],[135.769601,33.58049],[135.769757,33.580793],[135.769911,33.581304],[135.770851,33.581756],[135.771001,33.582041],[135.771343,33.582333],[135.771477,33.582524],[135.771481,33.582877],[135.771631,33.583237],[135.772102,33.583639],[135.772757,33.5844],[135.772692,33.58467],[135.772532,33.584944],[135.772152,33.585276],[135.771906,33.585609],[135.771858,33.585959],[135.771924,33.586311],[135.771829,33.5865],[135.77096,33.586951],[135.770721,33.587294],[135.770443,33.587548],[135.769094,33.588268],[135.768926,33.589167],[135.768956,33.589445],[135.769048,33.589687],[135.769917,33.590879],[135.770056,33.591367],[135.770487,33.591987],[135.770776,33.592125],[135.771232,33.592157],[135.772145,33.592121],[135.773645,33.592355],[135.773815,33.59248],[135.774401,33.592754],[135.775031,33.593235],[135.775448,33.593708],[135.775754,33.594139],[135.7759,33.594493],[135.776009,33.595126],[135.776019,33.59553],[135.775948,33.595882],[135.775634,33.596558],[135.775498,33.596645],[135.77521,33.596978],[135.774991,33.597172],[135.774474,33.597504],[135.773043,33.598162],[135.772007,33.598503],[135.771181,33.598641],[135.771135,33.598709],[135.771588,33.598879],[135.772439,33.599452],[135.772974,33.599936],[135.773396,33.600669],[135.775714,33.601339],[135.776272,33.601549],[135.776725,33.60183],[135.777283,33.602313],[135.778036,33.603265],[135.778364,33.603754],[135.77858,33.604183],[135.778698,33.604543],[135.778813,33.605438],[135.778809,33.606152],[135.778392,33.607263],[135.777902,33.607903],[135.777601,33.608201],[135.778193,33.60843],[135.778514,33.608169],[135.778661,33.607934],[135.778802,33.607874],[135.77903,33.607652],[135.779703,33.607248],[135.780548,33.606889],[135.781492,33.60672],[135.782474,33.606752],[135.783003,33.606841],[135.78345,33.606973],[135.784106,33.607293],[135.784565,33.607639],[135.784906,33.608015],[135.785065,33.608289],[135.785265,33.608724],[135.785433,33.609271],[135.785822,33.609106],[135.786399,33.608977],[135.787124,33.608955],[135.787676,33.609038],[135.788427,33.609254],[135.78872,33.60939],[135.789376,33.609899],[135.789881,33.610492],[135.790136,33.611067],[135.790181,33.611556],[135.790058,33.612594],[135.78992,33.612945],[135.789706,33.613278],[135.789375,33.613631],[135.788899,33.613994],[135.788927,33.614073],[135.789124,33.614209],[135.78955,33.614697],[135.789848,33.615159],[135.790084,33.615761],[135.790125,33.616138],[135.790035,33.616686],[135.789582,33.617688],[135.789414,33.61777],[135.789098,33.618109],[135.78871,33.618361],[135.78763,33.618925],[135.787185,33.619297],[135.786189,33.61974],[135.786166,33.619817],[135.786412,33.620579],[135.786421,33.621424],[135.786132,33.62208],[135.785947,33.622329],[135.785886,33.622525],[135.785738,33.622595],[135.785292,33.62312],[135.784518,33.623753],[135.783522,33.624466],[135.782936,33.624826],[135.783033,33.625013],[135.783133,33.625535],[135.783243,33.626323],[135.783171,33.626682],[135.783215,33.626751],[135.784023,33.626815],[135.784844,33.62702],[135.785401,33.627315],[135.786278,33.628081],[135.786807,33.628704],[135.787055,33.629106],[135.787359,33.629868],[135.787419,33.630635],[135.787349,33.631286],[135.787053,33.632117],[135.786727,33.632768],[135.7864,33.633233],[135.785569,33.633874],[135.784746,33.634388],[135.783348,33.635046],[135.783092,33.63511],[135.78254,33.635413],[135.781224,33.635939],[135.781313,33.636184],[135.78144,33.636286],[135.781485,33.636691],[135.781862,33.636671],[135.783136,33.636772],[135.783851,33.636939],[135.784674,33.637361],[135.785426,33.637851],[135.786044,33.63799],[135.786446,33.638187],[135.787135,33.638686],[135.787455,33.638495],[135.788263,33.638171],[135.788759,33.638099],[135.789442,33.638091],[135.790191,33.638227],[135.790679,33.63842],[135.79137,33.638928],[135.791654,33.639271],[135.792071,33.640131],[135.792157,33.640418],[135.792173,33.641211],[135.792285,33.641919],[135.792282,33.642598],[135.792079,33.643561],[135.791967,33.643855],[135.791743,33.644212],[135.791216,33.644697],[135.790387,33.645178],[135.789712,33.645375],[135.78974,33.645534],[135.789705,33.64575],[135.790103,33.646651],[135.790183,33.647578],[135.790114,33.648365],[135.789716,33.649243],[135.790187,33.649844],[135.790337,33.65063],[135.790401,33.650712],[135.790442,33.651065],[135.790441,33.651582],[135.79014,33.652566],[135.790194,33.65264],[135.790587,33.652808],[135.791385,33.653373],[135.791645,33.653727],[135.791827,33.654087],[135.792098,33.654793],[135.792139,33.655389],[135.79196,33.655994],[135.791724,33.656427],[135.791286,33.657004],[135.791729,33.657441],[135.792195,33.658036],[135.792463,33.658667],[135.792534,33.659125],[135.792344,33.659914],[135.792017,33.660571],[135.792097,33.661063],[135.792035,33.661553],[135.791885,33.662129],[135.791686,33.662563],[135.791944,33.66322],[135.791992,33.663462],[135.791836,33.6645],[135.791525,33.665078],[135.791278,33.665341],[135.790696,33.665728],[135.790653,33.665807],[135.791656,33.666381],[135.792339,33.666989],[135.792835,33.667219],[135.793244,33.667719],[135.793382,33.668787],[135.793451,33.669013],[135.793388,33.669139],[135.793507,33.669423],[135.793475,33.669669],[135.793555,33.669805],[135.793485,33.670162],[135.793272,33.670711],[135.792596,33.671615],[135.792665,33.672373],[135.79258,33.672923],[135.79234,33.673793],[135.792018,33.674395],[135.792677,33.674888],[135.793298,33.675157],[135.793763,33.67553],[135.794149,33.675967],[135.794401,33.676458],[135.793876,33.676935],[135.793626,33.677053],[135.792222,33.677053],[135.79192,33.677117],[135.7906,33.678078],[135.790447,33.678139],[135.790255,33.67816],[135.790157,33.678124],[135.789695,33.67779],[135.789527,33.677866],[135.789436,33.678103],[135.789321,33.678169],[135.788966,33.678146],[135.788898,33.678006],[135.788934,33.677903],[135.789109,33.67774],[135.789117,33.677606],[135.788645,33.677266],[135.788438,33.677193],[135.78835,33.677206],[135.788155,33.677356],[135.787635,33.677361],[135.787321,33.677289],[135.787091,33.677182],[135.786671,33.676745],[135.78642,33.67629],[135.786306,33.675929],[135.786268,33.675607],[135.786295,33.675279],[135.786504,33.674619],[135.786567,33.673874],[135.786748,33.673289],[135.786325,33.672546],[135.786335,33.672413],[135.786005,33.671514],[135.785948,33.67068],[135.784944,33.670707],[135.784422,33.670601],[135.7837,33.670336],[135.783306,33.670123],[135.782822,33.669787],[135.782218,33.669198],[135.782012,33.66893],[135.781616,33.668142],[135.780802,33.667633],[135.780512,33.66738],[135.78029,33.667106],[135.779971,33.666569],[135.779853,33.666102],[135.779836,33.665454],[135.779989,33.664898],[135.780294,33.664438],[135.780743,33.663942],[135.781098,33.663693],[135.781426,33.663535],[135.782338,33.663286],[135.782845,33.663235],[135.783404,33.662589],[135.783723,33.662353],[135.784287,33.662081],[135.785064,33.661911],[135.785937,33.661854],[135.786117,33.661622],[135.786137,33.661532],[135.785787,33.661179],[135.785672,33.660884],[135.785674,33.660724],[135.785861,33.660394],[135.785835,33.660309],[135.785532,33.660134],[135.784808,33.659863],[135.784615,33.659665],[135.784565,33.659446],[135.7847,33.659061],[135.784685,33.658651],[135.784434,33.658058],[135.784135,33.657679],[135.78386,33.657219],[135.783844,33.65678],[135.783538,33.656292],[135.783028,33.655909],[135.782837,33.655211],[135.782617,33.6551],[135.782033,33.65507],[135.781862,33.654857],[135.7816,33.654095],[135.781799,33.653687],[135.781956,33.653579],[135.782416,33.653435],[135.782485,33.653375],[135.782389,33.652885],[135.78231,33.652866],[135.781551,33.652865],[135.781295,33.652977],[135.781001,33.653031],[135.780512,33.653382],[135.779941,33.653697],[135.779459,33.65441],[135.778737,33.65512],[135.778418,33.655559],[135.778152,33.65613],[135.777843,33.656546],[135.776771,33.657425],[135.776312,33.657717],[135.77576,33.65849],[135.775341,33.658929],[135.774504,33.659591],[135.773442,33.660635],[135.772342,33.661543],[135.771112,33.662668],[135.770527,33.663107],[135.770173,33.663462],[135.770234,33.663683],[135.770641,33.664113],[135.771019,33.664608],[135.771187,33.664988],[135.771303,33.66561],[135.771295,33.666015],[135.77121,33.666429],[135.771168,33.666458],[135.77119,33.666562],[135.770943,33.667054],[135.770364,33.667738],[135.769461,33.66834],[135.769011,33.668538],[135.76826,33.668681],[135.767382,33.668689],[135.766725,33.668564],[135.765304,33.668062],[135.765224,33.66832],[135.765271,33.668762],[135.765199,33.66945],[135.764427,33.669937],[135.763873,33.670106],[135.763219,33.670135],[135.761523,33.670086],[135.7613,33.670146],[135.761111,33.670503],[135.760975,33.671154],[135.760296,33.672302],[135.760087,33.672772],[135.759424,33.673454],[135.759411,33.673629],[135.759169,33.674199],[135.758653,33.673763],[135.758099,33.673433],[135.757738,33.673083],[135.7576,33.67287],[135.757205,33.67263],[135.756551,33.672056],[135.756161,33.671565],[135.755844,33.670919],[135.755752,33.67026],[135.755835,33.669819],[135.756004,33.669415],[135.756225,33.669083],[135.756717,33.66859],[135.756805,33.668398],[135.757588,33.667577],[135.758658,33.666673],[135.759118,33.666436],[135.759921,33.666163],[135.760015,33.66609],[135.760141,33.665922],[135.760359,33.665401],[135.760563,33.665107],[135.761375,33.664308],[135.761894,33.663978],[135.762188,33.663869],[135.762573,33.663509],[135.763316,33.662979],[135.76377,33.66273],[135.764128,33.662594],[135.764462,33.661982],[135.764913,33.661481],[135.76552,33.66101],[135.766103,33.660702],[135.766518,33.660158],[135.766857,33.659809],[135.767264,33.659546],[135.76772,33.65933],[135.768387,33.658749],[135.768593,33.658455],[135.768952,33.658073],[135.770599,33.65648],[135.771238,33.655982],[135.771928,33.655083],[135.77251,33.654479],[135.773376,33.653924],[135.773703,33.653326],[135.774078,33.652801],[135.774496,33.65228],[135.775081,33.651732],[135.775348,33.651081],[135.77567,33.650615],[135.776169,33.650194],[135.776226,33.650098],[135.776379,33.650072],[135.776735,33.649899],[135.776774,33.649789],[135.776733,33.649546],[135.776888,33.648887],[135.777138,33.64842],[135.777687,33.647599],[135.778528,33.646717],[135.779243,33.646223],[135.779768,33.645933],[135.779994,33.645865],[135.780087,33.645782],[135.779982,33.645106],[135.780038,33.644557],[135.780157,33.644178],[135.780114,33.644063],[135.779424,33.643763],[135.777721,33.643262],[135.777255,33.643063],[135.776724,33.642732],[135.775907,33.641916],[135.775776,33.641616],[135.77561,33.641424],[135.775572,33.641265],[135.775446,33.641097],[135.775274,33.640476],[135.775212,33.639846],[135.775507,33.638704],[135.774527,33.638253],[135.774069,33.637881],[135.773754,33.63751],[135.773467,33.637072],[135.773255,33.636423],[135.773271,33.636063],[135.773659,33.634998],[135.774247,33.634234],[135.774505,33.633988],[135.775125,33.6336],[135.775605,33.633372],[135.776296,33.633194],[135.776843,33.632989],[135.777848,33.63233],[135.777231,33.632082],[135.77677,33.631813],[135.77647,33.631551],[135.775907,33.630927],[135.775652,33.630544],[135.775315,33.629866],[135.775093,33.629209],[135.775051,33.628939],[135.774985,33.62883],[135.774798,33.627552],[135.774973,33.626844],[135.775225,33.626377],[135.775709,33.625828],[135.776388,33.625312],[135.776893,33.625057],[135.776119,33.624378],[135.775679,33.623785],[135.77548,33.623377],[135.775416,33.622992],[135.775475,33.622272],[135.775724,33.621543],[135.776118,33.621052],[135.776767,33.620588],[135.777317,33.620362],[135.778424,33.620166],[135.778784,33.620161],[135.779075,33.620192],[135.780028,33.620466],[135.780115,33.620456],[135.780122,33.620375],[135.779965,33.620209],[135.779766,33.619854],[135.779666,33.619555],[135.779544,33.618856],[135.779544,33.61861],[135.779688,33.617981],[135.780004,33.61735],[135.780447,33.616878],[135.780998,33.616494],[135.78191,33.61608],[135.78109,33.616008],[135.780768,33.615919],[135.780112,33.615687],[135.779519,33.615334],[135.778921,33.61463],[135.778524,33.613868],[135.777457,33.614011],[135.776941,33.614009],[135.776214,33.613914],[135.775564,33.613664],[135.775004,33.613289],[135.774534,33.612777],[135.774405,33.612531],[135.774271,33.612087],[135.773403,33.611691],[135.773026,33.611308],[135.772451,33.610422],[135.771574,33.610256],[135.770649,33.609993],[135.769763,33.609588],[135.769105,33.609133],[135.768486,33.608521],[135.76822,33.608108],[135.768099,33.607624],[135.768164,33.607072],[135.768525,33.606293],[135.768836,33.605807],[135.768927,33.605538],[135.76796,33.605749],[135.767434,33.605786],[135.766769,33.605781],[135.765826,33.605547],[135.764296,33.604833],[135.763767,33.604485],[135.763255,33.60397],[135.762818,33.603385],[135.762502,33.602846],[135.762516,33.602701],[135.76234,33.60181],[135.762388,33.60156],[135.762383,33.601123],[135.762508,33.600738],[135.762591,33.59894],[135.762717,33.59788],[135.762782,33.597469],[135.763004,33.596841],[135.763463,33.596023],[135.763931,33.595551],[135.76451,33.595157],[135.765001,33.594891],[135.765453,33.594745],[135.766049,33.594696],[135.766113,33.594637],[135.765866,33.594396],[135.765792,33.5942],[135.765069,33.593177],[135.764876,33.592656],[135.764736,33.592511],[135.76466,33.592299],[135.764387,33.591948],[135.763927,33.591489],[135.763632,33.591054],[135.763486,33.590787],[135.763363,33.590319],[135.763002,33.590051],[135.762768,33.589927],[135.762545,33.589889],[135.76133,33.589795],[135.760426,33.58966],[135.758765,33.589636],[135.75765,33.589368],[135.756887,33.588672],[135.756498,33.587881],[135.756476,33.587636],[135.756661,33.586736],[135.757293,33.585095],[135.757413,33.584683],[135.757415,33.584439],[135.756646,33.583329],[135.75639,33.58281],[135.755919,33.581505],[135.755465,33.580465],[135.755462,33.580251],[135.755254,33.579298],[135.755094,33.578049],[135.75533,33.576681],[135.755253,33.575836],[135.755293,33.575402],[135.755612,33.574745],[135.756435,33.573916],[135.756499,33.572638],[135.756764,33.571104],[135.757041,33.570401],[135.757369,33.569802],[135.758289,33.568428],[135.758778,33.567937],[135.75922,33.567598],[135.760232,33.567086],[135.761327,33.566792],[135.761322,33.566641],[135.761051,33.566043],[135.760985,33.565438],[135.761194,33.564759],[135.761669,33.564123],[135.76228,33.563707],[135.762807,33.563474],[135.763647,33.563348],[135.764007,33.563379],[135.764073,33.563323],[135.763885,33.562816],[135.763417,33.562662],[135.76282,33.562382],[135.762321,33.561971],[135.761939,33.561506],[135.761613,33.560964],[135.761421,33.560522],[135.761269,33.559848],[135.761263,33.559083],[135.761623,33.558021],[135.76189,33.557602],[135.762581,33.556974],[135.76316,33.556635],[135.763979,33.55637],[135.764824,33.556334],[135.765085,33.556198],[135.76563,33.555482],[135.766007,33.554797],[135.766335,33.554415],[135.76724,33.553697],[135.768148,33.553226],[135.768965,33.552959],[135.769454,33.552823],[135.770493,33.552807],[135.771302,33.552923],[135.772057,33.553183],[135.77245,33.553375],[135.772986,33.553773],[135.773391,33.554243],[135.773507,33.554251],[135.773548,33.554183],[135.773147,33.553361],[135.772998,33.552849],[135.7731,33.551978],[135.773703,33.550991],[135.774056,33.550688],[135.775511,33.549722],[135.776087,33.549437],[135.776035,33.549091],[135.775638,33.548493],[135.775168,33.548073],[135.774421,33.54825],[135.774066,33.548266],[135.773286,33.548208],[135.772496,33.548063],[135.771783,33.547755],[135.770965,33.547079],[135.770394,33.54635],[135.769691,33.544802],[135.769523,33.544258],[135.76952,33.544085],[135.769368,33.543463],[135.769361,33.543053],[135.769437,33.542346],[135.769324,33.542362],[135.768837,33.542673],[135.76767,33.543225],[135.767252,33.543373],[135.766633,33.543482],[135.765979,33.543518],[135.765226,33.54348],[135.764607,33.54331],[135.763632,33.54284],[135.762951,33.542431],[135.761564,33.541303],[135.761006,33.540679],[135.760386,33.540241],[135.759268,33.539799],[135.757539,33.538872],[135.756029,33.538184],[135.754992,33.538515],[135.754086,33.538681],[135.753899,33.538783],[135.753695,33.538786],[135.752757,33.539046],[135.751681,33.539397],[135.750479,33.539491],[135.749077,33.539499],[135.748427,33.53939],[135.747702,33.53919],[135.746728,33.538832],[135.74607,33.538514],[135.74457,33.538055],[135.743887,33.537997],[135.743473,33.537897],[135.743022,33.537744],[135.742057,33.537226],[135.741787,33.53741],[135.741164,33.538131],[135.740708,33.538839],[135.739895,33.539797],[135.739378,33.540235],[135.738214,33.541334],[135.737874,33.541724],[135.736796,33.542707],[135.736342,33.542897],[135.736094,33.543883],[135.735738,33.544192],[135.735705,33.544376],[135.735315,33.544652],[135.735611,33.544894],[135.735832,33.545334],[135.735849,33.545904],[135.73579,33.54634],[135.735693,33.546722],[135.735538,33.547025],[135.735017,33.547681],[135.734346,33.548366],[135.733336,33.54906],[135.732718,33.5496],[135.732393,33.549792],[135.731937,33.549982],[135.731127,33.550149],[135.729987,33.550193],[135.729366,33.550119],[135.728193,33.549712],[135.726591,33.548685],[135.725481,33.548558],[135.723496,33.548651],[135.721414,33.549096],[135.721353,33.549207],[135.721202,33.550107],[135.7212,33.550381],[135.720972,33.550871],[135.720716,33.551151],[135.720755,33.551907],[135.720593,33.552374],[135.720541,33.552866],[135.719658,33.55339],[135.719144,33.553913],[135.718265,33.554485],[135.717792,33.555092],[135.717403,33.55572],[135.717049,33.557002],[135.71664,33.557743],[135.71602,33.558426],[135.71541,33.558902],[135.713815,33.559638],[135.713329,33.559807],[135.712747,33.559899],[135.711892,33.560191],[135.710306,33.560273],[135.708968,33.560072],[135.708149,33.559725],[135.707755,33.559481],[135.707454,33.559215],[135.707202,33.558912],[135.706755,33.558075],[135.706407,33.556651],[135.70634,33.556301],[135.706397,33.556163],[135.706484,33.555453],[135.706601,33.555122],[135.707292,33.55412],[135.707473,33.553782],[135.707626,33.553432],[135.707581,33.553294],[135.706757,33.552724],[135.706378,33.552605],[135.70584,33.553186],[135.704284,33.554119],[135.703159,33.554497],[135.701822,33.55458],[135.701368,33.554526],[135.700248,33.554189],[135.699336,33.553643],[135.698946,33.55326],[135.69871,33.55288],[135.69811,33.553541],[135.697983,33.553755],[135.698205,33.554164],[135.698429,33.554902],[135.698441,33.555826],[135.698189,33.556646],[135.697807,33.557277],[135.697038,33.55799],[135.696642,33.558188],[135.696088,33.558378],[135.695241,33.558517],[135.694623,33.55852],[135.69397,33.558387],[135.693254,33.558197],[135.692539,33.557863],[135.69149,33.557909],[135.691161,33.558076],[135.691088,33.558186],[135.69105,33.558738],[135.690977,33.559058],[135.690982,33.559359],[135.690917,33.559523],[135.690879,33.559875],[135.690659,33.560802],[135.690469,33.561269],[135.689983,33.561952],[135.689894,33.562183],[135.689633,33.562555],[135.689122,33.563105],[135.688884,33.563511],[135.688602,33.564169],[135.688584,33.564525],[135.688801,33.565232],[135.688851,33.565642],[135.688856,33.566271],[135.688788,33.566705],[135.68849,33.567678],[135.688324,33.567994],[135.688085,33.568318],[135.687761,33.56862],[135.687241,33.568994],[135.686311,33.569377],[135.685689,33.569552],[135.685134,33.569616],[135.684645,33.569622],[135.683342,33.569408],[135.683047,33.569408],[135.681423,33.569683],[135.679952,33.569679],[135.679404,33.569564],[135.679046,33.569628],[135.678359,33.569926],[135.677764,33.570699],[135.677726,33.570888],[135.67757,33.571109],[135.677526,33.571323],[135.677628,33.572391],[135.677868,33.572516],[135.678788,33.574042],[135.680127,33.574798],[135.68029,33.574745],[135.68075,33.574452],[135.680917,33.574285],[135.682564,33.573512],[135.682857,33.573515],[135.684809,33.573297],[135.686636,33.573534],[135.689008,33.574807],[135.689869,33.57663],[135.690277,33.577707],[135.690681,33.578968],[135.691287,33.581146],[135.691398,33.581823],[135.692315,33.585399],[135.692421,33.58553],[135.692398,33.58569],[135.692483,33.586133],[135.693216,33.588469],[135.693329,33.588605],[135.695036,33.589681],[135.697874,33.59038],[135.699303,33.592166],[135.699368,33.592303],[135.699764,33.594076],[135.699654,33.596421],[135.700158,33.597753],[135.700468,33.598921],[135.700593,33.59958],[135.700396,33.601023],[135.700348,33.601165],[135.699171,33.602884],[135.698368,33.604797],[135.698086,33.604984],[135.69705,33.605488],[135.696288,33.606152],[135.696156,33.607977],[135.696271,33.60849],[135.696372,33.608819],[135.696434,33.60889],[135.697833,33.609384],[135.699109,33.610145],[135.69946,33.610466],[135.699749,33.610935],[135.70014,33.611414],[135.700163,33.61264],[135.699514,33.613744],[135.699395,33.614009],[135.699223,33.614645],[135.699238,33.61472],[135.699991,33.61573],[135.700259,33.615961],[135.700727,33.616233],[135.702384,33.616261],[135.703039,33.616417],[135.704964,33.616568],[135.705441,33.616208],[135.706103,33.615823],[135.707058,33.615466],[135.708033,33.615363],[135.709161,33.615474],[135.710257,33.615907],[135.71098,33.616494],[135.711547,33.61655],[135.712156,33.616771],[135.712877,33.617114],[135.713394,33.617458],[135.713871,33.617939],[135.71432,33.61927],[135.714424,33.619851],[135.714472,33.620706],[135.71487,33.621442],[135.715708,33.62174],[135.71821,33.622053],[135.718937,33.622317],[135.719513,33.622807],[135.720392,33.623823],[135.720923,33.624544],[135.721192,33.625207],[135.721558,33.625693],[135.722051,33.625905],[135.722562,33.626327],[135.723013,33.627092],[135.723094,33.627776],[135.722995,33.628538],[135.72272,33.629136],[135.722147,33.62975],[135.72152,33.630174],[135.720617,33.630585],[135.719813,33.630746],[135.719673,33.631529],[135.719341,33.632327],[135.719167,33.632499],[135.719031,33.63293],[135.718655,33.63346],[135.718087,33.63403],[135.71735,33.634567],[135.716098,33.635092],[135.715224,33.635361],[135.714412,33.635351],[135.713192,33.635437],[135.712725,33.635513],[135.712781,33.635898],[135.71425,33.63696],[135.714605,33.637461],[135.714925,33.638026],[135.715124,33.638729],[135.715175,33.640654],[135.715141,33.643004],[135.715392,33.643672],[135.715504,33.643774],[135.715897,33.644398],[135.716027,33.644725],[135.716486,33.646417],[135.716479,33.647398],[135.716223,33.648161],[135.716566,33.648764],[135.716773,33.649579],[135.716776,33.649905],[135.716706,33.650339],[135.716533,33.651028],[135.716358,33.651378],[135.716277,33.651738],[135.716136,33.652034],[135.715482,33.653091],[135.715148,33.653488],[135.714859,33.654066],[135.714468,33.6545],[135.713982,33.654912],[135.713656,33.655105],[135.713166,33.655571],[135.713134,33.655706],[135.713474,33.656304],[135.713642,33.656899],[135.714389,33.657122],[135.71564,33.65792],[135.716009,33.658277],[135.716236,33.65855],[135.716369,33.658794],[135.716832,33.659335],[135.718009,33.659974],[135.718852,33.660529],[135.719354,33.661068],[135.719613,33.66145],[135.720087,33.662537],[135.720218,33.663409],[135.720176,33.663816],[135.719818,33.664997],[135.719619,33.66538],[135.719228,33.665825],[135.718836,33.66612],[135.717533,33.66672],[135.716618,33.666941],[135.716531,33.667005],[135.716489,33.667437],[135.716344,33.667904],[135.716666,33.668231],[135.717072,33.669045],[135.717166,33.669482],[135.717138,33.670244],[135.716892,33.670822],[135.716533,33.671422],[135.716604,33.672212],[135.716491,33.672735],[135.716342,33.673083],[135.716082,33.673466],[135.715828,33.673715],[135.715217,33.674127],[135.714859,33.67481],[135.714613,33.675062],[135.714663,33.67511],[135.714724,33.675084],[135.71506,33.674759],[135.715614,33.674433],[135.716063,33.674274],[135.716808,33.674107],[135.717237,33.674059],[135.718117,33.674087],[135.71861,33.674189],[135.71914,33.674392],[135.719906,33.674446],[135.720645,33.674711],[135.721292,33.675161],[135.722018,33.676086],[135.722206,33.676881],[135.722168,33.677165],[135.722717,33.677811],[135.723287,33.678947],[135.723787,33.679286],[135.724113,33.679583],[135.724361,33.679884],[135.724688,33.680511],[135.725015,33.680864],[135.725263,33.681241],[135.725321,33.681275],[135.725748,33.681196],[135.726393,33.681188],[135.727054,33.681305],[135.727705,33.681552],[135.728488,33.681548],[135.729111,33.681648],[135.730156,33.682056],[135.730651,33.682321],[135.731105,33.682356],[135.731821,33.68257],[135.732542,33.682946],[135.732971,33.683295],[135.733466,33.683954],[135.734183,33.684331],[135.734627,33.684699],[135.735038,33.685248],[135.735216,33.685652],[135.735275,33.685954],[135.735282,33.68669],[135.734993,33.687915],[135.734176,33.689611],[135.734653,33.690432],[135.734956,33.691302],[135.735276,33.691841],[135.735428,33.692388],[135.735441,33.692787]]]]}}]}
