{"type":"FeatureCollection","features":[{"type":"Feature","properties":{"potaRef":"JP-2093","nameJa":"Yubara okutsu","nameEn":"Okayama Prefectural Forest","authority":"環境省 生物多様性「見える化」マップ","boundaryStatus":"全国GIS候補・公開前検証待ち","boundarySource":"環境省 生物多様性「見える化」マップの自然公園区域を、POTA代表座標で一意に空間照合して加工","boundaryScaleNote":"区域は概要データであり、正確性は保証されない。POTA運用可否は公式情報で最終確認すること。","candidateMethod":"POTA representative point inside one public natural-park area","sourceParkKind":"都道府県立自然公園","sourceName":"Yubara okutsu","sourceFeatureCount":1,"cautionMeters":75},"geometry":{"type":"MultiPolygon","coordinates":[[[[133.965907,35.332156],[133.964695,35.333315],[133.96391,35.333871],[133.96355,35.33406],[133.962579,35.334127],[133.961998,35.33408],[133.961553,35.333862],[133.96144,35.333705],[133.961427,35.333403],[133.961548,35.332775],[133.961744,35.332305],[133.961769,35.332042],[133.961614,35.331672],[133.961479,35.331537],[133.961235,35.331462],[133.96048,35.33142],[133.960025,35.331467],[133.959511,35.331452],[133.958938,35.331335],[133.958429,35.331129],[133.957759,35.330726],[133.957216,35.330292],[133.95657,35.329517],[133.956311,35.329085],[133.956011,35.328863],[133.955804,35.328574],[133.955041,35.328036],[133.95378,35.327462],[133.953278,35.327298],[133.952131,35.327062],[133.951204,35.326966],[133.95024,35.326974],[133.949529,35.327065],[133.94902,35.32725],[133.947293,35.328282],[133.947031,35.328583],[133.94673,35.328801],[133.945436,35.330303],[133.944233,35.331426],[133.943566,35.331737],[133.942574,35.33174],[133.94188,35.331564],[133.941181,35.330969],[133.940617,35.330375],[133.939069,35.328244],[133.938652,35.32786],[133.938413,35.327499],[133.93804,35.327132],[133.937737,35.326684],[133.937441,35.326346],[133.937188,35.32591],[133.937018,35.325851],[133.936917,35.324852],[133.937058,35.323711],[133.93722,35.323032],[133.937273,35.322104],[133.937148,35.321464],[133.936959,35.321006],[133.936514,35.320691],[133.935941,35.320545],[133.93524,35.320543],[133.934154,35.320827],[133.932733,35.321371],[133.931183,35.322032],[133.930032,35.322694],[133.928894,35.323521],[133.928395,35.324112],[133.928001,35.324393],[133.92797,35.32291],[133.92784,35.32204],[133.927955,35.321838],[133.928323,35.321485],[133.92914,35.321057],[133.929323,35.320811],[133.930035,35.320195],[133.930358,35.319855],[133.930988,35.319313],[133.931519,35.318954],[133.931688,35.318745],[133.931881,35.318374],[133.932019,35.317921],[133.932081,35.317071],[133.93199,35.316484],[133.931812,35.316131],[133.931512,35.315969],[133.931327,35.31578],[133.931305,35.315672],[133.931373,35.315174],[133.931266,35.314714],[133.930851,35.314128],[133.930658,35.313939],[133.930197,35.313141],[133.929905,35.312844],[133.929659,35.312139],[133.929535,35.311974],[133.929381,35.311823],[133.92912,35.311691],[133.928713,35.311615],[133.92841,35.311504],[133.928347,35.311434],[133.928194,35.31086],[133.927848,35.310564],[133.927355,35.310375],[133.926748,35.310514],[133.926564,35.310482],[133.926148,35.310098],[133.926185,35.309784],[133.92627,35.30964],[133.926524,35.309413],[133.926646,35.309199],[133.926624,35.308946],[133.926315,35.308184],[133.925408,35.307761],[133.925307,35.30758],[133.925329,35.307391],[133.925422,35.307176],[133.925376,35.307044],[133.925222,35.306899],[133.924868,35.306848],[133.923622,35.307056],[133.923006,35.306596],[133.922768,35.306571],[133.922591,35.306627],[133.922414,35.30676],[133.922229,35.306791],[133.920801,35.306389],[133.920631,35.306414],[133.920362,35.30661],[133.919955,35.306799],[133.919494,35.307278],[133.919377,35.307328],[133.919147,35.307386],[133.918724,35.307341],[133.917916,35.307625],[133.917455,35.307536],[133.917155,35.307372],[133.91687,35.307126],[133.916601,35.306995],[133.916431,35.30702],[133.916287,35.30714],[133.915819,35.307158],[133.915065,35.307398],[133.914673,35.307366],[133.913934,35.306755],[133.913719,35.306648],[133.91348,35.306717],[133.913212,35.307121],[133.912949,35.307196],[133.911676,35.307108],[133.911046,35.307196],[133.910614,35.307101],[133.909576,35.306988],[133.909122,35.306868],[133.908861,35.306969],[133.908515,35.307221],[133.908168,35.307202],[133.907207,35.306843],[133.906837,35.306641],[133.90673,35.305248],[133.906699,35.305141],[133.906533,35.304986],[133.904663,35.304715],[133.903424,35.304361],[133.902233,35.303819],[133.900841,35.303919],[133.900648,35.303969],[133.900048,35.30436],[133.899741,35.304448],[133.898633,35.304404],[133.898041,35.304266],[133.897587,35.303799],[133.89721,35.302664],[133.896886,35.302105],[133.896779,35.301677],[133.896617,35.301487],[133.896332,35.301392],[133.896086,35.301229],[133.895847,35.301141],[133.894801,35.300863],[133.894332,35.300491],[133.893805,35.299982],[133.893166,35.299919],[133.892397,35.300083],[133.892227,35.300071],[133.892074,35.299629],[133.891859,35.299326],[133.891442,35.298936],[133.891081,35.298683],[133.890042,35.298065],[133.88913,35.297683],[133.888507,35.297506],[133.888322,35.297367],[133.888215,35.297229],[133.888184,35.297096],[133.88813,35.296396],[133.887922,35.296005],[133.887969,35.295514],[133.887912,35.295263],[133.887766,35.29513],[133.886704,35.294664],[133.88605,35.294248],[133.885942,35.294241],[133.885457,35.294519],[133.885304,35.294689],[133.885089,35.295225],[133.88485,35.295534],[133.884674,35.295874],[133.884557,35.295968],[133.884374,35.295963],[133.884265,35.295919],[133.883989,35.295578],[133.883896,35.295213],[133.883635,35.294734],[133.882657,35.294437],[133.882326,35.294254],[133.881378,35.293945],[133.880647,35.293901],[133.880454,35.293945],[133.880308,35.294027],[133.879754,35.294569],[133.879493,35.294695],[133.878394,35.294708],[133.87741,35.295181],[133.877063,35.29525],[133.876663,35.29525],[133.876025,35.295199],[133.875417,35.295004],[133.874871,35.294916],[133.874617,35.294923],[133.874317,35.294821],[133.87364,35.294374],[133.873571,35.294091],[133.873549,35.293611],[133.873481,35.293458],[133.873213,35.293181],[133.873028,35.293073],[133.872805,35.293042],[133.872324,35.293285],[133.871747,35.2933],[133.871311,35.293115],[133.870911,35.292701],[133.870569,35.292433],[133.870336,35.292373],[133.870169,35.292385],[133.869958,35.292486],[133.869587,35.292808],[133.869267,35.292969],[133.867347,35.293032],[133.866503,35.293122],[133.865434,35.293384],[133.865151,35.293324],[133.864714,35.293134],[133.863521,35.292969],[133.863165,35.292838],[133.862546,35.292701],[133.862139,35.292504],[133.862009,35.292361],[133.861767,35.291713],[133.861716,35.291448],[133.861797,35.291067],[133.861776,35.290882],[133.861587,35.29053],[133.861536,35.290271],[133.861485,35.290211],[133.861172,35.29011],[133.861043,35.28991],[133.861223,35.289728],[133.861361,35.289657],[133.861426,35.289555],[133.861441,35.2894],[133.860823,35.288091],[133.860757,35.287483],[133.860961,35.28688],[133.861332,35.286445],[133.86155,35.286332],[133.861732,35.286296],[133.862758,35.286314],[133.862939,35.286275],[133.863165,35.286144],[133.863659,35.286043],[133.863957,35.286007],[133.864437,35.286036],[133.865129,35.285864],[133.865354,35.285691],[133.865521,35.285392],[133.866343,35.284887],[133.866372,35.284708],[133.866271,35.284315],[133.866147,35.283348],[133.865332,35.283438],[133.864896,35.283307],[133.86411,35.28285],[133.864132,35.282636],[133.864255,35.282431],[133.864241,35.281669],[133.864176,35.281276],[133.864227,35.281157],[133.864394,35.280978],[133.865332,35.280271],[133.865441,35.280104],[133.865433,35.279984],[133.865294,35.279636],[133.864343,35.278181],[133.864241,35.27762],[133.863841,35.277256],[133.863558,35.277173],[133.863463,35.277095],[133.863914,35.276458],[133.86406,35.275941],[133.864074,35.27553],[133.864198,35.275291],[133.864605,35.275077],[133.864743,35.274934],[133.864787,35.274838],[133.864794,35.274289],[133.864874,35.273973],[133.865645,35.273135],[133.865943,35.272259],[133.865696,35.272062],[133.865463,35.27202],[133.864983,35.272062],[133.864685,35.271984],[133.864191,35.271734],[133.863696,35.271627],[133.863583,35.271535],[133.863385,35.271216],[133.862343,35.271087],[133.861827,35.27089],[133.861426,35.270616],[133.860066,35.269897],[133.859222,35.269319],[133.85875,35.268859],[133.858546,35.268543],[133.858175,35.268251],[133.857593,35.26809],[133.856567,35.268093],[133.855818,35.268218],[133.855673,35.268212],[133.855557,35.268117],[133.855193,35.26727],[133.855033,35.267085],[133.854364,35.266751],[133.854065,35.266524],[133.853825,35.266238],[133.853193,35.265663],[133.852996,35.265156],[133.852901,35.264422],[133.85253,35.263441],[133.852465,35.262869],[133.852239,35.262374],[133.85184,35.261896],[133.851675,35.261579],[133.851272,35.26116],[133.850748,35.260802],[133.849796,35.260546],[133.849504,35.260384],[133.849279,35.259931],[133.849177,35.259544],[133.848937,35.259144],[133.848472,35.258855],[133.84813,35.258426],[133.84781,35.257567],[133.847795,35.25734],[133.847621,35.257072],[133.847475,35.256929],[133.846726,35.256756],[133.846472,35.256622],[133.846275,35.256437],[133.845635,35.255518],[133.84522,35.254708],[133.844791,35.254391],[133.844129,35.254099],[133.843766,35.253694],[133.843729,35.253485],[133.843951,35.25293],[133.845002,35.251531],[133.844871,35.251242],[133.844527,35.25088],[133.844479,35.250607],[133.844501,35.250174],[133.844617,35.249769],[133.844624,35.249614],[133.844573,35.249494],[133.844357,35.249418],[133.843643,35.249324],[133.84287,35.249465],[133.842006,35.249399],[133.841684,35.249438],[133.841539,35.249525],[133.840918,35.250267],[133.839785,35.250848],[133.83948,35.251099],[133.838922,35.251198],[133.837961,35.251105],[133.837067,35.250848],[133.836871,35.250738],[133.836493,35.250344],[133.835999,35.250106],[133.835447,35.250058],[133.835243,35.24998],[133.834247,35.249319],[133.833747,35.249143],[133.832954,35.249029],[133.832395,35.248838],[133.832076,35.248833],[133.829453,35.249223],[133.82874,35.24948],[133.828195,35.249736],[133.827825,35.249802],[133.82749,35.249778],[133.826895,35.249471],[133.826749,35.249453],[133.826386,35.249542],[133.825856,35.249936],[133.825499,35.250043],[133.824838,35.250008],[133.824417,35.250162],[133.824096,35.250391],[133.823821,35.250484],[133.822578,35.250583],[133.82199,35.250857],[133.820202,35.251853],[133.819338,35.252014],[133.818873,35.252342],[133.818023,35.252712],[133.817966,35.253168],[133.817754,35.253633],[133.817667,35.254176],[133.817725,35.254636],[133.817557,35.255202],[133.817536,35.255459],[133.817703,35.255739],[133.817877,35.256544],[133.81824,35.25683],[133.818394,35.257018],[133.818488,35.257233],[133.818452,35.257966],[133.818154,35.259236],[133.817895,35.25963],[133.817739,35.259782],[133.816656,35.26046],[133.816561,35.260909],[133.816648,35.261523],[133.816635,35.261931],[133.816546,35.262226],[133.816386,35.262434],[133.816051,35.262667],[133.815949,35.262864],[133.815964,35.263073],[133.816175,35.263371],[133.816211,35.263502],[133.815826,35.264092],[133.815673,35.264271],[133.815527,35.264349],[133.815382,35.264716],[133.815222,35.264888],[133.814827,35.265043],[133.814263,35.265477],[133.813301,35.265594],[133.813171,35.265688],[133.812836,35.266129],[133.812596,35.266284],[133.812189,35.266427],[133.812073,35.266522],[133.811484,35.267071],[133.811374,35.267873],[133.811156,35.268183],[133.810661,35.268571],[133.810581,35.268827],[133.810385,35.269036],[133.80989,35.269167],[133.809374,35.269096],[133.808763,35.269248],[133.808482,35.269448],[133.807497,35.270417],[133.807483,35.27053],[133.807635,35.270793],[133.807744,35.271514],[133.807854,35.271869],[133.808261,35.272602],[133.808719,35.273264],[133.809207,35.273807],[133.809636,35.274525],[133.809667,35.274837],[133.809509,35.275287],[133.809431,35.275933],[133.809294,35.276136],[133.80891,35.276367],[133.808921,35.276489],[133.809279,35.276917],[133.809177,35.277096],[133.808691,35.277344],[133.808555,35.277471],[133.808395,35.277889],[133.808137,35.278263],[133.807548,35.278579],[133.806871,35.27911],[133.806668,35.27917],[133.806151,35.279456],[133.805875,35.279701],[133.805606,35.279831],[133.805148,35.280287],[133.804994,35.280617],[133.805038,35.280861],[133.805286,35.281423],[133.805533,35.28178],[133.805511,35.281906],[133.805286,35.282174],[133.804573,35.282609],[133.803845,35.282895],[133.803249,35.283211],[133.802594,35.283486],[133.802318,35.283721],[133.801994,35.284221],[133.801478,35.284654],[133.801379,35.284831],[133.801457,35.285576],[133.801111,35.286339],[133.801078,35.286621],[133.801149,35.286697],[133.801656,35.286924],[133.801845,35.287121],[133.801801,35.287371],[133.801714,35.287526],[133.801517,35.287632],[133.800674,35.287972],[133.799743,35.288455],[133.799578,35.288629],[133.79943,35.289087],[133.799124,35.289457],[133.798972,35.289749],[133.798963,35.289827],[133.799044,35.28991],[133.799444,35.289987],[133.799721,35.290107],[133.800041,35.290321],[133.800216,35.290627],[133.800188,35.29095],[133.799853,35.291461],[133.799771,35.291732],[133.799779,35.291966],[133.799853,35.292193],[133.800051,35.292388],[133.800089,35.292509],[133.800007,35.292649],[133.799298,35.292776],[133.798863,35.29292],[133.798748,35.293003],[133.798243,35.293798],[133.798094,35.29393],[133.797403,35.294092],[133.796804,35.294083],[133.796302,35.293898],[133.796011,35.293964],[133.795626,35.294206],[133.795433,35.294229],[133.79532,35.294178],[133.795233,35.294071],[133.79483,35.293343],[133.794587,35.293108],[133.794331,35.292979],[133.793873,35.292851],[133.79348,35.292851],[133.792222,35.293173],[133.791116,35.293203],[133.790331,35.293292],[133.789807,35.293418],[133.789559,35.293534],[133.789203,35.293963],[133.789114,35.294474],[133.789196,35.294643],[133.789516,35.294977],[133.789676,35.295287],[133.789639,35.295526],[133.78953,35.295693],[133.789501,35.29583],[133.789283,35.296104],[133.789319,35.296373],[133.789428,35.296551],[133.789457,35.296713],[133.789741,35.296987],[133.789967,35.297315],[133.789894,35.29753],[133.789741,35.297583],[133.789472,35.297559],[133.789137,35.297446],[133.788512,35.297088],[133.78833,35.296933],[133.788148,35.296468],[133.787312,35.295508],[133.786907,35.295218],[133.786192,35.294974],[133.785617,35.294884],[133.78425,35.294891],[133.783573,35.294765],[133.783347,35.294888],[133.783202,35.29512],[133.783122,35.295687],[133.783006,35.295955],[133.782642,35.296319],[133.782569,35.296468],[133.782373,35.297873],[133.781529,35.29822],[133.780525,35.298446],[133.780191,35.298595],[133.779754,35.299051],[133.779645,35.299105],[133.779267,35.299117],[133.778481,35.299028],[133.778256,35.299057],[133.777856,35.299242],[133.777267,35.299147],[133.777077,35.299194],[133.776721,35.299523],[133.776117,35.299424],[133.775892,35.29946],[133.775705,35.299558],[133.775274,35.299946],[133.775143,35.300137],[133.774932,35.300703],[133.774721,35.300954],[133.774451,35.301091],[133.773855,35.301276],[133.7736,35.301461],[133.773387,35.301731],[133.773084,35.301872],[133.773033,35.302113],[133.773048,35.302394],[133.772997,35.302611],[133.772895,35.302725],[133.772022,35.30313],[133.77144,35.303714],[133.770545,35.303899],[133.770007,35.304138],[133.769614,35.304433],[133.769207,35.304982],[133.768808,35.306237],[133.768538,35.306843],[133.767317,35.308368],[133.76701,35.308634],[133.76573,35.308965],[133.764821,35.308816],[133.763984,35.308852],[133.763308,35.30915],[133.763053,35.309401],[133.763053,35.309645],[133.763243,35.309937],[133.763213,35.310033],[133.762785,35.31034],[133.762601,35.310577],[133.762457,35.310964],[133.762338,35.311087],[133.76212,35.311116],[133.761291,35.31086],[133.760651,35.310508],[133.760098,35.310314],[133.75988,35.310183],[133.759771,35.310022],[133.759733,35.309436],[133.75964,35.309146],[133.759298,35.308782],[133.759007,35.308573],[133.758621,35.3084],[133.758331,35.308329],[133.75696,35.308198],[133.756519,35.308519],[133.755632,35.309468],[133.755043,35.309897],[133.754344,35.310541],[133.754148,35.310648],[133.753937,35.310684],[133.753231,35.310666],[133.75284,35.310745],[133.752586,35.310548],[133.751954,35.309602],[133.751276,35.308341],[133.751076,35.307227],[133.750979,35.306157],[133.751791,35.306945],[133.752084,35.307045],[133.752239,35.307045],[133.752398,35.306958],[133.752472,35.306849],[133.752489,35.306587],[133.752824,35.306707],[133.753016,35.306712],[133.753157,35.306651],[133.753265,35.306538],[133.753197,35.306368],[133.752913,35.306059],[133.752913,35.30598],[133.753219,35.305957],[133.753372,35.305856],[133.753311,35.305488],[133.753374,35.30537],[133.753491,35.30529],[133.7537,35.305259],[133.754191,35.305428],[133.754352,35.305434],[133.75485,35.305242],[133.755131,35.305247],[133.75557,35.305343],[133.755864,35.3051],[133.756497,35.30502],[133.756622,35.30495],[133.756629,35.304848],[133.75628,35.3045],[133.756323,35.304359],[133.757213,35.30383],[133.757668,35.303675],[133.758403,35.303557],[133.760323,35.303089],[133.761354,35.303039],[133.762157,35.302852],[133.76265,35.302803],[133.763532,35.302774],[133.764016,35.302618],[133.764131,35.302683],[133.765793,35.302163],[133.766515,35.301709],[133.767937,35.301807],[133.768654,35.302007],[133.769356,35.302075],[133.769804,35.301986],[133.770398,35.301648],[133.77088,35.301192],[133.772389,35.300178],[133.772998,35.299879],[133.773766,35.299712],[133.774407,35.299388],[133.775515,35.298542],[133.777085,35.297907],[133.77814,35.297807],[133.77883,35.297274],[133.77983,35.295851],[133.780457,35.295395],[133.780602,35.295173],[133.781515,35.294758],[133.782556,35.294397],[133.782701,35.294122],[133.782797,35.29411],[133.783136,35.293679],[133.783745,35.29338],[133.784272,35.29333],[133.784814,35.293556],[133.784982,35.294604],[133.785486,35.294815],[133.78663,35.294912],[133.787569,35.294734],[133.788083,35.294369],[133.788453,35.293991],[133.788487,35.293585],[133.788092,35.292929],[133.788046,35.292732],[133.789635,35.291495],[133.790003,35.291418],[133.791072,35.291659],[133.792201,35.29245],[133.7941,35.292681],[133.796172,35.29341],[133.796891,35.293361],[133.797212,35.29314],[133.797915,35.293038],[133.797965,35.292763],[133.797823,35.292527],[133.797217,35.292328],[133.795988,35.292231],[133.795382,35.292032],[133.794761,35.291728],[133.794683,35.291439],[133.794767,35.290876],[133.795121,35.290459],[133.795762,35.290174],[133.797057,35.289891],[133.797603,35.289501],[133.7977,35.289331],[133.797605,35.28916],[133.797303,35.289054],[133.796744,35.289025],[133.795593,35.28906],[133.794729,35.289396],[133.794038,35.289983],[133.793778,35.290649],[133.793553,35.290884],[133.793137,35.291013],[133.792483,35.290905],[133.791702,35.290653],[133.790826,35.290269],[133.790512,35.289417],[133.790809,35.287951],[133.790657,35.286785],[133.789637,35.286414],[133.788682,35.28599],[133.788414,35.285531],[133.788289,35.285033],[133.788536,35.283947],[133.788508,35.283331],[133.788355,35.282375],[133.788534,35.281851],[133.788904,35.281473],[133.789512,35.281358],[133.789878,35.281491],[133.790319,35.28241],[133.791285,35.283684],[133.792062,35.284434],[133.79289,35.284949],[133.793589,35.285462],[133.794657,35.285755],[133.797119,35.285373],[133.797824,35.285062],[133.798178,35.284658],[133.798228,35.28437],[133.797845,35.284263],[133.796534,35.28452],[133.795383,35.284645],[133.794137,35.28464],[133.793212,35.284439],[133.792624,35.284004],[133.791799,35.283281],[133.791117,35.282439],[133.790802,35.281796],[133.790838,35.281194],[133.79164,35.280752],[133.792246,35.280834],[133.793268,35.280825],[133.793685,35.28067],[133.793878,35.280369],[133.793625,35.280054],[133.793351,35.279879],[133.792877,35.279731],[133.791187,35.279718],[133.791053,35.279595],[133.791035,35.279199],[133.791186,35.278827],[133.791578,35.278677],[133.795461,35.278485],[133.796482,35.278682],[133.798663,35.279524],[133.799209,35.279579],[133.799976,35.279512],[133.802435,35.278993],[133.804299,35.278414],[133.805944,35.277501],[133.806045,35.277286],[133.805976,35.276972],[133.805742,35.276924],[133.804769,35.277036],[133.80435,35.277128],[133.804122,35.277266],[133.803553,35.27738],[133.80374,35.277096],[133.804297,35.276446],[133.804355,35.276255],[133.803727,35.275821],[133.803542,35.275855],[133.803234,35.276319],[133.802464,35.277818],[133.801084,35.27833],[133.799954,35.278488],[133.798783,35.278523],[133.798294,35.278428],[133.797877,35.278118],[133.797715,35.277931],[133.796851,35.277624],[133.796646,35.277472],[133.796606,35.27714],[133.796651,35.276715],[133.796888,35.27635],[133.798323,35.27514],[133.798929,35.274752],[133.799591,35.274423],[133.800373,35.274241],[133.800885,35.274028],[133.80117,35.273819],[133.801293,35.273581],[133.801195,35.273313],[133.800954,35.273213],[133.800727,35.273253],[133.800421,35.273391],[133.799395,35.274021],[133.798211,35.274825],[133.797763,35.274968],[133.797543,35.27495],[133.797338,35.274798],[133.797269,35.2745],[133.796954,35.273905],[133.796454,35.273304],[133.796368,35.273373],[133.796317,35.273681],[133.796605,35.275138],[133.796522,35.275917],[133.796015,35.27634],[133.793423,35.276561],[133.791912,35.276473],[133.791473,35.276209],[133.791382,35.27604],[133.791308,35.275481],[133.791104,35.275253],[133.790934,35.275188],[133.790515,35.275204],[133.790137,35.2754],[133.789624,35.275456],[133.789167,35.275384],[133.788477,35.275031],[133.787295,35.275035],[133.787019,35.274955],[133.78651,35.274577],[133.78648,35.274306],[133.787431,35.273839],[133.787806,35.273527],[133.788021,35.273143],[133.787991,35.272838],[133.787683,35.272749],[133.785954,35.273448],[133.785059,35.273444],[133.784593,35.273172],[133.784094,35.273003],[133.783862,35.272688],[133.7836,35.272006],[133.783083,35.271296],[133.782639,35.270797],[133.782353,35.270612],[133.781928,35.270462],[133.781994,35.2702],[133.782294,35.269974],[133.782901,35.269837],[133.783883,35.26951],[133.785344,35.269106],[133.786719,35.268816],[133.789906,35.26828],[133.790727,35.268022],[133.791593,35.267598],[133.792264,35.267409],[133.79302,35.267404],[133.793978,35.267486],[133.794955,35.267761],[133.795337,35.267947],[133.795667,35.267983],[133.796031,35.267696],[133.796011,35.267443],[133.795736,35.267241],[133.793655,35.266359],[133.793486,35.266236],[133.793562,35.266],[133.793883,35.265784],[133.794577,35.265499],[133.795184,35.265423],[133.795833,35.265487],[133.7963,35.265611],[133.79717,35.266139],[133.798128,35.26654],[133.798386,35.266256],[133.798404,35.266034],[133.798263,35.265549],[133.796703,35.264808],[133.796211,35.264466],[133.796228,35.264269],[133.797442,35.264248],[133.797874,35.264106],[133.798164,35.263689],[133.799236,35.263314],[133.799621,35.263119],[133.799605,35.262988],[133.799495,35.262752],[133.798952,35.262788],[133.7982,35.263034],[133.797386,35.26303],[133.797036,35.262859],[133.797037,35.262662],[133.797635,35.261473],[133.797446,35.261184],[133.796905,35.26088],[133.796664,35.261089],[133.796624,35.262267],[133.796349,35.262842],[133.795867,35.263246],[133.795258,35.263584],[133.793754,35.264167],[133.791317,35.265609],[133.789684,35.266257],[133.787892,35.266773],[133.787397,35.266823],[133.787047,35.266612],[133.787225,35.266233],[133.78827,35.265229],[133.789946,35.262801],[133.790475,35.26258],[133.791517,35.261904],[133.791709,35.26155],[133.791889,35.26144],[133.791392,35.261208],[133.79071,35.26131],[133.790219,35.261517],[133.789501,35.262152],[133.788644,35.263108],[133.787956,35.264065],[133.786767,35.265169],[133.786206,35.266214],[133.786013,35.266475],[133.785735,35.266605],[133.784605,35.266888],[133.784092,35.267121],[133.783741,35.267181],[133.782766,35.266556],[133.782456,35.266616],[133.781653,35.267389],[133.781651,35.26759],[133.782085,35.268011],[133.782137,35.268247],[133.781102,35.268557],[133.780636,35.268127],[133.780415,35.267742],[133.780313,35.267148],[133.78052,35.266433],[133.780088,35.265872],[133.780091,35.265427],[133.780456,35.264957],[133.780938,35.264496],[133.781514,35.264272],[133.78203,35.263558],[133.782597,35.263116],[133.783578,35.262849],[133.785543,35.261872],[133.786172,35.261866],[133.78749,35.262108],[133.788139,35.262163],[133.788607,35.262121],[133.789195,35.261766],[133.789817,35.26114],[133.789905,35.260678],[133.789875,35.260459],[133.789268,35.260483],[133.788422,35.261221],[133.78807,35.26129],[133.787475,35.261156],[133.786411,35.261151],[133.786198,35.261106],[133.786177,35.261002],[133.78746,35.260239],[133.788904,35.259146],[133.789194,35.258789],[133.789292,35.258475],[133.789282,35.258344],[133.789154,35.258352],[133.788663,35.258621],[133.788523,35.258856],[133.788191,35.259099],[133.787476,35.259357],[133.787061,35.25939],[133.786934,35.259346],[133.787014,35.258517],[133.786897,35.258403],[133.786557,35.25841],[133.786258,35.258496],[133.786268,35.258671],[133.786011,35.258871],[133.785505,35.259654],[133.785095,35.26049],[133.784452,35.26109],[133.783789,35.26155],[133.782892,35.262017],[133.7819,35.262388],[133.781589,35.262657],[133.781087,35.262934],[133.780105,35.263235],[133.778423,35.263324],[133.776842,35.264189],[133.776469,35.264223],[133.776129,35.264125],[133.776024,35.263932],[133.776122,35.263575],[133.776337,35.26327],[133.776551,35.26314],[133.777177,35.261781],[133.777406,35.261031],[133.777556,35.260901],[133.777825,35.26044],[133.777895,35.259523],[133.777421,35.258814],[133.777434,35.2585],[133.777585,35.258256],[133.778418,35.257753],[133.778645,35.257344],[133.77882,35.256646],[133.778848,35.255677],[133.779254,35.255391],[133.780405,35.255161],[133.780854,35.254936],[133.781709,35.254355],[133.782787,35.253958],[133.783204,35.253619],[133.78374,35.253046],[133.784375,35.251983],[133.784717,35.251784],[133.786232,35.251346],[133.786764,35.251339],[133.787062,35.251262],[133.78749,35.251046],[133.787833,35.25062],[133.787877,35.250349],[133.787741,35.250069],[133.787264,35.249805],[133.786838,35.249838],[133.785717,35.250322],[133.784618,35.25071],[133.783797,35.250916],[133.783274,35.251114],[133.782568,35.251766],[133.782277,35.252175],[133.781326,35.252808],[133.780707,35.252962],[133.780142,35.25323],[133.780003,35.253177],[133.779963,35.252863],[133.780652,35.251748],[133.780752,35.251164],[133.780627,35.250744],[133.780267,35.250463],[133.7798,35.250243],[133.779462,35.249866],[133.779443,35.249481],[133.779595,35.249019],[133.780016,35.248148],[133.779764,35.247702],[133.77963,35.247099],[133.779068,35.2467],[133.77886,35.246646],[133.778452,35.246189],[133.7782,35.246153],[133.777946,35.246435],[133.777922,35.246796],[133.778305,35.247691],[133.778063,35.248281],[133.777825,35.248428],[133.777515,35.248314],[133.776915,35.247554],[133.775579,35.246945],[133.775179,35.246393],[133.774982,35.245647],[133.774734,35.245126],[133.774453,35.245036],[133.774172,35.245023],[133.773969,35.245188],[133.773779,35.245671],[133.773672,35.246516],[133.773778,35.246842],[133.774143,35.247228],[133.77484,35.247556],[133.776264,35.248063],[133.776922,35.248713],[133.776999,35.250026],[133.777284,35.250483],[133.777361,35.250814],[133.777193,35.25115],[133.776875,35.251379],[133.776081,35.251577],[133.776106,35.252085],[133.776377,35.252524],[133.77682,35.25304],[133.777326,35.253847],[133.777705,35.255333],[133.777685,35.256207],[133.777363,35.256898],[133.776892,35.257304],[133.776097,35.257519],[133.775217,35.257674],[133.774704,35.257885],[133.774529,35.258168],[133.774519,35.258534],[133.774676,35.258801],[133.77596,35.259597],[133.776001,35.259993],[133.775725,35.260252],[133.775125,35.260568],[133.774359,35.260867],[133.77367,35.261431],[133.773437,35.26179],[133.772727,35.262248],[133.77152,35.262686],[133.771117,35.26272],[133.770663,35.262593],[133.769859,35.26217],[133.769544,35.261867],[133.769062,35.261628],[133.768611,35.261283],[133.767433,35.260586],[133.767002,35.260412],[133.763761,35.260019],[133.763575,35.25987],[133.763426,35.259568],[133.763358,35.2589],[133.762999,35.258673],[133.762293,35.258652],[133.762135,35.258527],[133.762094,35.258243],[133.762284,35.257925],[133.762841,35.257591],[133.763414,35.257114],[133.763587,35.256098],[133.765008,35.255939],[133.765448,35.255817],[133.766537,35.255751],[133.767005,35.255925],[133.767451,35.255921],[133.767935,35.255782],[133.768167,35.255635],[133.768327,35.255452],[133.768445,35.255021],[133.768405,35.254536],[133.768248,35.254364],[133.76768,35.254166],[133.766837,35.25408],[133.766391,35.253942],[133.76638,35.253551],[133.766232,35.253066],[133.766277,35.252717],[133.766453,35.252393],[133.766499,35.251979],[133.766437,35.251524],[133.766065,35.251043],[133.765006,35.251044],[133.764383,35.251425],[133.764261,35.251448],[133.764045,35.251359],[133.764157,35.250833],[133.764226,35.250183],[133.764173,35.249521],[133.764031,35.249207],[133.763687,35.249045],[133.763348,35.249032],[133.763035,35.249421],[133.762819,35.249467],[133.762531,35.249383],[133.762488,35.2493],[133.762498,35.249022],[133.762355,35.248773],[133.762182,35.248737],[133.76215,35.248204],[133.762363,35.247703],[133.762135,35.2473],[133.761551,35.247267],[133.76124,35.247396],[133.760899,35.247737],[133.760745,35.248221],[133.760791,35.248813],[133.761361,35.24975],[133.761366,35.250116],[133.761097,35.250328],[133.760614,35.250391],[133.760002,35.250293],[133.75965,35.250138],[133.759457,35.249912],[133.759151,35.248314],[133.758762,35.247272],[133.758072,35.247015],[133.757733,35.247084],[133.757696,35.247208],[133.757746,35.248219],[133.757658,35.248532],[133.757469,35.248703],[133.75705,35.248902],[133.756733,35.2489],[133.756366,35.248827],[133.756077,35.248861],[133.7557,35.249132],[133.755402,35.24955],[133.755083,35.250843],[133.754618,35.251279],[133.754242,35.251484],[133.753968,35.251524],[133.753645,35.25138],[133.75332,35.250397],[133.753029,35.249716],[133.752303,35.248459],[133.751537,35.24758],[133.751194,35.247945],[133.750768,35.248074],[133.750342,35.248024],[133.749515,35.247662],[133.74919,35.247586],[133.747736,35.24777],[133.745801,35.247564],[133.745388,35.247655],[133.74497,35.247868],[133.743776,35.247844],[133.741613,35.248449],[133.740912,35.248479],[133.740481,35.24842],[133.739215,35.248012],[133.738271,35.247342],[133.738067,35.247252],[133.737652,35.247178],[133.737277,35.247172],[133.736869,35.247247],[133.73628,35.247411],[133.735708,35.247686],[133.734733,35.248499],[133.734448,35.248809],[133.734395,35.249033],[133.734391,35.250165],[133.734182,35.251197],[133.734214,35.252222],[133.733606,35.25226],[133.733644,35.25412],[133.733533,35.254389],[133.733113,35.254903],[133.732472,35.255415],[133.732198,35.255559],[133.731679,35.255691],[133.730892,35.255652],[133.729765,35.255424],[133.729694,35.255351],[133.729722,35.255264],[133.731297,35.253671],[133.731346,35.252687],[133.731231,35.251425],[133.731234,35.250695],[133.731176,35.250105],[133.731231,35.248802],[133.73133,35.248127],[133.731599,35.247133],[133.732059,35.246245],[133.732625,35.245613],[133.733193,35.245097],[133.733836,35.244676],[133.735627,35.244097],[133.736551,35.244046],[133.737816,35.244139],[133.738399,35.243094],[133.737625,35.242672],[133.737487,35.242356],[133.737318,35.242198],[133.737226,35.241866],[133.736706,35.241724],[133.735815,35.241301],[133.734434,35.240764],[133.733663,35.24019],[133.733241,35.239646],[133.733181,35.239122],[133.733252,35.238171],[133.73479,35.23597],[133.734451,35.235741],[133.733178,35.23529],[133.732468,35.234788],[133.73228,35.234395],[133.732199,35.233844],[133.732496,35.231209],[133.732338,35.230868],[133.732099,35.230081],[133.730199,35.229425],[133.730019,35.229232],[133.729001,35.228817],[133.728249,35.228385],[133.727879,35.228043],[133.727491,35.22729],[133.726961,35.227052],[133.72627,35.226961],[133.72595,35.227003],[133.72571,35.22784],[133.724948,35.228744],[133.724559,35.229432],[133.72427,35.229745],[133.723672,35.23003],[133.722829,35.230296],[133.722532,35.230199],[133.722351,35.230268],[133.722442,35.230853],[133.722354,35.231245],[133.722192,35.231568],[133.722096,35.231646],[133.722094,35.231785],[133.72221,35.232004],[133.722257,35.233087],[133.72192,35.233615],[133.721706,35.233841],[133.721149,35.234234],[133.72068,35.234394],[133.72014,35.234432],[133.719587,35.234435],[133.719134,35.234369],[133.718419,35.234045],[133.718139,35.234568],[133.717854,35.234735],[133.717718,35.234886],[133.71754,35.234914],[133.717442,35.235786],[133.71729,35.236065],[133.716661,35.236708],[133.716348,35.236887],[133.715935,35.237042],[133.715339,35.237091],[133.714779,35.237059],[133.714064,35.236794],[133.713806,35.236516],[133.713465,35.236302],[133.712552,35.235057],[133.712007,35.234944],[133.711377,35.234673],[133.709994,35.234637],[133.709535,35.234442],[133.708892,35.234072],[133.708498,35.233663],[133.708366,35.233301],[133.708338,35.232288],[133.708412,35.23191],[133.708692,35.231487],[133.70905,35.231081],[133.709399,35.230868],[133.70945,35.230705],[133.709317,35.230477],[133.708175,35.230471],[133.708075,35.230535],[133.70806,35.231623],[133.707748,35.232518],[133.707533,35.23279],[133.707063,35.233044],[133.706451,35.23325],[133.70577,35.233299],[133.705702,35.23377],[133.70535,35.234322],[133.704438,35.234893],[133.703742,35.235012],[133.702841,35.234943],[133.702177,35.234567],[133.701929,35.234618],[133.701465,35.234883],[133.700961,35.234968],[133.701495,35.235605],[133.701768,35.236113],[133.701749,35.236742],[133.70166,35.237253],[133.701408,35.237677],[133.700831,35.238035],[133.700126,35.238345],[133.699317,35.23844],[133.698374,35.238354],[133.697425,35.23811],[133.696973,35.237863],[133.696441,35.23782],[133.694964,35.237986],[133.692914,35.237947],[133.692418,35.237926],[133.691745,35.237766],[133.690235,35.237676],[133.689456,35.237527],[133.688848,35.237227],[133.688581,35.236917],[133.688251,35.236461],[133.688226,35.23603],[133.688317,35.235309],[133.688728,35.23438],[133.689122,35.233928],[133.689401,35.233679],[133.690497,35.233184],[133.692274,35.232763],[133.692764,35.232719],[133.692802,35.23237],[133.69294,35.231969],[133.693321,35.23136],[133.693765,35.230786],[133.695427,35.22959],[133.696061,35.229256],[133.696699,35.228462],[133.696717,35.227979],[133.696637,35.227286],[133.696653,35.226989],[133.697075,35.226648],[133.697693,35.226436],[133.697902,35.226117],[133.698134,35.225443],[133.698053,35.22493],[133.697942,35.224592],[133.699045,35.224988],[133.699507,35.224949],[133.700012,35.224783],[133.700362,35.224447],[133.700433,35.223522],[133.70019,35.222776],[133.699935,35.22097],[133.699798,35.220388],[133.69936,35.220106],[133.698785,35.220144],[133.698287,35.220351],[133.697882,35.220459],[133.697272,35.220462],[133.696642,35.220272],[133.696014,35.219914],[133.695619,35.219545],[133.695146,35.219263],[133.694091,35.219054],[133.693761,35.218616],[133.69365,35.218382],[133.693526,35.217805],[133.69329,35.217199],[133.69279,35.216748],[133.692004,35.215673],[133.691623,35.215473],[133.691028,35.215453],[133.690736,35.215568],[133.690091,35.215542],[133.689562,35.215207],[133.689131,35.215036],[133.688924,35.215105],[133.688389,35.215515],[133.687999,35.215554],[133.687483,35.215266],[133.686866,35.215262],[133.686059,35.215153],[133.685805,35.21489],[133.685523,35.214685],[133.685428,35.214161],[133.685423,35.213031],[133.68548,35.212106],[133.685632,35.211729],[133.685593,35.211263],[133.684878,35.211143],[133.685223,35.210551],[133.685304,35.21015],[133.685936,35.210254],[133.686454,35.210233],[133.687916,35.210792],[133.688641,35.2115],[133.689662,35.211558],[133.690086,35.211688],[133.690519,35.211695],[133.691538,35.211586],[133.693095,35.211625],[133.695186,35.211447],[133.696221,35.211749],[133.696847,35.212127],[133.698396,35.211416],[133.699269,35.211191],[133.700044,35.211099],[133.700557,35.211125],[133.70146,35.211425],[133.702029,35.211703],[133.702809,35.212329],[133.703369,35.213434],[133.703819,35.21497],[133.704027,35.215286],[133.704294,35.21613],[133.704617,35.216007],[133.705385,35.215383],[133.706245,35.215174],[133.706284,35.214818],[133.706144,35.214493],[133.70604,35.213495],[133.70624,35.212979],[133.706691,35.212413],[133.707596,35.212015],[133.708094,35.211919],[133.70881,35.211935],[133.70939,35.212192],[133.710258,35.212752],[133.710716,35.213168],[133.710967,35.213209],[133.711115,35.213064],[133.711599,35.21221],[133.711712,35.211791],[133.712139,35.211119],[133.712381,35.210421],[133.712496,35.209658],[133.712498,35.20859],[133.712312,35.206242],[133.712491,35.206029],[133.713527,35.205772],[133.713797,35.205623],[133.713927,35.20294],[133.714052,35.202624],[133.714069,35.202209],[133.714204,35.20173],[133.714376,35.201416],[133.7144,35.201161],[133.715504,35.198857],[133.716218,35.19762],[133.71659,35.197232],[133.71706,35.196984],[133.717428,35.196975],[133.717909,35.197163],[133.718121,35.197321],[133.718273,35.197805],[133.718782,35.198949],[133.719208,35.199754],[133.719692,35.200484],[133.720902,35.201759],[133.721706,35.202334],[133.722963,35.203068],[133.723492,35.202511],[133.724548,35.201615],[133.725603,35.200875],[133.727947,35.199445],[133.728782,35.198742],[133.729943,35.197071],[133.73125,35.194982],[133.730154,35.193187],[133.729603,35.192864],[133.728241,35.191076],[133.728011,35.190534],[133.72813,35.187921],[133.72885,35.186458],[133.729204,35.185511],[133.730054,35.183999],[133.730579,35.183748],[133.730784,35.183554],[133.731039,35.182872],[133.73121,35.182641],[133.731734,35.182294],[133.731844,35.181858],[133.732549,35.181373],[133.732594,35.181033],[133.731516,35.180076],[133.731041,35.179619],[133.730937,35.179392],[133.730533,35.179058],[133.729821,35.178732],[133.729116,35.178263],[133.72843,35.177689],[133.728471,35.177848],[133.728363,35.177849],[133.728234,35.177968],[133.728076,35.178296],[133.728227,35.178856],[133.728208,35.179026],[133.727948,35.179563],[133.727653,35.179855],[133.727229,35.180075],[133.726186,35.180375],[133.723913,35.18166],[133.722484,35.182135],[133.722413,35.182236],[133.722353,35.182221],[133.722429,35.182147],[133.722381,35.182162],[133.722014,35.182385],[133.721583,35.182758],[133.720974,35.182983],[133.720658,35.182994],[133.72019,35.182902],[133.719826,35.182719],[133.71965,35.18254],[133.719521,35.182354],[133.71943,35.182101],[133.719154,35.180748],[133.719036,35.180563],[133.718803,35.180399],[133.717767,35.180081],[133.715682,35.179901],[133.715285,35.179939],[133.715602,35.178225],[133.715766,35.177693],[133.716748,35.175804],[133.716828,35.174992],[133.716745,35.17473],[133.71624,35.173985],[133.716085,35.173522],[133.716114,35.172465],[133.716275,35.172222],[133.71658,35.171237],[133.716564,35.170512],[133.716326,35.169673],[133.716115,35.169418],[133.716012,35.169104],[133.715548,35.168466],[133.715274,35.168262],[133.713543,35.166507],[133.71326,35.166488],[133.713017,35.166708],[133.712804,35.166754],[133.712627,35.166724],[133.712474,35.166374],[133.7113,35.166036],[133.711193,35.166099],[133.711757,35.16747],[133.711746,35.168006],[133.71168,35.168232],[133.711509,35.168435],[133.711147,35.168468],[133.710517,35.168366],[133.710149,35.168242],[133.709748,35.167914],[133.709608,35.167575],[133.706794,35.166688],[133.706475,35.166651],[133.705934,35.167981],[133.705763,35.168004],[133.705475,35.167688],[133.704819,35.167242],[133.704656,35.167241],[133.70421,35.168147],[133.704046,35.168193],[133.703927,35.168105],[133.7039,35.167895],[133.703904,35.166458],[133.703575,35.165903],[133.70282,35.165404],[133.702467,35.165292],[133.702124,35.165686],[133.700813,35.16558],[133.69973,35.165371],[133.698479,35.164965],[133.697935,35.164764],[133.697435,35.164395],[133.697222,35.164376],[133.697115,35.164533],[133.696879,35.164724],[133.695896,35.165347],[133.695698,35.165364],[133.693838,35.164877],[133.693839,35.164696],[133.694673,35.163123],[133.693373,35.162622],[133.691973,35.162213],[133.689009,35.161527],[133.688484,35.16149],[133.688095,35.162367],[133.687496,35.162812],[133.686798,35.16318],[133.686413,35.163452],[133.682946,35.16458],[133.682934,35.16515],[133.683005,35.165983],[133.683299,35.167712],[133.683199,35.167918],[133.681851,35.168608],[133.681729,35.168584],[133.681601,35.168446],[133.681317,35.167867],[133.681263,35.167495],[133.681075,35.166999],[133.680903,35.166909],[133.680764,35.167],[133.680548,35.167323],[133.680036,35.168384],[133.68,35.16857],[133.679787,35.168501],[133.679036,35.168055],[133.67706,35.167148],[133.676843,35.167012],[133.676167,35.166366],[133.675418,35.165045],[133.674845,35.163478],[133.674141,35.163322],[133.673061,35.163252],[133.672611,35.1632],[133.672514,35.163137],[133.672427,35.162243],[133.673524,35.161309],[133.674201,35.160828],[133.674418,35.160471],[133.674582,35.159516],[133.675016,35.159219],[133.675225,35.158962],[133.675337,35.158432],[133.675143,35.157643],[133.67536,35.156906],[133.675298,35.156693],[133.675012,35.15634],[133.674803,35.155902],[133.674787,35.155225],[133.675044,35.154806],[133.675705,35.154133],[133.675867,35.153682],[133.676821,35.152329],[133.67734,35.1518],[133.677067,35.151764],[133.676206,35.151328],[133.676032,35.151122],[133.675843,35.150671],[133.675252,35.150208],[133.674697,35.149582],[133.674033,35.149328],[133.672092,35.149265],[133.671717,35.149158],[133.670853,35.14913],[133.670106,35.149405],[133.669631,35.149438],[133.668953,35.149195],[133.668499,35.149175],[133.668194,35.149284],[133.666698,35.149363],[133.665852,35.149667],[133.664962,35.150192],[133.664621,35.150318],[133.664302,35.150282],[133.663914,35.150076],[133.66371,35.149877],[133.66361,35.148299],[133.662913,35.147701],[133.661862,35.147166],[133.660485,35.146338],[133.65939,35.145993],[133.659277,35.145857],[133.659243,35.145544],[133.659024,35.145102],[133.658386,35.144578],[133.657942,35.144325],[133.657896,35.144171],[133.657944,35.143688],[133.657827,35.142848],[133.657694,35.142532],[133.657771,35.141434],[133.657966,35.140959],[133.658442,35.140182],[133.658874,35.139755],[133.659593,35.139206],[133.660024,35.139018],[133.661109,35.13871],[133.662976,35.138472],[133.663913,35.137905],[133.664961,35.13699],[133.665964,35.135657],[133.666116,35.135526],[133.666303,35.135729],[133.666693,35.135944],[133.667608,35.136112],[133.668086,35.136076],[133.668479,35.13595],[133.668902,35.135626],[133.669055,35.135344],[133.669091,35.134987],[133.668887,35.13461],[133.66843,35.134099],[133.66949,35.133154],[133.669659,35.131976],[133.670341,35.131779],[133.6713,35.131374],[133.67223,35.13075],[133.673428,35.129805],[133.673958,35.129983],[133.674349,35.130247],[133.674593,35.130292],[133.674838,35.130197],[133.675037,35.129325],[133.67543,35.12931],[133.676053,35.129811],[133.676305,35.130135],[133.676559,35.130241],[133.676878,35.130217],[133.676965,35.130051],[133.676871,35.129763],[133.675892,35.128683],[133.675825,35.127793],[133.676061,35.127462],[133.675885,35.126946],[133.675556,35.125565],[133.675614,35.124858],[133.675895,35.124379],[133.676933,35.123433],[133.677299,35.122789],[133.677237,35.12257],[133.675923,35.123541],[133.675742,35.123566],[133.675446,35.123294],[133.675191,35.122829],[133.674811,35.123566],[133.674659,35.124019],[133.674401,35.124289],[133.67406,35.124426],[133.673699,35.124363],[133.673489,35.124127],[133.673469,35.123891],[133.673569,35.123437],[133.673627,35.122765],[133.673554,35.12259],[133.673363,35.122572],[133.672667,35.123232],[133.672347,35.123422],[133.672017,35.123437],[133.669539,35.122359],[133.66897,35.121875],[133.668677,35.121228],[133.668605,35.119708],[133.668918,35.117798],[133.669431,35.117382],[133.670915,35.116464],[133.671749,35.115893],[133.672304,35.11559],[133.672271,35.114402],[133.672202,35.113756],[133.671874,35.112279],[133.671804,35.111641],[133.671852,35.111039],[133.672085,35.109783],[133.672279,35.109513],[133.672454,35.108825],[133.672812,35.107936],[133.673951,35.107628],[133.674759,35.107545],[133.675028,35.107162],[133.675901,35.105665],[133.67668,35.105215],[133.677309,35.104939],[133.678119,35.104647],[133.678736,35.104511],[133.680939,35.105291],[133.682432,35.106024],[133.682662,35.10647],[133.682883,35.106698],[133.683081,35.107206],[133.683272,35.107277],[133.686544,35.107285],[133.687071,35.10645],[133.688668,35.105996],[133.689139,35.105632],[133.689643,35.105041],[133.689762,35.104683],[133.690021,35.104179],[133.690256,35.104012],[133.690405,35.103145],[133.69072,35.102739],[133.691196,35.102486],[133.691304,35.102567],[133.691445,35.103534],[133.691727,35.1046],[133.692172,35.10565],[133.693008,35.105643],[133.693246,35.106023],[133.693634,35.107043],[133.693944,35.10818],[133.694561,35.109988],[133.695261,35.111854],[133.693995,35.11261],[133.690332,35.115448],[133.688258,35.116967],[133.688086,35.117237],[133.688073,35.117551],[133.688133,35.118023],[133.688426,35.118539],[133.688763,35.118969],[133.689322,35.11947],[133.689832,35.120817],[133.690627,35.122463],[133.690907,35.123302],[133.691087,35.12339],[133.691655,35.124188],[133.692372,35.124943],[133.69273,35.125302],[133.693079,35.125514],[133.693269,35.125742],[133.689207,35.128663],[133.686483,35.130438],[133.686557,35.13056],[133.689969,35.131801],[133.69049,35.13176],[133.693036,35.131084],[133.693439,35.131086],[133.694086,35.131334],[133.694783,35.131888],[133.695024,35.132334],[133.695256,35.132545],[133.695392,35.132842],[133.696024,35.133802],[133.696092,35.134374],[133.696531,35.135302],[133.69757,35.137018],[133.698266,35.137668],[133.698721,35.138002],[133.699223,35.139053],[133.699483,35.139726],[133.69982,35.140112],[133.700127,35.140315],[133.701049,35.140642],[133.701366,35.140897],[133.701291,35.141019],[133.700779,35.141243],[133.699689,35.141919],[133.699144,35.142335],[133.698865,35.142648],[133.696088,35.144458],[133.696378,35.14535],[133.696765,35.146234],[133.697043,35.147309],[133.697231,35.147747],[133.697241,35.14793],[133.696338,35.147847],[133.695954,35.148019],[133.695515,35.148436],[133.695076,35.150163],[133.694636,35.150736],[133.694703,35.151886],[133.695971,35.151712],[133.696876,35.151759],[133.697307,35.151999],[133.698159,35.152649],[133.698515,35.152718],[133.700764,35.15195],[133.701139,35.151773],[133.702112,35.151485],[133.704661,35.152238],[133.705167,35.152561],[133.70574,35.152815],[133.706649,35.152576],[133.707149,35.152343],[133.707987,35.15182],[133.708298,35.151785],[133.708495,35.15204],[133.708445,35.152582],[133.708162,35.153353],[133.707511,35.154662],[133.707518,35.154932],[133.707768,35.1553],[133.709412,35.156583],[133.710074,35.156927],[133.71039,35.157177],[133.711337,35.157608],[133.712148,35.15808],[133.71267,35.158264],[133.712821,35.158405],[133.712733,35.158627],[133.710925,35.160189],[133.709693,35.160916],[133.70964,35.161028],[133.709674,35.161138],[133.710024,35.161498],[133.710409,35.161666],[133.712731,35.161499],[133.713876,35.161553],[133.714346,35.161618],[133.715438,35.161612],[133.716907,35.161294],[133.717503,35.161291],[133.717376,35.162076],[133.717009,35.162831],[133.716572,35.16344],[133.716428,35.163713],[133.71642,35.163858],[133.718082,35.16435],[133.717279,35.164631],[133.716357,35.164684],[133.716884,35.165339],[133.71737,35.165766],[133.717904,35.166048],[133.719473,35.166693],[133.719882,35.167499],[133.720397,35.168261],[133.72079,35.168306],[133.722484,35.167887],[133.722716,35.168046],[133.722979,35.168457],[133.725112,35.170415],[133.726021,35.171135],[133.727683,35.172209],[133.7282,35.171882],[133.728805,35.171385],[133.729168,35.171186],[133.729372,35.170908],[133.729859,35.169749],[133.730139,35.169349],[133.730409,35.168791],[133.730209,35.168493],[133.729575,35.167984],[133.729352,35.167887],[133.728908,35.167579],[133.727583,35.167014],[133.726768,35.166486],[133.726075,35.165347],[133.725825,35.164604],[133.725672,35.163765],[133.725389,35.163266],[133.725345,35.162026],[133.725582,35.158674],[133.725138,35.158445],[133.723104,35.157724],[133.721561,35.157259],[133.719706,35.156528],[133.718384,35.155913],[133.716338,35.154556],[133.71533,35.153494],[133.714703,35.152756],[133.713989,35.151402],[133.713728,35.1506],[133.713583,35.149716],[133.713704,35.148763],[133.71414,35.147869],[133.714588,35.147242],[133.714995,35.146938],[133.715436,35.146461],[133.715776,35.145891],[133.715984,35.145311],[133.715646,35.144681],[133.715186,35.143479],[133.714513,35.140847],[133.714308,35.140432],[133.714153,35.13963],[133.714016,35.139441],[133.713242,35.139011],[133.712485,35.138431],[133.711932,35.137834],[133.711534,35.136945],[133.711282,35.136272],[133.710917,35.133905],[133.710883,35.133006],[133.711014,35.132736],[133.711178,35.132603],[133.711855,35.132965],[133.712192,35.133429],[133.712617,35.133872],[133.712164,35.13287],[133.712094,35.13232],[133.712072,35.131532],[133.71237,35.130125],[133.71261,35.12938],[133.713036,35.128555],[133.713235,35.127977],[133.713055,35.127195],[133.712913,35.126872],[133.712919,35.1264],[133.71311,35.126032],[133.713831,35.125419],[133.715346,35.124346],[133.716317,35.123553],[133.716707,35.123617],[133.719005,35.124485],[133.719388,35.124487],[133.72097,35.123264],[133.721028,35.123971],[133.721095,35.129306],[133.720592,35.132595],[133.720382,35.133598],[133.72142,35.134118],[133.72201,35.134776],[133.722389,35.135354],[133.72247,35.135783],[133.723604,35.136225],[133.724579,35.136675],[133.725118,35.137018],[133.725476,35.137518],[133.725869,35.137907],[133.726084,35.138603],[133.726524,35.139452],[133.72654,35.140186],[133.727293,35.141814],[133.727238,35.142163],[133.726968,35.142729],[133.727061,35.143017],[133.727314,35.143377],[133.727663,35.143588],[133.728865,35.143472],[133.729544,35.14358],[133.73031,35.14347],[133.731313,35.142951],[133.731642,35.142918],[133.731771,35.143954],[133.731847,35.144158],[133.732039,35.144404],[133.731867,35.145166],[133.731798,35.145961],[133.731922,35.146952],[133.732382,35.148119],[133.733252,35.149268],[133.733423,35.149432],[133.733726,35.149612],[133.733773,35.149719],[133.733767,35.149882],[133.733478,35.150548],[133.733362,35.150948],[133.733293,35.151736],[133.733224,35.151939],[133.732876,35.152559],[133.731922,35.153934],[133.731819,35.154261],[133.731472,35.154931],[133.731607,35.155287],[133.731552,35.155495],[133.731743,35.155716],[133.731676,35.155852],[133.731497,35.156031],[133.731502,35.156118],[133.731798,35.156639],[133.731237,35.156841],[133.730667,35.157214],[133.730393,35.157484],[133.730139,35.157979],[133.730081,35.158333],[133.729976,35.158605],[133.729996,35.158809],[133.730167,35.159338],[133.730126,35.160414],[133.730043,35.160735],[133.729927,35.160848],[133.73009,35.16115],[133.729396,35.162488],[133.729205,35.16265],[133.729042,35.162924],[133.72951,35.163579],[133.729729,35.163983],[133.729998,35.164116],[133.730464,35.164839],[133.73067,35.164941],[133.73114,35.165527],[133.731664,35.165871],[133.733146,35.166512],[133.73341,35.166739],[133.734188,35.167609],[133.734895,35.168531],[133.735012,35.168788],[133.735555,35.16964],[133.735648,35.170207],[133.73495,35.171092],[133.733533,35.173258],[133.733089,35.173467],[133.732264,35.173646],[133.731028,35.173996],[133.730447,35.174267],[133.729889,35.174737],[133.729651,35.175073],[133.729685,35.175149],[133.7296,35.175146],[133.729424,35.175401],[133.729353,35.175542],[133.729303,35.176008],[133.729243,35.176023],[133.72927,35.176264],[133.729402,35.176697],[133.729668,35.177089],[133.731455,35.178761],[133.731543,35.178762],[133.731679,35.178904],[133.732341,35.17924],[133.732715,35.179584],[133.733253,35.179774],[133.733399,35.179889],[133.733758,35.18038],[133.733928,35.180541],[133.734266,35.180687],[133.734786,35.180792],[133.73538,35.181132],[133.735333,35.181033],[133.735451,35.181178],[133.736237,35.181806],[133.737216,35.18226],[133.738272,35.182842],[133.738863,35.183333],[133.738979,35.183586],[133.738378,35.184863],[133.738116,35.185647],[133.736845,35.186851],[133.736363,35.187666],[133.736199,35.187866],[133.735884,35.188071],[133.735195,35.188353],[133.734764,35.188378],[133.734089,35.188281],[133.733594,35.188431],[133.732581,35.189575],[133.732584,35.189638],[133.732005,35.190241],[133.73178,35.19067],[133.731715,35.191131],[133.731768,35.191445],[133.732179,35.192353],[133.732276,35.192398],[133.732363,35.192531],[133.732489,35.192844],[133.733084,35.192675],[133.736225,35.192272],[133.737861,35.191954],[133.739076,35.191987],[133.740402,35.192419],[133.742263,35.192761],[133.746197,35.193298],[133.746282,35.195068],[133.746109,35.196571],[133.745842,35.197594],[133.749601,35.197758],[133.751124,35.197752],[133.751667,35.196637],[133.752403,35.195683],[133.753264,35.195341],[133.755841,35.195354],[133.757379,35.195494],[133.758915,35.196113],[133.759365,35.196541],[133.760043,35.196943],[133.761628,35.19743],[133.7625,35.197926],[133.763239,35.198754],[133.763544,35.199195],[133.764109,35.19957],[133.766799,35.199622],[133.768078,35.199735],[133.769711,35.200354],[133.771813,35.201042],[133.773388,35.201666],[133.773175,35.201735],[133.772913,35.201916],[133.772638,35.202295],[133.772528,35.202644],[133.772536,35.202811],[133.772833,35.203494],[133.772753,35.203965],[133.772769,35.204396],[133.772419,35.205253],[133.772441,35.205503],[133.772594,35.205942],[133.772732,35.206001],[133.77332,35.206079],[133.773727,35.206252],[133.774715,35.206413],[133.775049,35.20655],[133.775624,35.206998],[133.776067,35.207257],[133.776481,35.2074],[133.77667,35.207519],[133.777273,35.20898],[133.777883,35.209374],[133.77829,35.209794],[133.778545,35.209908],[133.778893,35.210236],[133.779448,35.211066],[133.779642,35.211494],[133.779744,35.211613],[133.780259,35.211914],[133.781211,35.212612],[133.781349,35.212738],[133.781435,35.212953],[133.781327,35.213674],[133.781194,35.21412],[133.780652,35.21506],[133.780317,35.215496],[133.779816,35.216014],[133.779547,35.216211],[133.77914,35.216363],[133.779004,35.216491],[133.779017,35.216983],[133.778719,35.217604],[133.778523,35.219081],[133.77837,35.219415],[133.778142,35.219635],[133.778036,35.21988],[133.777934,35.220489],[133.777939,35.220636],[133.778232,35.221121],[133.778334,35.221485],[133.778363,35.221777],[133.778326,35.222138],[133.778392,35.222275],[133.778558,35.222436],[133.778801,35.222458],[133.779149,35.222372],[133.779738,35.222345],[133.780137,35.222219],[133.782034,35.221188],[133.78388,35.220535],[133.784803,35.220302],[133.785667,35.220231],[133.786445,35.220046],[133.786641,35.219897],[133.786764,35.219563],[133.787055,35.219246],[133.787564,35.218835],[133.788087,35.218516],[133.788661,35.21826],[133.789301,35.218063],[133.78986,35.217806],[133.790819,35.217628],[133.791822,35.217321],[133.792715,35.217285],[133.79422,35.216975],[133.794852,35.216659],[133.795193,35.216435],[133.796356,35.216101],[133.798688,35.214822],[133.799451,35.214494],[133.799713,35.214428],[133.800047,35.214446],[133.800737,35.214721],[133.801043,35.214694],[133.801849,35.214479],[133.802116,35.214468],[133.802293,35.214521],[133.802438,35.215004],[133.802561,35.215141],[133.802932,35.215332],[133.803784,35.215527],[133.804036,35.21563],[133.804545,35.215958],[133.804966,35.216104],[133.805352,35.216368],[133.80633,35.217377],[133.806905,35.218218],[133.807088,35.218576],[133.807829,35.219233],[133.808113,35.219745],[133.808301,35.219835],[133.809377,35.219707],[133.810082,35.219444],[133.812537,35.219024],[133.812836,35.218869],[133.813722,35.218063],[133.814035,35.21792],[133.814849,35.217825],[133.815081,35.217864],[133.815822,35.218162],[133.816287,35.218255],[133.816478,35.218182],[133.81693,35.217646],[133.817416,35.217372],[133.817765,35.217078],[133.818144,35.216547],[133.818868,35.215879],[133.819232,35.215655],[133.819629,35.215267],[133.81987,35.21521],[133.820623,35.218133],[133.821461,35.219769],[133.821856,35.220396],[133.822308,35.221496],[133.822465,35.222033],[133.82259,35.222932],[133.823184,35.224702],[133.824012,35.226716],[133.82429,35.227237],[133.824933,35.22824],[133.825466,35.228947],[133.826302,35.229574],[133.827548,35.230182],[133.828052,35.230318],[133.828629,35.230285],[133.829651,35.230572],[133.829829,35.230686],[133.829516,35.233523],[133.82916,35.235073],[133.829002,35.236405],[133.82905,35.236474],[133.82987,35.236272],[133.83237,35.236405],[133.833226,35.236169],[133.83402,35.236067],[133.835055,35.236042],[133.837202,35.236345],[133.837173,35.236457],[133.836327,35.236837],[133.835814,35.237255],[133.835562,35.237885],[133.835553,35.238508],[133.835111,35.238896],[133.834757,35.23909],[133.834579,35.239919],[133.834324,35.240454],[133.832901,35.241104],[133.832577,35.241326],[133.832094,35.241769],[133.831811,35.242124],[133.831547,35.242801],[133.83117,35.243437],[133.830653,35.243951],[133.829749,35.244525],[133.829535,35.244729],[133.828869,35.245685],[133.827814,35.246122],[133.827038,35.246596],[133.826545,35.24694],[133.825957,35.247601],[133.825994,35.247566],[133.826949,35.247492],[133.82727,35.247093],[133.828237,35.246481],[133.828676,35.246396],[133.829356,35.246347],[133.829717,35.246383],[133.830065,35.246187],[133.830314,35.245909],[133.83128,35.245385],[133.831897,35.245254],[133.832994,35.245264],[133.83388,35.2451],[133.834002,35.244787],[133.834218,35.24464],[133.83438,35.244353],[133.835133,35.243909],[133.835643,35.243806],[133.836578,35.243798],[133.837143,35.243923],[133.837743,35.244221],[133.838321,35.244595],[133.838518,35.244886],[133.838687,35.245003],[133.838828,35.244998],[133.839127,35.244767],[133.83973,35.244514],[133.840283,35.244412],[133.841026,35.244397],[133.84203,35.244616],[133.842432,35.244827],[133.843108,35.245486],[133.843162,35.245846],[133.843656,35.246092],[133.844732,35.246108],[133.845867,35.245752],[133.846561,35.245691],[133.847198,35.245711],[133.847735,35.245818],[133.848569,35.246123],[133.849288,35.246591],[133.849788,35.246982],[133.850337,35.24764],[133.850568,35.248053],[133.850607,35.248628],[133.850562,35.249011],[133.850426,35.249348],[133.852939,35.249778],[133.853561,35.249966],[133.854105,35.250259],[133.854414,35.250533],[133.854791,35.250354],[133.855266,35.250229],[133.855832,35.250208],[133.856455,35.250274],[133.857641,35.250714],[133.859026,35.251132],[133.859563,35.251453],[133.859781,35.251716],[133.859958,35.251699],[133.860377,35.251387],[133.860909,35.251186],[133.86149,35.251089],[133.862227,35.251069],[133.862694,35.251111],[133.863259,35.251317],[133.863823,35.251685],[133.864302,35.25214],[133.864449,35.25246],[133.864624,35.252669],[133.864713,35.253239],[133.864709,35.253941],[133.865547,35.254676],[133.865884,35.255235],[133.865939,35.255549],[133.866166,35.25548],[133.866365,35.255243],[133.866855,35.255047],[133.867259,35.254962],[133.868512,35.254984],[133.869928,35.254937],[133.870524,35.255097],[133.871319,35.255414],[133.872003,35.25606],[133.872208,35.256043],[133.872899,35.255407],[133.873531,35.255078],[133.873878,35.254946],[133.874523,35.254827],[133.874631,35.254467],[133.875159,35.253865],[133.875528,35.253605],[133.876088,35.253307],[133.876444,35.25322],[133.8763,35.252371],[133.876323,35.251959],[133.87669,35.250851],[133.876891,35.250504],[133.877206,35.249738],[133.877533,35.249178],[133.8774,35.248951],[133.877226,35.248306],[133.87725,35.247917],[133.87748,35.247244],[133.877645,35.246937],[133.878115,35.246282],[133.878286,35.246126],[133.879909,35.245795],[133.8809,35.245724],[133.8817,35.24582],[133.882928,35.24644],[133.883774,35.247012],[133.883155,35.247701],[133.88265,35.248152],[133.8827,35.249284],[133.882641,35.249714],[133.88234,35.250322],[133.881941,35.250832],[133.881668,35.251592],[133.881417,35.25209],[133.882354,35.252924],[133.882493,35.253453],[133.882803,35.253715],[133.883233,35.253984],[133.883939,35.254306],[133.884222,35.254499],[133.884967,35.255477],[133.885138,35.257713],[133.885221,35.258114],[133.886174,35.258612],[133.887466,35.259122],[133.8883,35.258968],[133.888601,35.258855],[133.888856,35.258842],[133.889441,35.259039],[133.88988,35.259267],[133.892376,35.259752],[133.892611,35.259764],[133.892665,35.258325],[133.892755,35.258152],[133.893088,35.257846],[133.893333,35.257421],[133.893375,35.256905],[133.893479,35.256586],[133.89349,35.256117],[133.893663,35.255378],[133.894206,35.254428],[133.8944,35.254309],[133.894538,35.254341],[133.895389,35.254948],[133.896887,35.255624],[133.897262,35.255683],[133.897433,35.255498],[133.897526,35.255233],[133.897487,35.254697],[133.897333,35.254292],[133.89737,35.254052],[133.897505,35.253959],[133.897492,35.253408],[133.897729,35.253107],[133.898738,35.252321],[133.89873,35.251818],[133.898848,35.251665],[133.898975,35.25163],[133.899023,35.251468],[133.899042,35.251183],[133.898845,35.25047],[133.899133,35.250005],[133.899111,35.249055],[133.899345,35.248798],[133.899347,35.248317],[133.899511,35.248015],[133.89955,35.247789],[133.899507,35.247062],[133.899885,35.246223],[133.900152,35.246095],[133.905022,35.245996],[133.90507,35.245823],[133.904939,35.244404],[133.904983,35.243878],[133.905319,35.243396],[133.905709,35.243088],[133.906055,35.242566],[133.906211,35.242022],[133.906179,35.241041],[133.906057,35.240089],[133.905916,35.239683],[133.906164,35.239325],[133.907008,35.238666],[133.908503,35.238023],[133.909252,35.237518],[133.910298,35.236974],[133.911461,35.236577],[133.912134,35.236562],[133.913656,35.238671],[133.915368,35.240768],[133.917215,35.243339],[133.917978,35.244292],[133.918115,35.244605],[133.918411,35.244946],[133.918571,35.245047],[133.918695,35.245441],[133.919332,35.246129],[133.919917,35.246913],[133.920082,35.247235],[133.920412,35.247549],[133.92043,35.247763],[133.920062,35.248463],[133.91984,35.249915],[133.919641,35.25018],[133.919238,35.25047],[133.918793,35.250635],[133.917835,35.250849],[133.916356,35.251416],[133.915312,35.252126],[133.914053,35.252713],[133.912716,35.253059],[133.912189,35.253293],[133.911628,35.253618],[133.910775,35.254489],[133.909886,35.254931],[133.909112,35.255164],[133.908799,35.25519],[133.908463,35.255344],[133.908079,35.255337],[133.910745,35.255901],[133.913128,35.256548],[133.913771,35.256771],[133.914004,35.256922],[133.915488,35.25738],[133.917297,35.258078],[133.918434,35.258639],[133.919415,35.259241],[133.920936,35.260363],[133.921199,35.260664],[133.921439,35.260844],[133.921904,35.261189],[133.922335,35.261434],[133.923428,35.262291],[133.923618,35.262513],[133.923913,35.262656],[133.925285,35.262994],[133.925321,35.263338],[133.92577,35.264327],[133.925992,35.264471],[133.926783,35.265544],[133.926834,35.265738],[133.926834,35.266064],[133.926608,35.266569],[133.926335,35.266968],[133.92617,35.267103],[133.925959,35.267123],[133.925275,35.267004],[133.924759,35.267203],[133.924673,35.267686],[133.924713,35.268106],[133.925291,35.269566],[133.925008,35.270334],[133.924552,35.270941],[133.924488,35.271062],[133.924483,35.271206],[133.924632,35.271388],[133.925068,35.271646],[133.926273,35.272081],[133.926862,35.272582],[133.92745,35.272805],[133.927785,35.272877],[133.928027,35.273329],[133.928125,35.273732],[133.927988,35.274251],[133.927146,35.275628],[133.9259,35.276184],[133.92574,35.276319],[133.925086,35.277806],[133.925068,35.277951],[133.923576,35.278639],[133.922777,35.278409],[133.921342,35.278178],[133.919987,35.278256],[133.919671,35.278761],[133.919491,35.278925],[133.918588,35.279233],[133.918395,35.279233],[133.917479,35.279022],[133.916737,35.278623],[133.916017,35.278467],[133.915294,35.278659],[133.915014,35.278623],[133.914554,35.27838],[133.91423,35.278325],[133.913199,35.277637],[133.913028,35.27761],[133.912584,35.277898],[133.91249,35.278287],[133.911972,35.279783],[133.911477,35.280966],[133.911157,35.281383],[133.9109,35.281603],[133.910055,35.282157],[133.909436,35.282701],[133.909158,35.28299],[133.908944,35.28339],[133.907176,35.288326],[133.907159,35.288738],[133.909163,35.288797],[133.909579,35.288853],[133.910222,35.289064],[133.910865,35.289374],[133.911643,35.289667],[133.913694,35.290151],[133.913679,35.29029],[133.913502,35.290382],[133.913337,35.290684],[133.91303,35.291287],[133.912728,35.292052],[133.912585,35.292284],[133.912436,35.292382],[133.912201,35.29273],[133.911438,35.293604],[133.911145,35.294096],[133.910544,35.295238],[133.910414,35.295781],[133.910636,35.295943],[133.911066,35.296044],[133.911592,35.296335],[133.911951,35.296728],[133.912901,35.297234],[133.91302,35.297064],[133.913225,35.296553],[133.913531,35.295443],[133.913631,35.294607],[133.91376,35.294281],[133.913733,35.293288],[133.91657,35.293245],[133.917751,35.29304],[133.918465,35.292837],[133.91928,35.292453],[133.919445,35.292481],[133.919867,35.292947],[133.920286,35.293242],[133.920478,35.293495],[133.921527,35.294361],[133.921753,35.294436],[133.921889,35.294579],[133.921834,35.294726],[133.921429,35.295061],[133.920981,35.295309],[133.920775,35.295396],[133.919414,35.295681],[133.91874,35.295946],[133.91854,35.296195],[133.918546,35.296509],[133.918714,35.296904],[133.919857,35.29771],[133.920505,35.298513],[133.920693,35.299077],[133.920876,35.299356],[133.920951,35.299804],[133.92105,35.301291],[133.921978,35.301265],[133.922248,35.30119],[133.922476,35.300814],[133.92333,35.300102],[133.92399,35.299826],[133.924169,35.299455],[133.924453,35.299235],[133.924702,35.299189],[133.925119,35.299214],[133.925479,35.299442],[133.925933,35.299478],[133.926217,35.299194],[133.926439,35.298858],[133.927374,35.298815],[133.927657,35.298921],[133.927897,35.299084],[133.928392,35.29919],[133.928544,35.301438],[133.928677,35.301671],[133.929583,35.301877],[133.930482,35.301938],[133.932134,35.301711],[133.932754,35.302346],[133.933218,35.302963],[133.933395,35.303103],[133.933591,35.303528],[133.933809,35.303801],[133.933871,35.304197],[133.933573,35.304317],[133.932932,35.3047],[133.932441,35.305125],[133.932013,35.305725],[133.931916,35.306055],[133.931913,35.306639],[133.932315,35.309053],[133.932494,35.30948],[133.933067,35.311817],[133.933235,35.312192],[133.933254,35.312627],[133.933299,35.312656],[133.93395,35.312068],[133.934805,35.310676],[133.936003,35.309372],[133.936598,35.307969],[133.937248,35.306838],[133.937889,35.306196],[133.938216,35.305988],[133.938701,35.305322],[133.939397,35.303361],[133.939818,35.302811],[133.94014,35.302255],[133.94041,35.301954],[133.940787,35.301734],[133.941241,35.301567],[133.941595,35.301464],[133.942977,35.301474],[133.944024,35.301727],[133.945057,35.301841],[133.945815,35.301843],[133.947176,35.301679],[133.948147,35.3017],[133.948819,35.301801],[133.950622,35.302503],[133.950897,35.30273],[133.951914,35.303396],[133.953332,35.304602],[133.953862,35.304935],[133.954604,35.30528],[133.955135,35.305398],[133.956105,35.305424],[133.956517,35.305309],[133.958144,35.30424],[133.957826,35.303977],[133.957488,35.303593],[133.957066,35.302895],[133.957011,35.302686],[133.957126,35.302291],[133.957382,35.301944],[133.957419,35.301671],[133.957224,35.300921],[133.956929,35.300438],[133.956738,35.300275],[133.955981,35.300151],[133.955713,35.300005],[133.955487,35.299754],[133.955327,35.299249],[133.955292,35.298987],[133.95584,35.298571],[133.955919,35.298339],[133.955975,35.296771],[133.955905,35.296608],[133.955221,35.296002],[133.955248,35.295649],[133.955421,35.295595],[133.955889,35.295191],[133.956132,35.295105],[133.956356,35.295111],[133.957128,35.295317],[133.95754,35.295353],[133.957971,35.295219],[133.958174,35.295099],[133.958681,35.294574],[133.958865,35.293564],[133.958911,35.29341],[133.959104,35.293115],[133.960416,35.291921],[133.961051,35.291474],[133.961631,35.29117],[133.961861,35.291101],[133.962445,35.29113],[133.962751,35.291237],[133.96303,35.291465],[133.96323,35.291544],[133.963853,35.291569],[133.964195,35.291473],[133.964461,35.29132],[133.965203,35.290665],[133.965603,35.29041],[133.965816,35.290341],[133.966104,35.290329],[133.967261,35.290827],[133.96763,35.291136],[133.968124,35.291444],[133.968926,35.291428],[133.969638,35.291716],[133.970013,35.291813],[133.971257,35.291916],[133.971681,35.292095],[133.972376,35.292524],[133.972692,35.29261],[133.975677,35.292582],[133.976208,35.292613],[133.976751,35.292837],[133.977294,35.293226],[133.977957,35.293545],[133.979138,35.293615],[133.980834,35.29425],[133.981181,35.294449],[133.981153,35.294894],[133.979911,35.295728],[133.978264,35.296671],[133.977034,35.297315],[133.97638,35.297495],[133.975869,35.297532],[133.974873,35.297278],[133.974477,35.297248],[133.974038,35.297276],[133.973618,35.297377],[133.973052,35.297961],[133.97259,35.298792],[133.972191,35.299725],[133.971938,35.300996],[133.971458,35.302034],[133.971263,35.302344],[133.970857,35.302574],[133.970274,35.302561],[133.969318,35.30229],[133.968804,35.30203],[133.968094,35.301883],[133.967574,35.301982],[133.967143,35.30229],[133.966897,35.302721],[133.966908,35.302968],[133.96719,35.303447],[133.968659,35.304358],[133.969131,35.304714],[133.969484,35.305078],[133.969826,35.305617],[133.970089,35.306405],[133.970063,35.307037],[133.970097,35.307414],[133.970225,35.307761],[133.970664,35.308255],[133.971335,35.308771],[133.973519,35.309635],[133.97378,35.309869],[133.973836,35.310022],[133.973817,35.310254],[133.97371,35.31048],[133.973305,35.310682],[133.972294,35.31094],[133.971783,35.311296],[133.97126,35.311766],[133.970362,35.312327],[133.969816,35.312902],[133.969634,35.313429],[133.969747,35.313963],[133.970148,35.314377],[133.970863,35.315374],[133.97117,35.315956],[133.971414,35.316221],[133.971609,35.316799],[133.971958,35.31728],[133.972527,35.31849],[133.972682,35.318566],[133.972766,35.318868],[133.97297,35.319141],[133.973056,35.319429],[133.9734,35.31974],[133.974082,35.320956],[133.974416,35.321312],[133.974811,35.321557],[133.975884,35.321997],[133.976719,35.32214],[133.978835,35.322839],[133.980348,35.323536],[133.980884,35.324165],[133.981116,35.32452],[133.981108,35.324665],[133.980952,35.324687],[133.980244,35.324598],[133.979565,35.324399],[133.978044,35.323761],[133.977734,35.323676],[133.977333,35.323399],[133.975688,35.322795],[133.974208,35.322438],[133.973313,35.322096],[133.971792,35.321711],[133.971334,35.321508],[133.970098,35.32127],[133.969702,35.321251],[133.969418,35.321308],[133.969271,35.321622],[133.969353,35.322344],[133.970298,35.32472],[133.970692,35.325294],[133.970824,35.325607],[133.971212,35.326021],[133.97234,35.326863],[133.973272,35.327673],[133.973314,35.327836],[133.973199,35.328201],[133.972602,35.329191],[133.972233,35.329572],[133.971895,35.329823],[133.971477,35.329973],[133.970931,35.329977],[133.970029,35.330143],[133.969547,35.330472],[133.968524,35.331015],[133.967052,35.331404],[133.965907,35.332156]]],[[[133.977864,35.277855],[133.976934,35.278201],[133.97665,35.278409],[133.976317,35.278507],[133.974985,35.278601],[133.974865,35.281731],[133.974907,35.281807],[133.975699,35.282215],[133.975775,35.282483],[133.975837,35.283058],[133.975855,35.28361],[133.97567,35.283864],[133.975521,35.28394],[133.975349,35.284334],[133.975115,35.28442],[133.974859,35.284646],[133.974695,35.284895],[133.974418,35.285092],[133.974247,35.285359],[133.974077,35.285375],[133.973801,35.285328],[133.973653,35.285171],[133.973193,35.285129],[133.971885,35.28462],[133.971425,35.284514],[133.970823,35.284454],[133.970317,35.283645],[133.97029,35.283384],[133.969732,35.281478],[133.969636,35.280746],[133.970104,35.280654],[133.970317,35.280533],[133.970339,35.280318],[133.970292,35.279789],[133.970056,35.278772],[133.969867,35.278174],[133.969579,35.277703],[133.969206,35.277248],[133.968754,35.276846],[133.966113,35.275276],[133.966646,35.274866],[133.966916,35.274716],[133.967456,35.274224],[133.967578,35.273957],[133.967322,35.268456],[133.967401,35.268195],[133.967551,35.268085],[133.968407,35.2681],[133.969561,35.268248],[133.969894,35.268104],[133.970335,35.267774],[133.97051,35.26742],[133.97053,35.266335],[133.970404,35.266074],[133.970381,35.265739],[133.971073,35.265358],[133.971349,35.265018],[133.971668,35.264797],[133.971893,35.264458],[133.971464,35.264274],[133.970717,35.263723],[133.970147,35.263042],[133.969832,35.262471],[133.968818,35.259201],[133.968335,35.258692],[133.967529,35.25825],[133.966636,35.25766],[133.965718,35.256942],[133.965274,35.256465],[133.964491,35.2554],[133.964155,35.25442],[133.963711,35.2521],[133.96385,35.250684],[133.964273,35.249104],[133.964492,35.248526],[133.964564,35.248112],[133.964516,35.247896],[133.96413,35.247163],[133.963419,35.246597],[133.962812,35.246203],[133.962593,35.245961],[133.96219,35.245708],[133.961158,35.244881],[133.960141,35.244399],[133.959813,35.244128],[133.958478,35.243479],[133.957852,35.243259],[133.956635,35.242515],[133.956297,35.242044],[133.956003,35.241337],[133.955668,35.240282],[133.954588,35.239634],[133.952862,35.238706],[133.95227,35.238268],[133.951943,35.23784],[133.95149,35.237003],[133.951207,35.236227],[133.950686,35.234082],[133.950298,35.233053],[133.949384,35.231064],[133.948763,35.230017],[133.948319,35.229415],[133.948099,35.228978],[133.946578,35.227188],[133.94587,35.226532],[133.944886,35.225876],[133.943902,35.225341],[133.942894,35.225068],[133.94264,35.224884],[133.941718,35.224672],[133.939441,35.224433],[133.937991,35.224454],[133.936425,35.224658],[133.934719,35.225025],[133.933827,35.225435],[133.932672,35.225843],[133.931523,35.226009],[133.930504,35.226492],[133.929539,35.226801],[133.928007,35.227001],[133.927087,35.227189],[133.926954,35.227284],[133.927068,35.227665],[133.927891,35.229404],[133.928033,35.229885],[133.927931,35.230041],[133.927374,35.230523],[133.926921,35.231286],[133.926819,35.231608],[133.926375,35.231923],[133.925995,35.231978],[133.925159,35.231918],[133.923878,35.232092],[133.923692,35.232073],[133.923241,35.231917],[133.922933,35.231724],[133.922457,35.231182],[133.921549,35.23001],[133.921203,35.229329],[133.920717,35.227576],[133.92053,35.226693],[133.920257,35.225926],[133.920219,35.225697],[133.919939,35.225654],[133.919698,35.225447],[133.919058,35.225321],[133.918787,35.225321],[133.918402,35.225423],[133.917776,35.225703],[133.917334,35.225978],[133.916557,35.226645],[133.916158,35.227061],[133.915566,35.228051],[133.914856,35.228662],[133.913413,35.229228],[133.913214,35.229154],[133.911932,35.22764],[133.9108,35.226516],[133.910381,35.225951],[133.909254,35.224681],[133.908458,35.223875],[133.907408,35.222678],[133.90733,35.222508],[133.907422,35.222309],[133.909462,35.220621],[133.909823,35.220374],[133.910104,35.220037],[133.910532,35.219702],[133.91143,35.218694],[133.911428,35.21859],[133.910644,35.217863],[133.909283,35.21623],[133.909037,35.215597],[133.908929,35.214855],[133.909059,35.214278],[133.909042,35.213971],[133.908951,35.21386],[133.907973,35.213236],[133.90786,35.213065],[133.907931,35.212757],[133.908317,35.212281],[133.908365,35.21213],[133.907744,35.211601],[133.907428,35.21092],[133.907323,35.210276],[133.907041,35.209445],[133.906778,35.209132],[133.906059,35.207914],[133.906093,35.207813],[133.906603,35.207493],[133.907325,35.207264],[133.907685,35.207064],[133.909745,35.206506],[133.910756,35.206339],[133.913711,35.20605],[133.914361,35.205913],[133.914871,35.205753],[133.916539,35.204867],[133.917233,35.204585],[133.917496,35.20454],[133.918137,35.204906],[133.919408,35.205499],[133.921189,35.206041],[133.92151,35.206027],[133.92197,35.206199],[133.923716,35.206167],[133.924597,35.206214],[133.926824,35.206622],[133.927872,35.207043],[133.927891,35.207479],[133.92771,35.207725],[133.92776,35.207798],[133.928085,35.20791],[133.928739,35.208008],[133.930075,35.207678],[133.930717,35.207632],[133.93187,35.207632],[133.933145,35.207738],[133.933663,35.207616],[133.934252,35.207354],[133.935051,35.206647],[133.935191,35.206333],[133.935569,35.205898],[133.935668,35.205611],[133.936657,35.20436],[133.936924,35.203923],[133.937395,35.203413],[133.937707,35.203196],[133.937946,35.20287],[133.938537,35.202493],[133.940112,35.201238],[133.940794,35.200844],[133.941609,35.200258],[133.941778,35.200075],[133.945147,35.197747],[133.945615,35.197505],[133.945665,35.195955],[133.947257,35.195864],[133.947411,35.194697],[133.94704,35.19467],[133.94675,35.193153],[133.946752,35.192788],[133.947315,35.192545],[133.947411,35.192424],[133.947084,35.19197],[133.946777,35.192004],[133.945682,35.192392],[133.945492,35.192069],[133.943876,35.192743],[133.943034,35.191277],[133.943067,35.191147],[133.944012,35.190923],[133.946582,35.190496],[133.946543,35.189834],[133.944431,35.190001],[133.943083,35.189893],[133.941952,35.189148],[133.941222,35.18858],[133.937905,35.185529],[133.935468,35.182751],[133.934839,35.181914],[133.934559,35.181402],[133.934546,35.181228],[133.934717,35.180845],[133.93503,35.18048],[133.936067,35.179665],[133.937259,35.178827],[133.9385,35.17825],[133.939711,35.177917],[133.941234,35.177423],[133.94229,35.176846],[133.942447,35.17666],[133.942909,35.176353],[133.943122,35.176084],[133.943561,35.175845],[133.944562,35.175163],[133.945307,35.174573],[133.945726,35.174151],[133.945905,35.17382],[133.946332,35.173258],[133.946404,35.173032],[133.946421,35.172347],[133.946306,35.171266],[133.946513,35.170855],[133.947071,35.17061],[133.947364,35.170404],[133.947718,35.170301],[133.94805,35.170285],[133.948797,35.170821],[133.949052,35.170898],[133.949284,35.171061],[133.949765,35.171173],[133.950117,35.171534],[133.950221,35.171807],[133.950439,35.172092],[133.950549,35.172761],[133.950548,35.173063],[133.950937,35.173012],[133.951143,35.172896],[133.951829,35.172736],[133.953132,35.172519],[133.95328,35.172531],[133.953804,35.173368],[133.954152,35.174325],[133.955153,35.176117],[133.955632,35.177269],[133.956041,35.178059],[133.956435,35.178477],[133.957582,35.178821],[133.961496,35.179469],[133.963135,35.179893],[133.964682,35.180124],[133.96563,35.180201],[133.966601,35.180392],[133.966763,35.180462],[133.967006,35.18078],[133.967245,35.181393],[133.967522,35.182497],[133.96761,35.183235],[133.967608,35.184026],[133.96746,35.184815],[133.966858,35.186479],[133.966589,35.186811],[133.966421,35.187165],[133.966187,35.187907],[133.966226,35.188225],[133.965999,35.188639],[133.965785,35.189425],[133.965145,35.190474],[133.964436,35.191364],[133.964015,35.192444],[133.963849,35.193169],[133.963854,35.193651],[133.964283,35.194233],[133.965043,35.195031],[133.966036,35.195963],[133.966747,35.196796],[133.96688,35.197081],[133.967198,35.19732],[133.967367,35.197506],[133.967429,35.197698],[133.967599,35.197797],[133.968021,35.198339],[133.968697,35.199084],[133.968972,35.199253],[133.969211,35.199585],[133.969599,35.199847],[133.969732,35.200068],[133.969873,35.200197],[133.970325,35.200465],[133.970408,35.200715],[133.970782,35.200954],[133.972676,35.203174],[133.973224,35.203907],[133.973333,35.205034],[133.973336,35.20587],[133.973207,35.207833],[133.9731,35.208123],[133.973105,35.208535],[133.972347,35.208841],[133.97202,35.209025],[133.971113,35.209348],[133.970468,35.209671],[133.970523,35.210031],[133.970901,35.210915],[133.971041,35.211183],[133.971668,35.211963],[133.972838,35.212959],[133.973812,35.21356],[133.975599,35.214251],[133.976306,35.214421],[133.978392,35.21466],[133.979291,35.21468],[133.980331,35.214625],[133.980819,35.214545],[133.981727,35.21424],[133.983399,35.213519],[133.983548,35.213491],[133.983724,35.213561],[133.984006,35.213858],[133.985988,35.213765],[133.986384,35.213871],[133.986444,35.214754],[133.986618,35.215428],[133.986864,35.215812],[133.987308,35.216237],[133.985819,35.216744],[133.984663,35.217379],[133.984308,35.217622],[133.983677,35.217928],[133.98277,35.218332],[133.98165,35.218747],[133.980701,35.218935],[133.979943,35.21902],[133.977528,35.219524],[133.97655,35.219806],[133.975361,35.219849],[133.974873,35.219807],[133.973248,35.219361],[133.972236,35.219224],[133.97126,35.219262],[133.971271,35.219825],[133.9714,35.220731],[133.971451,35.221573],[133.971356,35.222702],[133.971239,35.223154],[133.97074,35.224137],[133.970111,35.224937],[133.96947,35.225442],[133.968569,35.225924],[133.967271,35.226519],[133.96671,35.226705],[133.965755,35.227186],[133.965355,35.227536],[133.964923,35.229275],[133.964675,35.229749],[133.964635,35.23005],[133.964163,35.230728],[133.963375,35.232311],[133.962866,35.233],[133.962759,35.233221],[133.963443,35.233655],[133.96377,35.234047],[133.964182,35.234353],[133.964733,35.23489],[133.96537,35.235836],[133.965774,35.236659],[133.96614,35.236949],[133.967814,35.237972],[133.969488,35.239197],[133.970499,35.240037],[133.971938,35.241015],[133.973025,35.242027],[133.973382,35.242564],[133.973697,35.242832],[133.974429,35.244209],[133.97515,35.246407],[133.975254,35.247826],[133.975061,35.24903],[133.974833,35.250034],[133.974689,35.25034],[133.974665,35.250715],[133.974526,35.251078],[133.974505,35.25163],[133.976709,35.251504],[133.977667,35.251614],[133.978946,35.251919],[133.979524,35.252185],[133.979897,35.252258],[133.980418,35.252513],[133.981269,35.253029],[133.981625,35.253361],[133.98209,35.253665],[133.982377,35.254006],[133.982621,35.254139],[133.984567,35.254009],[133.985527,35.253838],[133.987578,35.253833],[133.988085,35.253908],[133.989496,35.253875],[133.99031,35.253982],[133.991322,35.253973],[133.991832,35.253893],[133.99211,35.25379],[133.993404,35.252821],[133.994529,35.252292],[133.994602,35.251845],[133.995347,35.250193],[133.995504,35.249624],[133.995476,35.248403],[133.995169,35.247616],[133.995131,35.247189],[133.995729,35.246519],[133.998113,35.245125],[133.999379,35.244119],[133.999635,35.243796],[133.99966,35.243543],[133.999515,35.243074],[133.998511,35.241538],[133.998308,35.241003],[133.998265,35.239249],[133.999014,35.237886],[133.999562,35.23711],[134.000735,35.235859],[134.000978,35.235371],[134.001141,35.235262],[134.001604,35.234496],[134.002131,35.233778],[134.003132,35.232892],[134.003765,35.232261],[134.003872,35.231953],[134.004748,35.230777],[134.005066,35.230019],[134.005114,35.230281],[134.005193,35.230436],[134.006009,35.231018],[134.006262,35.231302],[134.00683,35.231749],[134.007425,35.232004],[134.008327,35.232097],[134.008765,35.232222],[134.010583,35.233445],[134.011183,35.233754],[134.011558,35.233819],[134.011696,35.233945],[134.011735,35.234],[134.011678,35.234123],[134.01168,35.234594],[134.0116,35.235032],[134.011471,35.235345],[134.012037,35.236513],[134.012162,35.236638],[134.012396,35.236637],[134.012561,35.23654],[134.012586,35.23628],[134.012682,35.236174],[134.012895,35.236147],[134.013154,35.236235],[134.013252,35.236384],[134.013351,35.237063],[134.013492,35.237407],[134.013162,35.238018],[134.012529,35.238939],[134.011718,35.24],[134.011582,35.240266],[134.013107,35.240463],[134.014914,35.240466],[134.015026,35.240606],[134.015339,35.24143],[134.01539,35.241693],[134.015278,35.241806],[134.011493,35.242897],[134.010718,35.243261],[134.010533,35.243413],[134.010504,35.244078],[134.010641,35.245263],[134.011907,35.245481],[134.012402,35.245703],[134.013265,35.246938],[134.013634,35.24735],[134.01417,35.248196],[134.014295,35.248554],[134.014161,35.2492],[134.013438,35.250408],[134.012865,35.250756],[134.012231,35.250809],[134.010703,35.250645],[134.009802,35.250428],[134.009359,35.250053],[134.009167,35.249967],[134.008644,35.250118],[134.007931,35.250493],[134.00751,35.250971],[134.007251,35.251446],[134.006888,35.252366],[134.006818,35.252908],[134.006861,35.253055],[134.008447,35.254049],[134.009113,35.254554],[134.009532,35.255586],[134.009787,35.256007],[134.011321,35.25682],[134.012089,35.25743],[134.012502,35.258168],[134.012937,35.259436],[134.013334,35.259963],[134.013984,35.260373],[134.014883,35.260786],[134.017893,35.261938],[134.018385,35.262237],[134.018834,35.262393],[134.019997,35.262949],[134.020251,35.263107],[134.0212,35.264021],[134.021649,35.264333],[134.021905,35.264643],[134.022225,35.264859],[134.022946,35.265597],[134.022972,35.265705],[134.022924,35.265806],[134.020483,35.266896],[134.018802,35.26738],[134.017935,35.267417],[134.017347,35.267265],[134.015483,35.266359],[134.015167,35.266721],[134.014216,35.267313],[134.013551,35.26761],[134.013192,35.267881],[134.012682,35.268062],[134.011988,35.268505],[134.011565,35.268696],[134.011382,35.268978],[134.011184,35.269129],[134.010849,35.2696],[134.010661,35.270023],[134.010166,35.270614],[134.009732,35.27084],[134.00895,35.271029],[134.008496,35.271276],[134.008123,35.27135],[134.007725,35.271541],[134.007454,35.271744],[134.007133,35.272171],[134.00709,35.272374],[134.007175,35.272552],[134.007395,35.272808],[134.008228,35.273281],[134.008667,35.2733],[134.009644,35.2737],[134.009957,35.273963],[134.010287,35.274495],[134.010343,35.274699],[134.010324,35.27507],[134.010188,35.275482],[134.009719,35.276049],[134.008923,35.276739],[134.008677,35.276227],[134.008225,35.275988],[134.00741,35.27598],[134.00707,35.276066],[134.006383,35.276099],[134.005541,35.276056],[134.005123,35.275985],[134.004848,35.275845],[134.004713,35.275757],[134.004708,35.275275],[134.004632,35.274967],[134.004392,35.274682],[134.002969,35.274504],[134.002765,35.274329],[134.002482,35.274195],[134.002463,35.273626],[134.002195,35.273352],[134.001941,35.273189],[134.000786,35.273302],[133.999652,35.273514],[133.998908,35.273703],[133.998319,35.273916],[133.997319,35.274436],[133.99673,35.274829],[133.995756,35.275628],[133.995315,35.27592],[133.994983,35.274835],[133.994432,35.274439],[133.99422,35.273537],[133.993708,35.272888],[133.993356,35.272696],[133.991709,35.272197],[133.991246,35.271799],[133.9909,35.271648],[133.990355,35.271531],[133.990028,35.271234],[133.989667,35.270759],[133.989474,35.270303],[133.989341,35.270102],[133.989013,35.269751],[133.988871,35.269383],[133.988825,35.26885],[133.988926,35.268416],[133.989015,35.268279],[133.988681,35.267876],[133.988404,35.267656],[133.988148,35.267581],[133.987771,35.267581],[133.987641,35.267538],[133.987281,35.267297],[133.98678,35.267052],[133.985847,35.266698],[133.985009,35.266465],[133.984784,35.266465],[133.983553,35.266917],[133.982984,35.267029],[133.982126,35.267282],[133.981059,35.267396],[133.980728,35.267368],[133.980368,35.267226],[133.979851,35.267259],[133.979388,35.267023],[133.979273,35.267017],[133.978837,35.267216],[133.978543,35.267265],[133.97818,35.267182],[133.977085,35.266771],[133.976585,35.266687],[133.976476,35.266978],[133.976358,35.267126],[133.976302,35.267883],[133.976152,35.268118],[133.976074,35.268893],[133.975892,35.271802],[133.975932,35.274781],[133.976367,35.274817],[133.97763,35.274643],[133.979018,35.27456],[133.980208,35.274558],[133.981255,35.274659],[133.981439,35.274753],[133.981461,35.276234],[133.981393,35.277116],[133.981336,35.277313],[133.980938,35.277585],[133.980541,35.277741],[133.980434,35.277857],[133.980129,35.277989],[133.978614,35.277851],[133.977864,35.277855]]],[[[134.001947,35.292315],[134.001754,35.292424],[134.000833,35.293304],[134.000657,35.293623],[133.999439,35.295039],[133.998923,35.2954],[133.998349,35.295562],[133.99754,35.295526],[133.996871,35.295141],[133.996428,35.294767],[133.995971,35.294051],[133.995514,35.293073],[133.995352,35.292873],[133.99413,35.292315],[133.993445,35.292193],[133.99279,35.292222],[133.991166,35.292658],[133.991166,35.292466],[133.991389,35.291676],[133.991378,35.291445],[133.991235,35.291235],[133.990621,35.290778],[133.990714,35.290606],[133.991769,35.289379],[133.992191,35.288711],[133.992461,35.28815],[133.993065,35.287231],[133.993471,35.286959],[133.993515,35.286794],[133.993602,35.286731],[133.994068,35.286578],[133.994504,35.286368],[133.995079,35.285744],[133.995255,35.28564],[133.995377,35.285637],[133.996633,35.286012],[133.997043,35.286383],[133.997341,35.286831],[133.997346,35.287147],[133.997011,35.287639],[133.996956,35.287983],[133.996986,35.288113],[133.997221,35.288449],[133.997938,35.289102],[133.998343,35.289201],[133.999483,35.289308],[134.000951,35.289646],[134.001709,35.289556],[134.002322,35.289799],[134.002867,35.289804],[134.004158,35.290029],[134.004769,35.289949],[134.005166,35.290053],[134.00591,35.290138],[134.006173,35.290417],[134.007006,35.290989],[134.007188,35.291347],[134.005886,35.291286],[134.005279,35.291378],[134.004837,35.291601],[134.004259,35.291797],[134.001947,35.292315]]]]}}]}
