{"type":"FeatureCollection","features":[{"type":"Feature","properties":{"potaRef":"JP-2027","nameJa":"Mikami-tanakami-shigaraki","nameEn":"Shiga Prefecture Kibougaoka Cultural Prefectural Park","authority":"環境省 生物多様性「見える化」マップ","boundaryStatus":"全国GIS候補・公開前検証待ち","boundarySource":"環境省 生物多様性「見える化」マップの自然公園区域を、POTA代表座標で一意に空間照合して加工","boundaryScaleNote":"区域は概要データであり、正確性は保証されない。POTA運用可否は公式情報で最終確認すること。","candidateMethod":"POTA representative point inside one public natural-park area","sourceParkKind":"都道府県立自然公園","sourceName":"Mikami-tanakami-shigaraki","sourceFeatureCount":1,"cautionMeters":75},"geometry":{"type":"MultiPolygon","coordinates":[[[[136.049685,34.987923],[136.0489,34.989078],[136.049077,34.990107],[136.049566,34.991487],[136.049287,34.992064],[136.047215,34.992098],[136.045324,34.991878],[136.044516,34.991589],[136.044706,34.991364],[136.044821,34.990844],[136.044779,34.990654],[136.044421,34.989983],[136.044147,34.989663],[136.044084,34.989325],[136.043863,34.988953],[136.043462,34.988439],[136.043241,34.988249],[136.042946,34.988093],[136.042747,34.987894],[136.042662,34.987703],[136.042621,34.987487],[136.042642,34.987294],[136.042757,34.986748],[136.042894,34.986514],[136.042442,34.986202],[136.042389,34.985847],[136.042696,34.985022],[136.042822,34.984841],[136.043022,34.984772],[136.043843,34.985023],[136.044085,34.98504],[136.044443,34.984919],[136.044506,34.984858],[136.04479,34.983929],[136.045369,34.982923],[136.045643,34.982108],[136.045887,34.981855],[136.046097,34.981482],[136.04634,34.98124],[136.046897,34.981084],[136.047686,34.980738],[136.04812,34.980623],[136.048941,34.980259],[136.049236,34.979896],[136.049625,34.979192],[136.049878,34.978845],[136.050252,34.978101],[136.050392,34.977713],[136.050477,34.977117],[136.050554,34.976903],[136.050681,34.976793],[136.051123,34.976683],[136.050316,34.975847],[136.04957,34.975245],[136.048128,34.974734],[136.047193,34.973814],[136.046792,34.97299],[136.046785,34.972433],[136.046655,34.971877],[136.04616,34.971628],[136.044272,34.97156],[136.043639,34.971785],[136.042865,34.972213],[136.041679,34.972561],[136.041391,34.972445],[136.041385,34.972007],[136.041523,34.971566],[136.041926,34.970972],[136.041936,34.970144],[136.041671,34.968661],[136.041445,34.968663],[136.040436,34.9683],[136.040246,34.967879],[136.04025,34.967022],[136.039128,34.967555],[136.03883,34.968266],[136.0383,34.968575],[136.037439,34.968565],[136.03609,34.968982],[136.035127,34.969024],[136.034698,34.969197],[136.033619,34.96983],[136.032392,34.970162],[136.031262,34.970019],[136.03027,34.969403],[136.029482,34.968684],[136.023925,34.970504],[136.021448,34.972517],[136.018613,34.975512],[136.018031,34.976564],[136.018163,34.977272],[136.018234,34.978082],[136.017977,34.978861],[136.017735,34.979184],[136.016855,34.979326],[136.016476,34.980241],[136.015743,34.980703],[136.015136,34.981333],[136.015102,34.981958],[136.014964,34.982364],[136.014823,34.982551],[136.014497,34.982774],[136.013884,34.982931],[136.01346,34.983542],[136.013222,34.984152],[136.013188,34.98476],[136.012781,34.98505],[136.012412,34.985054],[136.011766,34.984215],[136.011533,34.983676],[136.010946,34.98098],[136.011165,34.980437],[136.011179,34.979846],[136.011172,34.979323],[136.010978,34.978531],[136.010706,34.978128],[136.009653,34.977597],[136.009139,34.977466],[136.008258,34.977675],[136.008159,34.978129],[136.00801,34.978439],[136.007903,34.978535],[136.007337,34.978719],[136.006975,34.978895],[136.006228,34.978895],[136.006022,34.978974],[136.005691,34.979176],[136.005627,34.979281],[136.005669,34.979679],[136.005541,34.979837],[136.004944,34.979873],[136.004133,34.98011],[136.003854,34.980063],[136.003161,34.979651],[136.002613,34.979009],[136.001936,34.978927],[136.000889,34.978919],[135.99954,34.979267],[135.998063,34.979313],[135.994857,34.978799],[135.994281,34.978652],[135.994342,34.978288],[135.99454,34.978232],[135.994732,34.978099],[135.99484,34.977947],[135.995001,34.977877],[135.995832,34.977833],[135.996266,34.977858],[135.995392,34.977423],[135.994639,34.977472],[135.994166,34.976963],[135.994266,34.97662],[135.99426,34.976128],[135.994354,34.97538],[135.994195,34.975082],[135.992622,34.973834],[135.992335,34.973708],[135.992046,34.973411],[135.992615,34.973193],[135.992926,34.973169],[135.993516,34.972566],[135.993799,34.972414],[135.993874,34.972178],[135.993611,34.971838],[135.99327,34.971542],[135.992721,34.97129],[135.992412,34.971463],[135.992203,34.971358],[135.992197,34.970888],[135.992655,34.970115],[135.993422,34.969083],[135.99349,34.968313],[135.992967,34.967997],[135.991847,34.967643],[135.991557,34.967261],[135.99017,34.966417],[135.989967,34.966739],[135.989741,34.967404],[135.989173,34.967643],[135.988684,34.968032],[135.987908,34.968209],[135.987335,34.968128],[135.986292,34.967688],[135.985736,34.966774],[135.985203,34.965645],[135.985355,34.965345],[135.986233,34.964975],[135.986515,34.964652],[135.986955,34.96452],[135.986769,34.96418],[135.986094,34.964142],[135.985448,34.964425],[135.98501,34.964749],[135.984752,34.964837],[135.985256,34.963593],[135.985225,34.963124],[135.98496,34.962677],[135.984232,34.962597],[135.983584,34.962667],[135.983069,34.962991],[135.982113,34.963405],[135.981763,34.962318],[135.98132,34.962194],[135.980906,34.962304],[135.980698,34.962284],[135.979461,34.960905],[135.978881,34.96014],[135.979139,34.959989],[135.979056,34.959519],[135.978535,34.959374],[135.976718,34.959388],[135.975961,34.95901],[135.975589,34.95835],[135.974856,34.957822],[135.975268,34.957498],[135.976252,34.957362],[135.976582,34.956697],[135.976502,34.956548],[135.975845,34.955827],[135.976075,34.955547],[135.976798,34.955242],[135.977027,34.954856],[135.977441,34.954681],[135.977988,34.954869],[135.979142,34.955843],[135.979977,34.956221],[135.980184,34.956176],[135.98007,34.955323],[135.979804,34.954812],[135.979302,34.954025],[135.979217,34.953492],[135.979736,34.953402],[135.980233,34.953761],[135.980785,34.954376],[135.981386,34.954671],[135.981985,34.95488],[135.982472,34.954363],[135.982306,34.953445],[135.982405,34.953038],[135.98287,34.952906],[135.983392,34.953116],[135.983755,34.95307],[135.984036,34.952705],[135.985353,34.952138],[135.986751,34.951849],[135.987729,34.951136],[135.988164,34.950684],[135.988108,34.9503],[135.987792,34.949939],[135.987268,34.949494],[135.987235,34.948918],[135.98671,34.948473],[135.986397,34.948326],[135.985905,34.948416],[135.985519,34.948696],[135.985111,34.949298],[135.984008,34.950397],[135.982375,34.950581],[135.980615,34.950937],[135.978858,34.951614],[135.977978,34.951813],[135.97735,34.951391],[135.976828,34.95116],[135.974775,34.95092],[135.973249,34.951445],[135.97221,34.951325],[135.971011,34.950908],[135.969914,34.950318],[135.968199,34.950118],[135.963168,34.950521],[135.9607,34.950284],[135.960383,34.949817],[135.960581,34.949003],[135.960562,34.9474],[135.96079,34.946929],[135.961074,34.946798],[135.961587,34.946303],[135.961495,34.945021],[135.961365,34.945001],[135.960971,34.944598],[135.960964,34.944064],[135.961704,34.942925],[135.960948,34.942653],[135.959069,34.941771],[135.95662,34.940935],[135.955217,34.940775],[135.953939,34.940294],[135.952768,34.939961],[135.950644,34.940341],[135.949767,34.940818],[135.949299,34.940715],[135.948938,34.94091],[135.947901,34.940982],[135.947277,34.940923],[135.943458,34.93826],[135.942958,34.937644],[135.943001,34.936896],[135.943171,34.935847],[135.943664,34.933578],[135.944218,34.932185],[135.944745,34.930599],[135.944714,34.930172],[135.944086,34.929707],[135.943896,34.928918],[135.94111,34.93035],[135.94008,34.931063],[135.938017,34.93219],[135.937625,34.931937],[135.92977,34.925757],[135.924654,34.920689],[135.925633,34.920126],[135.926434,34.919842],[135.927053,34.919495],[135.927385,34.919001],[135.9272,34.918682],[135.927037,34.918063],[135.927244,34.917998],[135.927835,34.91748],[135.928009,34.916859],[135.928313,34.916216],[135.929216,34.915696],[135.929549,34.915309],[135.93044,34.913806],[135.930769,34.913098],[135.931336,34.912795],[135.932422,34.912487],[135.933018,34.912397],[135.934068,34.911214],[135.934486,34.90918],[135.9354,34.907378],[135.936589,34.907006],[135.937188,34.907193],[135.937507,34.907875],[135.938157,34.907998],[135.940516,34.907852],[135.941056,34.907463],[135.941859,34.907371],[135.942744,34.907599],[135.943214,34.907938],[135.944408,34.907992],[135.9464,34.907485],[135.945976,34.906719],[135.945945,34.906292],[135.944818,34.905275],[135.944423,34.904723],[135.944288,34.904253],[135.944288,34.902052],[135.944362,34.901667],[135.943395,34.901055],[135.942145,34.900573],[135.941576,34.900727],[135.940517,34.901141],[135.939485,34.901684],[135.938792,34.902287],[135.937574,34.902382],[135.936898,34.902216],[135.935034,34.900307],[135.933184,34.899552],[135.93243,34.899366],[135.931313,34.899289],[135.930305,34.899574],[135.929605,34.89958],[135.928977,34.899157],[135.928196,34.898821],[135.927478,34.899617],[135.926886,34.899985],[135.926416,34.899711],[135.926103,34.899606],[135.925483,34.899825],[135.924214,34.900006],[135.921213,34.900691],[135.921008,34.898555],[135.92074,34.897852],[135.919958,34.897452],[135.919255,34.897244],[135.918941,34.897011],[135.918702,34.896457],[135.918532,34.895219],[135.917565,34.894521],[135.916082,34.894147],[135.915278,34.894154],[135.91455,34.893988],[135.913663,34.893525],[135.913188,34.89278],[135.912768,34.892335],[135.910505,34.891753],[135.910165,34.891499],[135.910314,34.890836],[135.91049,34.890343],[135.910898,34.889699],[135.911283,34.889397],[135.9118,34.8892],[135.912601,34.888917],[135.913171,34.888891],[135.913659,34.888481],[135.91445,34.887321],[135.91465,34.886572],[135.914593,34.886145],[135.914329,34.885698],[135.912989,34.884127],[135.912735,34.883504],[135.912776,34.883369],[135.912899,34.883234],[135.913154,34.88315],[135.913451,34.883336],[135.914495,34.883826],[135.914618,34.883817],[135.915436,34.883405],[135.91562,34.883455],[135.916018,34.883801],[135.917043,34.88408],[135.917718,34.884577],[135.918116,34.88472],[135.918571,34.884789],[135.918847,34.88478],[135.919716,34.884435],[135.920073,34.884561],[135.920237,34.884536],[135.920605,34.884266],[135.921228,34.88414],[135.921668,34.883955],[135.92176,34.883728],[135.922046,34.883652],[135.92297,34.883584],[135.923226,34.883617],[135.923584,34.883761],[135.923696,34.883954],[135.923778,34.884443],[135.923951,34.884906],[135.924146,34.885066],[135.924442,34.885167],[135.924626,34.885394],[135.925004,34.885597],[135.925832,34.885622],[135.926231,34.885841],[135.926344,34.886139],[135.926508,34.886265],[135.926814,34.886341],[135.927019,34.886855],[135.927091,34.886914],[135.927256,34.886973],[135.927358,34.88694],[135.927429,34.886737],[135.927572,34.886746],[135.927808,34.886872],[135.928349,34.887437],[135.92871,34.888106],[135.929006,34.888207],[135.929537,34.888215],[135.929885,34.888282],[135.930325,34.888392],[135.930611,34.888611],[135.930846,34.888636],[135.931398,34.888426],[135.931756,34.888038],[135.932465,34.887811],[135.932864,34.887794],[135.933354,34.887879],[135.93363,34.887997],[135.933763,34.88851],[135.934244,34.888754],[135.934387,34.889041],[135.934564,34.889119],[135.934656,34.88922],[135.935361,34.890879],[135.935484,34.891093],[135.936026,34.891641],[135.937069,34.892154],[135.937867,34.892376],[135.938879,34.893117],[135.939556,34.893406],[135.941007,34.893683],[135.941027,34.893591],[135.940802,34.893456],[135.94068,34.893279],[135.940271,34.892378],[135.940261,34.892173],[135.940404,34.891878],[135.940271,34.891575],[135.940353,34.890943],[135.940231,34.890469],[135.939975,34.890073],[135.940016,34.889542],[135.939975,34.889188],[135.939566,34.888637],[135.939577,34.888511],[135.940353,34.88798],[135.940486,34.887517],[135.940414,34.88686],[135.940435,34.886428],[135.940599,34.885897],[135.940988,34.885297],[135.941182,34.884733],[135.941192,34.884494],[135.941151,34.884392],[135.940916,34.884148],[135.940834,34.883829],[135.940661,34.883079],[135.940732,34.882599],[135.94064,34.882292],[135.939792,34.882023],[135.939649,34.88177],[135.939659,34.881383],[135.940078,34.880276],[135.940292,34.880041],[135.940548,34.879864],[135.941396,34.87967],[135.94156,34.879561],[135.941949,34.879136],[135.942521,34.878707],[135.943247,34.878252],[135.943235,34.878177],[135.943772,34.878016],[135.944129,34.877975],[135.944969,34.878016],[135.946193,34.877957],[135.947292,34.877664],[135.948226,34.878151],[135.948989,34.878898],[135.949459,34.879543],[135.949608,34.879567],[135.952424,34.878874],[135.953088,34.878745],[135.953387,34.878739],[135.954035,34.879027],[135.954356,34.879261],[135.955441,34.88062],[135.955889,34.880761],[135.957515,34.880802],[135.958598,34.880755],[135.959231,34.880614],[135.960273,34.880549],[135.960729,34.880432],[135.961099,34.880227],[135.961811,34.879998],[135.963359,34.879893],[135.963753,34.879771],[135.962395,34.877821],[135.962223,34.876252],[135.962496,34.875921],[135.963662,34.875836],[135.964802,34.876054],[135.966228,34.877082],[135.967957,34.877802],[135.970028,34.878774],[135.970398,34.878897],[135.970716,34.879756],[135.972245,34.881694],[135.972308,34.881896],[135.97342,34.882318],[135.973666,34.882316],[135.974189,34.882413],[135.974653,34.882586],[135.975364,34.883011],[135.975918,34.883007],[135.977634,34.882638],[135.978463,34.882556],[135.982353,34.878827],[135.983752,34.8776],[135.985647,34.876672],[135.987793,34.876224],[135.99096,34.876376],[135.993242,34.877041],[135.994332,34.878197],[135.994969,34.880016],[135.995099,34.883155],[135.994864,34.886652],[135.995147,34.88974],[135.995488,34.88994],[135.995915,34.889708],[135.996498,34.889552],[135.997204,34.889495],[135.997789,34.889592],[135.998343,34.889613],[135.999015,34.889328],[136.000031,34.889472],[136.000682,34.889923],[136.001758,34.889863],[136.003269,34.890256],[136.003864,34.891163],[136.004043,34.893263],[136.004268,34.894047],[136.004673,34.894499],[136.006165,34.895905],[136.00675,34.895926],[136.007516,34.895767],[136.009027,34.89616],[136.009401,34.896537],[136.010143,34.896885],[136.012349,34.898767],[136.013316,34.899974],[136.013937,34.900476],[136.014101,34.901259],[136.014144,34.902272],[136.014397,34.902827],[136.016291,34.904356],[136.018312,34.906188],[136.019227,34.908131],[136.019697,34.908786],[136.022386,34.907471],[136.024212,34.905936],[136.024548,34.905807],[136.025502,34.9059],[136.027242,34.907304],[136.027833,34.907907],[136.029435,34.908121],[136.032674,34.909031],[136.033724,34.909351],[136.034497,34.90975],[136.035486,34.910146],[136.035855,34.910143],[136.0361,34.910065],[136.037865,34.908606],[136.039666,34.907603],[136.041475,34.907157],[136.043972,34.907693],[136.045083,34.908013],[136.045667,34.908008],[136.0464,34.907672],[136.047106,34.90759],[136.048712,34.908108],[136.051883,34.908435],[136.054129,34.908568],[136.054594,34.908918],[136.0554,34.909393],[136.05583,34.909363],[136.056931,34.908923],[136.057452,34.908817],[136.058528,34.908808],[136.059022,34.908905],[136.059608,34.909103],[136.060254,34.909072],[136.061968,34.91088],[136.063249,34.912465],[136.06409,34.913293],[136.065359,34.913941],[136.067735,34.914603],[136.069307,34.914919],[136.070049,34.915216],[136.070951,34.916019],[136.071689,34.918368],[136.071738,34.91976],[136.071958,34.920138],[136.072036,34.921429],[136.071857,34.921861],[136.071616,34.922244],[136.070769,34.923289],[136.069912,34.923626],[136.068136,34.924224],[136.067433,34.924534],[136.065479,34.925641],[136.063839,34.927251],[136.06372,34.927556],[136.063947,34.92844],[136.0642,34.92897],[136.064511,34.929271],[136.064607,34.929574],[136.064152,34.930009],[136.064062,34.930237],[136.064311,34.930438],[136.064773,34.930484],[136.065515,34.930807],[136.065585,34.931414],[136.065435,34.93177],[136.065163,34.932102],[136.065382,34.932429],[136.065784,34.932578],[136.066157,34.932878],[136.066407,34.93318],[136.066259,34.933612],[136.066144,34.934246],[136.067045,34.934922],[136.06665,34.935331],[136.066692,34.936192],[136.066911,34.936443],[136.0675,34.936868],[136.067543,34.93778],[136.068047,34.938662],[136.069006,34.939134],[136.069499,34.939206],[136.070058,34.939632],[136.070654,34.940538],[136.071405,34.941519],[136.073128,34.94153],[136.074425,34.941923],[136.074951,34.942197],[136.074903,34.943211],[136.074633,34.943694],[136.074735,34.944479],[136.075557,34.946194],[136.076035,34.947456],[136.07636,34.94877],[136.076866,34.949854],[136.077085,34.950106],[136.079009,34.949076],[136.081057,34.94807],[136.083933,34.946879],[136.087112,34.945407],[136.090095,34.94305],[136.091031,34.941674],[136.091602,34.940656],[136.091709,34.939464],[136.091486,34.938909],[136.091293,34.938252],[136.091498,34.937516],[136.092325,34.937205],[136.09257,34.937177],[136.092723,34.937075],[136.092779,34.936694],[136.092373,34.936191],[136.091398,34.934604],[136.089487,34.931912],[136.087847,34.928862],[136.087766,34.927343],[136.087859,34.925088],[136.088341,34.924298],[136.088771,34.924269],[136.093264,34.924583],[136.095515,34.925044],[136.096069,34.925039],[136.096773,34.92483],[136.097076,34.924473],[136.096112,34.923646],[136.094044,34.923057],[136.091184,34.923082],[136.089578,34.922514],[136.088615,34.921788],[136.087912,34.919769],[136.087798,34.918174],[136.087933,34.916754],[136.087547,34.915416],[136.085838,34.914088],[136.085647,34.913558],[136.086164,34.913174],[136.086559,34.912765],[136.086612,34.912131],[136.086236,34.911628],[136.084339,34.907669],[136.081275,34.90377],[136.079187,34.901611],[136.078931,34.900803],[136.079566,34.900012],[136.080723,34.899166],[136.081269,34.898629],[136.081139,34.898073],[136.080401,34.898079],[136.078408,34.898452],[136.077349,34.897347],[136.076645,34.895251],[136.075187,34.891895],[136.074962,34.891163],[136.073016,34.890395],[136.071094,34.889171],[136.070711,34.888034],[136.070823,34.887197],[136.070998,34.886487],[136.070864,34.885652],[136.070242,34.8851],[136.068726,34.884329],[136.067022,34.883305],[136.066002,34.882858],[136.065197,34.882384],[136.064569,34.881351],[136.064718,34.880995],[136.065545,34.880785],[136.066006,34.880731],[136.065848,34.880428],[136.064859,34.879981],[136.064177,34.879531],[136.063612,34.878624],[136.063415,34.877663],[136.062595,34.87605],[136.062088,34.874838],[136.061681,34.874234],[136.060909,34.873937],[136.060842,34.873532],[136.060684,34.873204],[136.059536,34.872378],[136.05808,34.871429],[136.057795,34.870773],[136.057148,34.870626],[136.056772,34.870072],[136.056886,34.869413],[136.057681,34.869102],[136.057616,34.868824],[136.056412,34.868379],[136.055544,34.867753],[136.055103,34.866946],[136.053949,34.865639],[136.053851,34.865159],[136.053876,34.864677],[136.054272,34.864446],[136.055344,34.864183],[136.056387,34.863997],[136.058155,34.862943],[136.058893,34.862962],[136.060118,34.862648],[136.062593,34.861537],[136.063481,34.861276],[136.064128,34.861397],[136.064283,34.861547],[136.064631,34.86233],[136.065099,34.867619],[136.067234,34.871121],[136.068046,34.872127],[136.068754,34.872222],[136.075321,34.873861],[136.081497,34.876111],[136.08479,34.876436],[136.086031,34.876686],[136.085762,34.876992],[136.085621,34.877246],[136.085163,34.878784],[136.085167,34.87893],[136.085491,34.879281],[136.087141,34.880704],[136.087489,34.880554],[136.087831,34.88033],[136.087972,34.8803],[136.088085,34.880345],[136.088333,34.880579],[136.088892,34.880663],[136.089048,34.880884],[136.089085,34.881128],[136.08911,34.881376],[136.089063,34.881859],[136.089267,34.882095],[136.089488,34.882252],[136.0896,34.8825],[136.089557,34.882639],[136.089419,34.88277],[136.08902,34.882914],[136.088583,34.883316],[136.088121,34.883843],[136.087932,34.884142],[136.087757,34.884798],[136.087257,34.885363],[136.086931,34.885829],[136.086502,34.885879],[136.085964,34.885771],[136.08585,34.885826],[136.085648,34.886393],[136.085346,34.886862],[136.08541,34.887028],[136.085732,34.88715],[136.085896,34.887283],[136.086347,34.887859],[136.086444,34.888687],[136.086377,34.888889],[136.086223,34.889128],[136.086263,34.889269],[136.086629,34.889338],[136.087002,34.88959],[136.087153,34.889811],[136.087277,34.890227],[136.087475,34.890622],[136.087932,34.890653],[136.088201,34.890618],[136.088499,34.890512],[136.08868,34.890266],[136.08909,34.889341],[136.089291,34.889041],[136.089451,34.888915],[136.089596,34.888909],[136.089854,34.889001],[136.090288,34.888967],[136.090465,34.888835],[136.090517,34.88866],[136.090652,34.888534],[136.09143,34.888362],[136.091677,34.888256],[136.092351,34.88823],[136.092691,34.888061],[136.092856,34.887746],[136.093105,34.887672],[136.094786,34.887801],[136.095224,34.888059],[136.095436,34.888443],[136.095912,34.888732],[136.096464,34.88891],[136.097142,34.88893],[136.097384,34.888981],[136.09804,34.889256],[136.098378,34.889534],[136.098467,34.889974],[136.098752,34.890642],[136.098767,34.891006],[136.098937,34.89118],[136.099458,34.891513],[136.100083,34.892168],[136.100197,34.892435],[136.100191,34.892618],[136.100055,34.892862],[136.100073,34.893037],[136.100139,34.893137],[136.100354,34.893309],[136.100681,34.89339],[136.100837,34.893493],[136.101035,34.894309],[136.100951,34.894813],[136.100979,34.894921],[136.101309,34.895253],[136.101403,34.895622],[136.101663,34.896087],[136.101785,34.896144],[136.102632,34.896061],[136.102917,34.896161],[136.103497,34.896617],[136.103768,34.897215],[136.103987,34.897511],[136.104231,34.897726],[136.10547,34.89829],[136.105578,34.898405],[136.105612,34.898548],[136.10537,34.899259],[136.105377,34.899388],[136.105918,34.899615],[136.10612,34.900016],[136.106269,34.900085],[136.107162,34.900108],[136.107798,34.900449],[136.10833,34.900567],[136.108594,34.900692],[136.109799,34.900927],[136.110264,34.900967],[136.110449,34.901103],[136.110726,34.901779],[136.110848,34.901856],[136.111171,34.90189],[136.11155,34.902024],[136.112053,34.90197],[136.112297,34.90188],[136.112907,34.901392],[136.113526,34.901036],[136.113495,34.900766],[136.113321,34.900295],[136.113287,34.899973],[136.113398,34.899761],[136.113551,34.899676],[136.114078,34.899578],[136.114581,34.899421],[136.11479,34.899255],[136.114897,34.898974],[136.115262,34.898627],[136.115307,34.89847],[136.115273,34.898347],[136.115057,34.898184],[136.114665,34.898065],[136.114606,34.897968],[136.114591,34.897805],[136.114735,34.897382],[136.115376,34.896682],[136.115526,34.896354],[136.115474,34.896131],[136.115284,34.895763],[136.11503,34.895421],[136.114551,34.89492],[136.114459,34.894678],[136.114741,34.894226],[136.114816,34.893927],[136.11495,34.89382],[136.115064,34.893625],[136.115027,34.893145],[136.115401,34.892923],[136.115842,34.892439],[136.116162,34.892274],[136.11628,34.892157],[136.11648,34.892097],[136.116667,34.892101],[136.117305,34.892431],[136.117505,34.892491],[136.117824,34.892502],[136.119231,34.892149],[136.119499,34.891977],[136.119699,34.8917],[136.120236,34.891545],[136.120446,34.89144],[136.120559,34.891256],[136.120551,34.891087],[136.120296,34.890647],[136.120273,34.890329],[136.120629,34.889738],[136.120756,34.889247],[136.120897,34.889066],[136.121366,34.888698],[136.121484,34.888533],[136.121657,34.88788],[136.122572,34.888216],[136.123419,34.888791],[136.123569,34.888822],[136.123867,34.888811],[136.124524,34.888522],[136.125257,34.888377],[136.125426,34.888302],[136.125539,34.888203],[136.125877,34.887592],[136.126138,34.8874],[136.126533,34.887203],[136.12723,34.886588],[136.127272,34.886501],[136.127231,34.886105],[136.127556,34.88544],[136.127767,34.885179],[136.127978,34.885028],[136.128581,34.884754],[136.129199,34.884335],[136.129532,34.884279],[136.129814,34.884134],[136.130891,34.883304],[136.131216,34.883105],[136.131533,34.883134],[136.134146,34.884532],[136.13489,34.884844],[136.135024,34.884943],[136.135256,34.885274],[136.135157,34.886017],[136.135157,34.886191],[136.135234,34.886365],[136.135699,34.887246],[136.136439,34.888209],[136.136608,34.888348],[136.136819,34.888389],[136.137066,34.888354],[136.137263,34.888267],[136.138987,34.887227],[136.139205,34.887111],[136.139444,34.887064],[136.139884,34.887043],[136.140638,34.887689],[136.140688,34.888214],[136.140361,34.888762],[136.139778,34.889153],[136.137699,34.890293],[136.136531,34.891064],[136.136112,34.891488],[136.135796,34.892372],[136.135913,34.892918],[136.13607,34.89317],[136.135775,34.894034],[136.134861,34.89465],[136.134132,34.89529],[136.133469,34.896208],[136.133698,34.897219],[136.134038,34.897419],[136.134347,34.897492],[136.134445,34.897921],[136.133561,34.898461],[136.131999,34.898907],[136.130251,34.899227],[136.130007,34.899356],[136.130081,34.900241],[136.130303,34.900771],[136.130342,34.901353],[136.13029,34.902063],[136.1299,34.90275],[136.128445,34.904284],[136.126398,34.905189],[136.125217,34.906492],[136.124892,34.907482],[136.124719,34.90832],[136.125074,34.909583],[136.125576,34.910262],[136.126825,34.91172],[136.127555,34.913384],[136.12766,34.91432],[136.127978,34.915052],[136.12857,34.915629],[136.128765,34.916387],[136.128865,34.919197],[136.126695,34.922434],[136.126608,34.922815],[136.126831,34.923395],[136.126836,34.92375],[136.126385,34.924514],[136.123697,34.92583],[136.123517,34.926161],[136.123493,34.926643],[136.12487,34.926174],[136.127524,34.924605],[136.127924,34.924576],[136.12842,34.924875],[136.129251,34.924943],[136.131491,34.924618],[136.132012,34.924436],[136.133396,34.924449],[136.134012,34.924569],[136.134941,34.924991],[136.136279,34.926144],[136.136377,34.926574],[136.13618,34.927892],[136.135342,34.929597],[136.134308,34.930392],[136.133246,34.931491],[136.133195,34.932201],[136.133329,34.93301],[136.132879,34.933875],[136.13227,34.934261],[136.130951,34.934552],[136.130867,34.93516],[136.130544,34.936278],[136.129426,34.937681],[136.128551,34.938981],[136.128756,34.940473],[136.129248,34.942672],[136.129859,34.944642],[136.129867,34.945224],[136.129447,34.945988],[136.129402,34.949458],[136.129204,34.950676],[136.129394,34.951105],[136.129835,34.95186],[136.130517,34.952234],[136.130707,34.952637],[136.130586,34.952765],[136.130126,34.952871],[136.129169,34.952652],[136.128186,34.952711],[136.126402,34.954982],[136.125792,34.955342],[136.124811,34.955579],[136.123765,34.955589],[136.123398,34.955487],[136.123878,34.956549],[136.123888,34.956645],[136.123739,34.957168],[136.123903,34.957873],[136.124175,34.958252],[136.124474,34.958807],[136.124863,34.959679],[136.12539,34.960406],[136.12563,34.960963],[136.125892,34.961092],[136.126346,34.961189],[136.127136,34.961098],[136.127475,34.961197],[136.127975,34.961158],[136.128418,34.961172],[136.128602,34.961228],[136.13009,34.962401],[136.130471,34.962521],[136.130979,34.962511],[136.131302,34.962622],[136.131509,34.963067],[136.131952,34.963411],[136.131955,34.963551],[136.131832,34.963696],[136.131567,34.963836],[136.130948,34.964029],[136.130251,34.964596],[136.130087,34.964889],[136.12936,34.965812],[136.127451,34.9657],[136.123163,34.965587],[136.122082,34.96602],[136.120568,34.966338],[136.117393,34.96662],[136.116848,34.967233],[136.115585,34.967886],[136.11293,34.968721],[136.112335,34.968726],[136.111879,34.968393],[136.111065,34.96737],[136.110378,34.9666],[136.110048,34.966451],[136.10804,34.966588],[136.105764,34.966676],[136.104184,34.96664],[136.1015,34.966867],[136.09841,34.967384],[136.094956,34.968344],[136.091199,34.969627],[136.088961,34.970964],[136.086551,34.971763],[136.08504,34.972333],[136.083436,34.973547],[136.082255,34.974216],[136.079309,34.974816],[136.077634,34.975405],[136.074966,34.976864],[136.072693,34.978724],[136.06911,34.980833],[136.068258,34.981583],[136.067028,34.981645],[136.065595,34.981894],[136.065007,34.982439],[136.064586,34.983219],[136.06453,34.983608],[136.064209,34.984185],[136.063842,34.984323],[136.063001,34.984365],[136.062819,34.984535],[136.062229,34.984929],[136.06127,34.985359],[136.061233,34.985646],[136.059557,34.986168],[136.059206,34.985968],[136.058769,34.985499],[136.058414,34.985012],[136.058286,34.984608],[136.058319,34.984034],[136.058539,34.983559],[136.058921,34.982948],[136.058788,34.982189],[136.057405,34.979973],[136.056992,34.979723],[136.056699,34.97932],[136.054977,34.981411],[136.053888,34.982855],[136.049685,34.987923]]],[[[136.079005,34.851883],[136.076206,34.852519],[136.075098,34.852818],[136.074848,34.853093],[136.074576,34.853128],[136.074411,34.852438],[136.074401,34.851699],[136.075264,34.850582],[136.075214,34.84973],[136.074538,34.847245],[136.074276,34.845094],[136.073834,34.844085],[136.073241,34.843399],[136.073001,34.842935],[136.071948,34.842928],[136.071644,34.843542],[136.071182,34.844044],[136.070815,34.844304],[136.069455,34.844654],[136.069128,34.844978],[136.068645,34.845336],[136.067224,34.845525],[136.066409,34.845774],[136.065851,34.846389],[136.06576,34.846904],[136.065627,34.847179],[136.065221,34.847423],[136.064696,34.847508],[136.063838,34.847516],[136.061236,34.846799],[136.060534,34.846838],[136.059603,34.847215],[136.058966,34.847719],[136.058516,34.847595],[136.058453,34.847225],[136.059088,34.846577],[136.061217,34.845353],[136.062708,34.844568],[136.063688,34.843467],[136.0638,34.843048],[136.063619,34.842615],[136.063185,34.84225],[136.063181,34.841928],[136.06343,34.841588],[136.063211,34.841188],[136.062954,34.840966],[136.062872,34.840661],[136.064785,34.837783],[136.06546,34.837215],[136.066126,34.835987],[136.067302,34.8349],[136.067708,34.834639],[136.067703,34.834254],[136.06758,34.833805],[136.067732,34.833498],[136.067384,34.832247],[136.066697,34.831867],[136.066463,34.83187],[136.066624,34.830711],[136.067259,34.830062],[136.067608,34.829915],[136.06905,34.82995],[136.069454,34.829497],[136.069663,34.829077],[136.069794,34.828674],[136.070215,34.828059],[136.070971,34.827747],[136.073244,34.827116],[136.075204,34.82644],[136.075784,34.82613],[136.076169,34.825756],[136.076557,34.82556],[136.077316,34.825521],[136.077942,34.825676],[136.078409,34.825624],[136.080035,34.824726],[136.08124,34.824474],[136.082272,34.824384],[136.083305,34.824359],[136.085428,34.822749],[136.086398,34.822467],[136.087018,34.822124],[136.087341,34.821494],[136.087451,34.820979],[136.086899,34.820485],[136.086411,34.820474],[136.08598,34.820317],[136.085325,34.81939],[136.084648,34.818271],[136.08438,34.817197],[136.083662,34.815933],[136.083539,34.815452],[136.083339,34.815068],[136.082668,34.814447],[136.080482,34.814226],[136.07872,34.813582],[136.076759,34.812651],[136.075373,34.812487],[136.071513,34.812376],[136.069835,34.812214],[136.068958,34.81227],[136.068434,34.812403],[136.067478,34.812283],[136.065236,34.810711],[136.064071,34.809596],[136.063697,34.80931],[136.063327,34.809281],[136.062815,34.808868],[136.062148,34.808504],[136.060697,34.80781],[136.059952,34.807511],[136.05952,34.807209],[136.056468,34.806271],[136.054336,34.805679],[136.051994,34.805394],[136.050589,34.805277],[136.050025,34.805346],[136.049556,34.805222],[136.048789,34.804666],[136.048258,34.804349],[136.046536,34.803737],[136.046139,34.803194],[136.045976,34.802584],[136.045616,34.801912],[136.044903,34.801002],[136.043336,34.800341],[136.041709,34.799567],[136.040807,34.799077],[136.039798,34.797928],[136.039495,34.79703],[136.039336,34.796774],[136.038513,34.796444],[136.038396,34.796445],[136.037582,34.79523],[136.036915,34.794866],[136.036154,34.794792],[136.035492,34.79483],[136.034828,34.794675],[136.034136,34.794131],[136.03331,34.794129],[136.032924,34.794074],[136.032781,34.794016],[136.032459,34.793724],[136.032139,34.793156],[136.031952,34.792988],[136.031644,34.792815],[136.028978,34.79193],[136.027828,34.79186],[136.027092,34.792236],[136.025831,34.792632],[136.021586,34.792845],[136.020688,34.79274],[136.020551,34.79266],[136.020583,34.792081],[136.020501,34.791777],[136.02065,34.791261],[136.0209,34.79097],[136.021853,34.790833],[136.023431,34.790804],[136.024526,34.791132],[136.025192,34.791384],[136.026068,34.79136],[136.026728,34.791162],[136.027115,34.790933],[136.027809,34.790333],[136.028624,34.790069],[136.029505,34.790431],[136.030215,34.791052],[136.031039,34.791543],[136.032213,34.791967],[136.032961,34.792523],[136.033726,34.792951],[136.034897,34.793102],[136.035461,34.793065],[136.036511,34.792863],[136.037955,34.792995],[136.039457,34.793208],[136.03999,34.793701],[136.040249,34.794197],[136.040274,34.794599],[136.040418,34.795209],[136.040578,34.795561],[136.040795,34.795736],[136.041537,34.79589],[136.041719,34.796435],[136.041726,34.796982],[136.042163,34.797669],[136.043164,34.798191],[136.044472,34.798421],[136.045446,34.798412],[136.046033,34.798552],[136.04686,34.799284],[136.046886,34.799798],[136.047183,34.800165],[136.047578,34.800516],[136.048088,34.800785],[136.048862,34.800376],[136.049305,34.800019],[136.049141,34.799329],[136.049453,34.799374],[136.05052,34.798963],[136.051472,34.798762],[136.051862,34.798759],[136.052445,34.798641],[136.053029,34.798636],[136.054204,34.799108],[136.055504,34.800142],[136.055998,34.800716],[136.056261,34.801469],[136.05648,34.801837],[136.056678,34.802044],[136.057539,34.802689],[136.057858,34.802335],[136.058806,34.802008],[136.059435,34.801989],[136.059821,34.801757],[136.059953,34.801557],[136.060036,34.800751],[136.060162,34.800542],[136.060548,34.800315],[136.061062,34.800082],[136.062268,34.799774],[136.062549,34.79976],[136.062727,34.799852],[136.063007,34.800192],[136.063327,34.800484],[136.06368,34.800966],[136.063691,34.801608],[136.063735,34.801708],[136.063895,34.801785],[136.064121,34.801767],[136.064468,34.801862],[136.065064,34.802163],[136.065742,34.802136],[136.065924,34.802205],[136.066547,34.802614],[136.067247,34.803346],[136.067887,34.803643],[136.068407,34.80396],[136.068743,34.803928],[136.069415,34.803515],[136.069762,34.803351],[136.069872,34.803347],[136.070115,34.803411],[136.070291,34.803588],[136.070423,34.804021],[136.070495,34.804098],[136.071699,34.804367],[136.072062,34.804199],[136.072552,34.804085],[136.072767,34.804094],[136.072993,34.804212],[136.072971,34.80463],[136.072806,34.804835],[136.072718,34.805116],[136.072718,34.805289],[136.07285,34.805421],[136.073048,34.80548],[136.073594,34.805448],[136.07377,34.805599],[136.074647,34.806796],[136.074801,34.807075],[136.075154,34.807302],[136.075314,34.807474],[136.075374,34.807689],[136.075507,34.807852],[136.075679,34.807912],[136.076103,34.807952],[136.076494,34.808089],[136.076754,34.80827],[136.076909,34.80827],[136.077802,34.807947],[136.07821,34.807665],[136.078562,34.807511],[136.078904,34.807447],[136.079284,34.807542],[136.079632,34.807956],[136.079787,34.808047],[136.080063,34.808115],[136.080906,34.807543],[136.081302,34.807507],[136.081804,34.807748],[136.082962,34.808906],[136.083216,34.809323],[136.083315,34.809592],[136.083386,34.809651],[136.083767,34.809752],[136.084491,34.809825],[136.084678,34.809898],[136.085687,34.810884],[136.08599,34.810929],[136.086408,34.810779],[136.08664,34.810784],[136.087362,34.810847],[136.087721,34.810934],[136.088095,34.811034],[136.088542,34.811276],[136.089381,34.811908],[136.090135,34.811912],[136.090318,34.811963],[136.0905,34.812086],[136.090787,34.812555],[136.091117,34.813488],[136.091211,34.814016],[136.091211,34.81412],[136.091057,34.814274],[136.090946,34.814279],[136.090682,34.814156],[136.090627,34.81417],[136.090638,34.815062],[136.090721,34.815677],[136.090798,34.815841],[136.091542,34.816582],[136.091785,34.816732],[136.09243,34.816846],[136.092849,34.817079],[136.093411,34.81783],[136.094084,34.8186],[136.09435,34.818686],[136.095016,34.818727],[136.095181,34.81885],[136.095187,34.819104],[136.094426,34.819792],[136.09384,34.820479],[136.093647,34.820624],[136.093339,34.820643],[136.092667,34.820438],[136.092573,34.820506],[136.09254,34.820666],[136.092589,34.820884],[136.093152,34.821384],[136.093267,34.821559],[136.093251,34.821904],[136.092567,34.822773],[136.092186,34.823433],[136.091899,34.823742],[136.091701,34.823932],[136.091095,34.824148],[136.090919,34.824361],[136.090825,34.824802],[136.090836,34.824961],[136.091161,34.825457],[136.091166,34.825595],[136.091095,34.825972],[136.090919,34.826222],[136.090427,34.826573],[136.089992,34.826609],[136.08976,34.826682],[136.089584,34.827032],[136.08911,34.827373],[136.089,34.827546],[136.088884,34.827938],[136.088917,34.828215],[136.088812,34.828497],[136.088018,34.829139],[136.087897,34.829348],[136.087836,34.829582],[136.087582,34.830045],[136.087557,34.830454],[136.087753,34.8306],[136.088025,34.830691],[136.088874,34.830823],[136.089336,34.831018],[136.089639,34.831087],[136.089794,34.831347],[136.089838,34.831661],[136.089799,34.831901],[136.089645,34.832221],[136.089645,34.832316],[136.089706,34.832562],[136.090047,34.833135],[136.090081,34.833272],[136.089926,34.833791],[136.089441,34.834304],[136.089265,34.834422],[136.088662,34.834555],[136.088205,34.834587],[136.087979,34.834668],[136.087461,34.835283],[136.087185,34.835778],[136.086232,34.836581],[136.086216,34.837156],[136.086073,34.837353],[136.086027,34.837531],[136.086052,34.837598],[136.086481,34.837774],[136.08669,34.838098],[136.08697,34.838102],[136.087436,34.838014],[136.088707,34.837492],[136.089448,34.837424],[136.089616,34.837353],[136.09031,34.836502],[136.090488,34.836431],[136.090749,34.83643],[136.091181,34.836582],[136.091208,34.836736],[136.091302,34.83686],[136.091498,34.836971],[136.091996,34.836864],[136.092262,34.837029],[136.092699,34.837209],[136.093026,34.838136],[136.093408,34.838413],[136.093689,34.838948],[136.094094,34.839312],[136.094187,34.839536],[136.094402,34.839793],[136.094711,34.840039],[136.094943,34.840158],[136.095488,34.840131],[136.095931,34.840005],[136.096738,34.839674],[136.098374,34.839366],[136.098893,34.839139],[136.099135,34.839116],[136.099607,34.839212],[136.100099,34.839112],[136.100197,34.839193],[136.100342,34.839605],[136.100491,34.839804],[136.101316,34.840438],[136.102137,34.840496],[136.102472,34.840362],[136.102728,34.840328],[136.102938,34.840381],[136.103171,34.840354],[136.103292,34.840389],[136.103452,34.840512],[136.103774,34.840651],[136.104472,34.840581],[136.104883,34.840959],[136.104995,34.841131],[136.105046,34.842097],[136.105144,34.842746],[136.105251,34.84288],[136.106277,34.843184],[136.106543,34.843519],[136.106823,34.844166],[136.107196,34.844792],[136.107457,34.845439],[136.107438,34.846177],[136.107661,34.8468],[136.105484,34.847562],[136.102642,34.84791],[136.101009,34.848262],[136.098993,34.849116],[136.094577,34.849831],[136.090826,34.850813],[136.089276,34.851518],[136.088166,34.851657],[136.087636,34.851324],[136.086278,34.851866],[136.084853,34.851767],[136.083294,34.851797],[136.081912,34.852034],[136.080097,34.851873],[136.079005,34.851883]]],[[[136.08099,34.920764],[136.081261,34.921167],[136.083246,34.922433],[136.083524,34.923325],[136.083364,34.923597],[136.082302,34.923893],[136.081113,34.923938],[136.079923,34.92383],[136.078788,34.923283],[136.077791,34.922262],[136.077713,34.920996],[136.077924,34.91988],[136.077875,34.91934],[136.077616,34.918329],[136.077525,34.917655],[136.077536,34.916895],[136.07828,34.915791],[136.078833,34.915752],[136.079454,34.916185],[136.079807,34.916554],[136.081324,34.916591],[136.082017,34.91623],[136.083731,34.917228],[136.084188,34.91768],[136.083452,34.919425],[136.083276,34.920052],[136.082791,34.920596],[136.082423,34.92065],[136.081045,34.920501],[136.08099,34.920764]]],[[[136.1775,34.981172],[136.177633,34.982256],[136.177815,34.982688],[136.178326,34.983623],[136.178621,34.983789],[136.179365,34.984578],[136.179379,34.985518],[136.17907,34.98851],[136.178588,34.989648],[136.177728,34.990982],[136.176837,34.992148],[136.176113,34.99271],[136.173364,34.993098],[136.172611,34.993684],[136.170775,34.994353],[136.170367,34.994549],[136.169425,34.992148],[136.169569,34.987831],[136.168861,34.985451],[136.169178,34.983061],[136.169546,34.982117],[136.17092,34.981959],[136.172672,34.981532],[136.173477,34.980488],[136.173921,34.980797],[136.17447,34.980237],[136.174548,34.979609],[136.175276,34.979289],[136.175805,34.979404],[136.177283,34.980354],[136.1775,34.981172]]],[[[136.074532,34.997246],[136.073364,34.997593],[136.073121,34.996872],[136.072861,34.997188],[136.072367,34.997458],[136.071594,34.996645],[136.071608,34.995439],[136.0714,34.995272],[136.071139,34.995419],[136.070643,34.995592],[136.07032,34.995571],[136.069838,34.994514],[136.069765,34.99343],[136.069956,34.992343],[136.070447,34.991809],[136.07138,34.991463],[136.073253,34.991326],[136.074458,34.991629],[136.074647,34.992591],[136.075796,34.993063],[136.077002,34.993438],[136.077298,34.993725],[136.077303,34.994087],[136.077575,34.994687],[136.077407,34.995291],[136.076945,34.995802],[136.076596,34.996046],[136.076458,34.996698],[136.076229,34.997062],[136.075084,34.996879],[136.074532,34.997246]]],[[[136.08175,35.083354],[136.081135,35.084017],[136.079988,35.084316],[136.079346,35.084369],[136.078976,35.084469],[136.078726,35.084711],[136.078615,35.085177],[136.078426,35.085612],[136.078137,35.085871],[136.077057,35.085916],[136.076882,35.085686],[136.076421,35.085471],[136.076249,35.085222],[136.07618,35.08503],[136.076215,35.084323],[136.076118,35.084003],[136.075815,35.083381],[136.075967,35.083222],[136.076711,35.082948],[136.077206,35.082852],[136.07721,35.082187],[136.076705,35.07887],[136.076178,35.075813],[136.075156,35.072248],[136.074845,35.070825],[136.074911,35.069911],[136.074886,35.06951],[136.073281,35.068995],[136.070044,35.067389],[136.068712,35.066936],[136.064987,35.065318],[136.064728,35.064872],[136.064633,35.063746],[136.064119,35.063938],[136.062871,35.063933],[136.062566,35.064401],[136.061571,35.064361],[136.061085,35.064478],[136.060096,35.064871],[136.059369,35.064445],[136.059057,35.064415],[136.058321,35.064774],[136.057879,35.065227],[136.055907,35.066542],[136.055118,35.065828],[136.054806,35.065831],[136.054498,35.06609],[136.053911,35.065967],[136.053721,35.066353],[136.051595,35.069224],[136.050224,35.071768],[136.049806,35.072654],[136.049497,35.072849],[136.049204,35.072803],[136.048924,35.072309],[136.048902,35.0721],[136.04843,35.0718],[136.047217,35.07141],[136.04515,35.071364],[136.043028,35.071622],[136.042598,35.071498],[136.042067,35.07115],[136.041652,35.070753],[136.041083,35.070437],[136.040457,35.070218],[136.039813,35.070223],[136.039298,35.069571],[136.039178,35.069315],[136.038485,35.068488],[136.038304,35.068025],[136.038236,35.06732],[136.038423,35.066661],[136.03867,35.066178],[136.039768,35.065127],[136.040248,35.064546],[136.040207,35.064402],[136.040032,35.064436],[136.039561,35.064135],[136.039184,35.063658],[136.039174,35.062856],[136.039075,35.062697],[136.038685,35.062716],[136.037944,35.062659],[136.037396,35.062535],[136.036948,35.062507],[136.036586,35.063215],[136.036418,35.063761],[136.036204,35.063859],[136.035968,35.063701],[136.035926,35.063445],[136.035513,35.063096],[136.034537,35.063008],[136.033901,35.063591],[136.033668,35.063673],[136.033438,35.063963],[136.033345,35.064301],[136.033097,35.0648],[136.03275,35.065091],[136.03236,35.06503],[136.032044,35.064728],[136.031785,35.064266],[136.031971,35.063559],[136.031944,35.062982],[136.030449,35.061937],[136.029367,35.061113],[136.029301,35.060488],[136.02961,35.060326],[136.030189,35.059808],[136.031218,35.059495],[136.031666,35.059459],[136.031937,35.059312],[136.032109,35.059086],[136.032237,35.058412],[136.032776,35.057879],[136.033098,35.057106],[136.033092,35.056658],[136.032948,35.056034],[136.032689,35.055587],[136.031626,35.054731],[136.030977,35.054304],[136.030617,35.053554],[136.029893,35.051781],[136.029907,35.051348],[136.029839,35.050611],[136.030813,35.049016],[136.030554,35.048554],[136.030405,35.047529],[136.030648,35.046758],[136.031378,35.045902],[136.032424,35.04538],[136.033104,35.045214],[136.033947,35.045608],[136.034507,35.045218],[136.034583,35.045041],[136.034555,35.044385],[136.034689,35.044191],[136.035288,35.043801],[136.035657,35.043686],[136.036398,35.04368],[136.039448,35.044503],[136.039798,35.044436],[136.040166,35.044256],[136.041071,35.044922],[136.041571,35.045959],[136.041918,35.04719],[136.042217,35.047719],[136.042511,35.047893],[136.043644,35.04806],[136.044326,35.048086],[136.045053,35.048528],[136.045194,35.048864],[136.045376,35.050962],[136.04771,35.050541],[136.047888,35.050458],[136.04798,35.048379],[136.048073,35.048026],[136.048303,35.047703],[136.048808,35.047603],[136.050034,35.047464],[136.050519,35.047235],[136.050532,35.046786],[136.050411,35.046435],[136.050052,35.045765],[136.050028,35.045412],[136.050064,35.04522],[136.050355,35.045073],[136.050724,35.04499],[136.051033,35.044795],[136.051321,35.04444],[136.051899,35.043922],[136.05281,35.043577],[136.053352,35.043252],[136.053466,35.043011],[136.053303,35.042499],[136.053252,35.041554],[136.054194,35.042091],[136.055006,35.043109],[136.055876,35.044047],[136.056372,35.044716],[136.056776,35.045803],[136.056761,35.046187],[136.056328,35.047377],[136.05642,35.048466],[136.056778,35.049008],[136.057151,35.049245],[136.058439,35.04933],[136.059742,35.049142],[136.060678,35.049214],[136.061476,35.049127],[136.062701,35.048876],[136.064785,35.048778],[136.067574,35.048787],[136.06826,35.047884],[136.069115,35.046217],[136.069544,35.045492],[136.07028,35.044765],[136.072588,35.043518],[136.073805,35.042714],[136.07442,35.042853],[136.075215,35.043278],[136.075391,35.043277],[136.076133,35.043054],[136.076561,35.042221],[136.077728,35.040948],[136.078811,35.040001],[136.079724,35.03938],[136.079845,35.038585],[136.079876,35.037575],[136.080306,35.036923],[136.081345,35.03594],[136.083906,35.035152],[136.083945,35.034974],[136.084317,35.0345],[136.084577,35.03408],[136.084759,35.033948],[136.084861,35.033932],[136.08562,35.034069],[136.085855,35.034008],[136.086017,35.033821],[136.086286,35.033221],[136.086149,35.03266],[136.086389,35.031922],[136.086575,35.031665],[136.086418,35.031377],[136.086188,35.031152],[136.085801,35.030987],[136.085713,35.03087],[136.085767,35.030524],[136.085865,35.030424],[136.086189,35.030362],[136.086439,35.030181],[136.086635,35.029964],[136.086782,35.029924],[136.087767,35.029791],[136.087988,35.029794],[136.088236,35.029886],[136.088379,35.028979],[136.087611,35.028409],[136.087114,35.027644],[136.086264,35.02677],[136.085549,35.025735],[136.085201,35.024456],[136.085334,35.021265],[136.085405,35.020736],[136.085711,35.0203],[136.086274,35.020135],[136.087346,35.020158],[136.087654,35.019898],[136.088113,35.019221],[136.088284,35.018899],[136.088358,35.018626],[136.088553,35.018656],[136.08928,35.019082],[136.089671,35.019207],[136.090194,35.018946],[136.090598,35.018558],[136.090826,35.018139],[136.090798,35.017482],[136.090289,35.015836],[136.089952,35.015422],[136.090065,35.015085],[136.090238,35.014923],[136.090858,35.014661],[136.092049,35.014858],[136.093495,35.015214],[136.094248,35.014678],[136.094592,35.014226],[136.094646,35.013857],[136.094584,35.013585],[136.093361,35.012491],[136.093218,35.011931],[136.09335,35.011641],[136.093348,35.011481],[136.093773,35.011205],[136.09498,35.011162],[136.096149,35.011199],[136.097268,35.011798],[136.098655,35.012106],[136.099283,35.012485],[136.099694,35.012642],[136.100318,35.012652],[136.100824,35.012583],[136.101214,35.012676],[136.10188,35.012926],[136.10223,35.012891],[136.102675,35.012663],[136.103239,35.012578],[136.103975,35.012234],[136.104559,35.012245],[136.10503,35.012481],[136.105443,35.012766],[136.106167,35.012984],[136.106789,35.012914],[136.107354,35.012941],[136.107553,35.013211],[136.107841,35.014347],[136.109288,35.01475],[136.111013,35.01552],[136.111135,35.015951],[136.110904,35.016146],[136.109644,35.016574],[136.109652,35.017215],[136.109524,35.017777],[136.108926,35.018263],[136.108332,35.019006],[136.106729,35.02003],[136.106873,35.020622],[136.107715,35.022313],[136.108241,35.023815],[136.108841,35.026374],[136.108689,35.026664],[136.107696,35.026721],[136.107,35.027144],[136.106276,35.028369],[136.104492,35.028994],[136.103714,35.029065],[136.10251,35.029365],[136.10197,35.029754],[136.100894,35.030902],[136.100669,35.031609],[136.100252,35.032478],[136.099209,35.033113],[136.099098,35.033563],[136.099379,35.034153],[136.099469,35.035082],[136.098047,35.035143],[136.097329,35.035342],[136.096904,35.035634],[136.096811,35.035955],[136.096814,35.036164],[136.096456,35.03708],[136.096558,35.037448],[136.096931,35.037669],[136.097398,35.037601],[136.097713,35.037822],[136.097406,35.038178],[136.097296,35.038675],[136.097377,35.038899],[136.097673,35.039233],[136.098122,35.039277],[136.09896,35.039269],[136.099596,35.038783],[136.099948,35.038812],[136.100459,35.039144],[136.10033,35.039706],[136.100571,35.040265],[136.100557,35.040665],[136.10068,35.041081],[136.101273,35.041701],[136.101938,35.041951],[136.103013,35.042134],[136.10416,35.041931],[136.104637,35.041221],[136.105051,35.04008],[136.106145,35.038836],[136.107076,35.038539],[136.107661,35.038581],[136.108525,35.039086],[136.109219,35.039945],[136.109527,35.041129],[136.109654,35.043307],[136.109952,35.043721],[136.110064,35.044746],[136.109913,35.046606],[136.109723,35.046977],[136.109201,35.047238],[136.105913,35.047653],[136.104686,35.04776],[136.103747,35.047496],[136.103221,35.047453],[136.101473,35.047949],[136.099943,35.048636],[136.099793,35.04907],[136.099518,35.050387],[136.099263,35.053162],[136.099023,35.054142],[136.099796,35.055097],[136.100841,35.056049],[136.101643,35.057692],[136.101633,35.058381],[136.101421,35.058592],[136.101391,35.060724],[136.10126,35.06401],[136.10143,35.066493],[136.101197,35.069492],[136.100767,35.07081],[136.099437,35.073435],[136.099331,35.074237],[136.099196,35.074334],[136.098787,35.074338],[136.098339,35.074406],[136.098127,35.074552],[136.097959,35.075099],[136.097451,35.075071],[136.097121,35.075155],[136.096968,35.075348],[136.096755,35.07551],[136.096091,35.075388],[136.095757,35.075199],[136.095483,35.075153],[136.09525,35.07522],[136.094662,35.075001],[136.094328,35.074763],[136.094205,35.074299],[136.093782,35.07331],[136.093753,35.072573],[136.093645,35.071772],[136.093199,35.070542],[136.092072,35.069334],[136.089124,35.071893],[136.087918,35.073603],[136.087872,35.074565],[136.087221,35.075436],[136.086069,35.076745],[136.0859,35.077291],[136.085574,35.077647],[136.085273,35.078467],[136.084869,35.078919],[136.084821,35.079689],[136.08465,35.080011],[136.083807,35.080468],[136.083016,35.0811],[136.082827,35.081486],[136.082837,35.082271],[136.082786,35.082881],[136.082691,35.083026],[136.082038,35.083031],[136.08175,35.083354]]],[[[136.150755,35.068696],[136.151247,35.069377],[136.152657,35.069868],[136.152885,35.070479],[136.153035,35.071776],[136.152444,35.073404],[136.152332,35.074848],[136.150794,35.077747],[136.148031,35.080947],[136.146257,35.082694],[136.144817,35.083249],[136.143417,35.083514],[136.14134,35.085553],[136.140658,35.086966],[136.139667,35.088274],[136.138577,35.088789],[136.137352,35.088981],[136.136545,35.087798],[136.136301,35.085961],[136.13633,35.084915],[136.136272,35.080733],[136.136214,35.079724],[136.136735,35.079358],[136.137944,35.07794],[136.138685,35.077573],[136.139118,35.077208],[136.139627,35.075977],[136.141959,35.073323],[136.142831,35.072954],[136.143831,35.072296],[136.144826,35.071277],[136.145072,35.070048],[136.14519,35.06911],[136.147045,35.066892],[136.147654,35.066526],[136.147689,35.065877],[136.149258,35.065177],[136.150794,35.065234],[136.152385,35.06612],[136.154292,35.067617],[136.154483,35.068733],[136.155149,35.069268],[136.156175,35.07052],[136.155916,35.070811],[136.155126,35.070746],[136.153618,35.069571],[136.153122,35.068638],[136.152546,35.068174],[136.151273,35.068114],[136.150755,35.068696]]],[[[136.078709,35.086594],[136.079742,35.08733],[136.080073,35.088],[136.079818,35.088628],[136.079238,35.088993],[136.078596,35.089119],[136.077863,35.08903],[136.07754,35.088888],[136.077093,35.088421],[136.077171,35.088277],[136.077154,35.087961],[136.077268,35.087785],[136.078104,35.0873],[136.078058,35.087147],[136.077443,35.086451],[136.078709,35.086594]]]]}}]}
