{"type":"FeatureCollection","features":[{"type":"Feature","properties":{"potaRef":"JP-2072","nameJa":"Senami sasagawanagare awashima","nameEn":"Marine Park Nezugaseki Prefectural Park","authority":"環境省 生物多様性「見える化」マップ","boundaryStatus":"全国GIS候補・公開前検証待ち","boundarySource":"環境省 生物多様性「見える化」マップの自然公園区域を、POTA代表座標で一意に空間照合して加工","boundaryScaleNote":"区域は概要データであり、正確性は保証されない。POTA運用可否は公式情報で最終確認すること。","candidateMethod":"POTA representative point inside one public natural-park area","sourceParkKind":"都道府県立自然公園","sourceName":"Senami sasagawanagare awashima","sourceFeatureCount":1,"cautionMeters":75},"geometry":{"type":"MultiPolygon","coordinates":[[[[139.548905,38.551818],[139.548751,38.551984],[139.548269,38.552893],[139.547998,38.553069],[139.546886,38.55403],[139.546542,38.554433],[139.545239,38.557006],[139.544672,38.557862],[139.544175,38.558264],[139.543071,38.558514],[139.541969,38.55862],[139.541175,38.55861],[139.539921,38.558073],[139.53892,38.557055],[139.538253,38.555925],[139.537619,38.554394],[139.537355,38.553117],[139.537352,38.552082],[139.538113,38.549329],[139.538295,38.548049],[139.53823,38.547119],[139.537411,38.544797],[139.535823,38.541901],[139.533808,38.539339],[139.53166,38.537],[139.53062,38.535041],[139.530168,38.533042],[139.529584,38.531428],[139.529121,38.530756],[139.527694,38.529448],[139.526568,38.528156],[139.525067,38.52551],[139.52175,38.522352],[139.520567,38.520228],[139.518938,38.518147],[139.517646,38.516859],[139.515034,38.514774],[139.510604,38.512242],[139.509233,38.511328],[139.507608,38.50982],[139.506698,38.508394],[139.506036,38.506642],[139.505813,38.505623],[139.506012,38.504127],[139.506137,38.503541],[139.506596,38.502273],[139.506823,38.500908],[139.506439,38.499043],[139.5056,38.497987],[139.504544,38.497061],[139.500923,38.494943],[139.499933,38.493537],[139.498683,38.49109],[139.495389,38.483224],[139.493001,38.479489],[139.49236,38.477386],[139.49222,38.475089],[139.492003,38.474373],[139.491381,38.472771],[139.489976,38.470898],[139.488722,38.468682],[139.487857,38.466487],[139.486811,38.462648],[139.486211,38.461498],[139.485584,38.460585],[139.483187,38.458109],[139.478754,38.454681],[139.477407,38.453867],[139.475121,38.451883],[139.474036,38.450741],[139.472353,38.448286],[139.471382,38.446191],[139.470567,38.442949],[139.470462,38.440979],[139.470835,38.438327],[139.470535,38.437064],[139.46987,38.436112],[139.46838,38.435082],[139.466562,38.433299],[139.464267,38.43073],[139.462404,38.428169],[139.459501,38.425598],[139.457782,38.423728],[139.457033,38.422347],[139.456596,38.42085],[139.456308,38.419554],[139.456041,38.416542],[139.45512,38.41385],[139.453642,38.412701],[139.452366,38.410831],[139.450839,38.405968],[139.450212,38.40517],[139.448902,38.404003],[139.448122,38.402929],[139.44644,38.399901],[139.444684,38.394831],[139.444094,38.390421],[139.444177,38.387185],[139.444909,38.38478],[139.445028,38.383631],[139.445804,38.381563],[139.446557,38.380301],[139.446744,38.378896],[139.446143,38.377858],[139.443754,38.375498],[139.442596,38.373875],[139.441446,38.370413],[139.440771,38.367748],[139.439424,38.364597],[139.43846,38.35929],[139.438707,38.353388],[139.439854,38.348793],[139.439983,38.347763],[139.439886,38.347184],[139.440445,38.34304],[139.440484,38.34107],[139.440253,38.337493],[139.439103,38.331703],[139.439142,38.329993],[139.440045,38.326532],[139.43808,38.322457],[139.437544,38.320714],[139.437594,38.317712],[139.437785,38.316909],[139.437617,38.315064],[139.437242,38.313323],[139.43752,38.311689],[139.438781,38.307568],[139.43888,38.305387],[139.438579,38.303777],[139.438192,38.302723],[139.436229,38.299459],[139.435627,38.297507],[139.435435,38.296102],[139.435496,38.292632],[139.437233,38.287573],[139.436714,38.28365],[139.437103,38.28007],[139.436977,38.278456],[139.436552,38.275924],[139.434255,38.26987],[139.434269,38.268375],[139.434592,38.266198],[139.434359,38.263535],[139.433549,38.258913],[139.431486,38.254257],[139.430537,38.251698],[139.42975,38.248218],[139.429658,38.246956],[139.429996,38.244318],[139.430614,38.24271],[139.431625,38.241207],[139.43386,38.238919],[139.437024,38.236893],[139.437455,38.236185],[139.437316,38.235399],[139.431191,38.226091],[139.429134,38.222236],[139.428263,38.221075],[139.426257,38.217596],[139.422291,38.212456],[139.42044,38.209549],[139.419782,38.208255],[139.419045,38.206069],[139.417129,38.201644],[139.41648,38.199431],[139.416197,38.197688],[139.4162,38.195513],[139.417183,38.192532],[139.418172,38.190489],[139.418986,38.189433],[139.420478,38.187947],[139.422412,38.186703],[139.4239,38.185956],[139.42654,38.185141],[139.428167,38.184837],[139.431068,38.184918],[139.431882,38.185193],[139.432399,38.186591],[139.432917,38.189379],[139.432991,38.190171],[139.43188,38.190972],[139.430896,38.191534],[139.431156,38.192161],[139.431143,38.19276],[139.430828,38.193283],[139.431025,38.193981],[139.431486,38.195186],[139.430628,38.19412],[139.429965,38.193847],[139.429968,38.192313],[139.430279,38.191957],[139.430225,38.191645],[139.429866,38.1914],[139.428988,38.191245],[139.429085,38.193788],[139.428231,38.194287],[139.429646,38.194562],[139.430512,38.195245],[139.431248,38.196358],[139.431359,38.196839],[139.43292,38.196309],[139.433864,38.196225],[139.434582,38.196738],[139.435383,38.19766],[139.436475,38.197747],[139.437468,38.198191],[139.438272,38.198921],[139.438835,38.199624],[139.438874,38.200632],[139.438614,38.20142],[139.437874,38.201913],[139.438292,38.202255],[139.438958,38.202383],[139.439747,38.202418],[139.440106,38.20271],[139.440368,38.203217],[139.440812,38.203799],[139.442208,38.205304],[139.442012,38.205949],[139.441321,38.206994],[139.441962,38.206883],[139.442922,38.206033],[139.443377,38.206063],[139.444224,38.206242],[139.444946,38.206563],[139.444967,38.207019],[139.445432,38.208032],[139.445423,38.208464],[139.445138,38.208987],[139.445187,38.209539],[139.445335,38.209709],[139.445882,38.20974],[139.447239,38.208799],[139.447281,38.208224],[139.447175,38.207528],[139.447794,38.206984],[139.448101,38.206845],[139.448798,38.206926],[139.450568,38.20798],[139.450855,38.208799],[139.451469,38.209958],[139.452207,38.210951],[139.453079,38.211394],[139.454196,38.211768],[139.453133,38.213145],[139.452814,38.213884],[139.450678,38.215702],[139.44914,38.215155],[139.445268,38.214288],[139.440419,38.213672],[139.438475,38.213598],[139.438327,38.213429],[139.439557,38.21275],[139.441787,38.212228],[139.442037,38.211895],[139.441443,38.21124],[139.439111,38.210873],[139.437234,38.211951],[139.435918,38.212413],[139.436593,38.213525],[139.437654,38.21505],[139.439222,38.217061],[139.440049,38.216736],[139.439081,38.215117],[139.441303,38.214955],[139.442098,38.216164],[139.442879,38.216606],[139.443595,38.217215],[139.444189,38.217894],[139.444533,38.218834],[139.444826,38.219341],[139.445489,38.219638],[139.446057,38.220053],[139.446382,38.220513],[139.446865,38.220639],[139.447492,38.221175],[139.44777,38.222426],[139.448237,38.223343],[139.448805,38.223758],[139.448917,38.224239],[139.449982,38.225596],[139.452162,38.228862],[139.452596,38.229922],[139.452704,38.230547],[139.452201,38.231308],[139.451797,38.231758],[139.451218,38.231822],[139.450616,38.231551],[139.449596,38.230914],[139.448619,38.229654],[139.447424,38.230094],[139.449827,38.234346],[139.450369,38.235983],[139.450704,38.237426],[139.450701,38.241838],[139.451573,38.240867],[139.452344,38.238935],[139.452794,38.239204],[139.452471,38.240087],[139.452333,38.240853],[139.454855,38.239495],[139.455714,38.240585],[139.455099,38.240913],[139.452818,38.24237],[139.452441,38.24294],[139.452342,38.243322],[139.451911,38.24358],[139.451421,38.243742],[139.450006,38.244514],[139.448448,38.244877],[139.447597,38.244866],[139.446288,38.244945],[139.445889,38.245107],[139.444749,38.245812],[139.443857,38.246279],[139.443186,38.24639],[139.443059,38.246652],[139.443143,38.246965],[139.443618,38.247499],[139.443967,38.248247],[139.444301,38.24969],[139.444377,38.25041],[139.444575,38.251108],[139.445189,38.252243],[139.445992,38.253117],[139.446221,38.255206],[139.446604,38.255787],[139.4475,38.256566],[139.447732,38.257072],[139.447715,38.257864],[139.447912,38.258609],[139.448173,38.259212],[139.448132,38.259594],[139.447448,38.259851],[139.447908,38.262363],[139.447045,38.263633],[139.446849,38.265141],[139.446896,38.266896],[139.447463,38.268038],[139.448444,38.269345],[139.449112,38.270854],[139.449424,38.271889],[139.449944,38.274406],[139.450374,38.276962],[139.450108,38.279486],[139.449649,38.281678],[139.448776,38.283749],[139.448541,38.284777],[139.448949,38.285622],[139.449466,38.287091],[139.449558,38.288483],[139.449969,38.290743],[139.450312,38.291474],[139.450065,38.292131],[139.45047,38.292547],[139.450157,38.293079],[139.448809,38.294194],[139.448757,38.294879],[139.449078,38.295777],[139.449862,38.297071],[139.449987,38.298319],[139.450287,38.299954],[139.451222,38.303203],[139.451537,38.305581],[139.451696,38.306279],[139.451745,38.307386],[139.451484,38.30826],[139.451857,38.308932],[139.451913,38.309715],[139.451258,38.311548],[139.450255,38.312925],[139.449812,38.31371],[139.449908,38.314677],[139.449807,38.31601],[139.449687,38.316706],[139.44967,38.317721],[139.449738,38.318801],[139.449424,38.319276],[139.449418,38.31954],[139.449765,38.320355],[139.450246,38.32169],[139.451022,38.324094],[139.451213,38.324394],[139.451439,38.324907],[139.451546,38.325895],[139.451513,38.326952],[139.451602,38.327049],[139.451587,38.327768],[139.451909,38.328372],[139.451989,38.328901],[139.45189,38.329259],[139.451449,38.329925],[139.451506,38.331556],[139.451638,38.332493],[139.452651,38.334952],[139.452929,38.33655],[139.452676,38.337876],[139.452306,38.338518],[139.45195,38.339306],[139.451723,38.342804],[139.452063,38.343983],[139.452335,38.344204],[139.452518,38.344441],[139.452667,38.345272],[139.452586,38.347419],[139.45281,38.347985],[139.452794,38.348452],[139.452589,38.348993],[139.452079,38.349339],[139.451843,38.349599],[139.451905,38.34991],[139.451564,38.350608],[139.451454,38.350985],[139.451516,38.351283],[139.4517,38.351501],[139.451814,38.351786],[139.451806,38.352151],[139.451574,38.352593],[139.451152,38.353074],[139.451165,38.35325],[139.451398,38.353604],[139.451366,38.354279],[139.451,38.354585],[139.450393,38.356358],[139.450405,38.356544],[139.450583,38.357029],[139.451041,38.359246],[139.450989,38.359918],[139.451009,38.359971],[139.451393,38.360149],[139.45165,38.3604],[139.451869,38.360775],[139.451561,38.361266],[139.45092,38.361478],[139.451299,38.361974],[139.451484,38.362377],[139.451535,38.362433],[139.451849,38.362529],[139.452721,38.364013],[139.453184,38.365309],[139.453428,38.365223],[139.454743,38.367612],[139.455192,38.36892],[139.455163,38.36915],[139.454907,38.369737],[139.454842,38.370223],[139.455219,38.370849],[139.455906,38.371636],[139.456271,38.372272],[139.456414,38.372371],[139.456668,38.372868],[139.457844,38.37288],[139.459117,38.372987],[139.462221,38.373099],[139.467339,38.373047],[139.468809,38.372682],[139.469908,38.372553],[139.470788,38.372684],[139.472178,38.373206],[139.473632,38.373608],[139.475363,38.373823],[139.476729,38.374056],[139.478653,38.37528],[139.479082,38.37658],[139.479205,38.377997],[139.479041,38.381471],[139.479402,38.381692],[139.480192,38.381798],[139.480986,38.381664],[139.481692,38.382124],[139.48283,38.382201],[139.483452,38.382608],[139.483994,38.383353],[139.486628,38.383943],[139.487649,38.384503],[139.487602,38.3859],[139.486711,38.387613],[139.48775,38.388895],[139.488348,38.390175],[139.48805,38.390863],[139.486884,38.392452],[139.486312,38.393596],[139.485355,38.394183],[139.485429,38.395023],[139.484432,38.396089],[139.483586,38.397205],[139.483039,38.398589],[139.483022,38.399428],[139.483422,38.400703],[139.484012,38.401622],[139.484879,38.402425],[139.483085,38.403696],[139.482827,38.40434],[139.483033,38.406165],[139.483004,38.407555],[139.482556,38.408581],[139.482474,38.409611],[139.482243,38.410447],[139.48187,38.410778],[139.481196,38.410937],[139.480434,38.410975],[139.479198,38.411774],[139.477696,38.41221],[139.47617,38.412286],[139.475292,38.412011],[139.474499,38.412073],[139.472846,38.412411],[139.470667,38.413126],[139.468326,38.414366],[139.469057,38.415181],[139.469167,38.415642],[139.469007,38.416322],[139.468503,38.417017],[139.468364,38.417522],[139.468395,38.418069],[139.468592,38.418477],[139.469375,38.418798],[139.470307,38.419364],[139.471924,38.420863],[139.472315,38.421456],[139.472428,38.421788],[139.472416,38.422322],[139.472586,38.42283],[139.473463,38.423571],[139.475112,38.425159],[139.476963,38.427357],[139.477928,38.427998],[139.480043,38.429737],[139.480948,38.430658],[139.481532,38.431502],[139.482621,38.432461],[139.483389,38.433307],[139.483556,38.434146],[139.483601,38.43531],[139.483503,38.436709],[139.48335,38.437397],[139.48292,38.438046],[139.482731,38.438244],[139.482485,38.438968],[139.482403,38.439549],[139.482668,38.44017],[139.483512,38.440708],[139.484398,38.441447],[139.484732,38.442033],[139.484988,38.444145],[139.484949,38.44509],[139.486352,38.446013],[139.487189,38.446859],[139.488136,38.447277],[139.4925,38.450878],[139.49362,38.451511],[139.494892,38.45149],[139.496795,38.455569],[139.49687,38.456425],[139.497307,38.457666],[139.497768,38.459252],[139.49944,38.463906],[139.501101,38.468296],[139.504354,38.471495],[139.504812,38.47221],[139.504927,38.472853],[139.504827,38.473527],[139.504411,38.47498],[139.504686,38.475375],[139.505792,38.476301],[139.507177,38.477055],[139.507626,38.477378],[139.50786,38.477684],[139.507844,38.478049],[139.507277,38.478852],[139.507245,38.479162],[139.507434,38.479563],[139.507785,38.480054],[139.50824,38.480485],[139.508766,38.480795],[139.508926,38.480986],[139.508814,38.481405],[139.508864,38.481957],[139.508809,38.482926],[139.509137,38.48329],[139.510078,38.483494],[139.511739,38.48433],[139.512244,38.484984],[139.512378,38.485873],[139.511967,38.486611],[139.511768,38.487352],[139.511968,38.488002],[139.512692,38.488442],[139.513537,38.488861],[139.515346,38.488404],[139.51568,38.488504],[139.516162,38.488798],[139.516777,38.490053],[139.517139,38.491712],[139.517058,38.492694],[139.516833,38.493266],[139.517004,38.493868],[139.517652,38.495003],[139.518308,38.495707],[139.518823,38.495929],[139.519522,38.497544],[139.520172,38.498559],[139.521634,38.500184],[139.522096,38.501461],[139.522339,38.503022],[139.522453,38.504894],[139.522715,38.505497],[139.524789,38.507057],[139.525696,38.507892],[139.526258,38.508762],[139.528442,38.510947],[139.530156,38.512168],[139.530976,38.512346],[139.531307,38.51259],[139.531681,38.513697],[139.531943,38.514324],[139.533376,38.5159],[139.534244,38.516727],[139.535216,38.516978],[139.536983,38.517144],[139.537457,38.519332],[139.536656,38.519706],[139.536309,38.520277],[139.536417,38.520974],[139.536649,38.521576],[139.538288,38.523538],[139.539892,38.525692],[139.54146,38.528158],[139.542151,38.530228],[139.542258,38.530973],[139.542276,38.531596],[139.543451,38.532354],[139.545041,38.533717],[139.547681,38.537538],[139.5484,38.538242],[139.549857,38.540178],[139.550524,38.541937],[139.550623,38.543089],[139.550392,38.546407],[139.550367,38.547624],[139.550601,38.548664],[139.550786,38.549829],[139.550552,38.551081],[139.550315,38.551369],[139.549847,38.551599],[139.548905,38.551817],[139.549002,38.55171],[139.548905,38.551818]],[[139.524273,38.508064],[139.524273,38.508055],[139.524258,38.508045],[139.524273,38.508064]],[[139.510768,38.48757],[139.51077,38.487569],[139.510759,38.487391],[139.510768,38.48757]],[[139.510915,38.484739],[139.511096,38.484728],[139.510915,38.484738],[139.510921,38.484554],[139.510915,38.484739]],[[139.460331,38.399142],[139.460282,38.399173],[139.460548,38.399064],[139.460331,38.399142]],[[139.451561,38.349151],[139.451565,38.349151],[139.451565,38.349151],[139.451561,38.349151]],[[139.441806,38.250887],[139.441754,38.251058],[139.441831,38.251274],[139.442051,38.251247],[139.442117,38.251014],[139.442095,38.250941],[139.442,38.250871],[139.441806,38.250887]],[[139.441829,38.250194],[139.441762,38.25033],[139.441824,38.250564],[139.441971,38.250601],[139.442117,38.250519],[139.442167,38.250296],[139.442019,38.250154],[139.441829,38.250194]],[[139.440707,38.248686],[139.44064,38.248823],[139.440702,38.249057],[139.440849,38.249094],[139.440995,38.249012],[139.441045,38.248789],[139.440897,38.248647],[139.440707,38.248686]],[[139.440375,38.247216],[139.440308,38.247352],[139.440371,38.247586],[139.440518,38.247623],[139.440663,38.247541],[139.440713,38.247318],[139.440565,38.247176],[139.440375,38.247216]],[[139.439872,38.246386],[139.439804,38.246523],[139.43982,38.246678],[139.440159,38.246712],[139.44021,38.246489],[139.440061,38.246347],[139.439872,38.246386]],[[139.440844,38.246428],[139.441048,38.246425],[139.441183,38.246237],[139.441207,38.246127],[139.441059,38.245985],[139.44087,38.246024],[139.440802,38.24616],[139.440844,38.246428]],[[139.441682,38.245146],[139.441479,38.245318],[139.441504,38.24543],[139.441708,38.245427],[139.44197,38.245236],[139.442045,38.245115],[139.44181,38.245073],[139.441682,38.245146]],[[139.443207,38.24448],[139.443156,38.244632],[139.443284,38.244747],[139.443384,38.244747],[139.443607,38.244584],[139.44357,38.244482],[139.443447,38.244421],[139.443207,38.24448]],[[139.443876,38.243705],[139.443713,38.243843],[139.443771,38.243927],[139.443903,38.243987],[139.444165,38.243795],[139.444127,38.243693],[139.444004,38.243632],[139.443876,38.243705]],[[139.444631,38.243211],[139.44458,38.243363],[139.444708,38.243479],[139.444808,38.243478],[139.445031,38.243315],[139.444994,38.243213],[139.444871,38.243152],[139.444631,38.243211]]],[[[139.269485,38.469224],[139.270228,38.471217],[139.270379,38.473296],[139.269864,38.47582],[139.270551,38.478371],[139.270353,38.48067],[139.272246,38.481486],[139.273385,38.482222],[139.274508,38.483405],[139.275225,38.484681],[139.275694,38.486054],[139.276086,38.487664],[139.27594,38.488633],[139.274902,38.491359],[139.273638,38.493562],[139.272459,38.494898],[139.270128,38.496531],[139.268618,38.497153],[139.265383,38.498064],[139.262151,38.498481],[139.25977,38.499608],[139.257219,38.500309],[139.254145,38.500469],[139.251526,38.500005],[139.247892,38.498447],[139.246824,38.497693],[139.245877,38.496798],[139.24522,38.495649],[139.244133,38.495302],[139.243133,38.494584],[139.241642,38.493198],[139.240703,38.491891],[139.238626,38.490268],[139.237854,38.489419],[139.237108,38.488037],[139.235088,38.486961],[139.233516,38.485667],[139.23232,38.484291],[139.229765,38.482932],[139.227767,38.481417],[139.22688,38.480375],[139.225856,38.478526],[139.225385,38.477107],[139.225085,38.475158],[139.225128,38.474452],[139.224952,38.474135],[139.222088,38.472111],[139.220217,38.470144],[139.217159,38.468608],[139.214437,38.466571],[139.213404,38.466125],[139.212155,38.465255],[139.210798,38.463524],[139.210088,38.462131],[139.20969,38.460616],[139.209648,38.458062],[139.210444,38.455317],[139.210214,38.45494],[139.20873,38.453782],[139.207685,38.452741],[139.206827,38.451576],[139.206225,38.450264],[139.206073,38.44923],[139.206075,38.447502],[139.206334,38.446254],[139.20481,38.444843],[139.203724,38.443539],[139.202689,38.441578],[139.20246,38.440638],[139.202426,38.438658],[139.202783,38.436931],[139.204362,38.434548],[139.206917,38.43196],[139.209147,38.43055],[139.21066,38.43006],[139.212284,38.429742],[139.213897,38.429616],[139.215322,38.429687],[139.217305,38.428431],[139.219081,38.427764],[139.221715,38.427306],[139.223189,38.427326],[139.22583,38.427806],[139.228993,38.428854],[139.234238,38.431205],[139.2355,38.432265],[139.237402,38.434591],[139.239862,38.43609],[139.241093,38.437101],[139.242266,38.43825],[139.243019,38.439491],[139.246322,38.440871],[139.248794,38.442384],[139.250941,38.444148],[139.252816,38.446455],[139.255005,38.447636],[139.256404,38.448848],[139.257238,38.449906],[139.258117,38.451409],[139.258764,38.453508],[139.259068,38.453973],[139.261541,38.455397],[139.262995,38.456557],[139.264161,38.457723],[139.265073,38.458919],[139.265562,38.459926],[139.26582,38.461225],[139.265497,38.462819],[139.266068,38.464563],[139.266032,38.465486],[139.268312,38.467603],[139.269485,38.469224]],[[139.249821,38.460133],[139.250053,38.460575],[139.249887,38.462422],[139.250139,38.463017],[139.250845,38.463924],[139.250831,38.465526],[139.250982,38.466292],[139.251339,38.466564],[139.251895,38.466668],[139.252203,38.466958],[139.252481,38.467497],[139.253779,38.468077],[139.253562,38.467481],[139.25363,38.46625],[139.253779,38.465183],[139.254124,38.464758],[139.254,38.464629],[139.254328,38.464303],[139.254356,38.464333],[139.254473,38.464217],[139.254496,38.464066],[139.254412,38.463946],[139.25424,38.463347],[139.254254,38.462083],[139.254182,38.461824],[139.253934,38.461422],[139.253706,38.461163],[139.25331,38.460868],[139.253102,38.460735],[139.251792,38.460281],[139.249542,38.458622],[139.249821,38.460133]]]]}}]}
