{"type":"FeatureCollection","features":[{"type":"Feature","properties":{"potaRef":"JP-2123","nameJa":"On Take","nameEn":"Ontakesan Quasi-National Park","authority":"環境省 生物多様性「見える化」マップ","boundaryStatus":"全国GIS候補・公開前検証待ち","boundarySource":"環境省 生物多様性「見える化」マップの自然公園区域を、POTA代表座標で一意に空間照合して加工","boundaryScaleNote":"区域は概要データであり、正確性は保証されない。POTA運用可否は公式情報で最終確認すること。","candidateMethod":"POTA representative point inside one public natural-park area","sourceParkKind":"都道府県立自然公園","sourceName":"On Take","sourceFeatureCount":1,"cautionMeters":75},"geometry":{"type":"MultiPolygon","coordinates":[[[[137.546531,35.967483],[137.545715,35.968251],[137.545042,35.969349],[137.544741,35.969973],[137.543926,35.970711],[137.543583,35.971753],[137.543077,35.971554],[137.542619,35.971063],[137.54225,35.970837],[137.541735,35.970104],[137.541423,35.969221],[137.541417,35.968468],[137.541849,35.968148],[137.542123,35.967529],[137.542034,35.966585],[137.541779,35.96626],[137.541258,35.966476],[137.540889,35.966549],[137.540399,35.966275],[137.539909,35.965568],[137.539776,35.965532],[137.539331,35.96562],[137.538803,35.965516],[137.53755,35.96499],[137.53706,35.96434],[137.536609,35.964309],[137.536291,35.964366],[137.535992,35.964242],[137.535928,35.963896],[137.535177,35.963499],[137.534593,35.962875],[137.532876,35.961894],[137.532608,35.961574],[137.532341,35.96062],[137.532239,35.959711],[137.531896,35.958814],[137.531241,35.957797],[137.53105,35.957101],[137.530122,35.95595],[137.529492,35.955042],[137.529218,35.953515],[137.528475,35.952792],[137.527438,35.951899],[137.52719,35.951229],[137.526974,35.950362],[137.526293,35.948788],[137.525524,35.947725],[137.525225,35.946832],[137.524309,35.944918],[137.524258,35.94419],[137.524541,35.942594],[137.523968,35.942302],[137.522605,35.942074],[137.521651,35.941652],[137.520033,35.941043],[137.519789,35.940612],[137.519032,35.940286],[137.518911,35.939848],[137.518516,35.939975],[137.518149,35.940249],[137.51742,35.940397],[137.516459,35.940501],[137.515774,35.94073],[137.515207,35.940698],[137.513842,35.941176],[137.513433,35.941236],[137.512799,35.940856],[137.511281,35.941022],[137.511053,35.941085],[137.510775,35.941078],[137.509069,35.940628],[137.508209,35.940508],[137.506523,35.940541],[137.505912,35.940678],[137.505656,35.940576],[137.504949,35.940505],[137.50408,35.940265],[137.503299,35.93961],[137.503264,35.939374],[137.50301,35.939006],[137.5029,35.938962],[137.502466,35.938465],[137.501498,35.937149],[137.501352,35.936578],[137.500761,35.935045],[137.500768,35.934957],[137.499832,35.933187],[137.499472,35.932739],[137.498493,35.931086],[137.498207,35.930787],[137.498009,35.930122],[137.498006,35.929563],[137.497838,35.929258],[137.496632,35.928038],[137.495974,35.927521],[137.495342,35.927143],[137.495105,35.926924],[137.494066,35.926257],[137.493443,35.925956],[137.492424,35.925329],[137.49192,35.92433],[137.491625,35.923383],[137.491212,35.922732],[137.490734,35.922137],[137.490308,35.921734],[137.489451,35.920219],[137.488481,35.91901],[137.487523,35.918263],[137.486442,35.917105],[137.485441,35.916871],[137.484305,35.916462],[137.483726,35.915543],[137.483123,35.913389],[137.483291,35.912063],[137.483904,35.91095],[137.483841,35.910435],[137.484065,35.909968],[137.484157,35.909775],[137.484558,35.909414],[137.483885,35.90819],[137.48288,35.907177],[137.481302,35.90621],[137.480718,35.906012],[137.481544,35.900612],[137.481053,35.898803],[137.480675,35.89831],[137.47987,35.898147],[137.480027,35.897484],[137.479828,35.897302],[137.479557,35.896789],[137.479531,35.896499],[137.479628,35.896418],[137.478263,35.896487],[137.477469,35.8963],[137.476814,35.896058],[137.476385,35.895497],[137.476248,35.894981],[137.476466,35.894144],[137.475446,35.893643],[137.473961,35.893355],[137.472229,35.893153],[137.47022,35.892716],[137.467672,35.892583],[137.465189,35.892799],[137.465045,35.891918],[137.464802,35.891486],[137.462324,35.890126],[137.462101,35.889625],[137.46094,35.889373],[137.46054,35.889625],[137.4599,35.889636],[137.458596,35.889278],[137.457766,35.889824],[137.45644,35.890221],[137.455249,35.890699],[137.454983,35.890947],[137.454765,35.891003],[137.454497,35.891214],[137.453082,35.891847],[137.451384,35.89202],[137.450078,35.892342],[137.449629,35.892586],[137.449175,35.892668],[137.44867,35.892879],[137.447636,35.893581],[137.447287,35.893853],[137.446701,35.894425],[137.446499,35.894887],[137.446142,35.895405],[137.445798,35.895793],[137.44534,35.896193],[137.445115,35.896536],[137.445012,35.896852],[137.444097,35.8976],[137.443266,35.89807],[137.442057,35.899081],[137.441316,35.899603],[137.440867,35.899728],[137.439532,35.899829],[137.438853,35.900133],[137.438565,35.900864],[137.438234,35.901197],[137.437863,35.901923],[137.437893,35.902468],[137.437569,35.90315],[137.437632,35.90365],[137.43784,35.904189],[137.43782,35.904614],[137.437706,35.904877],[137.437475,35.905099],[137.436453,35.905141],[137.434814,35.905535],[137.433599,35.905382],[137.432414,35.905355],[137.431261,35.904678],[137.430196,35.90466],[137.429384,35.904447],[137.428517,35.904108],[137.427002,35.904037],[137.4262,35.903877],[137.424268,35.903236],[137.423675,35.903369],[137.422138,35.904242],[137.42148,35.90434],[137.420557,35.90434],[137.419921,35.904536],[137.419317,35.904518],[137.417955,35.904042],[137.417731,35.903854],[137.417502,35.903819],[137.417057,35.903632],[137.416761,35.903268],[137.416269,35.902989],[137.41602,35.902735],[137.41601,35.902533],[137.415791,35.90221],[137.415363,35.902057],[137.415123,35.901859],[137.414744,35.901664],[137.414219,35.901612],[137.413838,35.901503],[137.413394,35.901486],[137.412276,35.90093],[137.411882,35.900812],[137.411352,35.90077],[137.411145,35.900609],[137.410411,35.900354],[137.409988,35.900277],[137.409182,35.899806],[137.408773,35.89984],[137.408054,35.89975],[137.407791,35.899566],[137.407294,35.899377],[137.406945,35.899331],[137.405886,35.898895],[137.405451,35.898796],[137.404459,35.898294],[137.404193,35.897966],[137.40393,35.897997],[137.403376,35.897788],[137.402694,35.89762],[137.402109,35.897612],[137.401883,35.897562],[137.401341,35.89711],[137.400789,35.896974],[137.400172,35.896931],[137.399596,35.896812],[137.399479,35.896651],[137.398057,35.89577],[137.397293,35.895627],[137.396889,35.895618],[137.395829,35.895355],[137.395648,35.895389],[137.394518,35.895161],[137.393074,35.895029],[137.392361,35.895071],[137.390852,35.894215],[137.390564,35.894154],[137.39019,35.894159],[137.388633,35.893984],[137.387887,35.894002],[137.387499,35.893933],[137.38725,35.893946],[137.386472,35.893602],[137.385883,35.893651],[137.385587,35.893761],[137.384326,35.893287],[137.383831,35.893185],[137.382931,35.892725],[137.382109,35.892629],[137.38184,35.892656],[137.380844,35.89237],[137.380814,35.892244],[137.380185,35.891483],[137.379808,35.89131],[137.379562,35.891097],[137.378814,35.890629],[137.378927,35.889847],[137.37902,35.889669],[137.378867,35.889397],[137.378315,35.88882],[137.37795,35.888619],[137.377541,35.888293],[137.376791,35.888198],[137.376408,35.888004],[137.375713,35.887863],[137.375588,35.887565],[137.374556,35.887051],[137.373936,35.886456],[137.373726,35.886186],[137.373394,35.885583],[137.373341,35.885374],[137.373304,35.884884],[137.373389,35.884665],[137.373601,35.884502],[137.373652,35.884328],[137.373527,35.884151],[137.372108,35.883623],[137.370875,35.883408],[137.370544,35.883233],[137.370386,35.883055],[137.370024,35.882233],[137.369895,35.881571],[137.369799,35.881348],[137.369593,35.881219],[137.368968,35.880964],[137.368656,35.88089],[137.367888,35.880859],[137.367588,35.880633],[137.367543,35.880336],[137.367456,35.880237],[137.366897,35.879854],[137.366244,35.87975],[137.365794,35.879607],[137.365645,35.879651],[137.365455,35.879502],[137.365182,35.879392],[137.364517,35.879],[137.364359,35.878856],[137.36441,35.878631],[137.364788,35.878067],[137.364971,35.877919],[137.366051,35.877419],[137.366628,35.8773],[137.366775,35.877184],[137.367005,35.877093],[137.367271,35.876724],[137.367478,35.876292],[137.367788,35.875227],[137.368146,35.874566],[137.368238,35.874251],[137.368097,35.873594],[137.367885,35.873104],[137.367479,35.872518],[137.367038,35.872042],[137.36698,35.871706],[137.36721,35.871237],[137.367407,35.871063],[137.367641,35.87098],[137.367855,35.870804],[137.368005,35.870612],[137.368176,35.870177],[137.367676,35.869459],[137.367619,35.868937],[137.367369,35.868225],[137.367356,35.867635],[137.367134,35.867276],[137.36718,35.867115],[137.367077,35.866838],[137.367234,35.866432],[137.367112,35.865997],[137.366941,35.865839],[137.366704,35.865728],[137.366395,35.865326],[137.366635,35.864961],[137.366603,35.864754],[137.366667,35.864382],[137.366749,35.864201],[137.366504,35.86404],[137.366598,35.863424],[137.366849,35.863043],[137.366854,35.862489],[137.367338,35.861484],[137.367598,35.860447],[137.367305,35.86022],[137.367035,35.860102],[137.366942,35.859762],[137.36702,35.859176],[137.367153,35.858895],[137.367034,35.858643],[137.366792,35.858428],[137.366525,35.85808],[137.366597,35.857804],[137.366387,35.857544],[137.366314,35.857118],[137.366155,35.856883],[137.366038,35.856575],[137.365832,35.856423],[137.365393,35.855956],[137.365311,35.855726],[137.365417,35.855092],[137.365318,35.854834],[137.365513,35.854236],[137.365369,35.854016],[137.365436,35.853809],[137.365393,35.853465],[137.365337,35.853341],[137.36506,35.853202],[137.364948,35.853011],[137.364668,35.852728],[137.364148,35.852514],[137.363895,35.852464],[137.363751,35.852207],[137.36376,35.851948],[137.363493,35.851699],[137.363468,35.851539],[137.363545,35.851252],[137.363384,35.850784],[137.363404,35.850602],[137.363544,35.850338],[137.362918,35.85012],[137.362717,35.849128],[137.362424,35.848692],[137.362047,35.848298],[137.361951,35.848051],[137.361772,35.847896],[137.361724,35.847578],[137.36139,35.847107],[137.361414,35.846869],[137.361176,35.846702],[137.361193,35.846447],[137.361128,35.846351],[137.361091,35.846118],[137.360397,35.845649],[137.360284,35.845397],[137.359855,35.845095],[137.359448,35.844682],[137.359034,35.84444],[137.358842,35.844228],[137.358052,35.843811],[137.357331,35.843669],[137.357009,35.843501],[137.356799,35.843289],[137.356704,35.843115],[137.356707,35.842754],[137.356494,35.842678],[137.356123,35.842693],[137.355596,35.842527],[137.35492,35.842567],[137.354693,35.842381],[137.354088,35.842207],[137.353939,35.842334],[137.353568,35.842388],[137.353264,35.842665],[137.352995,35.842725],[137.352503,35.842695],[137.352286,35.842736],[137.351769,35.84308],[137.351223,35.842958],[137.350829,35.842813],[137.350482,35.842844],[137.350098,35.842761],[137.349354,35.842726],[137.348934,35.842928],[137.348403,35.842507],[137.347877,35.842392],[137.347539,35.842759],[137.347287,35.842952],[137.347016,35.842933],[137.346778,35.843013],[137.345941,35.843095],[137.345728,35.843212],[137.3456,35.843358],[137.34529,35.843433],[137.344872,35.843374],[137.34449,35.843169],[137.343878,35.843239],[137.343769,35.843089],[137.343328,35.842846],[137.342454,35.842984],[137.342122,35.843279],[137.341603,35.843629],[137.341296,35.843973],[137.340891,35.844264],[137.340775,35.8444],[137.340069,35.844123],[137.339657,35.844134],[137.339262,35.844286],[137.338567,35.843982],[137.338359,35.844027],[137.338017,35.844215],[137.337573,35.844122],[137.337242,35.844183],[137.336897,35.844106],[137.336311,35.84419],[137.335857,35.844451],[137.335651,35.844183],[137.335665,35.843837],[137.335418,35.84349],[137.334879,35.843363],[137.334661,35.84298],[137.332912,35.841714],[137.33284,35.841456],[137.332648,35.841215],[137.332181,35.84083],[137.331697,35.839714],[137.331636,35.839338],[137.331807,35.838615],[137.331579,35.83777],[137.331254,35.837576],[137.331047,35.837374],[137.331395,35.83683],[137.331494,35.836568],[137.331291,35.836379],[137.331145,35.83589],[137.330902,35.835673],[137.330913,35.835478],[137.330541,35.834575],[137.330267,35.833328],[137.330463,35.832698],[137.33026,35.831508],[137.330272,35.831166],[137.330183,35.830955],[137.33016,35.830698],[137.33002,35.830346],[137.330104,35.829702],[137.330416,35.829342],[137.329992,35.828618],[137.329676,35.82829],[137.329525,35.827944],[137.329082,35.827666],[137.328791,35.827132],[137.328598,35.826926],[137.327883,35.826261],[137.327298,35.825904],[137.327254,35.825755],[137.327243,35.825587],[137.327422,35.825378],[137.328107,35.825085],[137.32815,35.824989],[137.328063,35.823591],[137.328226,35.822792],[137.328345,35.822376],[137.328807,35.821799],[137.328674,35.821722],[137.32831,35.821785],[137.327107,35.821399],[137.326883,35.821192],[137.326714,35.820552],[137.326838,35.819881],[137.326999,35.819491],[137.327001,35.819176],[137.32667,35.818762],[137.326556,35.818541],[137.326073,35.818181],[137.325816,35.817666],[137.325554,35.817539],[137.325147,35.816868],[137.324958,35.81664],[137.32539,35.815884],[137.325547,35.815716],[137.325933,35.815444],[137.326338,35.81528],[137.326375,35.815096],[137.326246,35.814958],[137.326228,35.814697],[137.326332,35.814194],[137.325968,35.81358],[137.325648,35.813197],[137.325392,35.812725],[137.325374,35.812608],[137.325066,35.81218],[137.325765,35.812149],[137.326522,35.812029],[137.327639,35.811123],[137.327543,35.810734],[137.328176,35.810601],[137.328778,35.810302],[137.328998,35.81024],[137.329414,35.81026],[137.329837,35.810118],[137.330046,35.809842],[137.330219,35.809677],[137.33035,35.809623],[137.331144,35.80968],[137.331609,35.809401],[137.332427,35.809251],[137.332459,35.809105],[137.332376,35.80864],[137.332232,35.808257],[137.332286,35.807981],[137.332067,35.807715],[137.331823,35.807648],[137.331685,35.80749],[137.331691,35.807299],[137.331484,35.807068],[137.332046,35.806816],[137.332206,35.80657],[137.332577,35.806194],[137.332695,35.805757],[137.332613,35.805353],[137.332352,35.804961],[137.333263,35.804711],[137.333584,35.804524],[137.333734,35.80399],[137.334716,35.803376],[137.334739,35.8032],[137.334474,35.802594],[137.334212,35.802365],[137.334388,35.801966],[137.335343,35.800635],[137.335611,35.799784],[137.336006,35.799363],[137.336165,35.798981],[137.336337,35.798979],[137.337192,35.79865],[137.338272,35.798136],[137.339257,35.797995],[137.339691,35.797868],[137.340157,35.797859],[137.340352,35.797904],[137.341386,35.798406],[137.342171,35.79846],[137.342559,35.798577],[137.342804,35.79855],[137.343439,35.798644],[137.343753,35.798544],[137.343982,35.798564],[137.344519,35.798725],[137.344656,35.798981],[137.345096,35.79928],[137.345413,35.799285],[137.346293,35.799736],[137.346577,35.799821],[137.346985,35.799806],[137.347345,35.799892],[137.347689,35.800065],[137.348293,35.800225],[137.348624,35.800442],[137.349238,35.800501],[137.349376,35.80062],[137.34962,35.800691],[137.350236,35.801037],[137.350559,35.801111],[137.350917,35.801368],[137.351172,35.801702],[137.351691,35.801419],[137.352032,35.80135],[137.352718,35.801418],[137.35363,35.801437],[137.354324,35.800826],[137.354572,35.800714],[137.355118,35.800141],[137.356233,35.799313],[137.356612,35.798841],[137.357239,35.798407],[137.357746,35.797858],[137.358039,35.79778],[137.358271,35.797523],[137.358379,35.797114],[137.358802,35.796742],[137.359528,35.796405],[137.359974,35.796077],[137.36029,35.795922],[137.360792,35.795995],[137.361085,35.796334],[137.362183,35.797086],[137.362205,35.797902],[137.362744,35.798075],[137.363292,35.798021],[137.364012,35.798387],[137.364435,35.798399],[137.36466,35.798544],[137.365106,35.798593],[137.365445,35.798467],[137.366145,35.798733],[137.366569,35.799049],[137.36714,35.799082],[137.367385,35.798983],[137.369125,35.79862],[137.369541,35.798763],[137.369878,35.798984],[137.370092,35.799268],[137.370983,35.799459],[137.373028,35.800114],[137.373476,35.800445],[137.373915,35.800293],[137.37447,35.80027],[137.374845,35.800374],[137.375819,35.800389],[137.37675,35.800196],[137.377426,35.800456],[137.377922,35.800429],[137.378386,35.800582],[137.379384,35.80081],[137.37981,35.800851],[137.380929,35.801445],[137.381071,35.802165],[137.381225,35.802616],[137.381287,35.803173],[137.381202,35.803598],[137.380935,35.804259],[137.380909,35.804536],[137.380762,35.80476],[137.38061,35.805165],[137.380143,35.805943],[137.379736,35.80636],[137.379549,35.806773],[137.379063,35.807497],[137.378957,35.807744],[137.379493,35.809067],[137.380491,35.810323],[137.380906,35.810988],[137.381237,35.811402],[137.381429,35.812105],[137.381427,35.812362],[137.381203,35.812601],[137.380809,35.813195],[137.380208,35.81379],[137.381073,35.815089],[137.381202,35.815526],[137.381631,35.81587],[137.381944,35.816222],[137.382241,35.816796],[137.382384,35.816981],[137.382886,35.817463],[137.38361,35.817874],[137.383799,35.818033],[137.384705,35.817873],[137.385771,35.817839],[137.386538,35.817935],[137.387021,35.818054],[137.38902,35.818751],[137.389676,35.819178],[137.39022,35.819327],[137.39082,35.819942],[137.391321,35.820383],[137.391597,35.820555],[137.391916,35.820624],[137.392436,35.820557],[137.392682,35.820575],[137.393041,35.820826],[137.393612,35.821414],[137.393879,35.821624],[137.394068,35.821938],[137.39458,35.822292],[137.394918,35.822661],[137.394766,35.822735],[137.394627,35.822733],[137.394912,35.822695],[137.394701,35.823932],[137.393775,35.824828],[137.392638,35.824998],[137.39258,35.825218],[137.393248,35.825649],[137.393372,35.825818],[137.393549,35.825937],[137.393951,35.826047],[137.394572,35.826096],[137.39479,35.826491],[137.394971,35.826603],[137.394848,35.826762],[137.394964,35.826811],[137.395003,35.826749],[137.395178,35.826719],[137.395368,35.826811],[137.395889,35.826226],[137.396184,35.826394],[137.396369,35.826559],[137.396814,35.827154],[137.39749,35.827443],[137.398576,35.82773],[137.398607,35.828076],[137.398764,35.82825],[137.398962,35.828361],[137.399529,35.828523],[137.401614,35.828781],[137.40215,35.82862],[137.40236,35.82851],[137.403221,35.828586],[137.403703,35.828553],[137.404221,35.829394],[137.404247,35.829489],[137.404199,35.829843],[137.404351,35.830461],[137.404814,35.830986],[137.405157,35.831221],[137.406959,35.831205],[137.408303,35.83129],[137.409057,35.831189],[137.409702,35.831265],[137.410781,35.831172],[137.411715,35.831302],[137.412688,35.83102],[137.413387,35.830596],[137.413661,35.830574],[137.414765,35.830836],[137.415829,35.83131],[137.415977,35.831311],[137.416198,35.831257],[137.416992,35.83063],[137.417398,35.830392],[137.418565,35.830401],[137.418851,35.830349],[137.419027,35.830203],[137.419286,35.82974],[137.420417,35.830148],[137.420772,35.830121],[137.421292,35.830213],[137.421976,35.83047],[137.422973,35.830718],[137.424176,35.831118],[137.424619,35.831327],[137.426344,35.832375],[137.427344,35.832915],[137.42772,35.833207],[137.428541,35.834305],[137.428846,35.83517],[137.428726,35.83573],[137.428055,35.836072],[137.426219,35.837152],[137.425365,35.837562],[137.425018,35.83786],[137.424955,35.837932],[137.424614,35.839],[137.425891,35.839097],[137.426805,35.839508],[137.427523,35.839969],[137.428102,35.839953],[137.428658,35.839826],[137.429234,35.83992],[137.429573,35.839921],[137.430042,35.839832],[137.430416,35.839688],[137.431019,35.839339],[137.431312,35.839025],[137.43147,35.838928],[137.43204,35.839097],[137.432714,35.839396],[137.43335,35.839406],[137.434105,35.839128],[137.434571,35.83885],[137.435929,35.838399],[137.436413,35.839792],[137.437078,35.840717],[137.437278,35.841087],[137.437783,35.841752],[137.438979,35.842408],[137.440273,35.843204],[137.44039,35.843329],[137.440547,35.84392],[137.440431,35.844583],[137.441291,35.844419],[137.443344,35.844366],[137.443458,35.844075],[137.443965,35.845004],[137.444068,35.845616],[137.44401,35.846918],[137.44415,35.847423],[137.44526,35.849454],[137.445808,35.849994],[137.446334,35.850314],[137.44689,35.849767],[137.447665,35.849195],[137.448206,35.848566],[137.449444,35.849099],[137.449786,35.849205],[137.45022,35.849296],[137.450853,35.849311],[137.45263,35.849109],[137.453981,35.848781],[137.454426,35.848618],[137.455006,35.848239],[137.455316,35.847908],[137.455405,35.84793],[137.455414,35.848065],[137.455008,35.848945],[137.4543,35.84939],[137.453756,35.849841],[137.453765,35.849908],[137.453976,35.850116],[137.453987,35.850224],[137.453548,35.850385],[137.452683,35.850547],[137.452332,35.85077],[137.452006,35.851061],[137.454976,35.851024],[137.45666,35.850929],[137.457897,35.850941],[137.459236,35.850879],[137.45947,35.84986],[137.459978,35.849376],[137.459935,35.847768],[137.459747,35.846596],[137.459301,35.846268],[137.45945,35.845465],[137.46029,35.844743],[137.460319,35.844432],[137.461172,35.844244],[137.46173,35.843322],[137.461981,35.842612],[137.462603,35.84124],[137.462626,35.840331],[137.4628,35.839855],[137.46354,35.838944],[137.463532,35.83823],[137.46367,35.837876],[137.464054,35.837244],[137.464036,35.836622],[137.464196,35.83645],[137.46421,35.836046],[137.464312,35.835498],[137.464272,35.835076],[137.464516,35.833654],[137.464482,35.833327],[137.464239,35.832691],[137.464604,35.832356],[137.464769,35.83172],[137.464697,35.831294],[137.464848,35.830663],[137.465008,35.830483],[137.465319,35.830325],[137.465563,35.830028],[137.466066,35.829752],[137.466372,35.829386],[137.466715,35.829135],[137.46716,35.828686],[137.4675,35.82812],[137.46741,35.827831],[137.467366,35.827204],[137.467544,35.826783],[137.467853,35.826268],[137.468162,35.825472],[137.468549,35.824972],[137.469635,35.824692],[137.469776,35.824551],[137.469893,35.824407],[137.469907,35.824161],[137.470097,35.82384],[137.470205,35.823144],[137.470675,35.822798],[137.470803,35.822399],[137.471012,35.822156],[137.471231,35.821708],[137.471613,35.821396],[137.472144,35.821119],[137.472541,35.821026],[137.472906,35.820752],[137.473554,35.820474],[137.474401,35.821178],[137.475349,35.822655],[137.475906,35.823736],[137.476353,35.824411],[137.476948,35.824936],[137.477948,35.825554],[137.478001,35.8257],[137.477988,35.825969],[137.478209,35.826229],[137.478435,35.826927],[137.478644,35.826983],[137.478869,35.827119],[137.479523,35.827924],[137.480135,35.828211],[137.480555,35.828663],[137.480763,35.829153],[137.480733,35.829894],[137.480936,35.830443],[137.481576,35.830801],[137.481747,35.831026],[137.482954,35.831603],[137.483155,35.831877],[137.483286,35.83255],[137.483737,35.832767],[137.483983,35.83301],[137.484558,35.833111],[137.485039,35.833328],[137.485034,35.833668],[137.485342,35.834156],[137.485464,35.834249],[137.485842,35.834389],[137.486286,35.834828],[137.486583,35.834992],[137.486296,35.835305],[137.485477,35.83569],[137.485348,35.835893],[137.485223,35.836478],[137.485214,35.836708],[137.485319,35.837054],[137.485798,35.837955],[137.485766,35.838238],[137.485807,35.839218],[137.485842,35.839738],[137.485952,35.840262],[137.486028,35.84045],[137.486157,35.84059],[137.487097,35.841185],[137.48715,35.841286],[137.487123,35.841477],[137.487279,35.841713],[137.487256,35.842021],[137.487351,35.842211],[137.487503,35.842312],[137.487963,35.842463],[137.488229,35.842773],[137.488573,35.842964],[137.488724,35.843185],[137.489219,35.843548],[137.48927,35.843751],[137.489258,35.844061],[137.48933,35.844195],[137.48938,35.844576],[137.489821,35.845317],[137.490134,35.845188],[137.490489,35.84523],[137.490662,35.845197],[137.490973,35.845014],[137.491381,35.844635],[137.492048,35.844336],[137.493284,35.843974],[137.493981,35.843545],[137.494458,35.843544],[137.494687,35.843491],[137.495106,35.843236],[137.49571,35.842769],[137.495894,35.842736],[137.496325,35.842815],[137.495451,35.843323],[137.495181,35.843635],[137.495081,35.843869],[137.495012,35.843922],[137.494671,35.843947],[137.494402,35.844256],[137.494212,35.844793],[137.494147,35.844834],[137.493753,35.844867],[137.493686,35.844936],[137.493649,35.845088],[137.493412,35.845184],[137.49343,35.845501],[137.493629,35.845687],[137.493618,35.845747],[137.493246,35.845886],[137.493005,35.846121],[137.49295,35.846299],[137.492337,35.846359],[137.492116,35.846568],[137.491805,35.846593],[137.491396,35.84675],[137.491168,35.846996],[137.491173,35.847104],[137.491071,35.847226],[137.49103,35.847462],[137.49108,35.847656],[137.490937,35.847728],[137.490896,35.84799],[137.490656,35.8482],[137.490638,35.848429],[137.490515,35.848547],[137.490657,35.848605],[137.490718,35.848691],[137.490519,35.848908],[137.490562,35.849104],[137.490459,35.849262],[137.490657,35.849553],[137.490613,35.849949],[137.490444,35.850468],[137.490159,35.850711],[137.490565,35.850762],[137.490709,35.850831],[137.491042,35.85115],[137.491071,35.851489],[137.491236,35.851637],[137.491215,35.851849],[137.491348,35.852228],[137.491345,35.852363],[137.491568,35.852245],[137.491821,35.851973],[137.491967,35.851719],[137.492172,35.851642],[137.492277,35.85147],[137.492542,35.851256],[137.492544,35.85104],[137.492688,35.850715],[137.492812,35.850503],[137.493046,35.850307],[137.493127,35.850138],[137.493319,35.849924],[137.493846,35.849737],[137.494488,35.849803],[137.494808,35.84979],[137.495041,35.849859],[137.49546,35.850483],[137.495526,35.850669],[137.495718,35.850804],[137.495911,35.85085],[137.496541,35.850464],[137.496806,35.850146],[137.497214,35.849869],[137.497356,35.849847],[137.497599,35.850079],[137.497894,35.850206],[137.497907,35.850477],[137.498108,35.850564],[137.498135,35.850713],[137.498264,35.850782],[137.49839,35.851012],[137.498569,35.851202],[137.498924,35.851117],[137.498944,35.850948],[137.499003,35.850861],[137.499216,35.850679],[137.499363,35.850662],[137.499429,35.850529],[137.499778,35.850476],[137.499808,35.85014],[137.49998,35.849867],[137.500369,35.849804],[137.500538,35.849887],[137.500731,35.849696],[137.501144,35.849566],[137.501207,35.849572],[137.501275,35.849692],[137.501587,35.849884],[137.501625,35.850027],[137.502017,35.850207],[137.502319,35.850184],[137.502394,35.85005],[137.502504,35.849994],[137.502646,35.849818],[137.502778,35.849776],[137.502939,35.849826],[137.50309,35.84965],[137.50365,35.849373],[137.504208,35.849187],[137.504278,35.84906],[137.504614,35.849086],[137.504849,35.84903],[137.504965,35.849226],[137.504821,35.849589],[137.504962,35.849851],[137.504928,35.850005],[137.504968,35.850164],[137.506902,35.850245],[137.507082,35.850223],[137.507845,35.849842],[137.508417,35.849452],[137.508829,35.849809],[137.508931,35.849958],[137.508822,35.850418],[137.508672,35.850699],[137.508341,35.851054],[137.507603,35.851453],[137.506713,35.852421],[137.505988,35.852785],[137.506017,35.853114],[137.506205,35.854223],[137.506482,35.854775],[137.506722,35.855925],[137.506952,35.856523],[137.508473,35.855078],[137.50845,35.854267],[137.5085,35.854042],[137.50862,35.853833],[137.508948,35.853483],[137.509063,35.853298],[137.509096,35.853311],[137.509114,35.853396],[137.508985,35.853772],[137.509227,35.85416],[137.509387,35.854304],[137.50946,35.854814],[137.509367,35.855057],[137.509571,35.855632],[137.509511,35.85577],[137.509252,35.855981],[137.509443,35.85615],[137.509419,35.856387],[137.509577,35.856595],[137.509509,35.856857],[137.509298,35.857129],[137.509393,35.857278],[137.509387,35.857359],[137.509254,35.857711],[137.509398,35.857853],[137.509309,35.858353],[137.509515,35.858864],[137.509504,35.859089],[137.509863,35.858958],[137.5102,35.858687],[137.510287,35.858336],[137.510407,35.858223],[137.510455,35.858007],[137.510625,35.857796],[137.510819,35.857383],[137.511145,35.85711],[137.511195,35.856877],[137.511354,35.856677],[137.511493,35.856616],[137.511704,35.856634],[137.511805,35.856451],[137.51177,35.856309],[137.5118,35.856087],[137.51211,35.855943],[137.512067,35.855682],[137.512175,35.855488],[137.512204,35.855324],[137.512383,35.855209],[137.512582,35.854987],[137.512835,35.855033],[137.513167,35.855389],[137.513185,35.855514],[137.513249,35.855573],[137.513689,35.855752],[137.51399,35.85571],[137.514148,35.855749],[137.514312,35.855644],[137.51414,35.855155],[137.514182,35.855052],[137.514267,35.854993],[137.514939,35.85485],[137.515161,35.854602],[137.51549,35.854447],[137.515629,35.854478],[137.515887,35.855003],[137.515999,35.855064],[137.516076,35.855243],[137.5166,35.855188],[137.517059,35.854951],[137.517625,35.85479],[137.517712,35.854817],[137.517746,35.855082],[137.517558,35.855417],[137.517528,35.855705],[137.517398,35.85603],[137.517668,35.856736],[137.517826,35.856876],[137.518125,35.857389],[137.519007,35.856557],[137.519585,35.856224],[137.519702,35.856212],[137.519756,35.856239],[137.51991,35.856542],[137.519922,35.856651],[137.519806,35.857012],[137.519823,35.857284],[137.519996,35.857538],[137.520412,35.857962],[137.520574,35.858238],[137.520998,35.858513],[137.521211,35.858762],[137.5212,35.858956],[137.521132,35.859014],[137.520831,35.85911],[137.52022,35.859438],[137.520062,35.859596],[137.519856,35.859697],[137.520339,35.860179],[137.519524,35.860799],[137.51989,35.860816],[137.520118,35.860689],[137.520243,35.860674],[137.520568,35.860684],[137.52075,35.860755],[137.521044,35.860752],[137.521158,35.860778],[137.521286,35.860931],[137.521411,35.860964],[137.521541,35.86111],[137.522079,35.860745],[137.522587,35.860713],[137.522964,35.860587],[137.522991,35.860724],[137.522803,35.861178],[137.522696,35.861313],[137.522652,35.862355],[137.522715,35.863005],[137.522816,35.863276],[137.522873,35.863663],[137.52292,35.863682],[137.523915,35.862806],[137.524507,35.862488],[137.524864,35.86221],[137.525132,35.861855],[137.525317,35.861714],[137.526105,35.861287],[137.526501,35.860944],[137.5268,35.860757],[137.527404,35.860659],[137.527923,35.860402],[137.528057,35.860391],[137.527949,35.860214],[137.528941,35.859592],[137.529602,35.857251],[137.531971,35.853207],[137.532768,35.851325],[137.53287,35.848693],[137.531566,35.846107],[137.533051,35.845317],[137.535957,35.843395],[137.539153,35.840024],[137.539682,35.838657],[137.540151,35.836216],[137.540534,35.834789],[137.541941,35.833488],[137.548545,35.832229],[137.549213,35.831459],[137.551446,35.828437],[137.552628,35.827492],[137.551949,35.829216],[137.552074,35.831005],[137.557321,35.833073],[137.558417,35.833201],[137.559582,35.833747],[137.561121,35.834067],[137.562147,35.833955],[137.563689,35.83361],[137.566411,35.832498],[137.569361,35.830673],[137.570463,35.830324],[137.57222,35.830278],[137.57376,35.82858],[137.576999,35.828051],[137.578416,35.829073],[137.580787,35.830656],[137.581399,35.831006],[137.581419,35.831303],[137.581309,35.83146],[137.58115,35.831583],[137.580569,35.83183],[137.579975,35.832318],[137.579706,35.832733],[137.578704,35.832879],[137.578497,35.83298],[137.57802,35.833512],[137.577771,35.834],[137.577757,35.834112],[137.577958,35.834802],[137.57822,35.835446],[137.578261,35.835968],[137.578344,35.836142],[137.578661,35.836494],[137.578372,35.837021],[137.578423,35.837344],[137.578728,35.838307],[137.578762,35.838671],[137.578389,35.839414],[137.578321,35.839751],[137.578448,35.84053],[137.578042,35.841531],[137.577915,35.84204],[137.577805,35.842219],[137.576898,35.843257],[137.57568,35.843866],[137.576042,35.844687],[137.576381,35.845223],[137.576482,35.845498],[137.576465,35.845807],[137.576118,35.846673],[137.575915,35.846976],[137.575686,35.847141],[137.574237,35.84778],[137.574017,35.848007],[137.573517,35.848743],[137.573347,35.849073],[137.573398,35.849244],[137.573322,35.849492],[137.573296,35.850166],[137.573508,35.850984],[137.57361,35.851678],[137.573635,35.852015],[137.573567,35.85251],[137.573372,35.852668],[137.57244,35.852971],[137.571898,35.853019],[137.571381,35.853198],[137.569839,35.853507],[137.569551,35.853706],[137.568932,35.854277],[137.568652,35.854414],[137.567797,35.854524],[137.567458,35.854662],[137.567093,35.855033],[137.566432,35.855123],[137.56617,35.855205],[137.565534,35.855674],[137.568872,35.857388],[137.573215,35.861834],[137.574938,35.864828],[137.575188,35.865337],[137.574814,35.86599],[137.572366,35.865553],[137.568618,35.866597],[137.566007,35.867531],[137.564936,35.868298],[137.567388,35.868406],[137.569335,35.867915],[137.57106,35.86757],[137.572808,35.868418],[137.572795,35.869581],[137.572378,35.87074],[137.570116,35.873197],[137.568591,35.875164],[137.573986,35.880482],[137.575204,35.879746],[137.574447,35.878667],[137.574708,35.878252],[137.575295,35.878227],[137.575739,35.877783],[137.575949,35.875489],[137.577144,35.873501],[137.578834,35.873037],[137.586976,35.872086],[137.588102,35.87287],[137.585769,35.875117],[137.583349,35.878557],[137.583083,35.87936],[137.579942,35.88175],[137.579993,35.883718],[137.584712,35.884261],[137.590578,35.883769],[137.591303,35.88443],[137.586929,35.888898],[137.586396,35.893878],[137.586376,35.895636],[137.586435,35.896889],[137.584741,35.900811],[137.583261,35.902051],[137.57913,35.904434],[137.577831,35.905885],[137.577173,35.905761],[137.575273,35.905269],[137.573475,35.905524],[137.571589,35.905699],[137.571526,35.905816],[137.571505,35.906006],[137.571041,35.906594],[137.570739,35.906516],[137.570659,35.906724],[137.570075,35.906969],[137.569994,35.907226],[137.56987,35.907281],[137.569526,35.907803],[137.569264,35.908396],[137.568532,35.909313],[137.567834,35.90942],[137.567101,35.909433],[137.566522,35.909094],[137.565352,35.90914],[137.564927,35.909376],[137.564815,35.908456],[137.562717,35.908689],[137.558541,35.908567],[137.558418,35.909435],[137.559599,35.909856],[137.559931,35.91057],[137.560127,35.91087],[137.560049,35.91165],[137.560124,35.912088],[137.559965,35.912041],[137.559518,35.911731],[137.55947,35.911604],[137.559,35.911383],[137.558527,35.911376],[137.558252,35.911138],[137.558192,35.911142],[137.558426,35.912143],[137.560472,35.912577],[137.561561,35.913449],[137.563453,35.914597],[137.563955,35.915585],[137.564647,35.915948],[137.566522,35.915366],[137.567911,35.915705],[137.567975,35.916492],[137.5687,35.917183],[137.572762,35.917632],[137.57474,35.917707],[137.577881,35.918626],[137.579811,35.919654],[137.581289,35.921811],[137.581468,35.92533],[137.581056,35.926102],[137.579509,35.926746],[137.57837,35.927035],[137.576281,35.926989],[137.574222,35.92754],[137.573186,35.928367],[137.572479,35.929285],[137.571159,35.929364],[137.567826,35.92916],[137.56585,35.928936],[137.563499,35.929394],[137.563264,35.933745],[137.562749,35.937002],[137.558376,35.937921],[137.556729,35.937789],[137.554094,35.93744],[137.550881,35.93762],[137.551001,35.939639],[137.549776,35.940911],[137.549092,35.942932],[137.551548,35.942922],[137.553773,35.943804],[137.55542,35.944026],[137.56192,35.949263],[137.562131,35.95001],[137.561099,35.950509],[137.558819,35.951087],[137.557517,35.952666],[137.55673,35.95415],[137.55701,35.955255],[137.556471,35.957397],[137.556864,35.958235],[137.556659,35.960111],[137.557013,35.961127],[137.555975,35.965203],[137.552872,35.967146],[137.55152,35.966747],[137.550571,35.966382],[137.549659,35.966584],[137.548512,35.967469],[137.546531,35.967483]]]]}}]}
